<?xml version="1.0" encoding="UTF-8"?>
<gpx xmlns="http://www.topografix.com/GPX/1/1" xmlns:xsi="http://www.w3.org/2001/XMLSchema-instance" xsi:schemaLocation="http://www.topografix.com/GPX/1/1 http://www.topografix.com/GPX/1/1/gpx.xsd" version="1.1" creator="gpx.py -- https://github.com/tkrajina/gpxpy">
  <trk>
    <name>Drinnon Lake Trail</name>
    <trkseg>
      <trkpt lat="49.78308373" lon="-117.74537543">
      </trkpt>
      <trkpt lat="49.7830631" lon="-117.74529943">
      </trkpt>
      <trkpt lat="49.7830291" lon="-117.74524358">
      </trkpt>
      <trkpt lat="49.78299961" lon="-117.74519204">
      </trkpt>
      <trkpt lat="49.78295148" lon="-117.74508896">
      </trkpt>
      <trkpt lat="49.7829306" lon="-117.74502822">
      </trkpt>
      <trkpt lat="49.78289821" lon="-117.74493122">
      </trkpt>
      <trkpt lat="49.78286844" lon="-117.74487263">
      </trkpt>
      <trkpt lat="49.78284303" lon="-117.74482264">
      </trkpt>
      <trkpt lat="49.78283974" lon="-117.74474472">
      </trkpt>
      <trkpt lat="49.78283481" lon="-117.7446505">
      </trkpt>
      <trkpt lat="49.78281618" lon="-117.74449294">
      </trkpt>
      <trkpt lat="49.78280622" lon="-117.74440871">
      </trkpt>
      <trkpt lat="49.7827922" lon="-117.74435102">
      </trkpt>
      <trkpt lat="49.7827801" lon="-117.74427364">
      </trkpt>
      <trkpt lat="49.78277325" lon="-117.74415067">
      </trkpt>
      <trkpt lat="49.78277759" lon="-117.74402871">
      </trkpt>
      <trkpt lat="49.78278235" lon="-117.7439229">
      </trkpt>
      <trkpt lat="49.78281078" lon="-117.74383078">
      </trkpt>
      <trkpt lat="49.78284276" lon="-117.74373251">
      </trkpt>
      <trkpt lat="49.78287759" lon="-117.74362483">
      </trkpt>
      <trkpt lat="49.78291958" lon="-117.7434909">
      </trkpt>
      <trkpt lat="49.78295934" lon="-117.743374">
      </trkpt>
      <trkpt lat="49.78301915" lon="-117.74323425">
      </trkpt>
      <trkpt lat="49.78306548" lon="-117.74312458">
      </trkpt>
      <trkpt lat="49.78310174" lon="-117.74302158">
      </trkpt>
      <trkpt lat="49.78312512" lon="-117.74296841">
      </trkpt>
      <trkpt lat="49.78316731" lon="-117.74291856">
      </trkpt>
      <trkpt lat="49.78318737" lon="-117.74284502">
      </trkpt>
      <trkpt lat="49.78320673" lon="-117.74272308">
      </trkpt>
      <trkpt lat="49.78321977" lon="-117.74263558">
      </trkpt>
      <trkpt lat="49.78323801" lon="-117.74252568">
      </trkpt>
      <trkpt lat="49.78325355" lon="-117.74239165">
      </trkpt>
      <trkpt lat="49.78328394" lon="-117.74230881">
      </trkpt>
      <trkpt lat="49.78331363" lon="-117.7422436">
      </trkpt>
      <trkpt lat="49.78334982" lon="-117.74216414">
      </trkpt>
      <trkpt lat="49.78338522" lon="-117.74208159">
      </trkpt>
      <trkpt lat="49.78342098" lon="-117.74199465">
      </trkpt>
      <trkpt lat="49.78344222" lon="-117.74189114">
      </trkpt>
      <trkpt lat="49.78346726" lon="-117.74180436">
      </trkpt>
      <trkpt lat="49.78349762" lon="-117.74172177">
      </trkpt>
      <trkpt lat="49.78352257" lon="-117.74165558">
      </trkpt>
      <trkpt lat="49.78354742" lon="-117.74156627">
      </trkpt>
      <trkpt lat="49.78357247" lon="-117.74147948">
      </trkpt>
      <trkpt lat="49.7836065" lon="-117.74140137">
      </trkpt>
      <trkpt lat="49.7836413" lon="-117.74133338">
      </trkpt>
      <trkpt lat="49.78367937" lon="-117.74130851">
      </trkpt>
      <trkpt lat="49.78372846" lon="-117.74125336">
      </trkpt>
      <trkpt lat="49.78376596" lon="-117.74122088">
      </trkpt>
      <trkpt lat="49.78382219" lon="-117.74121585">
      </trkpt>
      <trkpt lat="49.78387563" lon="-117.74115221">
      </trkpt>
      <trkpt lat="49.78391825" lon="-117.74107768">
      </trkpt>
      <trkpt lat="49.78394964" lon="-117.74102601">
      </trkpt>
      <trkpt lat="49.78396879" lon="-117.74094963">
      </trkpt>
      <trkpt lat="49.78398034" lon="-117.7409041">
      </trkpt>
      <trkpt lat="49.78399997" lon="-117.74083441">
      </trkpt>
      <trkpt lat="49.78402447" lon="-117.74079025">
      </trkpt>
      <trkpt lat="49.78406181" lon="-117.74075356">
      </trkpt>
      <trkpt lat="49.78408278" lon="-117.74070503">
      </trkpt>
      <trkpt lat="49.78411955" lon="-117.74067739">
      </trkpt>
      <trkpt lat="49.78414788" lon="-117.74063916">
      </trkpt>
      <trkpt lat="49.7841763" lon="-117.74060613">
      </trkpt>
      <trkpt lat="49.78421875" lon="-117.74056827">
      </trkpt>
      <trkpt lat="49.78424772" lon="-117.74050461">
      </trkpt>
      <trkpt lat="49.78427235" lon="-117.74046802">
      </trkpt>
      <trkpt lat="49.78432018" lon="-117.74043805">
      </trkpt>
      <trkpt lat="49.78436907" lon="-117.74038145">
      </trkpt>
      <trkpt lat="49.78440066" lon="-117.74033268">
      </trkpt>
      <trkpt lat="49.78443544" lon="-117.74027988">
      </trkpt>
      <trkpt lat="49.78445236" lon="-117.7402177">
      </trkpt>
      <trkpt lat="49.78445786" lon="-117.74014758">
      </trkpt>
      <trkpt lat="49.78448223" lon="-117.74010527">
      </trkpt>
      <trkpt lat="49.78450168" lon="-117.74005287">
      </trkpt>
      <trkpt lat="49.7845098" lon="-117.73998032">
      </trkpt>
      <trkpt lat="49.78451241" lon="-117.73989329">
      </trkpt>
      <trkpt lat="49.78450766" lon="-117.73982468">
      </trkpt>
      <trkpt lat="49.78449529" lon="-117.73973634">
      </trkpt>
      <trkpt lat="49.7844861" lon="-117.73968843">
      </trkpt>
      <trkpt lat="49.78446191" lon="-117.73963703">
      </trkpt>
      <trkpt lat="49.78445038" lon="-117.73958062">
      </trkpt>
      <trkpt lat="49.78444814" lon="-117.73950915">
      </trkpt>
      <trkpt lat="49.7844417" lon="-117.73940204">
      </trkpt>
      <trkpt lat="49.78443264" lon="-117.73931649">
      </trkpt>
      <trkpt lat="49.78442627" lon="-117.73918281">
      </trkpt>
      <trkpt lat="49.78443829" lon="-117.73909746">
      </trkpt>
      <trkpt lat="49.78445507" lon="-117.7390494">
      </trkpt>
      <trkpt lat="49.78447441" lon="-117.73899399">
      </trkpt>
      <trkpt lat="49.78448593" lon="-117.73894937">
      </trkpt>
      <trkpt lat="49.78448336" lon="-117.73889902">
      </trkpt>
      <trkpt lat="49.78448478" lon="-117.73882685">
      </trkpt>
      <trkpt lat="49.78448499" lon="-117.73875795">
      </trkpt>
      <trkpt lat="49.78448484" lon="-117.73872667">
      </trkpt>
      <trkpt lat="49.78448146" lon="-117.73871666">
      </trkpt>
      <trkpt lat="49.78446442" lon="-117.73871684">
      </trkpt>
      <trkpt lat="49.78444822" lon="-117.73870822">
      </trkpt>
      <trkpt lat="49.78443316" lon="-117.73867968">
      </trkpt>
      <trkpt lat="49.78442103" lon="-117.73864273">
      </trkpt>
      <trkpt lat="49.78442815" lon="-117.73861839">
      </trkpt>
      <trkpt lat="49.78444426" lon="-117.73856333">
      </trkpt>
      <trkpt lat="49.78445477" lon="-117.73852742">
      </trkpt>
      <trkpt lat="49.78445847" lon="-117.73848565">
      </trkpt>
      <trkpt lat="49.78445107" lon="-117.73841547">
      </trkpt>
      <trkpt lat="49.78445428" lon="-117.73834962">
      </trkpt>
      <trkpt lat="49.78445752" lon="-117.73830338">
      </trkpt>
      <trkpt lat="49.78446016" lon="-117.73826571">
      </trkpt>
      <trkpt lat="49.78446451" lon="-117.73820371">
      </trkpt>
      <trkpt lat="49.78446173" lon="-117.73813141">
      </trkpt>
      <trkpt lat="49.78445978" lon="-117.73808307">
      </trkpt>
      <trkpt lat="49.7844539" lon="-117.73805092">
      </trkpt>
      <trkpt lat="49.78443211" lon="-117.73796769">
      </trkpt>
      <trkpt lat="49.78442112" lon="-117.73792576">
      </trkpt>
      <trkpt lat="49.78441745" lon="-117.73786445">
      </trkpt>
      <trkpt lat="49.78441094" lon="-117.73783756">
      </trkpt>
      <trkpt lat="49.78440335" lon="-117.73781112">
      </trkpt>
      <trkpt lat="49.78440262" lon="-117.73775292">
      </trkpt>
      <trkpt lat="49.78441237" lon="-117.73767226">
      </trkpt>
      <trkpt lat="49.78442041" lon="-117.73758583">
      </trkpt>
      <trkpt lat="49.78442557" lon="-117.73752875">
      </trkpt>
      <trkpt lat="49.78442087" lon="-117.73749636">
      </trkpt>
      <trkpt lat="49.78440799" lon="-117.73745566">
      </trkpt>
      <trkpt lat="49.78438541" lon="-117.73740783">
      </trkpt>
      <trkpt lat="49.784359" lon="-117.73735633">
      </trkpt>
      <trkpt lat="49.78435875" lon="-117.73733675">
      </trkpt>
      <trkpt lat="49.78435802" lon="-117.73728119">
      </trkpt>
      <trkpt lat="49.78435755" lon="-117.73722206">
      </trkpt>
      <trkpt lat="49.78432293" lon="-117.73713342">
      </trkpt>
      <trkpt lat="49.78430914" lon="-117.73710003">
      </trkpt>
      <trkpt lat="49.78429908" lon="-117.73707361">
      </trkpt>
      <trkpt lat="49.78427964" lon="-117.73700109">
      </trkpt>
      <trkpt lat="49.78427334" lon="-117.73693995">
      </trkpt>
      <trkpt lat="49.78427281" lon="-117.73688584">
      </trkpt>
      <trkpt lat="49.78427505" lon="-117.73681489">
      </trkpt>
      <trkpt lat="49.78428292" lon="-117.736758">
      </trkpt>
      <trkpt lat="49.7842694" lon="-117.73671079">
      </trkpt>
      <trkpt lat="49.7842523" lon="-117.73665105">
      </trkpt>
      <trkpt lat="49.78423985" lon="-117.73659606">
      </trkpt>
      <trkpt lat="49.78423052" lon="-117.73652898">
      </trkpt>
      <trkpt lat="49.78422629" lon="-117.7364868">
      </trkpt>
      <trkpt lat="49.78423315" lon="-117.73647568">
      </trkpt>
      <trkpt lat="49.78424564" lon="-117.73644969">
      </trkpt>
      <trkpt lat="49.78424985" lon="-117.73637622">
      </trkpt>
      <trkpt lat="49.78425336" lon="-117.73629926">
      </trkpt>
      <trkpt lat="49.78426293" lon="-117.7361423">
      </trkpt>
      <trkpt lat="49.78426632" lon="-117.73607743">
      </trkpt>
      <trkpt lat="49.78427124" lon="-117.73598312">
      </trkpt>
      <trkpt lat="49.78427409" lon="-117.73592873">
      </trkpt>
      <trkpt lat="49.7842732" lon="-117.73587743">
      </trkpt>
      <trkpt lat="49.78426037" lon="-117.73582728">
      </trkpt>
      <trkpt lat="49.7842471" lon="-117.73577544">
      </trkpt>
      <trkpt lat="49.78424351" lon="-117.73574708">
      </trkpt>
      <trkpt lat="49.78424673" lon="-117.73570142">
      </trkpt>
      <trkpt lat="49.78425215" lon="-117.73562457">
      </trkpt>
      <trkpt lat="49.78425621" lon="-117.73556675">
      </trkpt>
      <trkpt lat="49.78426006" lon="-117.73550389">
      </trkpt>
      <trkpt lat="49.78426133" lon="-117.73546069">
      </trkpt>
      <trkpt lat="49.78425459" lon="-117.73537782">
      </trkpt>
      <trkpt lat="49.78425993" lon="-117.73525092">
      </trkpt>
      <trkpt lat="49.78425734" lon="-117.73519485">
      </trkpt>
      <trkpt lat="49.78424818" lon="-117.73509626">
      </trkpt>
      <trkpt lat="49.78425004" lon="-117.73501111">
      </trkpt>
      <trkpt lat="49.78425653" lon="-117.73494311">
      </trkpt>
      <trkpt lat="49.78427278" lon="-117.73485021">
      </trkpt>
      <trkpt lat="49.78429512" lon="-117.73472794">
      </trkpt>
      <trkpt lat="49.78431795" lon="-117.73463385">
      </trkpt>
      <trkpt lat="49.78431932" lon="-117.73452051">
      </trkpt>
      <trkpt lat="49.78431385" lon="-117.73438271">
      </trkpt>
      <trkpt lat="49.7843162" lon="-117.73423836">
      </trkpt>
      <trkpt lat="49.78431912" lon="-117.7341453">
      </trkpt>
      <trkpt lat="49.78432185" lon="-117.7340497">
      </trkpt>
      <trkpt lat="49.78432699" lon="-117.73396396">
      </trkpt>
      <trkpt lat="49.78433096" lon="-117.73390669">
      </trkpt>
      <trkpt lat="49.78431272" lon="-117.73382004">
      </trkpt>
      <trkpt lat="49.78429854" lon="-117.73374293">
      </trkpt>
      <trkpt lat="49.78429218" lon="-117.73365926">
      </trkpt>
      <trkpt lat="49.78429094" lon="-117.73357725">
      </trkpt>
      <trkpt lat="49.78429386" lon="-117.73348419">
      </trkpt>
      <trkpt lat="49.78431223" lon="-117.73341918">
      </trkpt>
      <trkpt lat="49.7843332" lon="-117.73336654">
      </trkpt>
      <trkpt lat="49.78433949" lon="-117.73329601">
      </trkpt>
      <trkpt lat="49.78432589" lon="-117.7332265">
      </trkpt>
      <trkpt lat="49.78432233" lon="-117.73315775">
      </trkpt>
      <trkpt lat="49.78434196" lon="-117.73308738">
      </trkpt>
      <trkpt lat="49.78436602" lon="-117.73303161">
      </trkpt>
      <trkpt lat="49.78438836" lon="-117.73295303">
      </trkpt>
      <trkpt lat="49.784385" lon="-117.73284311">
      </trkpt>
      <trkpt lat="49.78437448" lon="-117.73277049">
      </trkpt>
      <trkpt lat="49.78437005" lon="-117.73271217">
      </trkpt>
      <trkpt lat="49.78438002" lon="-117.73264611">
      </trkpt>
      <trkpt lat="49.78438525" lon="-117.73258348">
      </trkpt>
      <trkpt lat="49.78439743" lon="-117.73252474">
      </trkpt>
      <trkpt lat="49.78440141" lon="-117.73246746">
      </trkpt>
      <trkpt lat="49.78441852" lon="-117.73240783">
      </trkpt>
      <trkpt lat="49.78443709" lon="-117.73234534">
      </trkpt>
      <trkpt lat="49.78445884" lon="-117.73225915">
      </trkpt>
      <trkpt lat="49.78447025" lon="-117.73219026">
      </trkpt>
      <trkpt lat="49.78447761" lon="-117.73211183">
      </trkpt>
      <trkpt lat="49.78448564" lon="-117.73202041">
      </trkpt>
      <trkpt lat="49.78449802" lon="-117.73196419">
      </trkpt>
      <trkpt lat="49.78453069" lon="-117.73191201">
      </trkpt>
      <trkpt lat="49.78457388" lon="-117.73188877">
      </trkpt>
      <trkpt lat="49.78462402" lon="-117.7318694">
      </trkpt>
      <trkpt lat="49.78468287" lon="-117.73183305">
      </trkpt>
      <trkpt lat="49.78472316" lon="-117.73181547">
      </trkpt>
      <trkpt lat="49.78473755" lon="-117.73180772">
      </trkpt>
      <trkpt lat="49.78474829" lon="-117.7317518">
      </trkpt>
      <trkpt lat="49.78475922" lon="-117.73169842">
      </trkpt>
      <trkpt lat="49.78477507" lon="-117.73164414">
      </trkpt>
      <trkpt lat="49.78477827" lon="-117.73157673">
      </trkpt>
      <trkpt lat="49.78477557" lon="-117.73154124">
      </trkpt>
      <trkpt lat="49.78478891" lon="-117.7314977">
      </trkpt>
      <trkpt lat="49.78481829" lon="-117.73144611">
      </trkpt>
      <trkpt lat="49.78485115" lon="-117.73135277">
      </trkpt>
      <trkpt lat="49.7848731" lon="-117.73126913">
      </trkpt>
      <trkpt lat="49.78489177" lon="-117.73118606">
      </trkpt>
      <trkpt lat="49.78490289" lon="-117.73109151">
      </trkpt>
      <trkpt lat="49.78492088" lon="-117.73102143">
      </trkpt>
      <trkpt lat="49.78494031" lon="-117.73094852">
      </trkpt>
      <trkpt lat="49.78495906" lon="-117.73088857">
      </trkpt>
      <trkpt lat="49.78497115" lon="-117.7308504">
      </trkpt>
      <trkpt lat="49.78501173" lon="-117.73081478">
      </trkpt>
      <trkpt lat="49.78503405" lon="-117.73077988">
      </trkpt>
      <trkpt lat="49.78503" lon="-117.73072665">
      </trkpt>
      <trkpt lat="49.7850474" lon="-117.73069265">
      </trkpt>
      <trkpt lat="49.78509049" lon="-117.73068999">
      </trkpt>
      <trkpt lat="49.78513116" lon="-117.73067747">
      </trkpt>
      <trkpt lat="49.78515252" lon="-117.73062991">
      </trkpt>
      <trkpt lat="49.78518065" lon="-117.73058369">
      </trkpt>
      <trkpt lat="49.78521147" lon="-117.73057297">
      </trkpt>
      <trkpt lat="49.78523108" lon="-117.73054628">
      </trkpt>
      <trkpt lat="49.78525466" lon="-117.73050603">
      </trkpt>
      <trkpt lat="49.78530655" lon="-117.73046578">
      </trkpt>
      <trkpt lat="49.78535447" lon="-117.73043911">
      </trkpt>
      <trkpt lat="49.78539177" lon="-117.73040409">
      </trkpt>
      <trkpt lat="49.78541815" lon="-117.73037874">
      </trkpt>
      <trkpt lat="49.78544801" lon="-117.73035534">
      </trkpt>
      <trkpt lat="49.7855281" lon="-117.7303357">
      </trkpt>
      <trkpt lat="49.78559891" lon="-117.73032543">
      </trkpt>
      <trkpt lat="49.78566645" lon="-117.73031577">
      </trkpt>
      <trkpt lat="49.78572123" lon="-117.73031356">
      </trkpt>
      <trkpt lat="49.78578576" lon="-117.73033015">
      </trkpt>
      <trkpt lat="49.78584352" lon="-117.73034538">
      </trkpt>
      <trkpt lat="49.78587386" lon="-117.73035017">
      </trkpt>
      <trkpt lat="49.7859011" lon="-117.73035808">
      </trkpt>
    </trkseg>
  </trk>
</gpx>