<?xml version="1.0" encoding="UTF-8"?>
<gpx xmlns="http://www.topografix.com/GPX/1/1" xmlns:xsi="http://www.w3.org/2001/XMLSchema-instance" xsi:schemaLocation="http://www.topografix.com/GPX/1/1 http://www.topografix.com/GPX/1/1/gpx.xsd" version="1.1" creator="gpx.py -- https://github.com/tkrajina/gpxpy">
  <trk>
    <name>Ripper</name>
    <trkseg>
      <trkpt lat="49.04006486" lon="-118.41077464">
      </trkpt>
      <trkpt lat="49.04003115" lon="-118.41059446">
      </trkpt>
      <trkpt lat="49.04003508" lon="-118.41032095">
      </trkpt>
      <trkpt lat="49.04013676" lon="-118.41001522">
      </trkpt>
      <trkpt lat="49.04024855" lon="-118.40978204">
      </trkpt>
      <trkpt lat="49.04031805" lon="-118.40954041">
      </trkpt>
      <trkpt lat="49.04032974" lon="-118.40933149">
      </trkpt>
      <trkpt lat="49.04033503" lon="-118.40908364">
      </trkpt>
      <trkpt lat="49.04030803" lon="-118.40882577">
      </trkpt>
      <trkpt lat="49.04036255" lon="-118.40871071">
      </trkpt>
      <trkpt lat="49.04046876" lon="-118.40869069">
      </trkpt>
      <trkpt lat="49.04049316" lon="-118.40834599">
      </trkpt>
      <trkpt lat="49.04053912" lon="-118.40830123">
      </trkpt>
      <trkpt lat="49.04072771" lon="-118.40855984">
      </trkpt>
      <trkpt lat="49.04105716" lon="-118.40885315">
      </trkpt>
      <trkpt lat="49.04117317" lon="-118.40885642">
      </trkpt>
      <trkpt lat="49.04135224" lon="-118.40906872">
      </trkpt>
      <trkpt lat="49.04168111" lon="-118.40982254">
      </trkpt>
      <trkpt lat="49.04201019" lon="-118.41014654">
      </trkpt>
      <trkpt lat="49.04214153" lon="-118.4101349">
      </trkpt>
      <trkpt lat="49.04223148" lon="-118.41020653">
      </trkpt>
      <trkpt lat="49.0424253" lon="-118.41044995">
      </trkpt>
      <trkpt lat="49.04261437" lon="-118.41068742">
      </trkpt>
      <trkpt lat="49.04282558" lon="-118.4109527">
      </trkpt>
      <trkpt lat="49.04324915" lon="-118.41116409">
      </trkpt>
      <trkpt lat="49.04340869" lon="-118.41132212">
      </trkpt>
      <trkpt lat="49.04341774" lon="-118.41140681">
      </trkpt>
      <trkpt lat="49.04306679" lon="-118.41163482">
      </trkpt>
      <trkpt lat="49.0429048" lon="-118.41167629">
      </trkpt>
      <trkpt lat="49.04286809" lon="-118.41179038">
      </trkpt>
      <trkpt lat="49.0430801" lon="-118.41219552">
      </trkpt>
      <trkpt lat="49.04327625" lon="-118.41257035">
      </trkpt>
      <trkpt lat="49.04341654" lon="-118.41274237">
      </trkpt>
      <trkpt lat="49.04395561" lon="-118.41281137">
      </trkpt>
      <trkpt lat="49.04442134" lon="-118.4131009">
      </trkpt>
      <trkpt lat="49.04488707" lon="-118.41339044">
      </trkpt>
      <trkpt lat="49.04541017" lon="-118.41352808">
      </trkpt>
      <trkpt lat="49.04567407" lon="-118.41359753">
      </trkpt>
      <trkpt lat="49.04624394" lon="-118.41384342">
      </trkpt>
      <trkpt lat="49.04645814" lon="-118.41365759">
      </trkpt>
      <trkpt lat="49.04671587" lon="-118.41362652">
      </trkpt>
      <trkpt lat="49.04704167" lon="-118.41380463">
      </trkpt>
      <trkpt lat="49.04727145" lon="-118.41399539">
      </trkpt>
      <trkpt lat="49.04756012" lon="-118.41473283">
      </trkpt>
      <trkpt lat="49.04772292" lon="-118.41503684">
      </trkpt>
      <trkpt lat="49.04780043" lon="-118.41530004">
      </trkpt>
      <trkpt lat="49.04830966" lon="-118.41574439">
      </trkpt>
      <trkpt lat="49.04860524" lon="-118.4160023">
      </trkpt>
      <trkpt lat="49.04858629" lon="-118.41603396">
      </trkpt>
      <trkpt lat="49.04856607" lon="-118.41606444">
      </trkpt>
      <trkpt lat="49.04854584" lon="-118.41609491">
      </trkpt>
      <trkpt lat="49.04852855" lon="-118.41613511">
      </trkpt>
      <trkpt lat="49.04851148" lon="-118.41617866">
      </trkpt>
      <trkpt lat="49.04849752" lon="-118.41626587">
      </trkpt>
      <trkpt lat="49.0484988" lon="-118.4163472">
      </trkpt>
      <trkpt lat="49.04848957" lon="-118.41640646">
      </trkpt>
      <trkpt lat="49.04847094" lon="-118.41649103">
      </trkpt>
      <trkpt lat="49.0484644" lon="-118.41655664">
      </trkpt>
      <trkpt lat="49.04844907" lon="-118.41659311">
      </trkpt>
      <trkpt lat="49.04842997" lon="-118.41667097">
      </trkpt>
      <trkpt lat="49.04841045" lon="-118.41671152">
      </trkpt>
      <trkpt lat="49.0483779" lon="-118.41675761">
      </trkpt>
      <trkpt lat="49.04834093" lon="-118.4168044">
      </trkpt>
      <trkpt lat="49.04832679" lon="-118.41685766">
      </trkpt>
      <trkpt lat="49.04833496" lon="-118.41694127">
      </trkpt>
      <trkpt lat="49.04836691" lon="-118.41704476">
      </trkpt>
      <trkpt lat="49.04839254" lon="-118.41712211">
      </trkpt>
      <trkpt lat="49.04841674" lon="-118.4171793">
      </trkpt>
      <trkpt lat="49.04845571" lon="-118.41722391">
      </trkpt>
      <trkpt lat="49.04848955" lon="-118.41725915">
      </trkpt>
      <trkpt lat="49.04851461" lon="-118.41726525">
      </trkpt>
      <trkpt lat="49.04855705" lon="-118.41729569">
      </trkpt>
      <trkpt lat="49.04860164" lon="-118.41735637">
      </trkpt>
      <trkpt lat="49.0486494" lon="-118.41743011">
      </trkpt>
      <trkpt lat="49.04869494" lon="-118.41750421">
      </trkpt>
      <trkpt lat="49.04872578" lon="-118.41756032">
      </trkpt>
      <trkpt lat="49.04874143" lon="-118.41759174">
      </trkpt>
      <trkpt lat="49.04875749" lon="-118.41766045">
      </trkpt>
      <trkpt lat="49.04874898" lon="-118.4177298">
      </trkpt>
      <trkpt lat="49.04874591" lon="-118.41778125">
      </trkpt>
      <trkpt lat="49.0487554" lon="-118.41782046">
      </trkpt>
      <trkpt lat="49.04878379" lon="-118.41787359">
      </trkpt>
      <trkpt lat="49.04882702" lon="-118.41788352">
      </trkpt>
      <trkpt lat="49.04885871" lon="-118.41788854">
      </trkpt>
      <trkpt lat="49.04889531" lon="-118.41789956">
      </trkpt>
      <trkpt lat="49.04890188" lon="-118.41792906">
      </trkpt>
      <trkpt lat="49.0488679" lon="-118.41795499">
      </trkpt>
      <trkpt lat="49.04882681" lon="-118.41797528">
      </trkpt>
      <trkpt lat="49.0487884" lon="-118.41800193">
      </trkpt>
      <trkpt lat="49.04874558" lon="-118.41802929">
      </trkpt>
      <trkpt lat="49.04871602" lon="-118.41805451">
      </trkpt>
      <trkpt lat="49.04867438" lon="-118.41809867">
      </trkpt>
      <trkpt lat="49.0486389" lon="-118.41813503">
      </trkpt>
      <trkpt lat="49.04860492" lon="-118.41816096">
      </trkpt>
      <trkpt lat="49.04855048" lon="-118.41821401">
      </trkpt>
      <trkpt lat="49.04849556" lon="-118.41826033">
      </trkpt>
      <trkpt lat="49.04844878" lon="-118.41829515">
      </trkpt>
      <trkpt lat="49.04838573" lon="-118.41835299">
      </trkpt>
      <trkpt lat="49.04833207" lon="-118.41838553">
      </trkpt>
      <trkpt lat="49.04828995" lon="-118.41842298">
      </trkpt>
      <trkpt lat="49.04823551" lon="-118.41847602">
      </trkpt>
      <trkpt lat="49.04819094" lon="-118.41851047">
      </trkpt>
      <trkpt lat="49.04814985" lon="-118.41853077">
      </trkpt>
      <trkpt lat="49.04811192" lon="-118.41856414">
      </trkpt>
      <trkpt lat="49.04808656" lon="-118.41858526">
      </trkpt>
      <trkpt lat="49.04805772" lon="-118.41862054">
      </trkpt>
      <trkpt lat="49.04805345" lon="-118.4186552">
      </trkpt>
      <trkpt lat="49.0480594" lon="-118.41873916">
      </trkpt>
      <trkpt lat="49.0480757" lon="-118.41881124">
      </trkpt>
      <trkpt lat="49.04811689" lon="-118.41885547">
      </trkpt>
      <trkpt lat="49.04818415" lon="-118.41888866">
      </trkpt>
      <trkpt lat="49.04824945" lon="-118.41892557">
      </trkpt>
      <trkpt lat="49.04828257" lon="-118.41895074">
      </trkpt>
      <trkpt lat="49.04831055" lon="-118.41896656">
      </trkpt>
      <trkpt lat="49.04832644" lon="-118.41900133">
      </trkpt>
      <trkpt lat="49.04833325" lon="-118.4190342">
      </trkpt>
      <trkpt lat="49.04832378" lon="-118.4190901">
      </trkpt>
      <trkpt lat="49.04827495" lon="-118.41915921">
      </trkpt>
      <trkpt lat="49.04822106" lon="-118.41918838">
      </trkpt>
      <trkpt lat="49.04817996" lon="-118.41920868">
      </trkpt>
      <trkpt lat="49.04813982" lon="-118.41924241">
      </trkpt>
      <trkpt lat="49.04809058" lon="-118.41927421">
      </trkpt>
      <trkpt lat="49.0480468" lon="-118.41928816">
      </trkpt>
      <trkpt lat="49.04796272" lon="-118.41930188">
      </trkpt>
      <trkpt lat="49.04790004" lon="-118.41930191">
      </trkpt>
      <trkpt lat="49.04784891" lon="-118.41930685">
      </trkpt>
      <trkpt lat="49.04780117" lon="-118.41932823">
      </trkpt>
      <trkpt lat="49.04773788" lon="-118.41938271">
      </trkpt>
      <trkpt lat="49.04770707" lon="-118.41942172">
      </trkpt>
      <trkpt lat="49.0476787" lon="-118.41946371">
      </trkpt>
      <trkpt lat="49.04764591" lon="-118.41950642">
      </trkpt>
      <trkpt lat="49.04760648" lon="-118.41955023">
      </trkpt>
      <trkpt lat="49.04758183" lon="-118.41958142">
      </trkpt>
      <trkpt lat="49.04756256" lon="-118.41962533">
      </trkpt>
      <trkpt lat="49.04753443" lon="-118.41967068">
      </trkpt>
      <trkpt lat="49.04750417" lon="-118.41968581">
      </trkpt>
      <trkpt lat="49.04747152" lon="-118.41966736">
      </trkpt>
      <trkpt lat="49.04743594" lon="-118.41963919">
      </trkpt>
      <trkpt lat="49.04739673" lon="-118.41959123">
      </trkpt>
      <trkpt lat="49.04736487" lon="-118.41955227">
      </trkpt>
      <trkpt lat="49.04732099" lon="-118.41950168">
      </trkpt>
      <trkpt lat="49.04727878" lon="-118.41947459">
      </trkpt>
      <trkpt lat="49.04723293" lon="-118.41942772">
      </trkpt>
      <trkpt lat="49.04718606" lon="-118.419398">
      </trkpt>
      <trkpt lat="49.04713618" lon="-118.41938915">
      </trkpt>
      <trkpt lat="49.04709959" lon="-118.41937814">
      </trkpt>
      <trkpt lat="49.04707011" lon="-118.41937275">
      </trkpt>
      <trkpt lat="49.04703841" lon="-118.41936773">
      </trkpt>
      <trkpt lat="49.04700869" lon="-118.41935898">
      </trkpt>
      <trkpt lat="49.04697652" lon="-118.41934725">
      </trkpt>
      <trkpt lat="49.04694167" lon="-118.41932916">
      </trkpt>
      <trkpt lat="49.04690579" lon="-118.41932821">
      </trkpt>
      <trkpt lat="49.04686966" lon="-118.41932392">
      </trkpt>
      <trkpt lat="49.04683474" lon="-118.41933641">
      </trkpt>
      <trkpt lat="49.04679514" lon="-118.41934626">
      </trkpt>
      <trkpt lat="49.04676195" lon="-118.41935168">
      </trkpt>
      <trkpt lat="49.0467199" lon="-118.41935854">
      </trkpt>
      <trkpt lat="49.04669287" lon="-118.41935616">
      </trkpt>
      <trkpt lat="49.04665699" lon="-118.41935522">
      </trkpt>
      <trkpt lat="49.04662965" lon="-118.41938006">
      </trkpt>
      <trkpt lat="49.04662137" lon="-118.41945274">
      </trkpt>
      <trkpt lat="49.04660764" lon="-118.41954331">
      </trkpt>
      <trkpt lat="49.04657739" lon="-118.41965356">
      </trkpt>
      <trkpt lat="49.04657718" lon="-118.4197453">
      </trkpt>
      <trkpt lat="49.04658802" lon="-118.41983526">
      </trkpt>
      <trkpt lat="49.0466022" lon="-118.41997223">
      </trkpt>
      <trkpt lat="49.04661138" lon="-118.42003866">
      </trkpt>
      <trkpt lat="49.0466129" lon="-118.42012334">
      </trkpt>
      <trkpt lat="49.04658368" lon="-118.42021643">
      </trkpt>
      <trkpt lat="49.04656157" lon="-118.42031516">
      </trkpt>
      <trkpt lat="49.04653402" lon="-118.42043175">
      </trkpt>
      <trkpt lat="49.04651436" lon="-118.42053347">
      </trkpt>
      <trkpt lat="49.04649603" lon="-118.42059082">
      </trkpt>
      <trkpt lat="49.04649708" lon="-118.42066878">
      </trkpt>
      <trkpt lat="49.04650366" lon="-118.4207934">
      </trkpt>
      <trkpt lat="49.04651656" lon="-118.42084903">
      </trkpt>
      <trkpt lat="49.04653633" lon="-118.42090696">
      </trkpt>
      <trkpt lat="49.04655437" lon="-118.42097195">
      </trkpt>
      <trkpt lat="49.04656307" lon="-118.42103168">
      </trkpt>
      <trkpt lat="49.04655712" lon="-118.42108028">
      </trkpt>
      <trkpt lat="49.04654987" lon="-118.42112475">
      </trkpt>
      <trkpt lat="49.04654502" lon="-118.42115099">
      </trkpt>
      <trkpt lat="49.04652632" lon="-118.42119475">
      </trkpt>
      <trkpt lat="49.04648844" lon="-118.42125184">
      </trkpt>
      <trkpt lat="49.04643545" lon="-118.42130882">
      </trkpt>
      <trkpt lat="49.04639787" lon="-118.42139385">
      </trkpt>
      <trkpt lat="49.04638457" lon="-118.42149019">
      </trkpt>
      <trkpt lat="49.0463898" lon="-118.4216115">
      </trkpt>
      <trkpt lat="49.04637354" lon="-118.4217134">
      </trkpt>
      <trkpt lat="49.04632323" lon="-118.42180813">
      </trkpt>
      <trkpt lat="49.04628777" lon="-118.42185209">
      </trkpt>
      <trkpt lat="49.04624183" lon="-118.42189013">
      </trkpt>
      <trkpt lat="49.04619026" lon="-118.42189598">
      </trkpt>
      <trkpt lat="49.04611701" lon="-118.42187994">
      </trkpt>
      <trkpt lat="49.04603654" lon="-118.42188033">
      </trkpt>
      <trkpt lat="49.04597834" lon="-118.42188728">
      </trkpt>
      <trkpt lat="49.0459424" lon="-118.42190077">
      </trkpt>
      <trkpt lat="49.04588917" lon="-118.42190691">
      </trkpt>
      <trkpt lat="49.04583463" lon="-118.42191834">
      </trkpt>
      <trkpt lat="49.04574565" lon="-118.4219405">
      </trkpt>
      <trkpt lat="49.04567323" lon="-118.42195994">
      </trkpt>
      <trkpt lat="49.0456261" lon="-118.42195745">
      </trkpt>
      <trkpt lat="49.04558453" lon="-118.42193878">
      </trkpt>
      <trkpt lat="49.04553112" lon="-118.42194239">
      </trkpt>
      <trkpt lat="49.0454722" lon="-118.42193927">
      </trkpt>
      <trkpt lat="49.04540956" lon="-118.42195459">
      </trkpt>
      <trkpt lat="49.04533934" lon="-118.4219813">
      </trkpt>
      <trkpt lat="49.04525219" lon="-118.4220057">
      </trkpt>
      <trkpt lat="49.04516284" lon="-118.42202281">
      </trkpt>
      <trkpt lat="49.04508492" lon="-118.42203552">
      </trkpt>
      <trkpt lat="49.04501676" lon="-118.42204409">
      </trkpt>
      <trkpt lat="49.04494352" lon="-118.42202803">
      </trkpt>
      <trkpt lat="49.04488425" lon="-118.42201989">
      </trkpt>
      <trkpt lat="49.04479567" lon="-118.42202415">
      </trkpt>
      <trkpt lat="49.04472366" lon="-118.42202571">
      </trkpt>
      <trkpt lat="49.04465018" lon="-118.42203006">
      </trkpt>
      <trkpt lat="49.04458357" lon="-118.42201292">
      </trkpt>
      <trkpt lat="49.04450925" lon="-118.42198179">
      </trkpt>
      <trkpt lat="49.04442782" lon="-118.42192126">
      </trkpt>
      <trkpt lat="49.04436203" lon="-118.42186837">
      </trkpt>
      <trkpt lat="49.04429001" lon="-118.42179868">
      </trkpt>
      <trkpt lat="49.0442601" lon="-118.42179062">
      </trkpt>
    </trkseg>
    <trkseg>
      <trkpt lat="49.05858323" lon="-118.3928571">
      </trkpt>
      <trkpt lat="49.05812133" lon="-118.39247477">
      </trkpt>
      <trkpt lat="49.05799045" lon="-118.39227554">
      </trkpt>
      <trkpt lat="49.05786157" lon="-118.39190977">
      </trkpt>
      <trkpt lat="49.05764944" lon="-118.39173725">
      </trkpt>
      <trkpt lat="49.057459" lon="-118.39173917">
      </trkpt>
      <trkpt lat="49.05729903" lon="-118.39158259">
      </trkpt>
      <trkpt lat="49.05718496" lon="-118.39117378">
      </trkpt>
      <trkpt lat="49.056921" lon="-118.39095636">
      </trkpt>
      <trkpt lat="49.05648459" lon="-118.39082828">
      </trkpt>
      <trkpt lat="49.05624401" lon="-118.39075769">
      </trkpt>
      <trkpt lat="49.05594615" lon="-118.39087121">
      </trkpt>
      <trkpt lat="49.05577275" lon="-118.3910402">
      </trkpt>
      <trkpt lat="49.05573337" lon="-118.39114776">
      </trkpt>
      <trkpt lat="49.05582645" lon="-118.39132418">
      </trkpt>
      <trkpt lat="49.05590021" lon="-118.391464">
      </trkpt>
      <trkpt lat="49.05595031" lon="-118.39171153">
      </trkpt>
      <trkpt lat="49.05606084" lon="-118.39201883">
      </trkpt>
      <trkpt lat="49.05623967" lon="-118.39219041">
      </trkpt>
      <trkpt lat="49.05638201" lon="-118.392327">
      </trkpt>
      <trkpt lat="49.05646468" lon="-118.39247919">
      </trkpt>
      <trkpt lat="49.05649454" lon="-118.39253416">
      </trkpt>
      <trkpt lat="49.05648664" lon="-118.39263192">
      </trkpt>
      <trkpt lat="49.05639941" lon="-118.39275986">
      </trkpt>
      <trkpt lat="49.05633288" lon="-118.39285744">
      </trkpt>
      <trkpt lat="49.05629987" lon="-118.39311924">
      </trkpt>
      <trkpt lat="49.05624868" lon="-118.3935252">
      </trkpt>
      <trkpt lat="49.05632003" lon="-118.39381514">
      </trkpt>
      <trkpt lat="49.05645003" lon="-118.39408678">
      </trkpt>
      <trkpt lat="49.05666491" lon="-118.39442598">
      </trkpt>
      <trkpt lat="49.05688136" lon="-118.39463485">
      </trkpt>
      <trkpt lat="49.05716028" lon="-118.39479477">
      </trkpt>
      <trkpt lat="49.05729663" lon="-118.39493621">
      </trkpt>
      <trkpt lat="49.05741306" lon="-118.39514952">
      </trkpt>
      <trkpt lat="49.05748622" lon="-118.39539784">
      </trkpt>
      <trkpt lat="49.05755896" lon="-118.39564476">
      </trkpt>
      <trkpt lat="49.05765318" lon="-118.39615584">
      </trkpt>
      <trkpt lat="49.0578639" lon="-118.39644423">
      </trkpt>
      <trkpt lat="49.05805674" lon="-118.39663797">
      </trkpt>
      <trkpt lat="49.05816418" lon="-118.39680758">
      </trkpt>
      <trkpt lat="49.05816198" lon="-118.3969886">
      </trkpt>
      <trkpt lat="49.05804867" lon="-118.39730414">
      </trkpt>
      <trkpt lat="49.05794474" lon="-118.39759356">
      </trkpt>
      <trkpt lat="49.05782777" lon="-118.3979193">
      </trkpt>
      <trkpt lat="49.05778488" lon="-118.39825287">
      </trkpt>
      <trkpt lat="49.05787514" lon="-118.39866104">
      </trkpt>
      <trkpt lat="49.05790036" lon="-118.39893699">
      </trkpt>
      <trkpt lat="49.05802472" lon="-118.39928093">
      </trkpt>
      <trkpt lat="49.05807875" lon="-118.39953597">
      </trkpt>
      <trkpt lat="49.05822999" lon="-118.40001828">
      </trkpt>
      <trkpt lat="49.0583058" lon="-118.40044054">
      </trkpt>
      <trkpt lat="49.05835056" lon="-118.40068991">
      </trkpt>
      <trkpt lat="49.05833762" lon="-118.40095572">
      </trkpt>
      <trkpt lat="49.0583757" lon="-118.40134794">
      </trkpt>
      <trkpt lat="49.05827042" lon="-118.40137161">
      </trkpt>
      <trkpt lat="49.05823713" lon="-118.4013791">
      </trkpt>
      <trkpt lat="49.05817654" lon="-118.4012844">
      </trkpt>
      <trkpt lat="49.05811926" lon="-118.40129727">
      </trkpt>
      <trkpt lat="49.05799853" lon="-118.40143874">
      </trkpt>
      <trkpt lat="49.05788604" lon="-118.40157058">
      </trkpt>
      <trkpt lat="49.05777524" lon="-118.40170042">
      </trkpt>
      <trkpt lat="49.0576782" lon="-118.40181413">
      </trkpt>
      <trkpt lat="49.05767865" lon="-118.40190782">
      </trkpt>
      <trkpt lat="49.05749465" lon="-118.4021634">
      </trkpt>
      <trkpt lat="49.05734661" lon="-118.4022027">
      </trkpt>
      <trkpt lat="49.05724334" lon="-118.40223011">
      </trkpt>
      <trkpt lat="49.05704663" lon="-118.40220875">
      </trkpt>
      <trkpt lat="49.05682896" lon="-118.40210122">
      </trkpt>
      <trkpt lat="49.05671431" lon="-118.4021342">
      </trkpt>
      <trkpt lat="49.05645223" lon="-118.4021558">
      </trkpt>
      <trkpt lat="49.056167" lon="-118.40217932">
      </trkpt>
      <trkpt lat="49.05598879" lon="-118.40229487">
      </trkpt>
      <trkpt lat="49.05576883" lon="-118.40237561">
      </trkpt>
      <trkpt lat="49.05546929" lon="-118.40234545">
      </trkpt>
      <trkpt lat="49.05537033" lon="-118.402263">
      </trkpt>
      <trkpt lat="49.05520756" lon="-118.40194696">
      </trkpt>
      <trkpt lat="49.05507597" lon="-118.40169148">
      </trkpt>
      <trkpt lat="49.05494573" lon="-118.40155571">
      </trkpt>
      <trkpt lat="49.05480345" lon="-118.40140741">
      </trkpt>
      <trkpt lat="49.05459165" lon="-118.40131399">
      </trkpt>
      <trkpt lat="49.05439099" lon="-118.40137353">
      </trkpt>
      <trkpt lat="49.05427088" lon="-118.40140917">
      </trkpt>
      <trkpt lat="49.05396887" lon="-118.40124578">
      </trkpt>
      <trkpt lat="49.05379957" lon="-118.40107443">
      </trkpt>
      <trkpt lat="49.05375745" lon="-118.4010318">
      </trkpt>
      <trkpt lat="49.05358561" lon="-118.40105393">
      </trkpt>
      <trkpt lat="49.0534817" lon="-118.40098582">
      </trkpt>
      <trkpt lat="49.05328677" lon="-118.40096586">
      </trkpt>
      <trkpt lat="49.05308083" lon="-118.40106871">
      </trkpt>
      <trkpt lat="49.05271318" lon="-118.40115978">
      </trkpt>
      <trkpt lat="49.05247851" lon="-118.40127631">
      </trkpt>
      <trkpt lat="49.05219871" lon="-118.40118877">
      </trkpt>
      <trkpt lat="49.05196941" lon="-118.40125476">
      </trkpt>
      <trkpt lat="49.05187076" lon="-118.40128314">
      </trkpt>
      <trkpt lat="49.05169605" lon="-118.4014209">
      </trkpt>
      <trkpt lat="49.05158344" lon="-118.40167846">
      </trkpt>
      <trkpt lat="49.05155397" lon="-118.40174587">
      </trkpt>
      <trkpt lat="49.0513856" lon="-118.40189742">
      </trkpt>
      <trkpt lat="49.05135115" lon="-118.40199059">
      </trkpt>
      <trkpt lat="49.05128894" lon="-118.40201782">
      </trkpt>
      <trkpt lat="49.05125844" lon="-118.40217629">
      </trkpt>
      <trkpt lat="49.05130868" lon="-118.40235153">
      </trkpt>
      <trkpt lat="49.05158196" lon="-118.40258373">
      </trkpt>
      <trkpt lat="49.05167079" lon="-118.40265922">
      </trkpt>
      <trkpt lat="49.05188652" lon="-118.4029834">
      </trkpt>
      <trkpt lat="49.05205382" lon="-118.40323481">
      </trkpt>
      <trkpt lat="49.05216341" lon="-118.40330986">
      </trkpt>
      <trkpt lat="49.05231173" lon="-118.40363996">
      </trkpt>
      <trkpt lat="49.05238391" lon="-118.40396792">
      </trkpt>
      <trkpt lat="49.05248331" lon="-118.40401417">
      </trkpt>
      <trkpt lat="49.05259029" lon="-118.40421998">
      </trkpt>
      <trkpt lat="49.05252176" lon="-118.40430245">
      </trkpt>
      <trkpt lat="49.05237448" lon="-118.40435151">
      </trkpt>
      <trkpt lat="49.05233699" lon="-118.404364">
      </trkpt>
      <trkpt lat="49.05229906" lon="-118.40437663">
      </trkpt>
      <trkpt lat="49.05218492" lon="-118.40467208">
      </trkpt>
      <trkpt lat="49.05223057" lon="-118.40483271">
      </trkpt>
      <trkpt lat="49.05237104" lon="-118.40502498">
      </trkpt>
      <trkpt lat="49.05248657" lon="-118.40518311">
      </trkpt>
      <trkpt lat="49.05248164" lon="-118.40532505">
      </trkpt>
      <trkpt lat="49.05235129" lon="-118.40547347">
      </trkpt>
      <trkpt lat="49.05229465" lon="-118.40553797">
      </trkpt>
      <trkpt lat="49.05223382" lon="-118.40573813">
      </trkpt>
      <trkpt lat="49.05229585" lon="-118.4061165">
      </trkpt>
      <trkpt lat="49.0522881" lon="-118.40636254">
      </trkpt>
      <trkpt lat="49.05234811" lon="-118.40651631">
      </trkpt>
      <trkpt lat="49.05247968" lon="-118.40665764">
      </trkpt>
      <trkpt lat="49.05256665" lon="-118.40694256">
      </trkpt>
      <trkpt lat="49.05254109" lon="-118.40708669">
      </trkpt>
      <trkpt lat="49.05237003" lon="-118.40745124">
      </trkpt>
      <trkpt lat="49.05231751" lon="-118.40746424">
      </trkpt>
      <trkpt lat="49.05226428" lon="-118.40753516">
      </trkpt>
      <trkpt lat="49.05223846" lon="-118.40770102">
      </trkpt>
      <trkpt lat="49.05215508" lon="-118.40790145">
      </trkpt>
      <trkpt lat="49.05210265" lon="-118.40785096">
      </trkpt>
      <trkpt lat="49.05193002" lon="-118.40768475">
      </trkpt>
      <trkpt lat="49.05156712" lon="-118.40771102">
      </trkpt>
      <trkpt lat="49.0514092" lon="-118.40777899">
      </trkpt>
      <trkpt lat="49.05136337" lon="-118.40802394">
      </trkpt>
      <trkpt lat="49.05139852" lon="-118.40826394">
      </trkpt>
      <trkpt lat="49.05130986" lon="-118.40850768">
      </trkpt>
      <trkpt lat="49.05121011" lon="-118.40849038">
      </trkpt>
      <trkpt lat="49.05108806" lon="-118.40834932">
      </trkpt>
      <trkpt lat="49.05092759" lon="-118.40823615">
      </trkpt>
      <trkpt lat="49.05085287" lon="-118.40811816">
      </trkpt>
      <trkpt lat="49.0506656" lon="-118.40825048">
      </trkpt>
      <trkpt lat="49.05064559" lon="-118.40832958">
      </trkpt>
      <trkpt lat="49.05081319" lon="-118.4086385">
      </trkpt>
      <trkpt lat="49.05094519" lon="-118.40888179">
      </trkpt>
      <trkpt lat="49.05102602" lon="-118.40903077">
      </trkpt>
      <trkpt lat="49.05124507" lon="-118.40913594">
      </trkpt>
      <trkpt lat="49.05140361" lon="-118.40921207">
      </trkpt>
      <trkpt lat="49.05142827" lon="-118.40933667">
      </trkpt>
      <trkpt lat="49.05139329" lon="-118.40947329">
      </trkpt>
      <trkpt lat="49.05141469" lon="-118.40966945">
      </trkpt>
      <trkpt lat="49.05128769" lon="-118.40993383">
      </trkpt>
      <trkpt lat="49.05125173" lon="-118.41015008">
      </trkpt>
      <trkpt lat="49.05121551" lon="-118.41036781">
      </trkpt>
      <trkpt lat="49.05123285" lon="-118.41052616">
      </trkpt>
      <trkpt lat="49.05133973" lon="-118.41073922">
      </trkpt>
      <trkpt lat="49.0513473" lon="-118.41089876">
      </trkpt>
      <trkpt lat="49.05139276" lon="-118.41107387">
      </trkpt>
      <trkpt lat="49.05134384" lon="-118.41118112">
      </trkpt>
      <trkpt lat="49.05138809" lon="-118.41122782">
      </trkpt>
      <trkpt lat="49.05137476" lon="-118.41137754">
      </trkpt>
      <trkpt lat="49.05149134" lon="-118.4115764">
      </trkpt>
      <trkpt lat="49.05167947" lon="-118.41176278">
      </trkpt>
      <trkpt lat="49.05174247" lon="-118.41206152">
      </trkpt>
      <trkpt lat="49.05180327" lon="-118.41215015">
      </trkpt>
      <trkpt lat="49.05172447" lon="-118.41236519">
      </trkpt>
      <trkpt lat="49.05166208" lon="-118.41240688">
      </trkpt>
      <trkpt lat="49.05146345" lon="-118.41229985">
      </trkpt>
      <trkpt lat="49.05130068" lon="-118.41237492">
      </trkpt>
      <trkpt lat="49.05110708" lon="-118.41224631">
      </trkpt>
      <trkpt lat="49.05104107" lon="-118.41220246">
      </trkpt>
      <trkpt lat="49.05087186" lon="-118.41240622">
      </trkpt>
      <trkpt lat="49.05072972" lon="-118.41235149">
      </trkpt>
      <trkpt lat="49.0506482" lon="-118.41239988">
      </trkpt>
      <trkpt lat="49.05046368" lon="-118.41230774">
      </trkpt>
      <trkpt lat="49.05033043" lon="-118.41230397">
      </trkpt>
      <trkpt lat="49.05032804" lon="-118.41249998">
      </trkpt>
      <trkpt lat="49.05051951" lon="-118.41280181">
      </trkpt>
      <trkpt lat="49.05060603" lon="-118.41293818">
      </trkpt>
      <trkpt lat="49.05073549" lon="-118.41304693">
      </trkpt>
      <trkpt lat="49.05086184" lon="-118.41322433">
      </trkpt>
      <trkpt lat="49.05084589" lon="-118.41336148">
      </trkpt>
      <trkpt lat="49.05061463" lon="-118.41358669">
      </trkpt>
      <trkpt lat="49.05042446" lon="-118.4135668">
      </trkpt>
      <trkpt lat="49.05022107" lon="-118.41345965">
      </trkpt>
      <trkpt lat="49.05016335" lon="-118.4135087">
      </trkpt>
      <trkpt lat="49.05013831" lon="-118.41360939">
      </trkpt>
      <trkpt lat="49.05019072" lon="-118.41399472">
      </trkpt>
      <trkpt lat="49.0503249" lon="-118.41430994">
      </trkpt>
      <trkpt lat="49.05031828" lon="-118.41446184">
      </trkpt>
      <trkpt lat="49.05015587" lon="-118.41450794">
      </trkpt>
      <trkpt lat="49.05017945" lon="-118.41470027">
      </trkpt>
      <trkpt lat="49.05021757" lon="-118.41501127">
      </trkpt>
      <trkpt lat="49.05036255" lon="-118.41512216">
      </trkpt>
      <trkpt lat="49.05044608" lon="-118.41529835">
      </trkpt>
      <trkpt lat="49.05045618" lon="-118.41563902">
      </trkpt>
      <trkpt lat="49.05046161" lon="-118.41582216">
      </trkpt>
      <trkpt lat="49.05037029" lon="-118.41582844">
      </trkpt>
      <trkpt lat="49.05028864" lon="-118.41571393">
      </trkpt>
      <trkpt lat="49.05011787" lon="-118.41566563">
      </trkpt>
      <trkpt lat="49.0499115" lon="-118.41560726">
      </trkpt>
      <trkpt lat="49.04985413" lon="-118.41559103">
      </trkpt>
      <trkpt lat="49.04971689" lon="-118.41575564">
      </trkpt>
      <trkpt lat="49.04965503" lon="-118.41575388">
      </trkpt>
      <trkpt lat="49.04962074" lon="-118.41583257">
      </trkpt>
      <trkpt lat="49.04951578" lon="-118.41585132">
      </trkpt>
      <trkpt lat="49.04934202" lon="-118.41565808">
      </trkpt>
      <trkpt lat="49.04930046" lon="-118.41561186">
      </trkpt>
      <trkpt lat="49.0492227" lon="-118.41568367">
      </trkpt>
      <trkpt lat="49.04916391" lon="-118.41581959">
      </trkpt>
      <trkpt lat="49.04896475" lon="-118.415756">
      </trkpt>
      <trkpt lat="49.04880594" lon="-118.41589634">
      </trkpt>
      <trkpt lat="49.04860524" lon="-118.4160023">
      </trkpt>
      <trkpt lat="49.04866163" lon="-118.41608621">
      </trkpt>
      <trkpt lat="49.04872188" lon="-118.4161783">
      </trkpt>
      <trkpt lat="49.04879999" lon="-118.41630143">
      </trkpt>
      <trkpt lat="49.04887399" lon="-118.41639807">
      </trkpt>
      <trkpt lat="49.04893077" lon="-118.4165043">
      </trkpt>
      <trkpt lat="49.04898121" lon="-118.41658441">
      </trkpt>
      <trkpt lat="49.04904098" lon="-118.41666977">
      </trkpt>
      <trkpt lat="49.04910447" lon="-118.41674434">
      </trkpt>
      <trkpt lat="49.04916067" lon="-118.41677933">
      </trkpt>
      <trkpt lat="49.04921047" lon="-118.41681877">
      </trkpt>
      <trkpt lat="49.04926398" lon="-118.4168474">
      </trkpt>
      <trkpt lat="49.04932193" lon="-118.41687532">
      </trkpt>
      <trkpt lat="49.04936982" lon="-118.41688789">
      </trkpt>
      <trkpt lat="49.04941425" lon="-118.41691461">
      </trkpt>
      <trkpt lat="49.04946895" lon="-118.41696003">
      </trkpt>
      <trkpt lat="49.04950738" lon="-118.4170285">
      </trkpt>
      <trkpt lat="49.04954247" lon="-118.41704996">
      </trkpt>
      <trkpt lat="49.04958666" lon="-118.41707332">
      </trkpt>
      <trkpt lat="49.04963014" lon="-118.41708661">
      </trkpt>
      <trkpt lat="49.04967037" lon="-118.41711741">
      </trkpt>
      <trkpt lat="49.04972334" lon="-118.41716992">
      </trkpt>
      <trkpt lat="49.04978192" lon="-118.41723849">
      </trkpt>
      <trkpt lat="49.04983339" lon="-118.41730144">
      </trkpt>
      <trkpt lat="49.04988414" lon="-118.41735432">
      </trkpt>
      <trkpt lat="49.04993023" lon="-118.41740454">
      </trkpt>
      <trkpt lat="49.05000597" lon="-118.41749411">
      </trkpt>
      <trkpt lat="49.05009522" lon="-118.41758485">
      </trkpt>
      <trkpt lat="49.05015996" lon="-118.41764564">
      </trkpt>
      <trkpt lat="49.05022685" lon="-118.41773663">
      </trkpt>
      <trkpt lat="49.0502822" lon="-118.41782273">
      </trkpt>
      <trkpt lat="49.05034268" lon="-118.41791818">
      </trkpt>
      <trkpt lat="49.05038641" lon="-118.41802994">
      </trkpt>
      <trkpt lat="49.0504356" lon="-118.41812384">
      </trkpt>
      <trkpt lat="49.05047158" lon="-118.41818931">
      </trkpt>
      <trkpt lat="49.05052232" lon="-118.41824218">
      </trkpt>
      <trkpt lat="49.05055055" lon="-118.41826137">
      </trkpt>
      <trkpt lat="49.05056454" lon="-118.41826927">
      </trkpt>
      <trkpt lat="49.05058857" lon="-118.41829253">
      </trkpt>
      <trkpt lat="49.05063837" lon="-118.41833197">
      </trkpt>
      <trkpt lat="49.05068256" lon="-118.41835533">
      </trkpt>
      <trkpt lat="49.05072824" lon="-118.41836826">
      </trkpt>
      <trkpt lat="49.0507774" lon="-118.41836704">
      </trkpt>
      <trkpt lat="49.05082751" lon="-118.41837924">
      </trkpt>
      <trkpt lat="49.05087912" lon="-118.41838102">
      </trkpt>
      <trkpt lat="49.05094741" lon="-118.41839705">
      </trkpt>
      <trkpt lat="49.05100368" lon="-118.41840146">
      </trkpt>
      <trkpt lat="49.05106857" lon="-118.41840107">
      </trkpt>
      <trkpt lat="49.05111133" lon="-118.41840427">
      </trkpt>
      <trkpt lat="49.05114492" lon="-118.41843617">
      </trkpt>
      <trkpt lat="49.05117852" lon="-118.41846805">
      </trkpt>
      <trkpt lat="49.05121954" lon="-118.41847835">
      </trkpt>
      <trkpt lat="49.05130309" lon="-118.4184885">
      </trkpt>
      <trkpt lat="49.05138466" lon="-118.41850236">
      </trkpt>
      <trkpt lat="49.05146353" lon="-118.41850989">
      </trkpt>
      <trkpt lat="49.05155198" lon="-118.41852603">
      </trkpt>
      <trkpt lat="49.05161656" lon="-118.41855286">
      </trkpt>
      <trkpt lat="49.0517084" lon="-118.41858544">
      </trkpt>
      <trkpt lat="49.05177423" lon="-118.41859847">
      </trkpt>
      <trkpt lat="49.05186238" lon="-118.41864185">
      </trkpt>
      <trkpt lat="49.05192157" lon="-118.41865598">
      </trkpt>
      <trkpt lat="49.0519724" lon="-118.41867827">
      </trkpt>
      <trkpt lat="49.05202077" lon="-118.41869755">
      </trkpt>
      <trkpt lat="49.05207159" lon="-118.41871983">
      </trkpt>
      <trkpt lat="49.05212756" lon="-118.41875147">
      </trkpt>
      <trkpt lat="49.05218573" lon="-118.41878274">
      </trkpt>
      <trkpt lat="49.05223679" lon="-118.41880838">
      </trkpt>
      <trkpt lat="49.05229055" lon="-118.41884039">
      </trkpt>
      <trkpt lat="49.05233228" lon="-118.41886076">
      </trkpt>
      <trkpt lat="49.05238603" lon="-118.41889275">
      </trkpt>
      <trkpt lat="49.05244319" lon="-118.41894119">
      </trkpt>
      <trkpt lat="49.05245782" lon="-118.41898976">
      </trkpt>
      <trkpt lat="49.05245127" lon="-118.41905538">
      </trkpt>
      <trkpt lat="49.05243635" lon="-118.41912917">
      </trkpt>
      <trkpt lat="49.05241401" lon="-118.41922454">
      </trkpt>
      <trkpt lat="49.05237672" lon="-118.41929858">
      </trkpt>
      <trkpt lat="49.05232687" lon="-118.41938485">
      </trkpt>
      <trkpt lat="49.05227117" lon="-118.41945169">
      </trkpt>
      <trkpt lat="49.05222431" lon="-118.4195171">
      </trkpt>
      <trkpt lat="49.05219745" lon="-118.41954866">
      </trkpt>
      <trkpt lat="49.0521664" lon="-118.41958431">
      </trkpt>
      <trkpt lat="49.0521314" lon="-118.41962738">
      </trkpt>
      <trkpt lat="49.05208825" lon="-118.41968199">
      </trkpt>
      <trkpt lat="49.05203334" lon="-118.41972831">
      </trkpt>
      <trkpt lat="49.05196681" lon="-118.41980032">
      </trkpt>
      <trkpt lat="49.05191039" lon="-118.41985709">
      </trkpt>
      <trkpt lat="49.05186756" lon="-118.41988446">
      </trkpt>
      <trkpt lat="49.05180426" lon="-118.41993895">
      </trkpt>
      <trkpt lat="49.05175163" lon="-118.41995434">
      </trkpt>
      <trkpt lat="49.05169528" lon="-118.41998052">
      </trkpt>
      <trkpt lat="49.0516402" lon="-118.4199929">
      </trkpt>
      <trkpt lat="49.05156939" lon="-118.42000445">
      </trkpt>
      <trkpt lat="49.05149225" lon="-118.41998985">
      </trkpt>
      <trkpt lat="49.05143503" lon="-118.41997202">
      </trkpt>
      <trkpt lat="49.05135069" lon="-118.41998237">
      </trkpt>
      <trkpt lat="49.05129238" lon="-118.42001228">
      </trkpt>
      <trkpt lat="49.05123745" lon="-118.4200586">
      </trkpt>
      <trkpt lat="49.05117811" lon="-118.42010565">
      </trkpt>
      <trkpt lat="49.05112098" lon="-118.42015235">
      </trkpt>
      <trkpt lat="49.05105649" lon="-118.42019004">
      </trkpt>
      <trkpt lat="49.05099872" lon="-118.42019607">
      </trkpt>
      <trkpt lat="49.05094119" lon="-118.42020545">
      </trkpt>
      <trkpt lat="49.05085552" lon="-118.4202602">
      </trkpt>
      <trkpt lat="49.05082179" lon="-118.42028948">
      </trkpt>
      <trkpt lat="49.05077572" lon="-118.42033437">
      </trkpt>
      <trkpt lat="49.05071787" lon="-118.42037098">
      </trkpt>
      <trkpt lat="49.05066374" lon="-118.4203968">
      </trkpt>
      <trkpt lat="49.05061379" lon="-118.42041853">
      </trkpt>
      <trkpt lat="49.05054693" lon="-118.42042265">
      </trkpt>
      <trkpt lat="49.05047786" lon="-118.42042712">
      </trkpt>
      <trkpt lat="49.05040041" lon="-118.42043975">
      </trkpt>
      <trkpt lat="49.05033157" lon="-118.42044759">
      </trkpt>
      <trkpt lat="49.05026185" lon="-118.4204114">
      </trkpt>
      <trkpt lat="49.05016795" lon="-118.42041312">
      </trkpt>
      <trkpt lat="49.05008142" lon="-118.42042384">
      </trkpt>
      <trkpt lat="49.05001503" lon="-118.42043467">
      </trkpt>
      <trkpt lat="49.04995133" lon="-118.42045187">
      </trkpt>
      <trkpt lat="49.04989696" lon="-118.42047431">
      </trkpt>
      <trkpt lat="49.04984157" lon="-118.42051392">
      </trkpt>
      <trkpt lat="49.04978648" lon="-118.42052632">
      </trkpt>
      <trkpt lat="49.04974491" lon="-118.42053989">
      </trkpt>
      <trkpt lat="49.04971757" lon="-118.42056473">
      </trkpt>
      <trkpt lat="49.04969782" lon="-118.42060192">
      </trkpt>
      <trkpt lat="49.04968842" lon="-118.42062724">
      </trkpt>
      <trkpt lat="49.04968195" lon="-118.42066227">
      </trkpt>
      <trkpt lat="49.04968646" lon="-118.42072608">
      </trkpt>
      <trkpt lat="49.0497011" lon="-118.42077464">
      </trkpt>
      <trkpt lat="49.04976886" lon="-118.42090967">
      </trkpt>
      <trkpt lat="49.04980405" lon="-118.42099566">
      </trkpt>
      <trkpt lat="49.04987774" lon="-118.42111954">
      </trkpt>
      <trkpt lat="49.04992573" lon="-118.42119664">
      </trkpt>
      <trkpt lat="49.04995088" lon="-118.42126728">
      </trkpt>
      <trkpt lat="49.04998811" lon="-118.42131896">
      </trkpt>
      <trkpt lat="49.0500229" lon="-118.42136764">
      </trkpt>
      <trkpt lat="49.05006749" lon="-118.42142831">
      </trkpt>
      <trkpt lat="49.05010622" lon="-118.42146956">
      </trkpt>
      <trkpt lat="49.05014938" lon="-118.42151008">
      </trkpt>
      <trkpt lat="49.0501569" lon="-118.42155302">
      </trkpt>
      <trkpt lat="49.05015659" lon="-118.42158025">
      </trkpt>
      <trkpt lat="49.05014348" lon="-118.42161636">
      </trkpt>
      <trkpt lat="49.05012332" lon="-118.42161625">
      </trkpt>
      <trkpt lat="49.05006903" lon="-118.42160812">
      </trkpt>
      <trkpt lat="49.05001765" lon="-118.4216097">
      </trkpt>
      <trkpt lat="49.04996526" lon="-118.42162844">
      </trkpt>
      <trkpt lat="49.04990772" lon="-118.42163783">
      </trkpt>
      <trkpt lat="49.04985904" lon="-118.42164577">
      </trkpt>
      <trkpt lat="49.04979953" lon="-118.42165887">
      </trkpt>
      <trkpt lat="49.04972184" lon="-118.42166814">
      </trkpt>
      <trkpt lat="49.04965766" lon="-118.42167861">
      </trkpt>
      <trkpt lat="49.04960921" lon="-118.4216899">
      </trkpt>
      <trkpt lat="49.04956567" lon="-118.4217072">
      </trkpt>
      <trkpt lat="49.04952213" lon="-118.42172449">
      </trkpt>
      <trkpt lat="49.04945701" lon="-118.42172152">
      </trkpt>
      <trkpt lat="49.04939923" lon="-118.42172755">
      </trkpt>
      <trkpt lat="49.0493579" lon="-118.42174448">
      </trkpt>
      <trkpt lat="49.04931412" lon="-118.42175841">
      </trkpt>
      <trkpt lat="49.04927207" lon="-118.42176527">
      </trkpt>
      <trkpt lat="49.04923792" lon="-118.42175725">
      </trkpt>
      <trkpt lat="49.04922424" lon="-118.42172211">
      </trkpt>
      <trkpt lat="49.04921649" lon="-118.42167582">
      </trkpt>
      <trkpt lat="49.04921957" lon="-118.42162436">
      </trkpt>
      <trkpt lat="49.04923149" lon="-118.42157146">
      </trkpt>
      <trkpt lat="49.04921464" lon="-118.42152324">
      </trkpt>
      <trkpt lat="49.0491835" lon="-118.42149435">
      </trkpt>
      <trkpt lat="49.04914738" lon="-118.42149006">
      </trkpt>
      <trkpt lat="49.04909055" lon="-118.42150951">
      </trkpt>
      <trkpt lat="49.04903104" lon="-118.42152262">
      </trkpt>
      <trkpt lat="49.04896213" lon="-118.42156103">
      </trkpt>
      <trkpt lat="49.04888223" lon="-118.42157066">
      </trkpt>
      <trkpt lat="49.04880675" lon="-118.42157958">
      </trkpt>
      <trkpt lat="49.04874455" lon="-118.42158633">
      </trkpt>
      <trkpt lat="49.04869951" lon="-118.42161405">
      </trkpt>
      <trkpt lat="49.04865004" lon="-118.4216425">
      </trkpt>
      <trkpt lat="49.04858753" lon="-118.42167648">
      </trkpt>
      <trkpt lat="49.04852281" lon="-118.42171081">
      </trkpt>
      <trkpt lat="49.04846354" lon="-118.42172728">
      </trkpt>
      <trkpt lat="49.04840102" lon="-118.42176125">
      </trkpt>
      <trkpt lat="49.048328" lon="-118.42177316">
      </trkpt>
      <trkpt lat="49.04827932" lon="-118.4217811">
      </trkpt>
      <trkpt lat="49.04823135" lon="-118.42179912">
      </trkpt>
      <trkpt lat="49.04817768" lon="-118.42183164">
      </trkpt>
      <trkpt lat="49.0481415" lon="-118.42185794">
      </trkpt>
      <trkpt lat="49.04810459" lon="-118.42187414">
      </trkpt>
      <trkpt lat="49.04803591" lon="-118.42191591">
      </trkpt>
      <trkpt lat="49.04795649" lon="-118.42193226">
      </trkpt>
      <trkpt lat="49.04790069" lon="-118.42193457">
      </trkpt>
      <trkpt lat="49.04785406" lon="-118.42190821">
      </trkpt>
      <trkpt lat="49.04780868" lon="-118.42186805">
      </trkpt>
      <trkpt lat="49.04774427" lon="-118.42187516">
      </trkpt>
      <trkpt lat="49.04768657" lon="-118.42185058">
      </trkpt>
      <trkpt lat="49.0476227" lon="-118.42183383">
      </trkpt>
      <trkpt lat="49.04755418" lon="-118.42181443">
      </trkpt>
      <trkpt lat="49.04750138" lon="-118.42179586">
      </trkpt>
      <trkpt lat="49.04744004" lon="-118.42175152">
      </trkpt>
      <trkpt lat="49.04737308" lon="-118.42169109">
      </trkpt>
      <trkpt lat="49.04730834" lon="-118.42163032">
      </trkpt>
      <trkpt lat="49.04725388" lon="-118.42158823">
      </trkpt>
      <trkpt lat="49.04718764" lon="-118.4215379">
      </trkpt>
      <trkpt lat="49.04714099" lon="-118.42151153">
      </trkpt>
      <trkpt lat="49.04707547" lon="-118.42147126">
      </trkpt>
      <trkpt lat="49.04702196" lon="-118.42144262">
      </trkpt>
      <trkpt lat="49.0469667" lon="-118.42142106">
      </trkpt>
      <trkpt lat="49.04690039" lon="-118.4214013">
      </trkpt>
      <trkpt lat="49.04684759" lon="-118.42138273">
      </trkpt>
      <trkpt lat="49.04680092" lon="-118.42131125">
      </trkpt>
      <trkpt lat="49.04674737" lon="-118.42125942">
      </trkpt>
      <trkpt lat="49.04670439" lon="-118.42121597">
      </trkpt>
      <trkpt lat="49.0466479" lon="-118.42116967">
      </trkpt>
      <trkpt lat="49.04660821" lon="-118.42112568">
      </trkpt>
      <trkpt lat="49.04655712" lon="-118.42108028">
      </trkpt>
    </trkseg>
    <trkseg>
      <trkpt lat="49.04431788" lon="-118.42968042">
      </trkpt>
      <trkpt lat="49.04431931" lon="-118.42967967">
      </trkpt>
      <trkpt lat="49.04435064" lon="-118.42966547">
      </trkpt>
      <trkpt lat="49.04438054" lon="-118.42964788">
      </trkpt>
      <trkpt lat="49.04440444" lon="-118.42961309">
      </trkpt>
      <trkpt lat="49.04440862" lon="-118.42957061">
      </trkpt>
      <trkpt lat="49.04438036" lon="-118.42950976">
      </trkpt>
      <trkpt lat="49.04433518" lon="-118.42948077">
      </trkpt>
      <trkpt lat="49.04430354" lon="-118.42945685">
      </trkpt>
      <trkpt lat="49.04424957" lon="-118.42942201">
      </trkpt>
      <trkpt lat="49.04420398" lon="-118.42940399">
      </trkpt>
      <trkpt lat="49.04416782" lon="-118.42939021">
      </trkpt>
    </trkseg>
  </trk>
</gpx>