<?xml version="1.0" encoding="UTF-8"?>
<gpx xmlns="http://www.topografix.com/GPX/1/1" xmlns:xsi="http://www.w3.org/2001/XMLSchema-instance" xsi:schemaLocation="http://www.topografix.com/GPX/1/1 http://www.topografix.com/GPX/1/1/gpx.xsd" version="1.1" creator="gpx.py -- https://github.com/tkrajina/gpxpy">
  <trk>
    <name>Ogilvie Peak</name>
    <trkseg>
      <trkpt lat="49.38806523" lon="-121.3203905">
      </trkpt>
      <trkpt lat="49.38816271" lon="-121.32076322">
      </trkpt>
      <trkpt lat="49.38817827" lon="-121.32082272">
      </trkpt>
      <trkpt lat="49.38823693" lon="-121.3209452">
      </trkpt>
      <trkpt lat="49.38833361" lon="-121.32114707">
      </trkpt>
      <trkpt lat="49.38847736" lon="-121.32126804">
      </trkpt>
      <trkpt lat="49.38858125" lon="-121.32128831">
      </trkpt>
      <trkpt lat="49.38864297" lon="-121.32125044">
      </trkpt>
      <trkpt lat="49.38896967" lon="-121.3213938">
      </trkpt>
      <trkpt lat="49.38919117" lon="-121.3218563">
      </trkpt>
      <trkpt lat="49.38929315" lon="-121.32174169">
      </trkpt>
      <trkpt lat="49.38954029" lon="-121.32225773">
      </trkpt>
      <trkpt lat="49.3893509" lon="-121.32286431">
      </trkpt>
      <trkpt lat="49.38945435" lon="-121.32293512">
      </trkpt>
      <trkpt lat="49.38961398" lon="-121.32304436">
      </trkpt>
      <trkpt lat="49.38971703" lon="-121.32343779">
      </trkpt>
      <trkpt lat="49.38978089" lon="-121.32368162">
      </trkpt>
      <trkpt lat="49.38966445" lon="-121.32387595">
      </trkpt>
      <trkpt lat="49.3896018" lon="-121.3239805">
      </trkpt>
      <trkpt lat="49.38945042" lon="-121.32401866">
      </trkpt>
      <trkpt lat="49.38931559" lon="-121.32420383">
      </trkpt>
      <trkpt lat="49.38917661" lon="-121.32429451">
      </trkpt>
      <trkpt lat="49.38869751" lon="-121.32487127">
      </trkpt>
      <trkpt lat="49.38848586" lon="-121.32524022">
      </trkpt>
      <trkpt lat="49.3883546" lon="-121.32546903">
      </trkpt>
      <trkpt lat="49.38814158" lon="-121.32565249">
      </trkpt>
      <trkpt lat="49.38763245" lon="-121.32651588">
      </trkpt>
      <trkpt lat="49.38726863" lon="-121.32713282">
      </trkpt>
      <trkpt lat="49.38698411" lon="-121.32761529">
      </trkpt>
      <trkpt lat="49.38698282" lon="-121.32803017">
      </trkpt>
      <trkpt lat="49.38710431" lon="-121.32819122">
      </trkpt>
      <trkpt lat="49.38738807" lon="-121.32856732">
      </trkpt>
      <trkpt lat="49.3876508" lon="-121.32891557">
      </trkpt>
      <trkpt lat="49.38794075" lon="-121.32929989">
      </trkpt>
      <trkpt lat="49.38807755" lon="-121.32954913">
      </trkpt>
      <trkpt lat="49.38846409" lon="-121.32984539">
      </trkpt>
      <trkpt lat="49.3891953" lon="-121.33040581">
      </trkpt>
      <trkpt lat="49.38957233" lon="-121.3306948">
      </trkpt>
      <trkpt lat="49.39010793" lon="-121.33144489">
      </trkpt>
      <trkpt lat="49.3907557" lon="-121.33235213">
      </trkpt>
      <trkpt lat="49.39093513" lon="-121.33260344">
      </trkpt>
      <trkpt lat="49.39123361" lon="-121.33290052">
      </trkpt>
      <trkpt lat="49.39166847" lon="-121.33333333">
      </trkpt>
      <trkpt lat="49.3918772" lon="-121.33362395">
      </trkpt>
      <trkpt lat="49.39245235" lon="-121.3338962">
      </trkpt>
      <trkpt lat="49.39289391" lon="-121.33366247">
      </trkpt>
      <trkpt lat="49.39351971" lon="-121.3336413">
      </trkpt>
      <trkpt lat="49.39387654" lon="-121.33362922">
      </trkpt>
      <trkpt lat="49.39451403" lon="-121.33388022">
      </trkpt>
      <trkpt lat="49.39471022" lon="-121.33367395">
      </trkpt>
      <trkpt lat="49.39501304" lon="-121.33335557">
      </trkpt>
      <trkpt lat="49.39560728" lon="-121.33325724">
      </trkpt>
      <trkpt lat="49.39627348" lon="-121.33314699">
      </trkpt>
      <trkpt lat="49.39675799" lon="-121.33306681">
      </trkpt>
      <trkpt lat="49.39684842" lon="-121.33309278">
      </trkpt>
      <trkpt lat="49.39709601" lon="-121.33317932">
      </trkpt>
      <trkpt lat="49.39722425" lon="-121.33344887">
      </trkpt>
      <trkpt lat="49.3974264" lon="-121.33387376">
      </trkpt>
      <trkpt lat="49.39767453" lon="-121.33439533">
      </trkpt>
      <trkpt lat="49.397699" lon="-121.33528607">
      </trkpt>
      <trkpt lat="49.39763572" lon="-121.33561475">
      </trkpt>
      <trkpt lat="49.39763791" lon="-121.33641056">
      </trkpt>
      <trkpt lat="49.39762669" lon="-121.33648105">
      </trkpt>
      <trkpt lat="49.39765651" lon="-121.33654239">
      </trkpt>
      <trkpt lat="49.39767208" lon="-121.33661677">
      </trkpt>
      <trkpt lat="49.39768615" lon="-121.33669108">
      </trkpt>
      <trkpt lat="49.39769638" lon="-121.33673579">
      </trkpt>
      <trkpt lat="49.39770978" lon="-121.33680962">
      </trkpt>
      <trkpt lat="49.39772816" lon="-121.3368984">
      </trkpt>
      <trkpt lat="49.39774901" lon="-121.33697289">
      </trkpt>
      <trkpt lat="49.39775471" lon="-121.33698805">
      </trkpt>
      <trkpt lat="49.39775649" lon="-121.33707259">
      </trkpt>
      <trkpt lat="49.39776885" lon="-121.33717143">
      </trkpt>
      <trkpt lat="49.39779293" lon="-121.33727006">
      </trkpt>
      <trkpt lat="49.3978003" lon="-121.33731194">
      </trkpt>
      <trkpt lat="49.39781653" lon="-121.33736889">
      </trkpt>
      <trkpt lat="49.397819" lon="-121.33745122">
      </trkpt>
      <trkpt lat="49.39783466" lon="-121.33754903">
      </trkpt>
      <trkpt lat="49.39786716" lon="-121.33762232">
      </trkpt>
      <trkpt lat="49.39787326" lon="-121.33770554">
      </trkpt>
      <trkpt lat="49.39786872" lon="-121.33775971">
      </trkpt>
      <trkpt lat="49.39789695" lon="-121.33787451">
      </trkpt>
      <trkpt lat="49.39788876" lon="-121.337928">
      </trkpt>
      <trkpt lat="49.39787351" lon="-121.33806168">
      </trkpt>
      <trkpt lat="49.39786864" lon="-121.33814212">
      </trkpt>
      <trkpt lat="49.39785757" lon="-121.33819395">
      </trkpt>
      <trkpt lat="49.39784613" lon="-121.33829897">
      </trkpt>
      <trkpt lat="49.39784085" lon="-121.33836428">
      </trkpt>
      <trkpt lat="49.39783108" lon="-121.33840189">
      </trkpt>
      <trkpt lat="49.39781688" lon="-121.33850408">
      </trkpt>
      <trkpt lat="49.39781927" lon="-121.33854398">
      </trkpt>
      <trkpt lat="49.3978015" lon="-121.33861834">
      </trkpt>
      <trkpt lat="49.39779488" lon="-121.33870833">
      </trkpt>
      <trkpt lat="49.39780027" lon="-121.33874916">
      </trkpt>
      <trkpt lat="49.39781287" lon="-121.33881804">
      </trkpt>
      <trkpt lat="49.39783662" lon="-121.3389308">
      </trkpt>
      <trkpt lat="49.39785809" lon="-121.33901845">
      </trkpt>
      <trkpt lat="49.39787094" lon="-121.33909129">
      </trkpt>
      <trkpt lat="49.39788323" lon="-121.33920209">
      </trkpt>
      <trkpt lat="49.39789007" lon="-121.33932346">
      </trkpt>
      <trkpt lat="49.39789124" lon="-121.33940348">
      </trkpt>
      <trkpt lat="49.39789096" lon="-121.33946856">
      </trkpt>
      <trkpt lat="49.39790143" lon="-121.3394852">
      </trkpt>
      <trkpt lat="49.39789921" lon="-121.33956268">
      </trkpt>
      <trkpt lat="49.39788582" lon="-121.33965048">
      </trkpt>
      <trkpt lat="49.39790084" lon="-121.33976341">
      </trkpt>
      <trkpt lat="49.39789791" lon="-121.3397891">
      </trkpt>
      <trkpt lat="49.3978978" lon="-121.33990961">
      </trkpt>
      <trkpt lat="49.3978844" lon="-121.33999667">
      </trkpt>
      <trkpt lat="49.39787444" lon="-121.34005824">
      </trkpt>
      <trkpt lat="49.39784737" lon="-121.34018815">
      </trkpt>
      <trkpt lat="49.39783024" lon="-121.34025611">
      </trkpt>
      <trkpt lat="49.39782845" lon="-121.3403176">
      </trkpt>
      <trkpt lat="49.3978071" lon="-121.3403944">
      </trkpt>
      <trkpt lat="49.39779159" lon="-121.34047625">
      </trkpt>
      <trkpt lat="49.39780508" lon="-121.34053135">
      </trkpt>
      <trkpt lat="49.39778335" lon="-121.34063369">
      </trkpt>
      <trkpt lat="49.39776846" lon="-121.34070089">
      </trkpt>
      <trkpt lat="49.39774268" lon="-121.34082456">
      </trkpt>
      <trkpt lat="49.39771655" lon="-121.34094629">
      </trkpt>
      <trkpt lat="49.3977058" lon="-121.34104905">
      </trkpt>
      <trkpt lat="49.39769279" lon="-121.34116194">
      </trkpt>
      <trkpt lat="49.39768926" lon="-121.34127694">
      </trkpt>
      <trkpt lat="49.39766673" lon="-121.34139841">
      </trkpt>
      <trkpt lat="49.39767459" lon="-121.34153129">
      </trkpt>
      <trkpt lat="49.39767702" lon="-121.34159718">
      </trkpt>
      <trkpt lat="49.39766811" lon="-121.34163947">
      </trkpt>
      <trkpt lat="49.39768356" lon="-121.34169962">
      </trkpt>
      <trkpt lat="49.39767026" lon="-121.34174882">
      </trkpt>
      <trkpt lat="49.39765726" lon="-121.34182849">
      </trkpt>
      <trkpt lat="49.39765515" lon="-121.3418994">
      </trkpt>
      <trkpt lat="49.39765503" lon="-121.34197286">
      </trkpt>
      <trkpt lat="49.39766019" lon="-121.34202692">
      </trkpt>
      <trkpt lat="49.3976556" lon="-121.34204691">
      </trkpt>
      <trkpt lat="49.39764815" lon="-121.34211903">
      </trkpt>
      <trkpt lat="49.39764399" lon="-121.34216883">
      </trkpt>
      <trkpt lat="49.39764485" lon="-121.34219944">
      </trkpt>
      <trkpt lat="49.39764072" lon="-121.34224883">
      </trkpt>
      <trkpt lat="49.39765241" lon="-121.34227196">
      </trkpt>
      <trkpt lat="49.39758831" lon="-121.34239157">
      </trkpt>
      <trkpt lat="49.39759196" lon="-121.3424751">
      </trkpt>
      <trkpt lat="49.39757676" lon="-121.34254081">
      </trkpt>
      <trkpt lat="49.39756848" lon="-121.34262384">
      </trkpt>
      <trkpt lat="49.39757037" lon="-121.3426658">
      </trkpt>
      <trkpt lat="49.39756152" lon="-121.34273308">
      </trkpt>
      <trkpt lat="49.39755829" lon="-121.34279223">
      </trkpt>
      <trkpt lat="49.39754838" lon="-121.34283457">
      </trkpt>
      <trkpt lat="49.39754485" lon="-121.34288602">
      </trkpt>
      <trkpt lat="49.39754214" lon="-121.34295476">
      </trkpt>
      <trkpt lat="49.39753779" lon="-121.34298885">
      </trkpt>
      <trkpt lat="49.39753902" lon="-121.34301484">
      </trkpt>
      <trkpt lat="49.39753582" lon="-121.3430739">
      </trkpt>
      <trkpt lat="49.39753848" lon="-121.34313201">
      </trkpt>
      <trkpt lat="49.39754049" lon="-121.34317507">
      </trkpt>
      <trkpt lat="49.39754211" lon="-121.34320967">
      </trkpt>
      <trkpt lat="49.39753941" lon="-121.34327844">
      </trkpt>
      <trkpt lat="49.39753469" lon="-121.34330394">
      </trkpt>
      <trkpt lat="49.39753156" lon="-121.34336591">
      </trkpt>
      <trkpt lat="49.39752738" lon="-121.34340419">
      </trkpt>
      <trkpt lat="49.39752886" lon="-121.34343642">
      </trkpt>
      <trkpt lat="49.3975307" lon="-121.34347667">
      </trkpt>
      <trkpt lat="49.39753758" lon="-121.34349926">
      </trkpt>
      <trkpt lat="49.39755718" lon="-121.34354462">
      </trkpt>
      <trkpt lat="49.39756473" lon="-121.34358311">
      </trkpt>
      <trkpt lat="49.39758446" lon="-121.34363111">
      </trkpt>
      <trkpt lat="49.39760412" lon="-121.34367845">
      </trkpt>
      <trkpt lat="49.39762312" lon="-121.34371041">
      </trkpt>
      <trkpt lat="49.39764183" lon="-121.34373929">
      </trkpt>
      <trkpt lat="49.39768017" lon="-121.34382095">
      </trkpt>
      <trkpt lat="49.3976935" lon="-121.34386002">
      </trkpt>
      <trkpt lat="49.39769506" lon="-121.34389829">
      </trkpt>
      <trkpt lat="49.39769686" lon="-121.34394346">
      </trkpt>
      <trkpt lat="49.39769246" lon="-121.34398027">
      </trkpt>
      <trkpt lat="49.39768171" lon="-121.34400235">
      </trkpt>
      <trkpt lat="49.39766556" lon="-121.34403265">
      </trkpt>
      <trkpt lat="49.3976382" lon="-121.34407005">
      </trkpt>
      <trkpt lat="49.39762287" lon="-121.34411556">
      </trkpt>
      <trkpt lat="49.39761258" lon="-121.34414434">
      </trkpt>
      <trkpt lat="49.39758518" lon="-121.34417649">
      </trkpt>
      <trkpt lat="49.39755871" lon="-121.34422377">
      </trkpt>
      <trkpt lat="49.39754317" lon="-121.34425729">
      </trkpt>
      <trkpt lat="49.39752132" lon="-121.34427502">
      </trkpt>
      <trkpt lat="49.39750596" lon="-121.34430796">
      </trkpt>
      <trkpt lat="49.39748505" lon="-121.34433993">
      </trkpt>
      <trkpt lat="49.39746922" lon="-121.34435997">
      </trkpt>
      <trkpt lat="49.39745379" lon="-121.34438644">
      </trkpt>
      <trkpt lat="49.39742696" lon="-121.34440843">
      </trkpt>
      <trkpt lat="49.39740097" lon="-121.34444627">
      </trkpt>
      <trkpt lat="49.39737985" lon="-121.34446907">
      </trkpt>
      <trkpt lat="49.39735915" lon="-121.3444992">
      </trkpt>
      <trkpt lat="49.39734883" lon="-121.34451423">
      </trkpt>
      <trkpt lat="49.39732745" lon="-121.34452952">
      </trkpt>
      <trkpt lat="49.39730725" lon="-121.34456685">
      </trkpt>
      <trkpt lat="49.39729224" lon="-121.34459661">
      </trkpt>
      <trkpt lat="49.39727726" lon="-121.34462633">
      </trkpt>
      <trkpt lat="49.39726899" lon="-121.34467783">
      </trkpt>
      <trkpt lat="49.3972596" lon="-121.34470629">
      </trkpt>
      <trkpt lat="49.39725023" lon="-121.34473467">
      </trkpt>
      <trkpt lat="49.39723541" lon="-121.3447631">
      </trkpt>
      <trkpt lat="49.39722609" lon="-121.34479134">
      </trkpt>
      <trkpt lat="49.3972063" lon="-121.34482668">
      </trkpt>
      <trkpt lat="49.39718659" lon="-121.34486159">
      </trkpt>
      <trkpt lat="49.39716156" lon="-121.34489562">
      </trkpt>
      <trkpt lat="49.39714205" lon="-121.34492942">
      </trkpt>
      <trkpt lat="49.39712758" lon="-121.34495635">
      </trkpt>
      <trkpt lat="49.39712307" lon="-121.34496975">
      </trkpt>
      <trkpt lat="49.39709919" lon="-121.34501706">
      </trkpt>
      <trkpt lat="49.39707939" lon="-121.34504516">
      </trkpt>
      <trkpt lat="49.3970803" lon="-121.3450583">
      </trkpt>
      <trkpt lat="49.39706148" lon="-121.34509937">
      </trkpt>
      <trkpt lat="49.39705748" lon="-121.34511942">
      </trkpt>
      <trkpt lat="49.397049" lon="-121.34515343">
      </trkpt>
      <trkpt lat="49.39704587" lon="-121.34518735">
      </trkpt>
      <trkpt lat="49.39703786" lon="-121.34522797">
      </trkpt>
      <trkpt lat="49.39704008" lon="-121.34526166">
      </trkpt>
      <trkpt lat="49.3970322" lon="-121.34530087">
      </trkpt>
      <trkpt lat="49.39703451" lon="-121.34533303">
      </trkpt>
      <trkpt lat="49.39703285" lon="-121.34538519">
      </trkpt>
      <trkpt lat="49.39702888" lon="-121.34540534">
      </trkpt>
      <trkpt lat="49.39703065" lon="-121.34543184">
      </trkpt>
      <trkpt lat="49.39702233" lon="-121.34546481">
      </trkpt>
      <trkpt lat="49.39702325" lon="-121.34547748">
      </trkpt>
      <trkpt lat="49.39700535" lon="-121.34552333">
      </trkpt>
      <trkpt lat="49.39700255" lon="-121.34556558">
      </trkpt>
      <trkpt lat="49.39699462" lon="-121.34561861">
      </trkpt>
      <trkpt lat="49.39699083" lon="-121.34564883">
      </trkpt>
      <trkpt lat="49.39698253" lon="-121.34569436">
      </trkpt>
      <trkpt lat="49.3969741" lon="-121.34575343">
      </trkpt>
      <trkpt lat="49.39696542" lon="-121.34581539">
      </trkpt>
      <trkpt lat="49.39694557" lon="-121.34586124">
      </trkpt>
      <trkpt lat="49.39694393" lon="-121.34596153">
      </trkpt>
      <trkpt lat="49.39694612" lon="-121.34601935">
      </trkpt>
      <trkpt lat="49.39694869" lon="-121.34608472">
      </trkpt>
      <trkpt lat="49.39694046" lon="-121.34615317">
      </trkpt>
      <trkpt lat="49.39693096" lon="-121.34618863">
      </trkpt>
      <trkpt lat="49.39692175" lon="-121.34623242">
      </trkpt>
      <trkpt lat="49.39692206" lon="-121.34624071">
      </trkpt>
      <trkpt lat="49.39690808" lon="-121.34630239">
      </trkpt>
      <trkpt lat="49.39689344" lon="-121.34634754">
      </trkpt>
      <trkpt lat="49.39688419" lon="-121.34639157">
      </trkpt>
      <trkpt lat="49.39688791" lon="-121.34649173">
      </trkpt>
      <trkpt lat="49.39688946" lon="-121.34653353">
      </trkpt>
      <trkpt lat="49.3968914" lon="-121.34658288">
      </trkpt>
      <trkpt lat="49.39688275" lon="-121.34663185">
      </trkpt>
      <trkpt lat="49.3968851" lon="-121.34667634">
      </trkpt>
      <trkpt lat="49.39688164" lon="-121.3467148">
      </trkpt>
      <trkpt lat="49.3968679" lon="-121.34676115">
      </trkpt>
      <trkpt lat="49.39686524" lon="-121.34680221">
      </trkpt>
      <trkpt lat="49.39686121" lon="-121.34682335">
      </trkpt>
      <trkpt lat="49.39684216" lon="-121.34694041">
      </trkpt>
      <trkpt lat="49.39683924" lon="-121.3469728">
      </trkpt>
      <trkpt lat="49.39683733" lon="-121.34701716">
      </trkpt>
      <trkpt lat="49.39683276" lon="-121.34709065">
      </trkpt>
      <trkpt lat="49.39683133" lon="-121.3471412">
      </trkpt>
      <trkpt lat="49.39683138" lon="-121.34720983">
      </trkpt>
      <trkpt lat="49.39682946" lon="-121.34725388">
      </trkpt>
      <trkpt lat="49.39682735" lon="-121.34730019">
      </trkpt>
      <trkpt lat="49.3968243" lon="-121.34733373">
      </trkpt>
      <trkpt lat="49.39681546" lon="-121.34736247">
      </trkpt>
      <trkpt lat="49.39681223" lon="-121.34739827">
      </trkpt>
      <trkpt lat="49.39680277" lon="-121.34742228">
      </trkpt>
      <trkpt lat="49.39680531" lon="-121.34746336">
      </trkpt>
      <trkpt lat="49.39682182" lon="-121.3477714">
      </trkpt>
      <trkpt lat="49.39681897" lon="-121.34780411">
      </trkpt>
      <trkpt lat="49.39681683" lon="-121.34784957">
      </trkpt>
      <trkpt lat="49.39681893" lon="-121.34788786">
      </trkpt>
      <trkpt lat="49.39681804" lon="-121.34795942">
      </trkpt>
      <trkpt lat="49.39681029" lon="-121.3479941">
      </trkpt>
      <trkpt lat="49.39681175" lon="-121.34802722">
      </trkpt>
      <trkpt lat="49.3968043" lon="-121.34806857">
      </trkpt>
      <trkpt lat="49.39680145" lon="-121.34810915">
      </trkpt>
      <trkpt lat="49.39679317" lon="-121.34813828">
      </trkpt>
      <trkpt lat="49.39678551" lon="-121.34818843">
      </trkpt>
      <trkpt lat="49.39678664" lon="-121.34822308">
      </trkpt>
      <trkpt lat="49.39678382" lon="-121.34827159">
      </trkpt>
      <trkpt lat="49.39678709" lon="-121.34833645">
      </trkpt>
      <trkpt lat="49.39678829" lon="-121.3483629">
      </trkpt>
      <trkpt lat="49.39680564" lon="-121.34842413">
      </trkpt>
      <trkpt lat="49.39681663" lon="-121.34844608">
      </trkpt>
      <trkpt lat="49.39683228" lon="-121.34846677">
      </trkpt>
      <trkpt lat="49.39685255" lon="-121.34848623">
      </trkpt>
      <trkpt lat="49.39686862" lon="-121.34852047">
      </trkpt>
      <trkpt lat="49.39690448" lon="-121.34856738">
      </trkpt>
      <trkpt lat="49.39691972" lon="-121.34858907">
      </trkpt>
      <trkpt lat="49.39694996" lon="-121.34863338">
      </trkpt>
      <trkpt lat="49.39697421" lon="-121.34867034">
      </trkpt>
      <trkpt lat="49.39697926" lon="-121.34868327">
      </trkpt>
      <trkpt lat="49.39699391" lon="-121.34870823">
      </trkpt>
      <trkpt lat="49.3969997" lon="-121.34874194">
      </trkpt>
      <trkpt lat="49.3970103" lon="-121.3487817">
      </trkpt>
      <trkpt lat="49.39702114" lon="-121.34883726">
      </trkpt>
      <trkpt lat="49.3970315" lon="-121.34887911">
      </trkpt>
      <trkpt lat="49.39704271" lon="-121.34893235">
      </trkpt>
      <trkpt lat="49.39705266" lon="-121.34895084">
      </trkpt>
      <trkpt lat="49.39707365" lon="-121.34901509">
      </trkpt>
      <trkpt lat="49.39707946" lon="-121.34904006">
      </trkpt>
      <trkpt lat="49.39708958" lon="-121.34905703">
      </trkpt>
      <trkpt lat="49.39711015" lon="-121.3490969">
      </trkpt>
      <trkpt lat="49.39713156" lon="-121.3491374">
      </trkpt>
      <trkpt lat="49.39714283" lon="-121.34916083">
      </trkpt>
      <trkpt lat="49.39720915" lon="-121.34921845">
      </trkpt>
      <trkpt lat="49.39722487" lon="-121.34923738">
      </trkpt>
      <trkpt lat="49.39723555" lon="-121.34925355">
      </trkpt>
      <trkpt lat="49.39726097" lon="-121.34927756">
      </trkpt>
      <trkpt lat="49.39727151" lon="-121.34929355">
      </trkpt>
      <trkpt lat="49.39728201" lon="-121.34930968">
      </trkpt>
      <trkpt lat="49.39729765" lon="-121.34933418">
      </trkpt>
      <trkpt lat="49.39732282" lon="-121.34936443">
      </trkpt>
      <trkpt lat="49.39732796" lon="-121.34937269">
      </trkpt>
      <trkpt lat="49.39734399" lon="-121.34940849">
      </trkpt>
      <trkpt lat="49.39734974" lon="-121.34942776">
      </trkpt>
      <trkpt lat="49.39735646" lon="-121.34946362">
      </trkpt>
      <trkpt lat="49.39736749" lon="-121.34949815">
      </trkpt>
      <trkpt lat="49.39736805" lon="-121.34951135">
      </trkpt>
      <trkpt lat="49.39737472" lon="-121.34956058">
      </trkpt>
      <trkpt lat="49.39737595" lon="-121.34958393">
      </trkpt>
      <trkpt lat="49.39738882" lon="-121.34965164">
      </trkpt>
      <trkpt lat="49.39739496" lon="-121.34968569">
      </trkpt>
      <trkpt lat="49.39740052" lon="-121.34970762">
      </trkpt>
      <trkpt lat="49.3974022" lon="-121.3497469">
      </trkpt>
      <trkpt lat="49.39741299" lon="-121.34978411">
      </trkpt>
      <trkpt lat="49.3974144" lon="-121.34981685">
      </trkpt>
      <trkpt lat="49.39742048" lon="-121.34985177">
      </trkpt>
      <trkpt lat="49.39743238" lon="-121.34991499">
      </trkpt>
      <trkpt lat="49.39744312" lon="-121.34995193">
      </trkpt>
      <trkpt lat="49.39745847" lon="-121.34999148">
      </trkpt>
      <trkpt lat="49.39746913" lon="-121.350029">
      </trkpt>
      <trkpt lat="49.39747837" lon="-121.35003372">
      </trkpt>
      <trkpt lat="49.39748956" lon="-121.35008419">
      </trkpt>
      <trkpt lat="49.39750933" lon="-121.35012526">
      </trkpt>
      <trkpt lat="49.39751078" lon="-121.35015554">
      </trkpt>
      <trkpt lat="49.39752078" lon="-121.35017725">
      </trkpt>
      <trkpt lat="49.39761433" lon="-121.35029222">
      </trkpt>
      <trkpt lat="49.3976445" lon="-121.35031814">
      </trkpt>
      <trkpt lat="49.39766293" lon="-121.35032691">
      </trkpt>
      <trkpt lat="49.39769596" lon="-121.35034574">
      </trkpt>
      <trkpt lat="49.39772105" lon="-121.35035246">
      </trkpt>
      <trkpt lat="49.39772868" lon="-121.35036625">
      </trkpt>
      <trkpt lat="49.39773607" lon="-121.35037456">
      </trkpt>
      <trkpt lat="49.39775498" lon="-121.35040554">
      </trkpt>
      <trkpt lat="49.3977589" lon="-121.35041475">
      </trkpt>
      <trkpt lat="49.39777501" lon="-121.35046206">
      </trkpt>
      <trkpt lat="49.39778306" lon="-121.3504857">
      </trkpt>
      <trkpt lat="49.3977989" lon="-121.35052781">
      </trkpt>
      <trkpt lat="49.39781084" lon="-121.35056091">
      </trkpt>
      <trkpt lat="49.3978264" lon="-121.3505979">
      </trkpt>
      <trkpt lat="49.39783492" lon="-121.35063232">
      </trkpt>
      <trkpt lat="49.39783616" lon="-121.3506589">
      </trkpt>
      <trkpt lat="49.39783715" lon="-121.35068022">
      </trkpt>
      <trkpt lat="49.39784182" lon="-121.35070603">
      </trkpt>
      <trkpt lat="49.39784729" lon="-121.35074882">
      </trkpt>
      <trkpt lat="49.39784964" lon="-121.35079885">
      </trkpt>
      <trkpt lat="49.39785096" lon="-121.35082673">
      </trkpt>
      <trkpt lat="49.39785227" lon="-121.35085469">
      </trkpt>
      <trkpt lat="49.39785456" lon="-121.3509035">
      </trkpt>
      <trkpt lat="49.39784949" lon="-121.35094455">
      </trkpt>
      <trkpt lat="49.39785152" lon="-121.35098801">
      </trkpt>
      <trkpt lat="49.39785227" lon="-121.35100433">
      </trkpt>
      <trkpt lat="49.39785418" lon="-121.35104506">
      </trkpt>
      <trkpt lat="49.39785547" lon="-121.35107244">
      </trkpt>
      <trkpt lat="49.39785841" lon="-121.35113464">
      </trkpt>
      <trkpt lat="49.39786005" lon="-121.35116956">
      </trkpt>
      <trkpt lat="49.39786234" lon="-121.35121811">
      </trkpt>
      <trkpt lat="49.39786773" lon="-121.35125645">
      </trkpt>
      <trkpt lat="49.39787733" lon="-121.35130734">
      </trkpt>
      <trkpt lat="49.39788259" lon="-121.35134144">
      </trkpt>
      <trkpt lat="49.39788814" lon="-121.35138141">
      </trkpt>
      <trkpt lat="49.39789682" lon="-121.35141221">
      </trkpt>
      <trkpt lat="49.39790143" lon="-121.35143333">
      </trkpt>
      <trkpt lat="49.39791387" lon="-121.3514661">
      </trkpt>
      <trkpt lat="49.39793296" lon="-121.35155956">
      </trkpt>
      <trkpt lat="49.39794207" lon="-121.35159956">
      </trkpt>
      <trkpt lat="49.39794757" lon="-121.35164017">
      </trkpt>
      <trkpt lat="49.39795355" lon="-121.35169124">
      </trkpt>
      <trkpt lat="49.39795879" lon="-121.35172652">
      </trkpt>
      <trkpt lat="49.39796477" lon="-121.35177761">
      </trkpt>
      <trkpt lat="49.39796963" lon="-121.35180369">
      </trkpt>
      <trkpt lat="49.39797883" lon="-121.35184522">
      </trkpt>
      <trkpt lat="49.39798394" lon="-121.35187663">
      </trkpt>
      <trkpt lat="49.39798895" lon="-121.35190482">
      </trkpt>
      <trkpt lat="49.39799745" lon="-121.3519286">
      </trkpt>
      <trkpt lat="49.39799875" lon="-121.3519537">
      </trkpt>
      <trkpt lat="49.39802217" lon="-121.35205479">
      </trkpt>
      <trkpt lat="49.39803113" lon="-121.35208568">
      </trkpt>
      <trkpt lat="49.39804057" lon="-121.3521244">
      </trkpt>
      <trkpt lat="49.39804999" lon="-121.35216236">
      </trkpt>
      <trkpt lat="49.39805889" lon="-121.35219201">
      </trkpt>
      <trkpt lat="49.39807108" lon="-121.35221421">
      </trkpt>
      <trkpt lat="49.39808368" lon="-121.35224344">
      </trkpt>
      <trkpt lat="49.39809246" lon="-121.35226843">
      </trkpt>
      <trkpt lat="49.39810503" lon="-121.35229695">
      </trkpt>
      <trkpt lat="49.39810538" lon="-121.35230336">
      </trkpt>
      <trkpt lat="49.39812186" lon="-121.3523364">
      </trkpt>
      <trkpt lat="49.39812689" lon="-121.35236075">
      </trkpt>
      <trkpt lat="49.39814398" lon="-121.3523991">
      </trkpt>
      <trkpt lat="49.3981578" lon="-121.35243505">
      </trkpt>
      <trkpt lat="49.39817071" lon="-121.35245591">
      </trkpt>
      <trkpt lat="49.39818824" lon="-121.3524866">
      </trkpt>
      <trkpt lat="49.39820224" lon="-121.35252201">
      </trkpt>
      <trkpt lat="49.39822351" lon="-121.35255395">
      </trkpt>
      <trkpt lat="49.39825362" lon="-121.35259406">
      </trkpt>
      <trkpt lat="49.3982759" lon="-121.35262777">
      </trkpt>
      <trkpt lat="49.39831216" lon="-121.35264588">
      </trkpt>
      <trkpt lat="49.39833639" lon="-121.3526526">
      </trkpt>
      <trkpt lat="49.39836954" lon="-121.35266988">
      </trkpt>
      <trkpt lat="49.3984146" lon="-121.3526868">
      </trkpt>
      <trkpt lat="49.39843483" lon="-121.35269046">
      </trkpt>
      <trkpt lat="49.39845916" lon="-121.35269487">
      </trkpt>
      <trkpt lat="49.39847825" lon="-121.35268332">
      </trkpt>
      <trkpt lat="49.39850476" lon="-121.35266923">
      </trkpt>
      <trkpt lat="49.3985206" lon="-121.35266964">
      </trkpt>
      <trkpt lat="49.39853979" lon="-121.35266266">
      </trkpt>
      <trkpt lat="49.39856359" lon="-121.35266329">
      </trkpt>
      <trkpt lat="49.39858014" lon="-121.35267121">
      </trkpt>
      <trkpt lat="49.39860003" lon="-121.35267174">
      </trkpt>
      <trkpt lat="49.39862199" lon="-121.3526949">
      </trkpt>
      <trkpt lat="49.39873108" lon="-121.35275193">
      </trkpt>
      <trkpt lat="49.39874801" lon="-121.35275602">
      </trkpt>
      <trkpt lat="49.39877836" lon="-121.35277797">
      </trkpt>
      <trkpt lat="49.39879596" lon="-121.35279522">
      </trkpt>
      <trkpt lat="49.39880944" lon="-121.35281312">
      </trkpt>
      <trkpt lat="49.39883558" lon="-121.35283467">
      </trkpt>
      <trkpt lat="49.398866" lon="-121.35286065">
      </trkpt>
      <trkpt lat="49.39888463" lon="-121.35289703">
      </trkpt>
      <trkpt lat="49.39889438" lon="-121.35292211">
      </trkpt>
      <trkpt lat="49.39891241" lon="-121.35295025">
      </trkpt>
      <trkpt lat="49.39893453" lon="-121.35297748">
      </trkpt>
      <trkpt lat="49.39895719" lon="-121.35301226">
      </trkpt>
      <trkpt lat="49.39896612" lon="-121.3530236">
      </trkpt>
      <trkpt lat="49.39899215" lon="-121.35304458">
      </trkpt>
      <trkpt lat="49.39902115" lon="-121.35305501">
      </trkpt>
      <trkpt lat="49.39905424" lon="-121.35306531">
      </trkpt>
      <trkpt lat="49.39908288" lon="-121.35307053">
      </trkpt>
      <trkpt lat="49.39909565" lon="-121.35308049">
      </trkpt>
      <trkpt lat="49.3991158" lon="-121.35308128">
      </trkpt>
      <trkpt lat="49.39912804" lon="-121.35308445">
      </trkpt>
      <trkpt lat="49.39915247" lon="-121.35309079">
      </trkpt>
      <trkpt lat="49.39918489" lon="-121.35310591">
      </trkpt>
      <trkpt lat="49.39920966" lon="-121.35312919">
      </trkpt>
      <trkpt lat="49.39923196" lon="-121.35317345">
      </trkpt>
      <trkpt lat="49.39924033" lon="-121.35318333">
      </trkpt>
      <trkpt lat="49.39925062" lon="-121.35322465">
      </trkpt>
      <trkpt lat="49.39925512" lon="-121.3532357">
      </trkpt>
      <trkpt lat="49.39927328" lon="-121.35328026">
      </trkpt>
      <trkpt lat="49.39927788" lon="-121.35329158">
      </trkpt>
      <trkpt lat="49.39929213" lon="-121.35333206">
      </trkpt>
      <trkpt lat="49.39930496" lon="-121.3533529">
      </trkpt>
      <trkpt lat="49.39932091" lon="-121.35336536">
      </trkpt>
      <trkpt lat="49.39933777" lon="-121.35339083">
      </trkpt>
      <trkpt lat="49.39936561" lon="-121.35341156">
      </trkpt>
      <trkpt lat="49.39938613" lon="-121.35343563">
      </trkpt>
      <trkpt lat="49.39940268" lon="-121.3534554">
      </trkpt>
      <trkpt lat="49.39942689" lon="-121.35347826">
      </trkpt>
      <trkpt lat="49.39943866" lon="-121.3534863">
      </trkpt>
      <trkpt lat="49.39945543" lon="-121.35351198">
      </trkpt>
      <trkpt lat="49.39945996" lon="-121.35352314">
      </trkpt>
      <trkpt lat="49.39948689" lon="-121.35354249">
      </trkpt>
      <trkpt lat="49.39951264" lon="-121.35354885">
      </trkpt>
      <trkpt lat="49.39954138" lon="-121.35354761">
      </trkpt>
      <trkpt lat="49.39958484" lon="-121.35355282">
      </trkpt>
      <trkpt lat="49.39963427" lon="-121.35354883">
      </trkpt>
      <trkpt lat="49.39966706" lon="-121.35355992">
      </trkpt>
      <trkpt lat="49.39968436" lon="-121.35355802">
      </trkpt>
      <trkpt lat="49.39970622" lon="-121.35356753">
      </trkpt>
      <trkpt lat="49.39972593" lon="-121.35355741">
      </trkpt>
      <trkpt lat="49.399752" lon="-121.353544">
      </trkpt>
      <trkpt lat="49.39977462" lon="-121.35353237">
      </trkpt>
      <trkpt lat="49.39978886" lon="-121.35353867">
      </trkpt>
      <trkpt lat="49.39982145" lon="-121.35352863">
      </trkpt>
      <trkpt lat="49.39984426" lon="-121.35352358">
      </trkpt>
      <trkpt lat="49.39988645" lon="-121.35352049">
      </trkpt>
      <trkpt lat="49.39990237" lon="-121.35351824">
      </trkpt>
      <trkpt lat="49.39991964" lon="-121.35352861">
      </trkpt>
      <trkpt lat="49.39993326" lon="-121.3535346">
      </trkpt>
      <trkpt lat="49.3999492" lon="-121.35353276">
      </trkpt>
      <trkpt lat="49.39995695" lon="-121.35354244">
      </trkpt>
      <trkpt lat="49.39998088" lon="-121.35352912">
      </trkpt>
      <trkpt lat="49.40001136" lon="-121.35351909">
      </trkpt>
      <trkpt lat="49.40003833" lon="-121.35351034">
      </trkpt>
      <trkpt lat="49.4000637" lon="-121.35351566">
      </trkpt>
      <trkpt lat="49.4000787" lon="-121.35351344">
      </trkpt>
      <trkpt lat="49.40011025" lon="-121.3535216">
      </trkpt>
      <trkpt lat="49.40013693" lon="-121.35353942">
      </trkpt>
      <trkpt lat="49.40014792" lon="-121.35355318">
      </trkpt>
      <trkpt lat="49.40016439" lon="-121.35356345">
      </trkpt>
      <trkpt lat="49.40016986" lon="-121.35356001">
      </trkpt>
      <trkpt lat="49.40018347" lon="-121.35355141">
      </trkpt>
      <trkpt lat="49.40026372" lon="-121.35353244">
      </trkpt>
      <trkpt lat="49.40032954" lon="-121.35351157">
      </trkpt>
      <trkpt lat="49.40035427" lon="-121.35350351">
      </trkpt>
      <trkpt lat="49.4003974" lon="-121.35349445">
      </trkpt>
      <trkpt lat="49.40042737" lon="-121.35348357">
      </trkpt>
      <trkpt lat="49.40046414" lon="-121.35347164">
      </trkpt>
      <trkpt lat="49.40048962" lon="-121.35345536">
      </trkpt>
      <trkpt lat="49.40050232" lon="-121.35344723">
      </trkpt>
      <trkpt lat="49.40053888" lon="-121.3534354">
      </trkpt>
      <trkpt lat="49.40056548" lon="-121.3534262">
      </trkpt>
      <trkpt lat="49.40057723" lon="-121.35342209">
      </trkpt>
      <trkpt lat="49.4005948" lon="-121.35341595">
      </trkpt>
      <trkpt lat="49.40071463" lon="-121.353458">
      </trkpt>
      <trkpt lat="49.40073055" lon="-121.35346271">
      </trkpt>
      <trkpt lat="49.40074644" lon="-121.35347327">
      </trkpt>
      <trkpt lat="49.400782" lon="-121.35349253">
      </trkpt>
      <trkpt lat="49.40081332" lon="-121.35349593">
      </trkpt>
      <trkpt lat="49.40082112" lon="-121.35349824">
      </trkpt>
      <trkpt lat="49.4008444" lon="-121.35349932">
      </trkpt>
      <trkpt lat="49.4008791" lon="-121.35350093">
      </trkpt>
      <trkpt lat="49.40091569" lon="-121.35349569">
      </trkpt>
      <trkpt lat="49.40094487" lon="-121.35350473">
      </trkpt>
      <trkpt lat="49.40097758" lon="-121.35351272">
      </trkpt>
      <trkpt lat="49.40098496" lon="-121.35352217">
      </trkpt>
      <trkpt lat="49.40100329" lon="-121.35354004">
      </trkpt>
      <trkpt lat="49.40101435" lon="-121.35355423">
      </trkpt>
      <trkpt lat="49.40102182" lon="-121.35356946">
      </trkpt>
      <trkpt lat="49.40102931" lon="-121.35358471">
      </trkpt>
      <trkpt lat="49.40103329" lon="-121.35360682">
      </trkpt>
      <trkpt lat="49.40104432" lon="-121.35362132">
      </trkpt>
      <trkpt lat="49.40105613" lon="-121.35365046">
      </trkpt>
      <trkpt lat="49.40106725" lon="-121.35365794">
      </trkpt>
      <trkpt lat="49.40108195" lon="-121.35366421">
      </trkpt>
      <trkpt lat="49.40113639" lon="-121.35367386">
      </trkpt>
      <trkpt lat="49.40115808" lon="-121.35367749">
      </trkpt>
      <trkpt lat="49.40120143" lon="-121.35367566">
      </trkpt>
      <trkpt lat="49.4012302" lon="-121.35367354">
      </trkpt>
      <trkpt lat="49.40126255" lon="-121.35365891">
      </trkpt>
      <trkpt lat="49.40128046" lon="-121.35365301">
      </trkpt>
      <trkpt lat="49.40130522" lon="-121.35364289">
      </trkpt>
      <trkpt lat="49.40132975" lon="-121.35363287">
      </trkpt>
      <trkpt lat="49.40135063" lon="-121.35362504">
      </trkpt>
      <trkpt lat="49.40135748" lon="-121.35362084">
      </trkpt>
      <trkpt lat="49.40138467" lon="-121.35360444">
      </trkpt>
      <trkpt lat="49.40140863" lon="-121.35360143">
      </trkpt>
      <trkpt lat="49.40143853" lon="-121.35358857">
      </trkpt>
      <trkpt lat="49.40145835" lon="-121.35358007">
      </trkpt>
      <trkpt lat="49.40149767" lon="-121.35356316">
      </trkpt>
      <trkpt lat="49.40151719" lon="-121.35355478">
      </trkpt>
      <trkpt lat="49.40153661" lon="-121.35354643">
      </trkpt>
      <trkpt lat="49.40154971" lon="-121.35354505">
      </trkpt>
      <trkpt lat="49.40157536" lon="-121.35353424">
      </trkpt>
      <trkpt lat="49.40159472" lon="-121.35353087">
      </trkpt>
      <trkpt lat="49.4016205" lon="-121.35352916">
      </trkpt>
      <trkpt lat="49.40164261" lon="-121.35352046">
      </trkpt>
      <trkpt lat="49.40166809" lon="-121.3535188">
      </trkpt>
      <trkpt lat="49.401687" lon="-121.3535155">
      </trkpt>
      <trkpt lat="49.40171202" lon="-121.35350977">
      </trkpt>
      <trkpt lat="49.40172456" lon="-121.35350897">
      </trkpt>
      <trkpt lat="49.40176247" lon="-121.35351954">
      </trkpt>
      <trkpt lat="49.40177183" lon="-121.3535203">
      </trkpt>
      <trkpt lat="49.40179353" lon="-121.35352068">
      </trkpt>
      <trkpt lat="49.40179963" lon="-121.35351848">
      </trkpt>
      <trkpt lat="49.40181179" lon="-121.35351409">
      </trkpt>
      <trkpt lat="49.40183303" lon="-121.35350643">
      </trkpt>
      <trkpt lat="49.40185114" lon="-121.35349989">
      </trkpt>
      <trkpt lat="49.4018752" lon="-121.3534912">
      </trkpt>
      <trkpt lat="49.40189018" lon="-121.3534858">
      </trkpt>
      <trkpt lat="49.40191419" lon="-121.3534813">
      </trkpt>
      <trkpt lat="49.4019356" lon="-121.35348737">
      </trkpt>
      <trkpt lat="49.40195383" lon="-121.35349027">
      </trkpt>
      <trkpt lat="49.40196901" lon="-121.35349401">
      </trkpt>
      <trkpt lat="49.40205103" lon="-121.35352896">
      </trkpt>
      <trkpt lat="49.40205748" lon="-121.35354389">
      </trkpt>
      <trkpt lat="49.40207022" lon="-121.35356957">
      </trkpt>
      <trkpt lat="49.40207972" lon="-121.35358775">
      </trkpt>
      <trkpt lat="49.40208586" lon="-121.35359432">
      </trkpt>
      <trkpt lat="49.40209544" lon="-121.35360943">
      </trkpt>
      <trkpt lat="49.40210792" lon="-121.35362004">
      </trkpt>
      <trkpt lat="49.40212952" lon="-121.35363325">
      </trkpt>
      <trkpt lat="49.40213583" lon="-121.35364069">
      </trkpt>
      <trkpt lat="49.40215738" lon="-121.35365387">
      </trkpt>
      <trkpt lat="49.40218782" lon="-121.35366536">
      </trkpt>
      <trkpt lat="49.40220638" lon="-121.35367564">
      </trkpt>
      <trkpt lat="49.40222161" lon="-121.3536779">
      </trkpt>
      <trkpt lat="49.40226148" lon="-121.35369737">
      </trkpt>
      <trkpt lat="49.4022814" lon="-121.35370188">
      </trkpt>
      <trkpt lat="49.4023149" lon="-121.35370018">
      </trkpt>
      <trkpt lat="49.40243844" lon="-121.35369764">
      </trkpt>
      <trkpt lat="49.40245227" lon="-121.35370078">
      </trkpt>
      <trkpt lat="49.40247735" lon="-121.35371246">
      </trkpt>
      <trkpt lat="49.40248001" lon="-121.35371136">
      </trkpt>
      <trkpt lat="49.40249135" lon="-121.3537201">
      </trkpt>
      <trkpt lat="49.40250025" lon="-121.35373058">
      </trkpt>
      <trkpt lat="49.4025207" lon="-121.35375047">
      </trkpt>
      <trkpt lat="49.40252986" lon="-121.35376542">
      </trkpt>
      <trkpt lat="49.40254966" lon="-121.35377622">
      </trkpt>
      <trkpt lat="49.40257332" lon="-121.35379673">
      </trkpt>
      <trkpt lat="49.40259186" lon="-121.35381981">
      </trkpt>
      <trkpt lat="49.4026155" lon="-121.35384809">
      </trkpt>
      <trkpt lat="49.40263138" lon="-121.35387984">
      </trkpt>
      <trkpt lat="49.40263433" lon="-121.35390624">
      </trkpt>
      <trkpt lat="49.40263725" lon="-121.3539364">
      </trkpt>
      <trkpt lat="49.40264007" lon="-121.35395877">
      </trkpt>
      <trkpt lat="49.40264713" lon="-121.35398037">
      </trkpt>
      <trkpt lat="49.40266138" lon="-121.35402393">
      </trkpt>
      <trkpt lat="49.402671" lon="-121.35405988">
      </trkpt>
      <trkpt lat="49.4026784" lon="-121.35408631">
      </trkpt>
      <trkpt lat="49.40269178" lon="-121.35414385">
      </trkpt>
      <trkpt lat="49.40270675" lon="-121.35420587">
      </trkpt>
      <trkpt lat="49.40271434" lon="-121.35425326">
      </trkpt>
      <trkpt lat="49.4027198" lon="-121.35428741">
      </trkpt>
      <trkpt lat="49.40273023" lon="-121.35432639">
      </trkpt>
      <trkpt lat="49.40273443" lon="-121.35434952">
      </trkpt>
      <trkpt lat="49.40274243" lon="-121.35437817">
      </trkpt>
      <trkpt lat="49.40274908" lon="-121.35441598">
      </trkpt>
      <trkpt lat="49.40275713" lon="-121.35446181">
      </trkpt>
      <trkpt lat="49.40276678" lon="-121.35451627">
      </trkpt>
      <trkpt lat="49.40278298" lon="-121.35458928">
      </trkpt>
      <trkpt lat="49.40277648" lon="-121.35461526">
      </trkpt>
      <trkpt lat="49.40276846" lon="-121.3546466">
      </trkpt>
      <trkpt lat="49.40276874" lon="-121.35469248">
      </trkpt>
      <trkpt lat="49.40276901" lon="-121.35473902">
      </trkpt>
      <trkpt lat="49.40279993" lon="-121.35486032">
      </trkpt>
      <trkpt lat="49.40280789" lon="-121.35488793">
      </trkpt>
      <trkpt lat="49.40276294" lon="-121.35491586">
      </trkpt>
      <trkpt lat="49.4027522" lon="-121.35496876">
      </trkpt>
      <trkpt lat="49.40273726" lon="-121.35500269">
      </trkpt>
      <trkpt lat="49.40272513" lon="-121.35505214">
      </trkpt>
      <trkpt lat="49.40271848" lon="-121.35507464">
      </trkpt>
      <trkpt lat="49.40270644" lon="-121.35509845">
      </trkpt>
      <trkpt lat="49.40269186" lon="-121.35513916">
      </trkpt>
      <trkpt lat="49.40268631" lon="-121.35516389">
      </trkpt>
      <trkpt lat="49.4026814" lon="-121.35519772">
      </trkpt>
      <trkpt lat="49.40268008" lon="-121.35522448">
      </trkpt>
      <trkpt lat="49.40266896" lon="-121.35526833">
      </trkpt>
      <trkpt lat="49.40266369" lon="-121.35531248">
      </trkpt>
      <trkpt lat="49.40265857" lon="-121.35539824">
      </trkpt>
      <trkpt lat="49.40265644" lon="-121.35542265">
      </trkpt>
      <trkpt lat="49.40265644" lon="-121.35546433">
      </trkpt>
      <trkpt lat="49.40265119" lon="-121.35549982">
      </trkpt>
      <trkpt lat="49.4026482" lon="-121.35554859">
      </trkpt>
      <trkpt lat="49.40264927" lon="-121.35558931">
      </trkpt>
      <trkpt lat="49.4026548" lon="-121.35566666">
      </trkpt>
      <trkpt lat="49.40265381" lon="-121.35568003">
      </trkpt>
      <trkpt lat="49.40265492" lon="-121.35574576">
      </trkpt>
      <trkpt lat="49.40266127" lon="-121.35578428">
      </trkpt>
      <trkpt lat="49.4026666" lon="-121.35581665">
      </trkpt>
      <trkpt lat="49.4026911" lon="-121.35590311">
      </trkpt>
      <trkpt lat="49.40270604" lon="-121.35595907">
      </trkpt>
      <trkpt lat="49.40272326" lon="-121.35604642">
      </trkpt>
      <trkpt lat="49.40273752" lon="-121.35612491">
      </trkpt>
      <trkpt lat="49.4027513" lon="-121.35627349">
      </trkpt>
      <trkpt lat="49.40276623" lon="-121.35636657">
      </trkpt>
      <trkpt lat="49.40277764" lon="-121.35651074">
      </trkpt>
      <trkpt lat="49.40278356" lon="-121.35658839">
      </trkpt>
      <trkpt lat="49.40278937" lon="-121.35666751">
      </trkpt>
      <trkpt lat="49.40280139" lon="-121.35675317">
      </trkpt>
      <trkpt lat="49.40281951" lon="-121.35686633">
      </trkpt>
      <trkpt lat="49.40282195" lon="-121.35693195">
      </trkpt>
      <trkpt lat="49.40283799" lon="-121.35702147">
      </trkpt>
      <trkpt lat="49.40284588" lon="-121.35706359">
      </trkpt>
      <trkpt lat="49.40287228" lon="-121.35719292">
      </trkpt>
      <trkpt lat="49.4028831" lon="-121.35724374">
      </trkpt>
      <trkpt lat="49.40290245" lon="-121.35733458">
      </trkpt>
      <trkpt lat="49.40290791" lon="-121.35738446">
      </trkpt>
      <trkpt lat="49.40292135" lon="-121.35747388">
      </trkpt>
      <trkpt lat="49.40292371" lon="-121.35756025">
      </trkpt>
      <trkpt lat="49.40291858" lon="-121.35769189">
      </trkpt>
      <trkpt lat="49.40290253" lon="-121.35776271">
      </trkpt>
      <trkpt lat="49.40289057" lon="-121.35779968">
      </trkpt>
      <trkpt lat="49.40287656" lon="-121.35786286">
      </trkpt>
      <trkpt lat="49.40287735" lon="-121.35790982">
      </trkpt>
      <trkpt lat="49.40287118" lon="-121.35794445">
      </trkpt>
      <trkpt lat="49.40287112" lon="-121.3580168">
      </trkpt>
      <trkpt lat="49.40287463" lon="-121.35811358">
      </trkpt>
      <trkpt lat="49.4028691" lon="-121.35815746">
      </trkpt>
      <trkpt lat="49.40286631" lon="-121.35818232">
      </trkpt>
      <trkpt lat="49.4028497" lon="-121.35823401">
      </trkpt>
      <trkpt lat="49.40283894" lon="-121.35828327">
      </trkpt>
      <trkpt lat="49.40281258" lon="-121.35834141">
      </trkpt>
      <trkpt lat="49.40280149" lon="-121.35838984">
      </trkpt>
      <trkpt lat="49.40278878" lon="-121.35843224">
      </trkpt>
      <trkpt lat="49.40277543" lon="-121.35846638">
      </trkpt>
      <trkpt lat="49.40276805" lon="-121.35850466">
      </trkpt>
      <trkpt lat="49.40275277" lon="-121.35856229">
      </trkpt>
      <trkpt lat="49.40274427" lon="-121.35857923">
      </trkpt>
      <trkpt lat="49.40273327" lon="-121.35862891">
      </trkpt>
      <trkpt lat="49.4027283" lon="-121.35868924">
      </trkpt>
      <trkpt lat="49.40271351" lon="-121.35875029">
      </trkpt>
      <trkpt lat="49.40271036" lon="-121.35876941">
      </trkpt>
      <trkpt lat="49.40270448" lon="-121.35880986">
      </trkpt>
      <trkpt lat="49.40268332" lon="-121.35888878">
      </trkpt>
      <trkpt lat="49.40265878" lon="-121.35898308">
      </trkpt>
      <trkpt lat="49.40258562" lon="-121.359101">
      </trkpt>
      <trkpt lat="49.40253165" lon="-121.3591753">
      </trkpt>
      <trkpt lat="49.40250913" lon="-121.3592072">
      </trkpt>
      <trkpt lat="49.40242708" lon="-121.35932633">
      </trkpt>
      <trkpt lat="49.40240092" lon="-121.35937569">
      </trkpt>
      <trkpt lat="49.40238871" lon="-121.35941693">
      </trkpt>
      <trkpt lat="49.40238773" lon="-121.35957598">
      </trkpt>
      <trkpt lat="49.40239036" lon="-121.35962917">
      </trkpt>
      <trkpt lat="49.40238946" lon="-121.35970368">
      </trkpt>
      <trkpt lat="49.40238803" lon="-121.35976496">
      </trkpt>
      <trkpt lat="49.40237997" lon="-121.35979597">
      </trkpt>
      <trkpt lat="49.40236807" lon="-121.35984688">
      </trkpt>
      <trkpt lat="49.4023517" lon="-121.35990388">
      </trkpt>
      <trkpt lat="49.4023432" lon="-121.35992795">
      </trkpt>
      <trkpt lat="49.40233132" lon="-121.35998544">
      </trkpt>
      <trkpt lat="49.40232362" lon="-121.36003487">
      </trkpt>
      <trkpt lat="49.40231977" lon="-121.36005961">
      </trkpt>
      <trkpt lat="49.40231432" lon="-121.36015117">
      </trkpt>
      <trkpt lat="49.40231508" lon="-121.36017104">
      </trkpt>
      <trkpt lat="49.40225373" lon="-121.36049826">
      </trkpt>
      <trkpt lat="49.40225006" lon="-121.36052593">
      </trkpt>
      <trkpt lat="49.40224692" lon="-121.36057466">
      </trkpt>
      <trkpt lat="49.40224366" lon="-121.36061783">
      </trkpt>
      <trkpt lat="49.40224496" lon="-121.36066606">
      </trkpt>
      <trkpt lat="49.40224582" lon="-121.36069366">
      </trkpt>
      <trkpt lat="49.40224651" lon="-121.36071568">
      </trkpt>
      <trkpt lat="49.40224719" lon="-121.36073766">
      </trkpt>
      <trkpt lat="49.40225258" lon="-121.36077484">
      </trkpt>
      <trkpt lat="49.40227924" lon="-121.36081752">
      </trkpt>
      <trkpt lat="49.40229691" lon="-121.36085024">
      </trkpt>
      <trkpt lat="49.40231397" lon="-121.36086185">
      </trkpt>
      <trkpt lat="49.40233962" lon="-121.36088701">
      </trkpt>
      <trkpt lat="49.40235664" lon="-121.36090371">
      </trkpt>
      <trkpt lat="49.40237781" lon="-121.36092447">
      </trkpt>
      <trkpt lat="49.40239467" lon="-121.36094102">
      </trkpt>
      <trkpt lat="49.40240746" lon="-121.36096366">
      </trkpt>
      <trkpt lat="49.40241174" lon="-121.3609729">
      </trkpt>
      <trkpt lat="49.40242086" lon="-121.36101761">
      </trkpt>
      <trkpt lat="49.40242594" lon="-121.36105885">
      </trkpt>
      <trkpt lat="49.40243053" lon="-121.36107902">
      </trkpt>
      <trkpt lat="49.40243584" lon="-121.36113062">
      </trkpt>
      <trkpt lat="49.4024362" lon="-121.36114629">
      </trkpt>
      <trkpt lat="49.40243703" lon="-121.36118275">
      </trkpt>
      <trkpt lat="49.40243787" lon="-121.36121908">
      </trkpt>
      <trkpt lat="49.40243881" lon="-121.36126045">
      </trkpt>
      <trkpt lat="49.40243941" lon="-121.36128621">
      </trkpt>
      <trkpt lat="49.40244136" lon="-121.36135524">
      </trkpt>
      <trkpt lat="49.4024466" lon="-121.3613878">
      </trkpt>
      <trkpt lat="49.40244739" lon="-121.36140996">
      </trkpt>
      <trkpt lat="49.40244836" lon="-121.36143762">
      </trkpt>
      <trkpt lat="49.40244488" lon="-121.36145493">
      </trkpt>
      <trkpt lat="49.4024416" lon="-121.36147775">
      </trkpt>
      <trkpt lat="49.40243017" lon="-121.36150196">
      </trkpt>
      <trkpt lat="49.40241954" lon="-121.36154383">
      </trkpt>
      <trkpt lat="49.40240864" lon="-121.36157968">
      </trkpt>
      <trkpt lat="49.40239799" lon="-121.36162128">
      </trkpt>
      <trkpt lat="49.40238736" lon="-121.36166286">
      </trkpt>
      <trkpt lat="49.40238001" lon="-121.36169028">
      </trkpt>
      <trkpt lat="49.40236889" lon="-121.36173645">
      </trkpt>
      <trkpt lat="49.40236958" lon="-121.36176145">
      </trkpt>
      <trkpt lat="49.40237054" lon="-121.36179635">
      </trkpt>
      <trkpt lat="49.40238351" lon="-121.36182025">
      </trkpt>
      <trkpt lat="49.4024048" lon="-121.36184852">
      </trkpt>
      <trkpt lat="49.40242992" lon="-121.36187106">
      </trkpt>
      <trkpt lat="49.40244246" lon="-121.36188435">
      </trkpt>
      <trkpt lat="49.40246296" lon="-121.36189167">
      </trkpt>
      <trkpt lat="49.40250017" lon="-121.36192155">
      </trkpt>
      <trkpt lat="49.40251675" lon="-121.36193914">
      </trkpt>
      <trkpt lat="49.40254558" lon="-121.36196496">
      </trkpt>
      <trkpt lat="49.40258237" lon="-121.36198969">
      </trkpt>
      <trkpt lat="49.40281254" lon="-121.3621846">
      </trkpt>
      <trkpt lat="49.40285903" lon="-121.36223952">
      </trkpt>
      <trkpt lat="49.40287268" lon="-121.36224323">
      </trkpt>
      <trkpt lat="49.40290519" lon="-121.3622688">
      </trkpt>
      <trkpt lat="49.40297636" lon="-121.36228936">
      </trkpt>
      <trkpt lat="49.40301816" lon="-121.36231112">
      </trkpt>
      <trkpt lat="49.4030533" lon="-121.36231864">
      </trkpt>
      <trkpt lat="49.40308373" lon="-121.36231942">
      </trkpt>
      <trkpt lat="49.40314436" lon="-121.36236007">
      </trkpt>
      <trkpt lat="49.40317443" lon="-121.36240861">
      </trkpt>
      <trkpt lat="49.40325444" lon="-121.36247226">
      </trkpt>
      <trkpt lat="49.40330307" lon="-121.36250764">
      </trkpt>
      <trkpt lat="49.40341076" lon="-121.36257778">
      </trkpt>
      <trkpt lat="49.40353817" lon="-121.36265616">
      </trkpt>
      <trkpt lat="49.40364388" lon="-121.362716">
      </trkpt>
      <trkpt lat="49.4037935" lon="-121.36288288">
      </trkpt>
      <trkpt lat="49.40384492" lon="-121.36294837">
      </trkpt>
      <trkpt lat="49.4038909" lon="-121.36299197">
      </trkpt>
      <trkpt lat="49.4039315" lon="-121.36301389">
      </trkpt>
      <trkpt lat="49.40395514" lon="-121.3630159">
      </trkpt>
      <trkpt lat="49.40401129" lon="-121.36303118">
      </trkpt>
      <trkpt lat="49.40405594" lon="-121.36304439">
      </trkpt>
      <trkpt lat="49.40408601" lon="-121.36304155">
      </trkpt>
      <trkpt lat="49.40410833" lon="-121.36304231">
      </trkpt>
      <trkpt lat="49.40413055" lon="-121.36304307">
      </trkpt>
      <trkpt lat="49.40420292" lon="-121.36305507">
      </trkpt>
      <trkpt lat="49.40428445" lon="-121.36305456">
      </trkpt>
      <trkpt lat="49.40435132" lon="-121.36307463">
      </trkpt>
      <trkpt lat="49.40436996" lon="-121.36307325">
      </trkpt>
      <trkpt lat="49.40445785" lon="-121.36312066">
      </trkpt>
      <trkpt lat="49.40449273" lon="-121.36313929">
      </trkpt>
      <trkpt lat="49.40455638" lon="-121.363182">
      </trkpt>
      <trkpt lat="49.40461322" lon="-121.36322895">
      </trkpt>
      <trkpt lat="49.40467166" lon="-121.36326582">
      </trkpt>
      <trkpt lat="49.40472891" lon="-121.36331333">
      </trkpt>
      <trkpt lat="49.40477834" lon="-121.3633512">
      </trkpt>
      <trkpt lat="49.40482801" lon="-121.36338939">
      </trkpt>
      <trkpt lat="49.40486194" lon="-121.36343174">
      </trkpt>
      <trkpt lat="49.40488883" lon="-121.36347788">
      </trkpt>
      <trkpt lat="49.40491218" lon="-121.36353149">
      </trkpt>
      <trkpt lat="49.40493599" lon="-121.36356097">
      </trkpt>
      <trkpt lat="49.4049766" lon="-121.36363604">
      </trkpt>
      <trkpt lat="49.40500101" lon="-121.36367864">
      </trkpt>
      <trkpt lat="49.40503684" lon="-121.36372363">
      </trkpt>
      <trkpt lat="49.40506446" lon="-121.36377068">
      </trkpt>
      <trkpt lat="49.40508342" lon="-121.36380691">
      </trkpt>
      <trkpt lat="49.40511793" lon="-121.36386233">
      </trkpt>
      <trkpt lat="49.40532507" lon="-121.36410124">
      </trkpt>
      <trkpt lat="49.40535396" lon="-121.36413747">
      </trkpt>
      <trkpt lat="49.40539297" lon="-121.36418796">
      </trkpt>
      <trkpt lat="49.40545946" lon="-121.36426877">
      </trkpt>
      <trkpt lat="49.40552516" lon="-121.36433598">
      </trkpt>
      <trkpt lat="49.40556323" lon="-121.36438281">
      </trkpt>
      <trkpt lat="49.40562627" lon="-121.3644295">
      </trkpt>
      <trkpt lat="49.40565545" lon="-121.36447799">
      </trkpt>
      <trkpt lat="49.40572681" lon="-121.3645438">
      </trkpt>
      <trkpt lat="49.40578071" lon="-121.36462513">
      </trkpt>
      <trkpt lat="49.40581288" lon="-121.36472818">
      </trkpt>
      <trkpt lat="49.40583273" lon="-121.36477666">
      </trkpt>
      <trkpt lat="49.40585964" lon="-121.36483913">
      </trkpt>
      <trkpt lat="49.40589335" lon="-121.36486072">
      </trkpt>
      <trkpt lat="49.40594874" lon="-121.36487345">
      </trkpt>
      <trkpt lat="49.40597714" lon="-121.3648999">
      </trkpt>
      <trkpt lat="49.40600615" lon="-121.36490742">
      </trkpt>
      <trkpt lat="49.40604284" lon="-121.36493275">
      </trkpt>
      <trkpt lat="49.40606965" lon="-121.36496414">
      </trkpt>
      <trkpt lat="49.40612346" lon="-121.36503853">
      </trkpt>
      <trkpt lat="49.40614864" lon="-121.36509725">
      </trkpt>
      <trkpt lat="49.40617797" lon="-121.36518025">
      </trkpt>
      <trkpt lat="49.40620152" lon="-121.36522312">
      </trkpt>
      <trkpt lat="49.40624349" lon="-121.36527846">
      </trkpt>
      <trkpt lat="49.40626855" lon="-121.3652942">
      </trkpt>
      <trkpt lat="49.40630342" lon="-121.36534506">
      </trkpt>
      <trkpt lat="49.40635894" lon="-121.36539865">
      </trkpt>
      <trkpt lat="49.406383" lon="-121.36542272">
      </trkpt>
      <trkpt lat="49.40643531" lon="-121.36548384">
      </trkpt>
      <trkpt lat="49.40646234" lon="-121.36551713">
      </trkpt>
      <trkpt lat="49.40651273" lon="-121.36559442">
      </trkpt>
      <trkpt lat="49.40652314" lon="-121.36564199">
      </trkpt>
      <trkpt lat="49.40654952" lon="-121.36574874">
      </trkpt>
      <trkpt lat="49.40655899" lon="-121.36578273">
      </trkpt>
      <trkpt lat="49.40656957" lon="-121.3658522">
      </trkpt>
      <trkpt lat="49.40658124" lon="-121.36593563">
      </trkpt>
      <trkpt lat="49.40659216" lon="-121.36601676">
      </trkpt>
      <trkpt lat="49.4066107" lon="-121.36606209">
      </trkpt>
      <trkpt lat="49.40662095" lon="-121.36614106">
      </trkpt>
      <trkpt lat="49.40663974" lon="-121.36618716">
      </trkpt>
      <trkpt lat="49.40667841" lon="-121.36623468">
      </trkpt>
      <trkpt lat="49.40671592" lon="-121.36627906">
      </trkpt>
      <trkpt lat="49.40676518" lon="-121.36633269">
      </trkpt>
      <trkpt lat="49.40681419" lon="-121.36637534">
      </trkpt>
      <trkpt lat="49.40686007" lon="-121.3663986">
      </trkpt>
      <trkpt lat="49.40689086" lon="-121.36641855">
      </trkpt>
      <trkpt lat="49.40693253" lon="-121.36639894">
      </trkpt>
      <trkpt lat="49.4069407" lon="-121.36640806">
      </trkpt>
      <trkpt lat="49.40699649" lon="-121.36639109">
      </trkpt>
      <trkpt lat="49.40703177" lon="-121.3663902">
      </trkpt>
      <trkpt lat="49.40705502" lon="-121.36641467">
      </trkpt>
      <trkpt lat="49.40715475" lon="-121.36644218">
      </trkpt>
      <trkpt lat="49.40717985" lon="-121.36645385">
      </trkpt>
      <trkpt lat="49.40722944" lon="-121.36646865">
      </trkpt>
      <trkpt lat="49.40731298" lon="-121.3665117">
      </trkpt>
      <trkpt lat="49.40737233" lon="-121.36653697">
      </trkpt>
      <trkpt lat="49.40742725" lon="-121.36658412">
      </trkpt>
      <trkpt lat="49.40744567" lon="-121.36660888">
      </trkpt>
      <trkpt lat="49.40747674" lon="-121.36666095">
      </trkpt>
      <trkpt lat="49.40748928" lon="-121.36668945">
      </trkpt>
      <trkpt lat="49.40749755" lon="-121.36675267">
      </trkpt>
      <trkpt lat="49.40750012" lon="-121.36680776">
      </trkpt>
      <trkpt lat="49.40750385" lon="-121.3669198">
      </trkpt>
      <trkpt lat="49.40750576" lon="-121.36696991">
      </trkpt>
      <trkpt lat="49.40750804" lon="-121.36703949">
      </trkpt>
      <trkpt lat="49.40750947" lon="-121.36708296">
      </trkpt>
      <trkpt lat="49.40751269" lon="-121.36716663">
      </trkpt>
      <trkpt lat="49.40751404" lon="-121.36721131">
      </trkpt>
      <trkpt lat="49.40750956" lon="-121.36726026">
      </trkpt>
      <trkpt lat="49.40751088" lon="-121.36730527">
      </trkpt>
      <trkpt lat="49.40751228" lon="-121.36734965">
      </trkpt>
      <trkpt lat="49.4075139" lon="-121.36739178">
      </trkpt>
      <trkpt lat="49.40751529" lon="-121.36743624">
      </trkpt>
      <trkpt lat="49.40752819" lon="-121.36747405">
      </trkpt>
      <trkpt lat="49.40754683" lon="-121.36750805">
      </trkpt>
      <trkpt lat="49.4075471" lon="-121.36751713">
      </trkpt>
      <trkpt lat="49.40757777" lon="-121.36756163">
      </trkpt>
      <trkpt lat="49.40760083" lon="-121.36756957">
      </trkpt>
      <trkpt lat="49.40764038" lon="-121.36756064">
      </trkpt>
      <trkpt lat="49.4076739" lon="-121.36754523">
      </trkpt>
      <trkpt lat="49.40775162" lon="-121.36750956">
      </trkpt>
      <trkpt lat="49.40790452" lon="-121.36747273">
      </trkpt>
      <trkpt lat="49.40792078" lon="-121.36746758">
      </trkpt>
      <trkpt lat="49.40794226" lon="-121.36744546">
      </trkpt>
      <trkpt lat="49.40797357" lon="-121.36738412">
      </trkpt>
      <trkpt lat="49.40800971" lon="-121.36730307">
      </trkpt>
      <trkpt lat="49.4080596" lon="-121.36715067">
      </trkpt>
      <trkpt lat="49.40807887" lon="-121.36708805">
      </trkpt>
      <trkpt lat="49.40810463" lon="-121.36706729">
      </trkpt>
      <trkpt lat="49.40812552" lon="-121.36706301">
      </trkpt>
      <trkpt lat="49.408162" lon="-121.36705555">
      </trkpt>
      <trkpt lat="49.40818205" lon="-121.36703115">
      </trkpt>
      <trkpt lat="49.40819245" lon="-121.36702902">
      </trkpt>
      <trkpt lat="49.40821324" lon="-121.36702478">
      </trkpt>
      <trkpt lat="49.40825435" lon="-121.36700625">
      </trkpt>
      <trkpt lat="49.40831338" lon="-121.36688714">
      </trkpt>
      <trkpt lat="49.40833326" lon="-121.36685323">
      </trkpt>
      <trkpt lat="49.40834361" lon="-121.36681814">
      </trkpt>
      <trkpt lat="49.40834004" lon="-121.36675457">
      </trkpt>
      <trkpt lat="49.40833309" lon="-121.36674044">
      </trkpt>
      <trkpt lat="49.40833576" lon="-121.36672713">
      </trkpt>
      <trkpt lat="49.40832191" lon="-121.36669905">
      </trkpt>
      <trkpt lat="49.40830129" lon="-121.36665721">
      </trkpt>
      <trkpt lat="49.40829445" lon="-121.36664334">
      </trkpt>
      <trkpt lat="49.40827317" lon="-121.366615">
      </trkpt>
      <trkpt lat="49.40825709" lon="-121.36658331">
      </trkpt>
      <trkpt lat="49.40824765" lon="-121.36655318">
      </trkpt>
      <trkpt lat="49.40824998" lon="-121.36652397">
      </trkpt>
      <trkpt lat="49.40824967" lon="-121.36647327">
      </trkpt>
      <trkpt lat="49.40824756" lon="-121.36644641">
      </trkpt>
      <trkpt lat="49.40825502" lon="-121.36641586">
      </trkpt>
      <trkpt lat="49.40826097" lon="-121.36639144">
      </trkpt>
      <trkpt lat="49.40828365" lon="-121.36636749">
      </trkpt>
      <trkpt lat="49.40829608" lon="-121.3663379">
      </trkpt>
      <trkpt lat="49.40829515" lon="-121.36631638">
      </trkpt>
      <trkpt lat="49.40829158" lon="-121.36631304">
      </trkpt>
      <trkpt lat="49.40829624" lon="-121.36627595">
      </trkpt>
      <trkpt lat="49.4082846" lon="-121.366242">
      </trkpt>
      <trkpt lat="49.40827962" lon="-121.3662275">
      </trkpt>
      <trkpt lat="49.40829545" lon="-121.36619977">
      </trkpt>
      <trkpt lat="49.40831837" lon="-121.36616737">
      </trkpt>
      <trkpt lat="49.4083257" lon="-121.36613893">
      </trkpt>
    </trkseg>
  </trk>
</gpx>