<?xml version="1.0" encoding="UTF-8"?>
<gpx xmlns="http://www.topografix.com/GPX/1/1" xmlns:xsi="http://www.w3.org/2001/XMLSchema-instance" xsi:schemaLocation="http://www.topografix.com/GPX/1/1 http://www.topografix.com/GPX/1/1/gpx.xsd" version="1.1" creator="gpx.py -- https://github.com/tkrajina/gpxpy">
  <trk>
    <name>Lois Creek Trails</name>
    <trkseg>
      <trkpt lat="49.70514679" lon="-115.97601788">
      </trkpt>
      <trkpt lat="49.70558" lon="-115.97779">
      </trkpt>
      <trkpt lat="49.70561" lon="-115.97824">
      </trkpt>
      <trkpt lat="49.7057" lon="-115.97859">
      </trkpt>
      <trkpt lat="49.70556" lon="-115.97917">
      </trkpt>
      <trkpt lat="49.70545" lon="-115.97956">
      </trkpt>
      <trkpt lat="49.70531" lon="-115.97983">
      </trkpt>
      <trkpt lat="49.70524" lon="-115.97996999">
      </trkpt>
      <trkpt lat="49.7052" lon="-115.9801">
      </trkpt>
      <trkpt lat="49.70512" lon="-115.98018">
      </trkpt>
      <trkpt lat="49.70508" lon="-115.98026">
      </trkpt>
      <trkpt lat="49.70499" lon="-115.98031">
      </trkpt>
      <trkpt lat="49.70489" lon="-115.98045">
      </trkpt>
      <trkpt lat="49.7048" lon="-115.98057999">
      </trkpt>
      <trkpt lat="49.70474" lon="-115.98068">
      </trkpt>
      <trkpt lat="49.7047" lon="-115.98079">
      </trkpt>
      <trkpt lat="49.7046" lon="-115.98091">
      </trkpt>
      <trkpt lat="49.70451" lon="-115.98104">
      </trkpt>
      <trkpt lat="49.70444" lon="-115.98111001">
      </trkpt>
      <trkpt lat="49.70441" lon="-115.98119">
      </trkpt>
      <trkpt lat="49.70431" lon="-115.9812">
      </trkpt>
      <trkpt lat="49.70422" lon="-115.98122001">
      </trkpt>
      <trkpt lat="49.70409" lon="-115.98124001">
      </trkpt>
      <trkpt lat="49.70397" lon="-115.98124">
      </trkpt>
      <trkpt lat="49.70389" lon="-115.98131">
      </trkpt>
      <trkpt lat="49.70382" lon="-115.98139">
      </trkpt>
      <trkpt lat="49.70378" lon="-115.98159">
      </trkpt>
      <trkpt lat="49.70372" lon="-115.98176">
      </trkpt>
      <trkpt lat="49.70372" lon="-115.9819">
      </trkpt>
      <trkpt lat="49.70377" lon="-115.98202">
      </trkpt>
      <trkpt lat="49.70378" lon="-115.98217">
      </trkpt>
      <trkpt lat="49.70387" lon="-115.98229">
      </trkpt>
      <trkpt lat="49.70385" lon="-115.98243">
      </trkpt>
      <trkpt lat="49.70379" lon="-115.98258999">
      </trkpt>
      <trkpt lat="49.7037" lon="-115.98270001">
      </trkpt>
      <trkpt lat="49.70362" lon="-115.98287">
      </trkpt>
      <trkpt lat="49.7036" lon="-115.98299">
      </trkpt>
      <trkpt lat="49.70361749" lon="-115.98318756">
      </trkpt>
    </trkseg>
    <trkseg>
      <trkpt lat="49.70375171" lon="-115.97929401">
      </trkpt>
      <trkpt lat="49.70382" lon="-115.97935">
      </trkpt>
      <trkpt lat="49.70398" lon="-115.97913999">
      </trkpt>
      <trkpt lat="49.70409" lon="-115.97905">
      </trkpt>
      <trkpt lat="49.70426" lon="-115.97911">
      </trkpt>
      <trkpt lat="49.70445" lon="-115.97894999">
      </trkpt>
      <trkpt lat="49.70477" lon="-115.97871999">
      </trkpt>
      <trkpt lat="49.7049" lon="-115.9787">
      </trkpt>
      <trkpt lat="49.70512" lon="-115.97863">
      </trkpt>
      <trkpt lat="49.70527" lon="-115.97827">
      </trkpt>
      <trkpt lat="49.70559" lon="-115.97791">
      </trkpt>
      <trkpt lat="49.70583" lon="-115.978">
      </trkpt>
      <trkpt lat="49.70603" lon="-115.97822">
      </trkpt>
      <trkpt lat="49.70643" lon="-115.97854">
      </trkpt>
      <trkpt lat="49.70653" lon="-115.97941">
      </trkpt>
      <trkpt lat="49.70655" lon="-115.98005">
      </trkpt>
      <trkpt lat="49.70652" lon="-115.98094">
      </trkpt>
      <trkpt lat="49.70643" lon="-115.98148">
      </trkpt>
      <trkpt lat="49.70668993" lon="-115.98206127">
      </trkpt>
    </trkseg>
    <trkseg>
      <trkpt lat="49.69910539" lon="-115.98037287">
      </trkpt>
      <trkpt lat="49.69918867" lon="-115.98035887">
      </trkpt>
      <trkpt lat="49.69929629" lon="-115.98032882">
      </trkpt>
      <trkpt lat="49.699377" lon="-115.98029939">
      </trkpt>
      <trkpt lat="49.69944832" lon="-115.98022864">
      </trkpt>
      <trkpt lat="49.69949273" lon="-115.98015833">
      </trkpt>
      <trkpt lat="49.69952803" lon="-115.98008834">
      </trkpt>
      <trkpt lat="49.69958086" lon="-115.9799485">
      </trkpt>
      <trkpt lat="49.69961567" lon="-115.979823">
      </trkpt>
      <trkpt lat="49.69965989" lon="-115.97973883">
      </trkpt>
      <trkpt lat="49.6996949" lon="-115.9796272">
      </trkpt>
      <trkpt lat="49.69971142" lon="-115.97946036">
      </trkpt>
      <trkpt lat="49.69971933" lon="-115.97933547">
      </trkpt>
      <trkpt lat="49.69971824" lon="-115.97921058">
      </trkpt>
      <trkpt lat="49.69972636" lon="-115.97911343">
      </trkpt>
      <trkpt lat="49.69971608" lon="-115.9789611">
      </trkpt>
      <trkpt lat="49.69970598" lon="-115.97883651">
      </trkpt>
      <trkpt lat="49.69971409" lon="-115.97873921">
      </trkpt>
      <trkpt lat="49.6997131" lon="-115.97862835">
      </trkpt>
      <trkpt lat="49.69971153" lon="-115.9784481">
      </trkpt>
      <trkpt lat="49.69971904" lon="-115.97828143">
      </trkpt>
      <trkpt lat="49.69975277" lon="-115.97803118">
      </trkpt>
      <trkpt lat="49.69978739" lon="-115.97787791">
      </trkpt>
      <trkpt lat="49.6998764" lon="-115.97776508">
      </trkpt>
      <trkpt lat="49.70000211" lon="-115.9777486">
      </trkpt>
      <trkpt lat="49.70005612" lon="-115.97774738">
      </trkpt>
      <trkpt lat="49.70014583" lon="-115.9777178">
      </trkpt>
      <trkpt lat="49.70021764" lon="-115.9777024">
      </trkpt>
      <trkpt lat="49.70028035" lon="-115.97767343">
      </trkpt>
      <trkpt lat="49.70036077" lon="-115.97761624">
      </trkpt>
      <trkpt lat="49.70045038" lon="-115.97757278">
      </trkpt>
      <trkpt lat="49.70054929" lon="-115.97757064">
      </trkpt>
      <trkpt lat="49.70060319" lon="-115.97756957">
      </trkpt>
      <trkpt lat="49.7006572" lon="-115.97756835">
      </trkpt>
      <trkpt lat="49.70072011" lon="-115.97756713">
      </trkpt>
      <trkpt lat="49.70078311" lon="-115.97756576">
      </trkpt>
      <trkpt lat="49.70086402" lon="-115.97756408">
      </trkpt>
      <trkpt lat="49.70093612" lon="-115.97757644">
      </trkpt>
      <trkpt lat="49.70098103" lon="-115.97757553">
      </trkpt>
      <trkpt lat="49.70107103" lon="-115.97757354">
      </trkpt>
      <trkpt lat="49.70115204" lon="-115.97758575">
      </trkpt>
      <trkpt lat="49.70123226" lon="-115.97750096">
      </trkpt>
      <trkpt lat="49.70129437" lon="-115.97740244">
      </trkpt>
      <trkpt lat="49.70132058" lon="-115.97731872">
      </trkpt>
      <trkpt lat="49.70135599" lon="-115.97724873">
      </trkpt>
      <trkpt lat="49.70139071" lon="-115.97710919">
      </trkpt>
      <trkpt lat="49.70144303" lon="-115.97692787">
      </trkpt>
      <trkpt lat="49.70148695" lon="-115.97680206">
      </trkpt>
      <trkpt lat="49.70151306" lon="-115.97670447">
      </trkpt>
      <trkpt lat="49.70153867" lon="-115.97655137">
      </trkpt>
      <trkpt lat="49.70156439" lon="-115.97641213">
      </trkpt>
      <trkpt lat="49.70158159" lon="-115.97631469">
      </trkpt>
      <trkpt lat="49.70159881" lon="-115.97623113">
      </trkpt>
      <trkpt lat="49.70162503" lon="-115.9761474">
      </trkpt>
      <trkpt lat="49.70166024" lon="-115.97604965">
      </trkpt>
      <trkpt lat="49.70172146" lon="-115.97585416">
      </trkpt>
      <trkpt lat="49.70176526" lon="-115.9757285">
      </trkpt>
      <trkpt lat="49.70179069" lon="-115.97561961">
      </trkpt>
      <trkpt lat="49.70189895" lon="-115.97532037">
      </trkpt>
      <trkpt lat="49.70208773" lon="-115.9751355">
      </trkpt>
      <trkpt lat="49.70215793" lon="-115.97488409">
      </trkpt>
      <trkpt lat="49.702164" lon="-115.97486237">
      </trkpt>
      <trkpt lat="49.70241831" lon="-115.97477609">
      </trkpt>
      <trkpt lat="49.70264602" lon="-115.97471623">
      </trkpt>
      <trkpt lat="49.70293483" lon="-115.9746743">
      </trkpt>
      <trkpt lat="49.70349867" lon="-115.97506407">
      </trkpt>
      <trkpt lat="49.70390194" lon="-115.97545972">
      </trkpt>
      <trkpt lat="49.70395472" lon="-115.97558548">
      </trkpt>
      <trkpt lat="49.70431745" lon="-115.97650429">
      </trkpt>
      <trkpt lat="49.70435552" lon="-115.97666639">
      </trkpt>
      <trkpt lat="49.70461975" lon="-115.97644001">
      </trkpt>
      <trkpt lat="49.70482555" lon="-115.97628158">
      </trkpt>
      <trkpt lat="49.70493488" lon="-115.97617265">
      </trkpt>
      <trkpt lat="49.70514679" lon="-115.97601788">
      </trkpt>
      <trkpt lat="49.70535934" lon="-115.97579634">
      </trkpt>
      <trkpt lat="49.70548542" lon="-115.97557051">
      </trkpt>
      <trkpt lat="49.70565653" lon="-115.9752357">
      </trkpt>
      <trkpt lat="49.70581606" lon="-115.97487513">
      </trkpt>
      <trkpt lat="49.70598202" lon="-115.97448482">
      </trkpt>
      <trkpt lat="49.70616729" lon="-115.97410445">
      </trkpt>
      <trkpt lat="49.70629594" lon="-115.97380725">
      </trkpt>
      <trkpt lat="49.70650172" lon="-115.97374789">
      </trkpt>
      <trkpt lat="49.70673321" lon="-115.97366872">
      </trkpt>
      <trkpt lat="49.70691842" lon="-115.97358557">
      </trkpt>
      <trkpt lat="49.70707273" lon="-115.9736649">
      </trkpt>
      <trkpt lat="49.70721294" lon="-115.97349256">
      </trkpt>
      <trkpt lat="49.70727467" lon="-115.97346484">
      </trkpt>
      <trkpt lat="49.70755883" lon="-115.97375625">
      </trkpt>
      <trkpt lat="49.70778512" lon="-115.97401793">
      </trkpt>
      <trkpt lat="49.70804716" lon="-115.9741915">
      </trkpt>
      <trkpt lat="49.70847727" lon="-115.97429755">
      </trkpt>
    </trkseg>
    <trkseg>
      <trkpt lat="49.70451346" lon="-115.98276166">
      </trkpt>
      <trkpt lat="49.70455481" lon="-115.98272677">
      </trkpt>
      <trkpt lat="49.70476034" lon="-115.98263815">
      </trkpt>
      <trkpt lat="49.70499149" lon="-115.98258182">
      </trkpt>
      <trkpt lat="49.70504506" lon="-115.98249696">
      </trkpt>
      <trkpt lat="49.70510752" lon="-115.98244019">
      </trkpt>
      <trkpt lat="49.70518845" lon="-115.9824385">
      </trkpt>
      <trkpt lat="49.70528701" lon="-115.98239481">
      </trkpt>
      <trkpt lat="49.70535895" lon="-115.98239333">
      </trkpt>
      <trkpt lat="49.70545776" lon="-115.98237739">
      </trkpt>
      <trkpt lat="49.70551172" lon="-115.98237626">
      </trkpt>
      <trkpt lat="49.70558366" lon="-115.98237474">
      </trkpt>
      <trkpt lat="49.70565561" lon="-115.98237326">
      </trkpt>
      <trkpt lat="49.70576353" lon="-115.982371">
      </trkpt>
      <trkpt lat="49.70582648" lon="-115.98236968">
      </trkpt>
      <trkpt lat="49.70589855" lon="-115.98238204">
      </trkpt>
      <trkpt lat="49.70597948" lon="-115.98238036">
      </trkpt>
      <trkpt lat="49.70605155" lon="-115.98239272">
      </trkpt>
      <trkpt lat="49.7061145" lon="-115.9823914">
      </trkpt>
      <trkpt lat="49.70619544" lon="-115.9823897">
      </trkpt>
      <trkpt lat="49.70624928" lon="-115.98237472">
      </trkpt>
      <trkpt lat="49.70630288" lon="-115.98233199">
      </trkpt>
      <trkpt lat="49.7063561" lon="-115.98224766">
      </trkpt>
      <trkpt lat="49.70640919" lon="-115.98214946">
      </trkpt>
      <trkpt lat="49.70646291" lon="-115.98212061">
      </trkpt>
      <trkpt lat="49.70654374" lon="-115.98210505">
      </trkpt>
      <trkpt lat="49.70659745" lon="-115.98207618">
      </trkpt>
      <trkpt lat="49.70668993" lon="-115.98206127">
      </trkpt>
      <trkpt lat="49.70669865" lon="-115.98206019">
      </trkpt>
      <trkpt lat="49.7067502" lon="-115.98205914">
      </trkpt>
      <trkpt lat="49.70679468" lon="-115.98204838">
      </trkpt>
      <trkpt lat="49.70681303" lon="-115.98204394">
      </trkpt>
      <trkpt lat="49.70681658" lon="-115.98204568">
      </trkpt>
      <trkpt lat="49.70686723" lon="-115.98207056">
      </trkpt>
      <trkpt lat="49.70695778" lon="-115.982138">
      </trkpt>
      <trkpt lat="49.70702997" lon="-115.98216422">
      </trkpt>
      <trkpt lat="49.70704014" lon="-115.98216791">
      </trkpt>
      <trkpt lat="49.70730432" lon="-115.98236592">
      </trkpt>
      <trkpt lat="49.70749833" lon="-115.98246077">
      </trkpt>
      <trkpt lat="49.70768753" lon="-115.98257782">
      </trkpt>
      <trkpt lat="49.70785851" lon="-115.98257199">
      </trkpt>
      <trkpt lat="49.70793346" lon="-115.98249211">
      </trkpt>
      <trkpt lat="49.70806178" lon="-115.98231065">
      </trkpt>
      <trkpt lat="49.70819768" lon="-115.98223323">
      </trkpt>
      <trkpt lat="49.70839752" lon="-115.98209423">
      </trkpt>
      <trkpt lat="49.70856854" lon="-115.98194039">
      </trkpt>
      <trkpt lat="49.70878471" lon="-115.98175549">
      </trkpt>
      <trkpt lat="49.70895222" lon="-115.98159537">
      </trkpt>
      <trkpt lat="49.70911565" lon="-115.98130892">
      </trkpt>
      <trkpt lat="49.70921975" lon="-115.98112647">
      </trkpt>
      <trkpt lat="49.70937813" lon="-115.98092739">
      </trkpt>
      <trkpt lat="49.70955967" lon="-115.98078421">
      </trkpt>
      <trkpt lat="49.70978339" lon="-115.98060776">
      </trkpt>
      <trkpt lat="49.70993278" lon="-115.98048993">
      </trkpt>
      <trkpt lat="49.70996784" lon="-115.9802647">
      </trkpt>
      <trkpt lat="49.70999945" lon="-115.98003561">
      </trkpt>
      <trkpt lat="49.71005539" lon="-115.979849">
      </trkpt>
      <trkpt lat="49.71015882" lon="-115.97965377">
      </trkpt>
      <trkpt lat="49.71018102" lon="-115.97948293">
      </trkpt>
      <trkpt lat="49.71021017" lon="-115.97923544">
      </trkpt>
      <trkpt lat="49.71025534" lon="-115.97903256">
      </trkpt>
      <trkpt lat="49.71034803" lon="-115.97885341">
      </trkpt>
      <trkpt lat="49.71044073" lon="-115.97867426">
      </trkpt>
      <trkpt lat="49.71049095" lon="-115.97848352">
      </trkpt>
      <trkpt lat="49.7105" lon="-115.97826622">
      </trkpt>
      <trkpt lat="49.71051122" lon="-115.97798427">
      </trkpt>
      <trkpt lat="49.71046807" lon="-115.97783934">
      </trkpt>
      <trkpt lat="49.71041164" lon="-115.97764983">
      </trkpt>
      <trkpt lat="49.71036446" lon="-115.97749137">
      </trkpt>
      <trkpt lat="49.71019858" lon="-115.9774363">
      </trkpt>
      <trkpt lat="49.71001776" lon="-115.97741811">
      </trkpt>
      <trkpt lat="49.70984262" lon="-115.97728886">
      </trkpt>
      <trkpt lat="49.7097564" lon="-115.97721709">
      </trkpt>
      <trkpt lat="49.70974465" lon="-115.97711339">
      </trkpt>
      <trkpt lat="49.70972711" lon="-115.97695848">
      </trkpt>
      <trkpt lat="49.7097031" lon="-115.97679114">
      </trkpt>
      <trkpt lat="49.70962996" lon="-115.97651931">
      </trkpt>
      <trkpt lat="49.70954601" lon="-115.97620737">
      </trkpt>
      <trkpt lat="49.70951093" lon="-115.97606467">
      </trkpt>
      <trkpt lat="49.70954046" lon="-115.97589617">
      </trkpt>
      <trkpt lat="49.70957511" lon="-115.97569846">
      </trkpt>
      <trkpt lat="49.70960533" lon="-115.97552598">
      </trkpt>
      <trkpt lat="49.70960738" lon="-115.97536884">
      </trkpt>
      <trkpt lat="49.70955266" lon="-115.97522228">
      </trkpt>
      <trkpt lat="49.70952292" lon="-115.97504908">
      </trkpt>
      <trkpt lat="49.70949989" lon="-115.9748744">
      </trkpt>
      <trkpt lat="49.70943461" lon="-115.97468787">
      </trkpt>
      <trkpt lat="49.7093626" lon="-115.97450281">
      </trkpt>
      <trkpt lat="49.70932516" lon="-115.97439474">
      </trkpt>
      <trkpt lat="49.70923486" lon="-115.97438285">
      </trkpt>
      <trkpt lat="49.7090975" lon="-115.97438132">
      </trkpt>
      <trkpt lat="49.70885447" lon="-115.97442414">
      </trkpt>
      <trkpt lat="49.70868062" lon="-115.9743989">
      </trkpt>
      <trkpt lat="49.7086057" lon="-115.97433079">
      </trkpt>
      <trkpt lat="49.70856133" lon="-115.9740704">
      </trkpt>
      <trkpt lat="49.7085588" lon="-115.97397663">
      </trkpt>
      <trkpt lat="49.70855782" lon="-115.97386577">
      </trkpt>
      <trkpt lat="49.70855682" lon="-115.97375475">
      </trkpt>
      <trkpt lat="49.70853794" lon="-115.97365808">
      </trkpt>
      <trkpt lat="49.70852834" lon="-115.97358898">
      </trkpt>
      <trkpt lat="49.70851856" lon="-115.973492">
      </trkpt>
      <trkpt lat="49.70851776" lon="-115.97340889">
      </trkpt>
      <trkpt lat="49.70851668" lon="-115.97328399">
      </trkpt>
      <trkpt lat="49.70851579" lon="-115.97318702">
      </trkpt>
      <trkpt lat="49.70851509" lon="-115.97310375">
      </trkpt>
      <trkpt lat="49.7085141" lon="-115.97299289">
      </trkpt>
      <trkpt lat="49.70852211" lon="-115.97288171">
      </trkpt>
      <trkpt lat="49.70853882" lon="-115.97274264">
      </trkpt>
      <trkpt lat="49.70854713" lon="-115.97265922">
      </trkpt>
      <trkpt lat="49.70855524" lon="-115.97256193">
      </trkpt>
      <trkpt lat="49.70859925" lon="-115.97245015">
      </trkpt>
      <trkpt lat="49.70863357" lon="-115.97226899">
      </trkpt>
      <trkpt lat="49.70864198" lon="-115.9721996">
      </trkpt>
      <trkpt lat="49.70864988" lon="-115.97207456">
      </trkpt>
      <trkpt lat="49.7086579" lon="-115.97196339">
      </trkpt>
      <trkpt lat="49.7086749" lon="-115.97185207">
      </trkpt>
      <trkpt lat="49.70869211" lon="-115.9717685">
      </trkpt>
      <trkpt lat="49.70871832" lon="-115.97168478">
      </trkpt>
      <trkpt lat="49.70870813" lon="-115.97154617">
      </trkpt>
      <trkpt lat="49.70869805" lon="-115.97142158">
      </trkpt>
      <trkpt lat="49.70869725" lon="-115.97133847">
      </trkpt>
      <trkpt lat="49.70867856" lon="-115.97125567">
      </trkpt>
      <trkpt lat="49.70866887" lon="-115.97117255">
      </trkpt>
      <trkpt lat="49.70865008" lon="-115.97108974">
      </trkpt>
      <trkpt lat="49.70863999" lon="-115.97096515">
      </trkpt>
      <trkpt lat="49.70863021" lon="-115.97086832">
      </trkpt>
      <trkpt lat="49.70861952" lon="-115.97068822">
      </trkpt>
      <trkpt lat="49.70860973" lon="-115.97059124">
      </trkpt>
      <trkpt lat="49.70859995" lon="-115.97050828">
      </trkpt>
      <trkpt lat="49.70857146" lon="-115.97034236">
      </trkpt>
      <trkpt lat="49.70856137" lon="-115.97021777">
      </trkpt>
      <trkpt lat="49.70852409" lon="-115.97006604">
      </trkpt>
      <trkpt lat="49.70846912" lon="-115.96995625">
      </trkpt>
      <trkpt lat="49.70846911" lon="-115.96995624">
      </trkpt>
      <trkpt lat="49.70844141" lon="-115.9698736">
      </trkpt>
      <trkpt lat="49.70843993" lon="-115.96970722">
      </trkpt>
      <trkpt lat="49.70844794" lon="-115.96959605">
      </trkpt>
      <trkpt lat="49.70847406" lon="-115.96949846">
      </trkpt>
      <trkpt lat="49.70850916" lon="-115.96940056">
      </trkpt>
      <trkpt lat="49.70852617" lon="-115.96928923">
      </trkpt>
      <trkpt lat="49.70857967" lon="-115.96923266">
      </trkpt>
      <trkpt lat="49.70865018" lon="-115.96907863">
      </trkpt>
      <trkpt lat="49.708649" lon="-115.96893986">
      </trkpt>
      <trkpt lat="49.70872919" lon="-115.96885492">
      </trkpt>
      <trkpt lat="49.7087999" lon="-115.96871478">
      </trkpt>
      <trkpt lat="49.70887101" lon="-115.96861612">
      </trkpt>
      <trkpt lat="49.7089515" lon="-115.9685728">
      </trkpt>
      <trkpt lat="49.7090408" lon="-115.9685016">
      </trkpt>
      <trkpt lat="49.70906681" lon="-115.96839012">
      </trkpt>
      <trkpt lat="49.70911992" lon="-115.96829192">
      </trkpt>
      <trkpt lat="49.70913722" lon="-115.96820834">
      </trkpt>
      <trkpt lat="49.70919943" lon="-115.96812371">
      </trkpt>
      <trkpt lat="49.70920774" lon="-115.96805417">
      </trkpt>
      <trkpt lat="49.70917994" lon="-115.96795779">
      </trkpt>
      <trkpt lat="49.70917906" lon="-115.96786065">
      </trkpt>
      <trkpt lat="49.70919508" lon="-115.96763847">
      </trkpt>
      <trkpt lat="49.70914128" lon="-115.96765341">
      </trkpt>
      <trkpt lat="49.7091043" lon="-115.96754315">
      </trkpt>
      <trkpt lat="49.7091034" lon="-115.96744618">
      </trkpt>
      <trkpt lat="49.70912951" lon="-115.96734857">
      </trkpt>
      <trkpt lat="49.70916472" lon="-115.96726454">
      </trkpt>
      <trkpt lat="49.70918154" lon="-115.96712547">
      </trkpt>
      <trkpt lat="49.70919873" lon="-115.9670419">
      </trkpt>
      <trkpt lat="49.70923345" lon="-115.96690253">
      </trkpt>
      <trkpt lat="49.70926826" lon="-115.966763">
      </trkpt>
      <trkpt lat="49.70926736" lon="-115.96666601">
      </trkpt>
      <trkpt lat="49.70920447" lon="-115.96668111">
      </trkpt>
      <trkpt lat="49.70915077" lon="-115.96671008">
      </trkpt>
      <trkpt lat="49.70908797" lon="-115.96672518">
      </trkpt>
      <trkpt lat="49.70902519" lon="-115.96674042">
      </trkpt>
      <trkpt lat="49.70895328" lon="-115.96675583">
      </trkpt>
      <trkpt lat="49.70888139" lon="-115.96675735">
      </trkpt>
      <trkpt lat="49.70882769" lon="-115.96678617">
      </trkpt>
      <trkpt lat="49.70875571" lon="-115.9667877">
      </trkpt>
      <trkpt lat="49.70869319" lon="-115.96683071">
      </trkpt>
      <trkpt lat="49.7086217" lon="-115.96688774">
      </trkpt>
      <trkpt lat="49.70856801" lon="-115.96691655">
      </trkpt>
      <trkpt lat="49.70848701" lon="-115.96691824">
      </trkpt>
      <trkpt lat="49.7084242" lon="-115.96693349">
      </trkpt>
      <trkpt lat="49.70836141" lon="-115.96694873">
      </trkpt>
      <trkpt lat="49.70830771" lon="-115.96697755">
      </trkpt>
      <trkpt lat="49.70822671" lon="-115.96697923">
      </trkpt>
      <trkpt lat="49.70816382" lon="-115.9669806">
      </trkpt>
      <trkpt lat="49.70807383" lon="-115.96698259">
      </trkpt>
      <trkpt lat="49.70798393" lon="-115.96698441">
      </trkpt>
      <trkpt lat="49.70789404" lon="-115.96698639">
      </trkpt>
      <trkpt lat="49.70781344" lon="-115.96702971">
      </trkpt>
      <trkpt lat="49.70775975" lon="-115.96705853">
      </trkpt>
      <trkpt lat="49.70769714" lon="-115.96710153">
      </trkpt>
      <trkpt lat="49.70762524" lon="-115.96710306">
      </trkpt>
      <trkpt lat="49.70752625" lon="-115.96710504">
      </trkpt>
      <trkpt lat="49.70745435" lon="-115.96710657">
      </trkpt>
      <trkpt lat="49.70740045" lon="-115.96712167">
      </trkpt>
      <trkpt lat="49.70734656" lon="-115.96712272">
      </trkpt>
      <trkpt lat="49.70729256" lon="-115.96712395">
      </trkpt>
      <trkpt lat="49.70723866" lon="-115.96712501">
      </trkpt>
      <trkpt lat="49.70716667" lon="-115.96712655">
      </trkpt>
      <trkpt lat="49.70710376" lon="-115.96712792">
      </trkpt>
      <trkpt lat="49.70703177" lon="-115.96712944">
      </trkpt>
      <trkpt lat="49.70691477" lon="-115.96711801">
      </trkpt>
      <trkpt lat="49.70684278" lon="-115.96711953">
      </trkpt>
      <trkpt lat="49.70677988" lon="-115.9671209">
      </trkpt>
      <trkpt lat="49.70668079" lon="-115.96710915">
      </trkpt>
      <trkpt lat="49.70662688" lon="-115.96711038">
      </trkpt>
      <trkpt lat="49.70655489" lon="-115.9671119">
      </trkpt>
      <trkpt lat="49.70650099" lon="-115.96711297">
      </trkpt>
      <trkpt lat="49.706411" lon="-115.96711495">
      </trkpt>
      <trkpt lat="49.7063659" lon="-115.96710199">
      </trkpt>
      <trkpt lat="49.706267" lon="-115.96710412">
      </trkpt>
      <trkpt lat="49.7061861" lon="-115.96710581">
      </trkpt>
      <trkpt lat="49.706087" lon="-115.96709407">
      </trkpt>
      <trkpt lat="49.70603331" lon="-115.96712288">
      </trkpt>
      <trkpt lat="49.7059801" lon="-115.96720722">
      </trkpt>
      <trkpt lat="49.70588229" lon="-115.96733409">
      </trkpt>
      <trkpt lat="49.70580168" lon="-115.9673774">
      </trkpt>
      <trkpt lat="49.70573018" lon="-115.96742056">
      </trkpt>
      <trkpt lat="49.70567658" lon="-115.96746325">
      </trkpt>
      <trkpt lat="49.70561378" lon="-115.9674785">
      </trkpt>
      <trkpt lat="49.70551499" lon="-115.96749452">
      </trkpt>
      <trkpt lat="49.70546098" lon="-115.96749558">
      </trkpt>
      <trkpt lat="49.70537988" lon="-115.96748353">
      </trkpt>
      <trkpt lat="49.70530798" lon="-115.96748505">
      </trkpt>
      <trkpt lat="49.70525398" lon="-115.96748613">
      </trkpt>
      <trkpt lat="49.70516408" lon="-115.9674881">
      </trkpt>
      <trkpt lat="49.70507438" lon="-115.96751769">
      </trkpt>
      <trkpt lat="49.70498448" lon="-115.96751968">
      </trkpt>
      <trkpt lat="49.70492119" lon="-115.96747926">
      </trkpt>
      <trkpt lat="49.70491139" lon="-115.9673963">
      </trkpt>
      <trkpt lat="49.70485671" lon="-115.96731427">
      </trkpt>
      <trkpt lat="49.70480211" lon="-115.9672461">
      </trkpt>
      <trkpt lat="49.70474672" lon="-115.96708079">
      </trkpt>
      <trkpt lat="49.70471893" lon="-115.96699814">
      </trkpt>
      <trkpt lat="49.70471774" lon="-115.96685952">
      </trkpt>
      <trkpt lat="49.70470785" lon="-115.96676268">
      </trkpt>
      <trkpt lat="49.70469796" lon="-115.96666586">
      </trkpt>
      <trkpt lat="49.70464308" lon="-115.96655605">
      </trkpt>
      <trkpt lat="49.70462438" lon="-115.96647325">
      </trkpt>
      <trkpt lat="49.7046137" lon="-115.96629315">
      </trkpt>
      <trkpt lat="49.70460352" lon="-115.96615469">
      </trkpt>
      <trkpt lat="49.70460263" lon="-115.96605756">
      </trkpt>
      <trkpt lat="49.70460174" lon="-115.96596056">
      </trkpt>
      <trkpt lat="49.70460074" lon="-115.96584955">
      </trkpt>
      <trkpt lat="49.70459977" lon="-115.96573868">
      </trkpt>
      <trkpt lat="49.70459817" lon="-115.96555843">
      </trkpt>
      <trkpt lat="49.70459718" lon="-115.96544741">
      </trkpt>
      <trkpt lat="49.70460529" lon="-115.96535027">
      </trkpt>
      <trkpt lat="49.7046039" lon="-115.96519763">
      </trkpt>
      <trkpt lat="49.70461172" lon="-115.96505886">
      </trkpt>
      <trkpt lat="49.70461122" lon="-115.96500632">
      </trkpt>
      <trkpt lat="49.70464232" lon="-115.96492076">
      </trkpt>
      <trkpt lat="49.7046762" lon="-115.96481875">
      </trkpt>
      <trkpt lat="49.70465498" lon="-115.9647066">
      </trkpt>
      <trkpt lat="49.70458017" lon="-115.96467854">
      </trkpt>
      <trkpt lat="49.70444673" lon="-115.96479689">
      </trkpt>
      <trkpt lat="49.7043062" lon="-115.96491679">
      </trkpt>
      <trkpt lat="49.70414899" lon="-115.96501255">
      </trkpt>
      <trkpt lat="49.70401404" lon="-115.96495879">
      </trkpt>
      <trkpt lat="49.70388971" lon="-115.9648248">
      </trkpt>
      <trkpt lat="49.70385738" lon="-115.96463166">
      </trkpt>
      <trkpt lat="49.70385134" lon="-115.96441047">
      </trkpt>
      <trkpt lat="49.70390342" lon="-115.96411533">
      </trkpt>
      <trkpt lat="49.7039464" lon="-115.9638778">
      </trkpt>
      <trkpt lat="49.70394844" lon="-115.96370491">
      </trkpt>
      <trkpt lat="49.70393128" lon="-115.96344168">
      </trkpt>
      <trkpt lat="49.70392979" lon="-115.96307487">
      </trkpt>
      <trkpt lat="49.70391364" lon="-115.96270571">
      </trkpt>
      <trkpt lat="49.70384593" lon="-115.9623646">
      </trkpt>
      <trkpt lat="49.70372059" lon="-115.96214183">
      </trkpt>
      <trkpt lat="49.70352752" lon="-115.96196735">
      </trkpt>
      <trkpt lat="49.70327582" lon="-115.9618614">
      </trkpt>
      <trkpt lat="49.70307717" lon="-115.96178272">
      </trkpt>
      <trkpt lat="49.70284339" lon="-115.96168165">
      </trkpt>
      <trkpt lat="49.70282583" lon="-115.96167819">
      </trkpt>
      <trkpt lat="49.70273751" lon="-115.96168002">
      </trkpt>
      <trkpt lat="49.70267888" lon="-115.96165338">
      </trkpt>
      <trkpt lat="49.70258336" lon="-115.96163545">
      </trkpt>
      <trkpt lat="49.70252522" lon="-115.96163155">
      </trkpt>
      <trkpt lat="49.70244839" lon="-115.96162064">
      </trkpt>
      <trkpt lat="49.70238976" lon="-115.96161129">
      </trkpt>
      <trkpt lat="49.70231041" lon="-115.96157312">
      </trkpt>
      <trkpt lat="49.7022068" lon="-115.96154584">
      </trkpt>
      <trkpt lat="49.70213098" lon="-115.9615069">
      </trkpt>
      <trkpt lat="49.70204202" lon="-115.96148197">
      </trkpt>
      <trkpt lat="49.7019293" lon="-115.96143445">
      </trkpt>
      <trkpt lat="49.70180901" lon="-115.96138302">
      </trkpt>
      <trkpt lat="49.70165283" lon="-115.96137288">
      </trkpt>
      <trkpt lat="49.701591" lon="-115.96135658">
      </trkpt>
      <trkpt lat="49.70155261" lon="-115.9613947">
      </trkpt>
      <trkpt lat="49.70151009" lon="-115.96139592">
      </trkpt>
      <trkpt lat="49.70142266" lon="-115.96149306">
      </trkpt>
      <trkpt lat="49.70135104" lon="-115.96153622">
      </trkpt>
      <trkpt lat="49.70127953" lon="-115.96157937">
      </trkpt>
      <trkpt lat="49.70118092" lon="-115.96162314">
      </trkpt>
      <trkpt lat="49.70112711" lon="-115.96163809">
      </trkpt>
      <trkpt lat="49.70112156" lon="-115.96175673">
      </trkpt>
      <trkpt lat="49.70108668" lon="-115.96184783">
      </trkpt>
      <trkpt lat="49.70105888" lon="-115.96197633">
      </trkpt>
      <trkpt lat="49.70099665" lon="-115.96214009">
      </trkpt>
      <trkpt lat="49.70095321" lon="-115.96223874">
      </trkpt>
      <trkpt lat="49.70090115" lon="-115.96230026">
      </trkpt>
      <trkpt lat="49.700841" lon="-115.96231349">
      </trkpt>
      <trkpt lat="49.70074547" lon="-115.9623345">
      </trkpt>
      <trkpt lat="49.70064761" lon="-115.96232782">
      </trkpt>
      <trkpt lat="49.7005669" lon="-115.96235725">
      </trkpt>
      <trkpt lat="49.70047699" lon="-115.96235924">
      </trkpt>
      <trkpt lat="49.70041399" lon="-115.96236061">
      </trkpt>
      <trkpt lat="49.70033308" lon="-115.96236228">
      </trkpt>
      <trkpt lat="49.70023416" lon="-115.96236442">
      </trkpt>
      <trkpt lat="49.70013505" lon="-115.96235268">
      </trkpt>
      <trkpt lat="49.70008995" lon="-115.96233971">
      </trkpt>
      <trkpt lat="49.70000034" lon="-115.9623693">
      </trkpt>
      <trkpt lat="49.69996473" lon="-115.96241169">
      </trkpt>
      <trkpt lat="49.69999181" lon="-115.96253917">
      </trkpt>
      <trkpt lat="49.69998928" lon="-115.96266766">
      </trkpt>
      <trkpt lat="49.69997006" lon="-115.96281095">
      </trkpt>
      <trkpt lat="49.69986339" lon="-115.96294565">
      </trkpt>
      <trkpt lat="49.69972725" lon="-115.96301313">
      </trkpt>
      <trkpt lat="49.69967363" lon="-115.96305584">
      </trkpt>
      <trkpt lat="49.69958412" lon="-115.96309929">
      </trkpt>
      <trkpt lat="49.69951241" lon="-115.96312858">
      </trkpt>
      <trkpt lat="49.6994406" lon="-115.96314398">
      </trkpt>
      <trkpt lat="49.69933289" lon="-115.96317402">
      </trkpt>
      <trkpt lat="49.69927017" lon="-115.96320314">
      </trkpt>
      <trkpt lat="49.69918066" lon="-115.9632466">
      </trkpt>
      <trkpt lat="49.69910005" lon="-115.96328991">
      </trkpt>
      <trkpt lat="49.69900164" lon="-115.96334755">
      </trkpt>
      <trkpt lat="49.69893882" lon="-115.96336265">
      </trkpt>
      <trkpt lat="49.69886701" lon="-115.96337805">
      </trkpt>
      <trkpt lat="49.69872309" lon="-115.96338111">
      </trkpt>
      <trkpt lat="49.69866019" lon="-115.96338248">
      </trkpt>
      <trkpt lat="49.69859747" lon="-115.9634116">
      </trkpt>
      <trkpt lat="49.69854366" lon="-115.96342655">
      </trkpt>
      <trkpt lat="49.69844475" lon="-115.96342868">
      </trkpt>
      <trkpt lat="49.69837273" lon="-115.96343021">
      </trkpt>
      <trkpt lat="49.69826474" lon="-115.96341861">
      </trkpt>
      <trkpt lat="49.69813891" lon="-115.96343524">
      </trkpt>
      <trkpt lat="49.69807649" lon="-115.96349196">
      </trkpt>
      <trkpt lat="49.69799607" lon="-115.96354916">
      </trkpt>
      <trkpt lat="49.69792476" lon="-115.96362007">
      </trkpt>
      <trkpt lat="49.69782693" lon="-115.96374695">
      </trkpt>
      <trkpt lat="49.6977294" lon="-115.96390157">
      </trkpt>
      <trkpt lat="49.69768498" lon="-115.96397171">
      </trkpt>
      <trkpt lat="49.69758775" lon="-115.96415411">
      </trkpt>
      <trkpt lat="49.69754413" lon="-115.96430767">
      </trkpt>
      <trkpt lat="49.69750042" lon="-115.96444719">
      </trkpt>
      <trkpt lat="49.697466" lon="-115.96462822">
      </trkpt>
      <trkpt lat="49.69740496" lon="-115.96483743">
      </trkpt>
      <trkpt lat="49.69736093" lon="-115.96494937">
      </trkpt>
      <trkpt lat="49.69732562" lon="-115.96501951">
      </trkpt>
      <trkpt lat="49.69726351" lon="-115.96511788">
      </trkpt>
      <trkpt lat="49.69720169" lon="-115.96524398">
      </trkpt>
      <trkpt lat="49.69713056" lon="-115.9653425">
      </trkpt>
      <trkpt lat="49.69706834" lon="-115.96542698">
      </trkpt>
      <trkpt lat="49.69697932" lon="-115.96552595">
      </trkpt>
      <trkpt lat="49.69690829" lon="-115.96562461">
      </trkpt>
      <trkpt lat="49.69682808" lon="-115.96570956">
      </trkpt>
      <trkpt lat="49.69675675" lon="-115.96578031">
      </trkpt>
      <trkpt lat="49.69664053" lon="-115.96586601">
      </trkpt>
      <trkpt lat="49.69656911" lon="-115.96592305">
      </trkpt>
      <trkpt lat="49.69644417" lon="-115.9660365">
      </trkpt>
      <trkpt lat="49.69637285" lon="-115.96610742">
      </trkpt>
      <trkpt lat="49.69630154" lon="-115.96617833">
      </trkpt>
      <trkpt lat="49.69619447" lon="-115.96624964">
      </trkpt>
      <trkpt lat="49.69608748" lon="-115.96637687">
      </trkpt>
      <trkpt lat="49.69598974" lon="-115.96651763">
      </trkpt>
      <trkpt lat="49.69593642" lon="-115.96658808">
      </trkpt>
      <trkpt lat="49.69588312" lon="-115.96665853">
      </trkpt>
      <trkpt lat="49.69581228" lon="-115.96680084">
      </trkpt>
      <trkpt lat="49.6957324" lon="-115.96695187">
      </trkpt>
      <trkpt lat="49.69565961" lon="-115.96706243">
      </trkpt>
      <trkpt lat="49.69558105" lon="-115.96726622">
      </trkpt>
      <trkpt lat="49.69546476" lon="-115.96742644">
      </trkpt>
      <trkpt lat="49.69535391" lon="-115.96754059">
      </trkpt>
      <trkpt lat="49.69523287" lon="-115.96764948">
      </trkpt>
      <trkpt lat="49.69511931" lon="-115.96773429">
      </trkpt>
      <trkpt lat="49.69495591" lon="-115.96784555">
      </trkpt>
    </trkseg>
    <trkseg>
      <trkpt lat="49.70603244" lon="-115.97821916">
      </trkpt>
      <trkpt lat="49.70620501" lon="-115.97797628">
      </trkpt>
      <trkpt lat="49.70630091" lon="-115.97773502">
      </trkpt>
      <trkpt lat="49.70639872" lon="-115.97737609">
      </trkpt>
      <trkpt lat="49.70649111" lon="-115.97703703">
      </trkpt>
      <trkpt lat="49.70656996" lon="-115.97675075">
      </trkpt>
      <trkpt lat="49.70678304" lon="-115.97632685">
      </trkpt>
      <trkpt lat="49.70695264" lon="-115.97598948">
      </trkpt>
      <trkpt lat="49.70720866" lon="-115.97567224">
      </trkpt>
      <trkpt lat="49.70743193" lon="-115.97544322">
      </trkpt>
      <trkpt lat="49.70757541" lon="-115.97527975">
      </trkpt>
      <trkpt lat="49.70768991" lon="-115.97493233">
      </trkpt>
      <trkpt lat="49.7078416" lon="-115.97486275">
      </trkpt>
      <trkpt lat="49.70796242" lon="-115.97462128">
      </trkpt>
      <trkpt lat="49.70819484" lon="-115.97438965">
      </trkpt>
      <trkpt lat="49.70831292" lon="-115.97434888">
      </trkpt>
      <trkpt lat="49.70842831" lon="-115.97431365">
      </trkpt>
      <trkpt lat="49.70859352" lon="-115.97425931">
      </trkpt>
      <trkpt lat="49.70896" lon="-115.9741">
      </trkpt>
      <trkpt lat="49.71015" lon="-115.97413">
      </trkpt>
      <trkpt lat="49.71047" lon="-115.974">
      </trkpt>
      <trkpt lat="49.7107" lon="-115.97373">
      </trkpt>
      <trkpt lat="49.71104" lon="-115.97351">
      </trkpt>
      <trkpt lat="49.71132" lon="-115.97361001">
      </trkpt>
      <trkpt lat="49.71192" lon="-115.97356">
      </trkpt>
      <trkpt lat="49.7123" lon="-115.97339">
      </trkpt>
      <trkpt lat="49.71267" lon="-115.97314">
      </trkpt>
      <trkpt lat="49.71302" lon="-115.97301999">
      </trkpt>
      <trkpt lat="49.71344" lon="-115.97274">
      </trkpt>
      <trkpt lat="49.71412" lon="-115.97224999">
      </trkpt>
      <trkpt lat="49.71436" lon="-115.97214">
      </trkpt>
      <trkpt lat="49.71449" lon="-115.97197">
      </trkpt>
      <trkpt lat="49.71474" lon="-115.97140001">
      </trkpt>
      <trkpt lat="49.71496" lon="-115.97116">
      </trkpt>
      <trkpt lat="49.71538" lon="-115.97084">
      </trkpt>
      <trkpt lat="49.71554" lon="-115.97084">
      </trkpt>
      <trkpt lat="49.71612" lon="-115.97108">
      </trkpt>
      <trkpt lat="49.71629" lon="-115.97093">
      </trkpt>
      <trkpt lat="49.71655" lon="-115.97095">
      </trkpt>
      <trkpt lat="49.71758" lon="-115.97113">
      </trkpt>
      <trkpt lat="49.71776" lon="-115.97093001">
      </trkpt>
      <trkpt lat="49.71825" lon="-115.97009">
      </trkpt>
      <trkpt lat="49.7186" lon="-115.96965001">
      </trkpt>
      <trkpt lat="49.71885" lon="-115.96898">
      </trkpt>
      <trkpt lat="49.71879" lon="-115.9685">
      </trkpt>
      <trkpt lat="49.71805" lon="-115.96798">
      </trkpt>
      <trkpt lat="49.71801" lon="-115.96713001">
      </trkpt>
      <trkpt lat="49.7181" lon="-115.96656999">
      </trkpt>
      <trkpt lat="49.71829" lon="-115.96608999">
      </trkpt>
      <trkpt lat="49.7186" lon="-115.96587">
      </trkpt>
      <trkpt lat="49.71892" lon="-115.96588001">
      </trkpt>
      <trkpt lat="49.71933" lon="-115.96592">
      </trkpt>
      <trkpt lat="49.71989" lon="-115.96568">
      </trkpt>
      <trkpt lat="49.72064" lon="-115.96322">
      </trkpt>
      <trkpt lat="49.72044921" lon="-115.96247997">
      </trkpt>
    </trkseg>
    <trkseg>
      <trkpt lat="49.71285815" lon="-115.98120657">
      </trkpt>
      <trkpt lat="49.71291286" lon="-115.98118127">
      </trkpt>
      <trkpt lat="49.71301164" lon="-115.98116526">
      </trkpt>
      <trkpt lat="49.71307474" lon="-115.98117793">
      </trkpt>
      <trkpt lat="49.71314673" lon="-115.9811764">
      </trkpt>
      <trkpt lat="49.71320062" lon="-115.98117518">
      </trkpt>
      <trkpt lat="49.7132725" lon="-115.98115993">
      </trkpt>
      <trkpt lat="49.713326" lon="-115.9811032">
      </trkpt>
      <trkpt lat="49.7133879" lon="-115.98099096">
      </trkpt>
      <trkpt lat="49.71348579" lon="-115.98086409">
      </trkpt>
      <trkpt lat="49.71355699" lon="-115.98077945">
      </trkpt>
      <trkpt lat="49.7135921" lon="-115.98068154">
      </trkpt>
      <trkpt lat="49.7136362" lon="-115.9805835">
      </trkpt>
      <trkpt lat="49.71371669" lon="-115.9805263">
      </trkpt>
      <trkpt lat="49.71377038" lon="-115.98049749">
      </trkpt>
      <trkpt lat="49.71382389" lon="-115.98044091">
      </trkpt>
      <trkpt lat="49.71388626" lon="-115.98038403">
      </trkpt>
      <trkpt lat="49.71396676" lon="-115.98032684">
      </trkpt>
      <trkpt lat="49.71405595" lon="-115.98024175">
      </trkpt>
      <trkpt lat="49.71415384" lon="-115.98012875">
      </trkpt>
      <trkpt lat="49.71420733" lon="-115.98007217">
      </trkpt>
      <trkpt lat="49.71426093" lon="-115.98002948">
      </trkpt>
      <trkpt lat="49.71435023" lon="-115.97995826">
      </trkpt>
      <trkpt lat="49.71443961" lon="-115.97988705">
      </trkpt>
      <trkpt lat="49.71452949" lon="-115.97988506">
      </trkpt>
      <trkpt lat="49.71460147" lon="-115.97988354">
      </trkpt>
      <trkpt lat="49.71467337" lon="-115.97988202">
      </trkpt>
      <trkpt lat="49.71476346" lon="-115.97989406">
      </trkpt>
      <trkpt lat="49.71486242" lon="-115.97989192">
      </trkpt>
      <trkpt lat="49.7149434" lon="-115.97990413">
      </trkpt>
      <trkpt lat="49.71500639" lon="-115.97990291">
      </trkpt>
      <trkpt lat="49.71506938" lon="-115.97990154">
      </trkpt>
      <trkpt lat="49.71515026" lon="-115.97989985">
      </trkpt>
      <trkpt lat="49.71521336" lon="-115.97991236">
      </trkpt>
      <trkpt lat="49.71526684" lon="-115.97985578">
      </trkpt>
      <trkpt lat="49.71532034" lon="-115.97979921">
      </trkpt>
      <trkpt lat="49.71540052" lon="-115.97971427">
      </trkpt>
      <trkpt lat="49.71545392" lon="-115.9796577">
      </trkpt>
      <trkpt lat="49.71553491" lon="-115.97965601">
      </trkpt>
      <trkpt lat="49.7155889" lon="-115.9796548">
      </trkpt>
      <trkpt lat="49.71565178" lon="-115.97965357">
      </trkpt>
      <trkpt lat="49.71571486" lon="-115.97966608">
      </trkpt>
      <trkpt lat="49.71578724" lon="-115.97970618">
      </trkpt>
      <trkpt lat="49.71585942" lon="-115.97973242">
      </trkpt>
      <trkpt lat="49.7159135" lon="-115.97974507">
      </trkpt>
      <trkpt lat="49.7159674" lon="-115.979744">
      </trkpt>
      <trkpt lat="49.71603038" lon="-115.97974263">
      </trkpt>
      <trkpt lat="49.71610196" lon="-115.97969963">
      </trkpt>
      <trkpt lat="49.71615576" lon="-115.97968453">
      </trkpt>
      <trkpt lat="49.71623635" lon="-115.97964122">
      </trkpt>
      <trkpt lat="49.71628984" lon="-115.97958464">
      </trkpt>
      <trkpt lat="49.71636083" lon="-115.9794721">
      </trkpt>
      <trkpt lat="49.71641433" lon="-115.97941553">
      </trkpt>
      <trkpt lat="49.71649431" lon="-115.97931671">
      </trkpt>
      <trkpt lat="49.7165656" lon="-115.97923208">
      </trkpt>
      <trkpt lat="49.71660081" lon="-115.97914805">
      </trkpt>
      <trkpt lat="49.716636" lon="-115.97906418">
      </trkpt>
      <trkpt lat="49.7166713" lon="-115.97898016">
      </trkpt>
      <trkpt lat="49.7166974" lon="-115.97888256">
      </trkpt>
      <trkpt lat="49.71672332" lon="-115.97875706">
      </trkpt>
      <trkpt lat="49.71673133" lon="-115.97864589">
      </trkpt>
      <trkpt lat="49.71673943" lon="-115.9785486">
      </trkpt>
      <trkpt lat="49.71676493" lon="-115.97838161">
      </trkpt>
      <trkpt lat="49.71679994" lon="-115.97826999">
      </trkpt>
      <trkpt lat="49.71684394" lon="-115.97815805">
      </trkpt>
      <trkpt lat="49.71688793" lon="-115.97804612">
      </trkpt>
      <trkpt lat="49.71693204" lon="-115.97794807">
      </trkpt>
      <trkpt lat="49.71695804" lon="-115.9778366">
      </trkpt>
      <trkpt lat="49.71701104" lon="-115.97772451">
      </trkpt>
      <trkpt lat="49.71702825" lon="-115.97764094">
      </trkpt>
      <trkpt lat="49.71705464" lon="-115.97757094">
      </trkpt>
      <trkpt lat="49.71711675" lon="-115.97747259">
      </trkpt>
      <trkpt lat="49.71715204" lon="-115.97740244">
      </trkpt>
      <trkpt lat="49.71716924" lon="-115.97730499">
      </trkpt>
      <trkpt lat="49.71717745" lon="-115.97722158">
      </trkpt>
      <trkpt lat="49.71719426" lon="-115.97708251">
      </trkpt>
      <trkpt lat="49.71721126" lon="-115.97697118">
      </trkpt>
      <trkpt lat="49.71721947" lon="-115.97688777">
      </trkpt>
      <trkpt lat="49.71725437" lon="-115.97676211">
      </trkpt>
      <trkpt lat="49.71729857" lon="-115.97667794">
      </trkpt>
      <trkpt lat="49.71735138" lon="-115.97653824">
      </trkpt>
      <trkpt lat="49.71736857" lon="-115.97645453">
      </trkpt>
      <trkpt lat="49.71737668" lon="-115.97635724">
      </trkpt>
      <trkpt lat="49.71739389" lon="-115.9762598">
      </trkpt>
      <trkpt lat="49.71741998" lon="-115.9761622">
      </trkpt>
      <trkpt lat="49.71746409" lon="-115.97606414">
      </trkpt>
      <trkpt lat="49.71748119" lon="-115.97596669">
      </trkpt>
      <trkpt lat="49.71752509" lon="-115.97584088">
      </trkpt>
      <trkpt lat="49.71756029" lon="-115.97575687">
      </trkpt>
      <trkpt lat="49.71756859" lon="-115.97567345">
      </trkpt>
      <trkpt lat="49.7175857" lon="-115.975576">
      </trkpt>
      <trkpt lat="49.71761132" lon="-115.9754229">
      </trkpt>
      <trkpt lat="49.71762851" lon="-115.97533933">
      </trkpt>
      <trkpt lat="49.71762782" lon="-115.97525607">
      </trkpt>
      <trkpt lat="49.71764483" lon="-115.97514475">
      </trkpt>
      <trkpt lat="49.71766193" lon="-115.9750473">
      </trkpt>
      <trkpt lat="49.71769694" lon="-115.97493552">
      </trkpt>
      <trkpt lat="49.71773185" lon="-115.97481002">
      </trkpt>
      <trkpt lat="49.71775804" lon="-115.97472615">
      </trkpt>
      <trkpt lat="49.71778364" lon="-115.97457305">
      </trkpt>
      <trkpt lat="49.71780955" lon="-115.97444769">
      </trkpt>
      <trkpt lat="49.71784445" lon="-115.97432204">
      </trkpt>
      <trkpt lat="49.71787055" lon="-115.97422443">
      </trkpt>
      <trkpt lat="49.71788757" lon="-115.97411311">
      </trkpt>
      <trkpt lat="49.71789567" lon="-115.97401582">
      </trkpt>
      <trkpt lat="49.71792168" lon="-115.9739042">
      </trkpt>
      <trkpt lat="49.71796568" lon="-115.97379227">
      </trkpt>
      <trkpt lat="49.71800967" lon="-115.97368049">
      </trkpt>
      <trkpt lat="49.71805347" lon="-115.97355468">
      </trkpt>
      <trkpt lat="49.71805307" lon="-115.97350664">
      </trkpt>
      <trkpt lat="49.71805278" lon="-115.97347142">
      </trkpt>
      <trkpt lat="49.71813248" lon="-115.97333097">
      </trkpt>
      <trkpt lat="49.71815857" lon="-115.97323337">
      </trkpt>
      <trkpt lat="49.71819377" lon="-115.97314935">
      </trkpt>
      <trkpt lat="49.71825577" lon="-115.97303712">
      </trkpt>
      <trkpt lat="49.71831787" lon="-115.9729386">
      </trkpt>
      <trkpt lat="49.71835306" lon="-115.97285472">
      </trkpt>
      <trkpt lat="49.7183531" lon="-115.97285468">
      </trkpt>
      <trkpt lat="49.71837987" lon="-115.97282637">
      </trkpt>
      <trkpt lat="49.71840666" lon="-115.97281187">
      </trkpt>
      <trkpt lat="49.71845994" lon="-115.97272754">
      </trkpt>
      <trkpt lat="49.71851343" lon="-115.97267097">
      </trkpt>
      <trkpt lat="49.71856662" lon="-115.97258664">
      </trkpt>
      <trkpt lat="49.71862012" lon="-115.9725299">
      </trkpt>
      <trkpt lat="49.71866421" lon="-115.97243186">
      </trkpt>
      <trkpt lat="49.7187174" lon="-115.97234752">
      </trkpt>
      <trkpt lat="49.71871641" lon="-115.97223667">
      </trkpt>
      <trkpt lat="49.7187794" lon="-115.97223529">
      </trkpt>
      <trkpt lat="49.71883298" lon="-115.97219259">
      </trkpt>
      <trkpt lat="49.71884149" lon="-115.97213678">
      </trkpt>
      <trkpt lat="49.71889508" lon="-115.97209408">
      </trkpt>
      <trkpt lat="49.71893027" lon="-115.97201005">
      </trkpt>
      <trkpt lat="49.71898357" lon="-115.97193961">
      </trkpt>
      <trkpt lat="49.71905486" lon="-115.97185482">
      </trkpt>
      <trkpt lat="49.71909925" lon="-115.97179839">
      </trkpt>
      <trkpt lat="49.71916174" lon="-115.97174167">
      </trkpt>
      <trkpt lat="49.71922422" lon="-115.97168477">
      </trkpt>
      <trkpt lat="49.71926871" lon="-115.97162835">
      </trkpt>
      <trkpt lat="49.71932182" lon="-115.97153015">
      </trkpt>
      <trkpt lat="49.719375" lon="-115.97144582">
      </trkpt>
      <trkpt lat="49.71943728" lon="-115.97137506">
      </trkpt>
      <trkpt lat="49.71951709" lon="-115.97123477">
      </trkpt>
      <trkpt lat="49.71958818" lon="-115.97113611">
      </trkpt>
      <trkpt lat="49.71967744" lon="-115.97106488">
      </trkpt>
      <trkpt lat="49.71973973" lon="-115.97099413">
      </trkpt>
      <trkpt lat="49.71982012" lon="-115.97092306">
      </trkpt>
      <trkpt lat="49.7198739" lon="-115.97090812">
      </trkpt>
      <trkpt lat="49.71994587" lon="-115.97090659">
      </trkpt>
      <trkpt lat="49.71999956" lon="-115.97087762">
      </trkpt>
      <trkpt lat="49.72006225" lon="-115.97084865">
      </trkpt>
      <trkpt lat="49.72014282" lon="-115.97080533">
      </trkpt>
      <trkpt lat="49.72019632" lon="-115.97074861">
      </trkpt>
      <trkpt lat="49.7202589" lon="-115.97070575">
      </trkpt>
      <trkpt lat="49.72031239" lon="-115.97064903">
      </trkpt>
      <trkpt lat="49.72038357" lon="-115.9705644">
      </trkpt>
      <trkpt lat="49.72044595" lon="-115.97049364">
      </trkpt>
      <trkpt lat="49.72055274" lon="-115.97036645">
      </trkpt>
      <trkpt lat="49.72065902" lon="-115.97018392">
      </trkpt>
      <trkpt lat="49.72076609" lon="-115.97008449">
      </trkpt>
      <trkpt lat="49.72081969" lon="-115.9700418">
      </trkpt>
      <trkpt lat="49.72089097" lon="-115.96997088">
      </trkpt>
      <trkpt lat="49.72097144" lon="-115.9699137">
      </trkpt>
      <trkpt lat="49.72103413" lon="-115.96988457">
      </trkpt>
      <trkpt lat="49.72108741" lon="-115.96980025">
      </trkpt>
      <trkpt lat="49.72116761" lon="-115.9697153">
      </trkpt>
      <trkpt lat="49.72126547" lon="-115.9696023">
      </trkpt>
      <trkpt lat="49.72135445" lon="-115.96948946">
      </trkpt>
      <trkpt lat="49.72141674" lon="-115.9694187">
      </trkpt>
      <trkpt lat="49.72148812" lon="-115.96934779">
      </trkpt>
      <trkpt lat="49.72152321" lon="-115.96925004">
      </trkpt>
      <trkpt lat="49.7216735" lon="-115.96895542">
      </trkpt>
      <trkpt lat="49.72173548" lon="-115.96884318">
      </trkpt>
      <trkpt lat="49.72184265" lon="-115.96875763">
      </trkpt>
      <trkpt lat="49.72194073" lon="-115.96865836">
      </trkpt>
      <trkpt lat="49.72200331" lon="-115.96861551">
      </trkpt>
      <trkpt lat="49.72205659" lon="-115.96854505">
      </trkpt>
      <trkpt lat="49.72214558" lon="-115.96843205">
      </trkpt>
      <trkpt lat="49.72220776" lon="-115.96834757">
      </trkpt>
      <trkpt lat="49.72227905" lon="-115.96827666">
      </trkpt>
      <trkpt lat="49.72234153" lon="-115.96821978">
      </trkpt>
      <trkpt lat="49.72241291" lon="-115.96814902">
      </trkpt>
      <trkpt lat="49.72247519" lon="-115.96807827">
      </trkpt>
      <trkpt lat="49.72254628" lon="-115.96797959">
      </trkpt>
      <trkpt lat="49.72263535" lon="-115.96788063">
      </trkpt>
      <trkpt lat="49.72270061" lon="-115.96781582">
      </trkpt>
      <trkpt lat="49.72299434" lon="-115.96692952">
      </trkpt>
      <trkpt lat="49.72307991" lon="-115.96647321">
      </trkpt>
      <trkpt lat="49.72320232" lon="-115.9658204">
      </trkpt>
      <trkpt lat="49.72326774" lon="-115.96569588">
      </trkpt>
      <trkpt lat="49.72344472" lon="-115.96558917">
      </trkpt>
      <trkpt lat="49.72355938" lon="-115.9655216">
      </trkpt>
      <trkpt lat="49.72391672" lon="-115.96519244">
      </trkpt>
      <trkpt lat="49.72408182" lon="-115.96491704">
      </trkpt>
      <trkpt lat="49.72379344" lon="-115.96419588">
      </trkpt>
      <trkpt lat="49.72365612" lon="-115.96389898">
      </trkpt>
      <trkpt lat="49.72332621" lon="-115.96370775">
      </trkpt>
      <trkpt lat="49.72290011" lon="-115.9633044">
      </trkpt>
      <trkpt lat="49.72218542" lon="-115.96260399">
      </trkpt>
      <trkpt lat="49.72183326" lon="-115.96206019">
      </trkpt>
      <trkpt lat="49.72177317" lon="-115.96196748">
      </trkpt>
      <trkpt lat="49.72155338" lon="-115.96147965">
      </trkpt>
      <trkpt lat="49.72097589" lon="-115.96137289">
      </trkpt>
      <trkpt lat="49.72072832" lon="-115.96145738">
      </trkpt>
      <trkpt lat="49.72052179" lon="-115.96194475">
      </trkpt>
      <trkpt lat="49.72044428" lon="-115.9625163">
      </trkpt>
      <trkpt lat="49.7203366" lon="-115.96268476">
      </trkpt>
      <trkpt lat="49.72027579" lon="-115.96272527">
      </trkpt>
      <trkpt lat="49.72016072" lon="-115.96287727">
      </trkpt>
      <trkpt lat="49.72002511" lon="-115.96306091">
      </trkpt>
      <trkpt lat="49.71985497" lon="-115.96325216">
      </trkpt>
      <trkpt lat="49.71967827" lon="-115.96337246">
      </trkpt>
      <trkpt lat="49.7194761" lon="-115.96347123">
      </trkpt>
      <trkpt lat="49.71926159" lon="-115.96356366">
      </trkpt>
      <trkpt lat="49.71901585" lon="-115.96369915">
      </trkpt>
      <trkpt lat="49.71877094" lon="-115.9638435">
      </trkpt>
      <trkpt lat="49.71858191" lon="-115.96395747">
      </trkpt>
      <trkpt lat="49.71836083" lon="-115.9640423">
      </trkpt>
      <trkpt lat="49.71807401" lon="-115.96411444">
      </trkpt>
      <trkpt lat="49.7179499" lon="-115.96423221">
      </trkpt>
      <trkpt lat="49.71784057" lon="-115.96444626">
      </trkpt>
      <trkpt lat="49.71772385" lon="-115.96464383">
      </trkpt>
      <trkpt lat="49.71759976" lon="-115.96469826">
      </trkpt>
      <trkpt lat="49.71750854" lon="-115.96466406">
      </trkpt>
      <trkpt lat="49.71737459" lon="-115.96454876">
      </trkpt>
      <trkpt lat="49.71721105" lon="-115.96443092">
      </trkpt>
      <trkpt lat="49.71711984" lon="-115.96433338">
      </trkpt>
      <trkpt lat="49.71703847" lon="-115.96434223">
      </trkpt>
      <trkpt lat="49.71691684" lon="-115.96442326">
      </trkpt>
      <trkpt lat="49.71681904" lon="-115.96444477">
      </trkpt>
      <trkpt lat="49.71673028" lon="-115.96450049">
      </trkpt>
      <trkpt lat="49.7165996" lon="-115.96454732">
      </trkpt>
      <trkpt lat="49.71649522" lon="-115.96462457">
      </trkpt>
      <trkpt lat="49.71637029" lon="-115.9647968">
      </trkpt>
      <trkpt lat="49.71619688" lon="-115.96488923">
      </trkpt>
      <trkpt lat="49.71591005" lon="-115.96496136">
      </trkpt>
      <trkpt lat="49.71556652" lon="-115.96505501">
      </trkpt>
      <trkpt lat="49.71528133" lon="-115.96514487">
      </trkpt>
      <trkpt lat="49.71501916" lon="-115.96522968">
      </trkpt>
      <trkpt lat="49.71479479" lon="-115.96527903">
      </trkpt>
      <trkpt lat="49.71453921" lon="-115.96524478">
      </trkpt>
      <trkpt lat="49.71435676" lon="-115.96517633">
      </trkpt>
      <trkpt lat="49.71419159" lon="-115.96510411">
      </trkpt>
      <trkpt lat="49.71396888" lon="-115.9649812">
      </trkpt>
      <trkpt lat="49.71374535" lon="-115.96484943">
      </trkpt>
      <trkpt lat="49.71369195" lon="-115.96471643">
      </trkpt>
      <trkpt lat="49.71355801" lon="-115.96453782">
      </trkpt>
      <trkpt lat="49.71345283" lon="-115.96435288">
      </trkpt>
      <trkpt lat="49.71330655" lon="-115.96416793">
      </trkpt>
      <trkpt lat="49.71319561" lon="-115.96411092">
      </trkpt>
      <trkpt lat="49.71305508" lon="-115.9641147">
      </trkpt>
      <trkpt lat="49.71289975" lon="-115.96414886">
      </trkpt>
      <trkpt lat="49.71279783" lon="-115.96431602">
      </trkpt>
      <trkpt lat="49.71266796" lon="-115.9645617">
      </trkpt>
      <trkpt lat="49.71248713" lon="-115.96482763">
      </trkpt>
      <trkpt lat="49.71228494" lon="-115.96505302">
      </trkpt>
      <trkpt lat="49.71213123" lon="-115.96523156">
      </trkpt>
      <trkpt lat="49.7119463" lon="-115.96551647">
      </trkpt>
      <trkpt lat="49.71186738" lon="-115.96567857">
      </trkpt>
      <trkpt lat="49.71176545" lon="-115.96590905">
      </trkpt>
      <trkpt lat="49.71166928" lon="-115.96613826">
      </trkpt>
      <trkpt lat="49.71157966" lon="-115.9664384">
      </trkpt>
      <trkpt lat="49.71154184" lon="-115.9666005">
      </trkpt>
      <trkpt lat="49.71131747" lon="-115.96671316">
      </trkpt>
      <trkpt lat="49.71113418" lon="-115.96682583">
      </trkpt>
      <trkpt lat="49.71102899" lon="-115.9668942">
      </trkpt>
      <trkpt lat="49.71095089" lon="-115.96706515">
      </trkpt>
      <trkpt lat="49.7108506" lon="-115.96731335">
      </trkpt>
      <trkpt lat="49.71072482" lon="-115.96760333">
      </trkpt>
      <trkpt lat="49.71060891" lon="-115.96793639">
      </trkpt>
      <trkpt lat="49.71048067" lon="-115.96819977">
      </trkpt>
      <trkpt lat="49.71033516" lon="-115.96853027">
      </trkpt>
      <trkpt lat="49.71021514" lon="-115.96875567">
      </trkpt>
      <trkpt lat="49.7100483" lon="-115.96879234">
      </trkpt>
      <trkpt lat="49.70981818" lon="-115.96884293">
      </trkpt>
      <trkpt lat="49.70958723" lon="-115.96894797">
      </trkpt>
      <trkpt lat="49.70934313" lon="-115.96910114">
      </trkpt>
      <trkpt lat="49.70914997" lon="-115.96929737">
      </trkpt>
      <trkpt lat="49.70895763" lon="-115.96950247">
      </trkpt>
      <trkpt lat="49.70878173" lon="-115.96975823">
      </trkpt>
      <trkpt lat="49.70861487" lon="-115.96992154">
      </trkpt>
      <trkpt lat="49.70846912" lon="-115.96995625">
      </trkpt>
      <trkpt lat="49.70843334" lon="-115.97001999">
      </trkpt>
      <trkpt lat="49.70839644" lon="-115.97011637">
      </trkpt>
      <trkpt lat="49.70836087" lon="-115.97024774">
      </trkpt>
      <trkpt lat="49.7082852" lon="-115.97042029">
      </trkpt>
      <trkpt lat="49.70817879" lon="-115.97061136">
      </trkpt>
      <trkpt lat="49.70809351" lon="-115.9707625">
      </trkpt>
      <trkpt lat="49.70802132" lon="-115.97089015">
      </trkpt>
      <trkpt lat="49.70794459" lon="-115.97098938">
      </trkpt>
      <trkpt lat="49.70786707" lon="-115.97103877">
      </trkpt>
      <trkpt lat="49.70779891" lon="-115.97106553">
      </trkpt>
      <trkpt lat="49.70775026" lon="-115.97109681">
      </trkpt>
      <trkpt lat="49.70748469" lon="-115.97120624">
      </trkpt>
      <trkpt lat="49.70720248" lon="-115.97127594">
      </trkpt>
      <trkpt lat="49.70690192" lon="-115.97135016">
      </trkpt>
      <trkpt lat="49.70665791" lon="-115.97141042">
      </trkpt>
      <trkpt lat="49.70639087" lon="-115.97158174">
      </trkpt>
      <trkpt lat="49.70612739" lon="-115.97177526">
      </trkpt>
      <trkpt lat="49.70590085" lon="-115.97201356">
      </trkpt>
      <trkpt lat="49.70571486" lon="-115.97224012">
      </trkpt>
      <trkpt lat="49.70555255" lon="-115.97243784">
      </trkpt>
      <trkpt lat="49.70538861" lon="-115.97263753">
      </trkpt>
      <trkpt lat="49.70527948" lon="-115.97280835">
      </trkpt>
      <trkpt lat="49.70515519" lon="-115.97300812">
      </trkpt>
      <trkpt lat="49.70500792" lon="-115.97324482">
      </trkpt>
      <trkpt lat="49.70469869" lon="-115.97341725">
      </trkpt>
      <trkpt lat="49.70452673" lon="-115.9735059">
      </trkpt>
      <trkpt lat="49.70423573" lon="-115.97366942">
      </trkpt>
      <trkpt lat="49.70406577" lon="-115.97387473">
      </trkpt>
      <trkpt lat="49.70384535" lon="-115.97405727">
      </trkpt>
      <trkpt lat="49.70362901" lon="-115.97411749">
      </trkpt>
      <trkpt lat="49.70347959" lon="-115.9741591">
      </trkpt>
      <trkpt lat="49.70330871" lon="-115.97412016">
      </trkpt>
      <trkpt lat="49.70318048" lon="-115.97398613">
      </trkpt>
      <trkpt lat="49.70309094" lon="-115.97389253">
      </trkpt>
      <trkpt lat="49.70301004" lon="-115.97380798">
      </trkpt>
      <trkpt lat="49.70291515" lon="-115.97381221">
      </trkpt>
      <trkpt lat="49.7028206" lon="-115.97381643">
      </trkpt>
      <trkpt lat="49.70271339" lon="-115.97382121">
      </trkpt>
      <trkpt lat="49.7025404" lon="-115.97391225">
      </trkpt>
      <trkpt lat="49.7023709" lon="-115.97404326">
      </trkpt>
      <trkpt lat="49.70220406" lon="-115.97417222">
      </trkpt>
      <trkpt lat="49.70214358" lon="-115.97421503">
      </trkpt>
      <trkpt lat="49.70206695" lon="-115.97433181">
      </trkpt>
      <trkpt lat="49.70199548" lon="-115.97435186">
      </trkpt>
      <trkpt lat="49.70191452" lon="-115.97439137">
      </trkpt>
      <trkpt lat="49.70185056" lon="-115.97437065">
      </trkpt>
      <trkpt lat="49.70179409" lon="-115.9743396">
      </trkpt>
      <trkpt lat="49.7017538" lon="-115.97442233">
      </trkpt>
      <trkpt lat="49.7016981" lon="-115.97455189">
      </trkpt>
      <trkpt lat="49.70159978" lon="-115.97455611">
      </trkpt>
      <trkpt lat="49.7014821" lon="-115.97453415">
      </trkpt>
      <trkpt lat="49.70140629" lon="-115.97453778">
      </trkpt>
      <trkpt lat="49.70133599" lon="-115.97460101">
      </trkpt>
      <trkpt lat="49.70126726" lon="-115.97474212">
      </trkpt>
      <trkpt lat="49.70119773" lon="-115.97490513">
      </trkpt>
      <trkpt lat="49.70110532" lon="-115.97497323">
      </trkpt>
      <trkpt lat="49.70090942" lon="-115.97514228">
      </trkpt>
      <trkpt lat="49.70077593" lon="-115.97528458">
      </trkpt>
      <trkpt lat="49.70065271" lon="-115.97541592">
      </trkpt>
      <trkpt lat="49.70055358" lon="-115.9755333">
      </trkpt>
      <trkpt lat="49.70044929" lon="-115.97571698">
      </trkpt>
      <trkpt lat="49.70037383" lon="-115.97590736">
      </trkpt>
      <trkpt lat="49.70029206" lon="-115.97609044">
      </trkpt>
      <trkpt lat="49.70020437" lon="-115.97624005">
      </trkpt>
      <trkpt lat="49.70008665" lon="-115.97646144">
      </trkpt>
      <trkpt lat="49.69999895" lon="-115.9766719">
      </trkpt>
      <trkpt lat="49.69990177" lon="-115.97687139">
      </trkpt>
      <trkpt lat="49.69981172" lon="-115.97696504">
      </trkpt>
      <trkpt lat="49.69973984" lon="-115.97701124">
      </trkpt>
      <trkpt lat="49.69961227" lon="-115.97712616">
      </trkpt>
      <trkpt lat="49.69936623" lon="-115.97730184">
      </trkpt>
      <trkpt lat="49.69916993" lon="-115.97752745">
      </trkpt>
      <trkpt lat="49.69901352" lon="-115.97769648">
      </trkpt>
      <trkpt lat="49.69892782" lon="-115.97777614">
      </trkpt>
      <trkpt lat="49.69883145" lon="-115.97783205">
      </trkpt>
      <trkpt lat="49.69862691" lon="-115.97784655">
      </trkpt>
      <trkpt lat="49.6985503" lon="-115.97787207">
      </trkpt>
      <trkpt lat="49.69844956" lon="-115.97806364">
      </trkpt>
      <trkpt lat="49.69838754" lon="-115.97818588">
      </trkpt>
      <trkpt lat="49.69831645" lon="-115.9782406">
      </trkpt>
      <trkpt lat="49.69825051" lon="-115.97825943">
      </trkpt>
      <trkpt lat="49.69804989" lon="-115.97831651">
      </trkpt>
      <trkpt lat="49.69786588" lon="-115.97833952">
      </trkpt>
      <trkpt lat="49.69766132" lon="-115.97838444">
      </trkpt>
      <trkpt lat="49.69751008" lon="-115.97842633">
      </trkpt>
      <trkpt lat="49.6973766" lon="-115.97847738">
      </trkpt>
      <trkpt lat="49.69730866" lon="-115.97853573">
      </trkpt>
      <trkpt lat="49.69725178" lon="-115.97865251">
      </trkpt>
      <trkpt lat="49.69724463" lon="-115.9788496">
      </trkpt>
      <trkpt lat="49.6972418" lon="-115.97912395">
      </trkpt>
      <trkpt lat="49.69721528" lon="-115.97938612">
      </trkpt>
      <trkpt lat="49.69719705" lon="-115.97967689">
      </trkpt>
      <trkpt lat="49.69719384" lon="-115.97994698">
      </trkpt>
      <trkpt lat="49.69720009" lon="-115.98019761">
      </trkpt>
      <trkpt lat="49.6972103" lon="-115.98046041">
      </trkpt>
      <trkpt lat="49.69723593" lon="-115.98061555">
      </trkpt>
      <trkpt lat="49.69728407" lon="-115.98077009">
      </trkpt>
      <trkpt lat="49.69731366" lon="-115.98087656">
      </trkpt>
      <trkpt lat="49.69737161" lon="-115.98097093">
      </trkpt>
      <trkpt lat="49.69723535" lon="-115.98096654">
      </trkpt>
      <trkpt lat="49.69710429" lon="-115.9809889">
      </trkpt>
      <trkpt lat="49.69694818" lon="-115.98101034">
      </trkpt>
      <trkpt lat="49.69680723" lon="-115.98097078">
      </trkpt>
      <trkpt lat="49.69664299" lon="-115.98090429">
      </trkpt>
      <trkpt lat="49.69649855" lon="-115.98082703">
      </trkpt>
      <trkpt lat="49.69636052" lon="-115.98077402">
      </trkpt>
      <trkpt lat="49.69626854" lon="-115.98054426">
      </trkpt>
      <trkpt lat="49.69615267" lon="-115.98037101">
      </trkpt>
      <trkpt lat="49.69604203" lon="-115.98020944">
      </trkpt>
      <trkpt lat="49.69586852" lon="-115.97995271">
      </trkpt>
      <trkpt lat="49.69572293" lon="-115.97981802">
      </trkpt>
      <trkpt lat="49.695582" lon="-115.97968874">
      </trkpt>
      <trkpt lat="49.69551291" lon="-115.97948247">
      </trkpt>
    </trkseg>
    <trkseg>
      <trkpt lat="49.69619176" lon="-115.98194665">
      </trkpt>
      <trkpt lat="49.69617036" lon="-115.9819117">
      </trkpt>
      <trkpt lat="49.69609118" lon="-115.9817304">
      </trkpt>
      <trkpt lat="49.69599922" lon="-115.98145577">
      </trkpt>
      <trkpt lat="49.69588105" lon="-115.9811228">
      </trkpt>
      <trkpt lat="49.69573088" lon="-115.98066868">
      </trkpt>
      <trkpt lat="49.6955463" lon="-115.98038234">
      </trkpt>
      <trkpt lat="49.69543817" lon="-115.98029898">
      </trkpt>
    </trkseg>
    <trkseg>
      <trkpt lat="49.69543071" lon="-115.98109766">
      </trkpt>
      <trkpt lat="49.69545119" lon="-115.9811082">
      </trkpt>
      <trkpt lat="49.69558046" lon="-115.98124645">
      </trkpt>
      <trkpt lat="49.69567303" lon="-115.98143763">
      </trkpt>
      <trkpt lat="49.69574813" lon="-115.98161983">
      </trkpt>
      <trkpt lat="49.69579467" lon="-115.98185315">
      </trkpt>
      <trkpt lat="49.69582722" lon="-115.98211518">
      </trkpt>
      <trkpt lat="49.69585865" lon="-115.98225256">
      </trkpt>
    </trkseg>
    <trkseg>
      <trkpt lat="49.71827397" lon="-115.97300825">
      </trkpt>
      <trkpt lat="49.71804" lon="-115.97279999">
      </trkpt>
      <trkpt lat="49.71788" lon="-115.97257">
      </trkpt>
      <trkpt lat="49.71782" lon="-115.97235">
      </trkpt>
      <trkpt lat="49.71777" lon="-115.97223">
      </trkpt>
      <trkpt lat="49.7177" lon="-115.97214">
      </trkpt>
      <trkpt lat="49.71757" lon="-115.97221999">
      </trkpt>
      <trkpt lat="49.71752" lon="-115.97220999">
      </trkpt>
      <trkpt lat="49.7173" lon="-115.97205">
      </trkpt>
      <trkpt lat="49.71721" lon="-115.97186">
      </trkpt>
      <trkpt lat="49.7172" lon="-115.97178">
      </trkpt>
      <trkpt lat="49.71716" lon="-115.97168999">
      </trkpt>
      <trkpt lat="49.71709" lon="-115.97164">
      </trkpt>
      <trkpt lat="49.71703" lon="-115.97153">
      </trkpt>
      <trkpt lat="49.71686" lon="-115.97145">
      </trkpt>
      <trkpt lat="49.71669" lon="-115.97148001">
      </trkpt>
      <trkpt lat="49.71649" lon="-115.97136">
      </trkpt>
      <trkpt lat="49.71634" lon="-115.97146">
      </trkpt>
      <trkpt lat="49.71621" lon="-115.97157">
      </trkpt>
      <trkpt lat="49.71599" lon="-115.97154">
      </trkpt>
      <trkpt lat="49.71586" lon="-115.97161001">
      </trkpt>
      <trkpt lat="49.71578" lon="-115.97174">
      </trkpt>
      <trkpt lat="49.71548" lon="-115.97246001">
      </trkpt>
      <trkpt lat="49.71532" lon="-115.97266">
      </trkpt>
      <trkpt lat="49.71527" lon="-115.97267001">
      </trkpt>
      <trkpt lat="49.71511" lon="-115.97275">
      </trkpt>
      <trkpt lat="49.71503" lon="-115.97271999">
      </trkpt>
      <trkpt lat="49.71473" lon="-115.97246">
      </trkpt>
      <trkpt lat="49.71461" lon="-115.97242">
      </trkpt>
      <trkpt lat="49.71443" lon="-115.97244">
      </trkpt>
      <trkpt lat="49.71429" lon="-115.97248">
      </trkpt>
      <trkpt lat="49.71414" lon="-115.97255">
      </trkpt>
      <trkpt lat="49.71406" lon="-115.97262">
      </trkpt>
      <trkpt lat="49.71392" lon="-115.9727">
      </trkpt>
      <trkpt lat="49.71373" lon="-115.97296">
      </trkpt>
      <trkpt lat="49.71361" lon="-115.97308">
      </trkpt>
      <trkpt lat="49.71342" lon="-115.9732">
      </trkpt>
      <trkpt lat="49.71324" lon="-115.97325">
      </trkpt>
      <trkpt lat="49.71272" lon="-115.97333">
      </trkpt>
      <trkpt lat="49.71258" lon="-115.97334999">
      </trkpt>
      <trkpt lat="49.71247" lon="-115.97340999">
      </trkpt>
      <trkpt lat="49.71234705" lon="-115.97335822">
      </trkpt>
      <trkpt lat="49.71225267" lon="-115.973158">
      </trkpt>
      <trkpt lat="49.71217133" lon="-115.97289393">
      </trkpt>
      <trkpt lat="49.71215246" lon="-115.97269001">
      </trkpt>
      <trkpt lat="49.71213855" lon="-115.97234932">
      </trkpt>
      <trkpt lat="49.71214764" lon="-115.97200357">
      </trkpt>
      <trkpt lat="49.71215842" lon="-115.97142224">
      </trkpt>
      <trkpt lat="49.71217411" lon="-115.97083079">
      </trkpt>
      <trkpt lat="49.71217828" lon="-115.97043184">
      </trkpt>
      <trkpt lat="49.7121915" lon="-115.96994045">
      </trkpt>
      <trkpt lat="49.71222443" lon="-115.96953517">
      </trkpt>
      <trkpt lat="49.71222942" lon="-115.96914509">
      </trkpt>
      <trkpt lat="49.7122533" lon="-115.96876895">
      </trkpt>
      <trkpt lat="49.71223115" lon="-115.96840292">
      </trkpt>
      <trkpt lat="49.71213914" lon="-115.96810652">
      </trkpt>
      <trkpt lat="49.7120611" lon="-115.9678342">
      </trkpt>
      <trkpt lat="49.71199949" lon="-115.96761255">
      </trkpt>
      <trkpt lat="49.71193212" lon="-115.96745549">
      </trkpt>
      <trkpt lat="49.71178257" lon="-115.96717176">
      </trkpt>
      <trkpt lat="49.71165852" lon="-115.96678291">
      </trkpt>
      <trkpt lat="49.71154184" lon="-115.9666005">
      </trkpt>
    </trkseg>
    <trkseg>
      <trkpt lat="49.70048071" lon="-115.98446616">
      </trkpt>
      <trkpt lat="49.70082" lon="-115.98334001">
      </trkpt>
      <trkpt lat="49.70108" lon="-115.98288">
      </trkpt>
      <trkpt lat="49.70172" lon="-115.98162999">
      </trkpt>
      <trkpt lat="49.70201" lon="-115.98093001">
      </trkpt>
      <trkpt lat="49.70246" lon="-115.98018">
      </trkpt>
      <trkpt lat="49.70269" lon="-115.97997001">
      </trkpt>
      <trkpt lat="49.70295" lon="-115.97989">
      </trkpt>
      <trkpt lat="49.70351" lon="-115.98004">
      </trkpt>
      <trkpt lat="49.70392" lon="-115.9798">
      </trkpt>
      <trkpt lat="49.70434" lon="-115.97960999">
      </trkpt>
      <trkpt lat="49.70463" lon="-115.97936001">
      </trkpt>
      <trkpt lat="49.70479" lon="-115.97872">
      </trkpt>
      <trkpt lat="49.70473" lon="-115.97834001">
      </trkpt>
      <trkpt lat="49.70468" lon="-115.97773">
      </trkpt>
      <trkpt lat="49.70456" lon="-115.97724999">
      </trkpt>
      <trkpt lat="49.70435552" lon="-115.97666639">
      </trkpt>
    </trkseg>
    <trkseg>
      <trkpt lat="49.69964961" lon="-115.9819698">
      </trkpt>
      <trkpt lat="49.69973" lon="-115.98201">
      </trkpt>
      <trkpt lat="49.69984" lon="-115.98221">
      </trkpt>
      <trkpt lat="49.70008" lon="-115.98237001">
      </trkpt>
      <trkpt lat="49.70017" lon="-115.98241001">
      </trkpt>
      <trkpt lat="49.70032" lon="-115.98252">
      </trkpt>
      <trkpt lat="49.70039" lon="-115.98254">
      </trkpt>
      <trkpt lat="49.70043" lon="-115.98253">
      </trkpt>
      <trkpt lat="49.70053" lon="-115.98246">
      </trkpt>
      <trkpt lat="49.70095" lon="-115.98178">
      </trkpt>
      <trkpt lat="49.70096" lon="-115.98169">
      </trkpt>
      <trkpt lat="49.70112" lon="-115.98147">
      </trkpt>
      <trkpt lat="49.70121" lon="-115.98116">
      </trkpt>
      <trkpt lat="49.70124" lon="-115.9811">
      </trkpt>
      <trkpt lat="49.70145" lon="-115.98093999">
      </trkpt>
      <trkpt lat="49.70154" lon="-115.98081">
      </trkpt>
      <trkpt lat="49.70162" lon="-115.98054">
      </trkpt>
      <trkpt lat="49.70179" lon="-115.98034">
      </trkpt>
      <trkpt lat="49.70187" lon="-115.98018999">
      </trkpt>
      <trkpt lat="49.70192" lon="-115.98001">
      </trkpt>
      <trkpt lat="49.70197" lon="-115.97996">
      </trkpt>
      <trkpt lat="49.70204" lon="-115.97984">
      </trkpt>
      <trkpt lat="49.70225" lon="-115.97962001">
      </trkpt>
      <trkpt lat="49.70241" lon="-115.97953001">
      </trkpt>
      <trkpt lat="49.70253" lon="-115.97943001">
      </trkpt>
      <trkpt lat="49.70267" lon="-115.97941">
      </trkpt>
      <trkpt lat="49.70288" lon="-115.97935">
      </trkpt>
      <trkpt lat="49.70298" lon="-115.97935">
      </trkpt>
      <trkpt lat="49.70328" lon="-115.97926">
      </trkpt>
      <trkpt lat="49.70338" lon="-115.97928">
      </trkpt>
      <trkpt lat="49.70348" lon="-115.97931">
      </trkpt>
      <trkpt lat="49.70356" lon="-115.97930001">
      </trkpt>
      <trkpt lat="49.70365" lon="-115.97932">
      </trkpt>
      <trkpt lat="49.70375" lon="-115.9793">
      </trkpt>
      <trkpt lat="49.70379" lon="-115.97916">
      </trkpt>
      <trkpt lat="49.70378" lon="-115.97901999">
      </trkpt>
      <trkpt lat="49.70379" lon="-115.97885001">
      </trkpt>
      <trkpt lat="49.70384" lon="-115.97863">
      </trkpt>
      <trkpt lat="49.70398" lon="-115.97847">
      </trkpt>
      <trkpt lat="49.70408" lon="-115.97837">
      </trkpt>
      <trkpt lat="49.70417" lon="-115.97827">
      </trkpt>
      <trkpt lat="49.70418" lon="-115.97816001">
      </trkpt>
      <trkpt lat="49.70416" lon="-115.97806">
      </trkpt>
      <trkpt lat="49.70404" lon="-115.97771">
      </trkpt>
      <trkpt lat="49.70402" lon="-115.97742">
      </trkpt>
      <trkpt lat="49.70397" lon="-115.97714">
      </trkpt>
      <trkpt lat="49.70387" lon="-115.977">
      </trkpt>
      <trkpt lat="49.7038" lon="-115.97682">
      </trkpt>
      <trkpt lat="49.70389" lon="-115.97667">
      </trkpt>
      <trkpt lat="49.7039" lon="-115.97643">
      </trkpt>
      <trkpt lat="49.7039" lon="-115.97638">
      </trkpt>
      <trkpt lat="49.70388" lon="-115.97632">
      </trkpt>
      <trkpt lat="49.70376" lon="-115.97621">
      </trkpt>
      <trkpt lat="49.70357" lon="-115.97609">
      </trkpt>
      <trkpt lat="49.70353" lon="-115.97601">
      </trkpt>
      <trkpt lat="49.70348" lon="-115.97599">
      </trkpt>
      <trkpt lat="49.70334" lon="-115.97582">
      </trkpt>
      <trkpt lat="49.70327" lon="-115.97578">
      </trkpt>
      <trkpt lat="49.70311" lon="-115.97575001">
      </trkpt>
      <trkpt lat="49.70292" lon="-115.9756">
      </trkpt>
      <trkpt lat="49.70282" lon="-115.97548">
      </trkpt>
      <trkpt lat="49.70275" lon="-115.97538">
      </trkpt>
      <trkpt lat="49.70266" lon="-115.97527999">
      </trkpt>
      <trkpt lat="49.70256" lon="-115.97518">
      </trkpt>
      <trkpt lat="49.70243663" lon="-115.97477127">
      </trkpt>
      <trkpt lat="49.70240204" lon="-115.97473091">
      </trkpt>
      <trkpt lat="49.70233793" lon="-115.97468759">
      </trkpt>
      <trkpt lat="49.70227702" lon="-115.97465282">
      </trkpt>
      <trkpt lat="49.70218096" lon="-115.97454986">
      </trkpt>
      <trkpt lat="49.70213318" lon="-115.97447516">
      </trkpt>
      <trkpt lat="49.70208305" lon="-115.97445285">
      </trkpt>
      <trkpt lat="49.70204771" lon="-115.97440876">
      </trkpt>
      <trkpt lat="49.70201508" lon="-115.97438074">
      </trkpt>
      <trkpt lat="49.70199502" lon="-115.97435209">
      </trkpt>
    </trkseg>
  </trk>
</gpx>