<?xml version="1.0" encoding="UTF-8"?>
<gpx xmlns="http://www.topografix.com/GPX/1/1" xmlns:xsi="http://www.w3.org/2001/XMLSchema-instance" xsi:schemaLocation="http://www.topografix.com/GPX/1/1 http://www.topografix.com/GPX/1/1/gpx.xsd" version="1.1" creator="gpx.py -- https://github.com/tkrajina/gpxpy">
  <trk>
    <name>Mica Mountain Snowmobile Trail</name>
    <trkseg>
      <trkpt lat="52.01446146" lon="-120.38474755">
      </trkpt>
      <trkpt lat="52.01464068" lon="-120.38483054">
      </trkpt>
      <trkpt lat="52.01473799" lon="-120.38492411">
      </trkpt>
      <trkpt lat="52.01485714" lon="-120.38504282">
      </trkpt>
      <trkpt lat="52.01497682" lon="-120.38517262">
      </trkpt>
      <trkpt lat="52.01509256" lon="-120.38529175">
      </trkpt>
      <trkpt lat="52.0151825" lon="-120.38537511">
      </trkpt>
      <trkpt lat="52.01529948" lon="-120.38544939">
      </trkpt>
      <trkpt lat="52.01555406" lon="-120.38552823">
      </trkpt>
      <trkpt lat="52.01577126" lon="-120.38554485">
      </trkpt>
      <trkpt lat="52.01605906" lon="-120.38552998">
      </trkpt>
      <trkpt lat="52.01642004" lon="-120.38546655">
      </trkpt>
      <trkpt lat="52.01670973" lon="-120.38549056">
      </trkpt>
      <trkpt lat="52.01699481" lon="-120.38542018">
      </trkpt>
      <trkpt lat="52.01715019" lon="-120.38536656">
      </trkpt>
      <trkpt lat="52.01725518" lon="-120.38533622">
      </trkpt>
      <trkpt lat="52.01743322" lon="-120.38532437">
      </trkpt>
      <trkpt lat="52.01757218" lon="-120.38535669">
      </trkpt>
      <trkpt lat="52.01776479" lon="-120.38543238">
      </trkpt>
      <trkpt lat="52.01796748" lon="-120.38557381">
      </trkpt>
      <trkpt lat="52.01824158" lon="-120.38570042">
      </trkpt>
      <trkpt lat="52.01844225" lon="-120.38573036">
      </trkpt>
      <trkpt lat="52.01864309" lon="-120.38569321">
      </trkpt>
      <trkpt lat="52.01890827" lon="-120.38549686">
      </trkpt>
      <trkpt lat="52.01903158" lon="-120.38541944">
      </trkpt>
      <trkpt lat="52.01918576" lon="-120.38527098">
      </trkpt>
      <trkpt lat="52.01943009" lon="-120.3849991">
      </trkpt>
      <trkpt lat="52.01962364" lon="-120.3846723">
      </trkpt>
      <trkpt lat="52.01974746" lon="-120.38425394">
      </trkpt>
      <trkpt lat="52.01994954" lon="-120.38368015">
      </trkpt>
      <trkpt lat="52.02014097" lon="-120.38316921">
      </trkpt>
      <trkpt lat="52.02031001" lon="-120.38262204">
      </trkpt>
      <trkpt lat="52.0204666" lon="-120.38217149">
      </trkpt>
      <trkpt lat="52.02061973" lon="-120.38186108">
      </trkpt>
      <trkpt lat="52.02076657" lon="-120.38156266">
      </trkpt>
      <trkpt lat="52.02089278" lon="-120.38133397">
      </trkpt>
      <trkpt lat="52.02096065" lon="-120.38124695">
      </trkpt>
      <trkpt lat="52.02104792" lon="-120.38113505">
      </trkpt>
      <trkpt lat="52.0212607" lon="-120.38085046">
      </trkpt>
      <trkpt lat="52.02143935" lon="-120.38057027">
      </trkpt>
      <trkpt lat="52.02166361" lon="-120.38023946">
      </trkpt>
      <trkpt lat="52.02179501" lon="-120.37997656">
      </trkpt>
      <trkpt lat="52.02189163" lon="-120.37963433">
      </trkpt>
      <trkpt lat="52.02199057" lon="-120.37926944">
      </trkpt>
      <trkpt lat="52.02208893" lon="-120.37903317">
      </trkpt>
      <trkpt lat="52.02225376" lon="-120.37882182">
      </trkpt>
      <trkpt lat="52.02241887" lon="-120.37861601">
      </trkpt>
      <trkpt lat="52.02258165" lon="-120.37843287">
      </trkpt>
      <trkpt lat="52.02273558" lon="-120.37813909">
      </trkpt>
      <trkpt lat="52.02283669" lon="-120.37781863">
      </trkpt>
      <trkpt lat="52.02290895" lon="-120.37768073">
      </trkpt>
      <trkpt lat="52.02297313" lon="-120.37758859">
      </trkpt>
      <trkpt lat="52.02310217" lon="-120.37748804">
      </trkpt>
      <trkpt lat="52.02347315" lon="-120.37727793">
      </trkpt>
      <trkpt lat="52.02373122" lon="-120.37707684">
      </trkpt>
      <trkpt lat="52.0240289" lon="-120.37684268">
      </trkpt>
      <trkpt lat="52.02442008" lon="-120.37662434">
      </trkpt>
      <trkpt lat="52.02458667" lon="-120.37651894">
      </trkpt>
      <trkpt lat="52.02480801" lon="-120.37633936">
      </trkpt>
      <trkpt lat="52.02494414" lon="-120.37624349">
      </trkpt>
      <trkpt lat="52.02530201" lon="-120.37604623">
      </trkpt>
      <trkpt lat="52.02561131" lon="-120.37569877">
      </trkpt>
      <trkpt lat="52.02602742" lon="-120.37514742">
      </trkpt>
      <trkpt lat="52.02639202" lon="-120.37473689">
      </trkpt>
      <trkpt lat="52.02671032" lon="-120.37443295">
      </trkpt>
      <trkpt lat="52.02684222" lon="-120.37432085">
      </trkpt>
      <trkpt lat="52.02692879" lon="-120.37426491">
      </trkpt>
      <trkpt lat="52.02719462" lon="-120.37415221">
      </trkpt>
      <trkpt lat="52.02776314" lon="-120.37397793">
      </trkpt>
      <trkpt lat="52.0282754" lon="-120.37377739">
      </trkpt>
      <trkpt lat="52.02854355" lon="-120.37364204">
      </trkpt>
      <trkpt lat="52.02876202" lon="-120.37347397">
      </trkpt>
      <trkpt lat="52.02915299" lon="-120.37307256">
      </trkpt>
      <trkpt lat="52.02954335" lon="-120.372681">
      </trkpt>
      <trkpt lat="52.02994467" lon="-120.372319">
      </trkpt>
      <trkpt lat="52.03025512" lon="-120.37204628">
      </trkpt>
      <trkpt lat="52.03045804" lon="-120.37191148">
      </trkpt>
      <trkpt lat="52.03079446" lon="-120.37148814">
      </trkpt>
      <trkpt lat="52.03114242" lon="-120.37100904">
      </trkpt>
      <trkpt lat="52.03140045" lon="-120.37073535">
      </trkpt>
      <trkpt lat="52.03198977" lon="-120.37003121">
      </trkpt>
      <trkpt lat="52.0325363" lon="-120.36942558">
      </trkpt>
      <trkpt lat="52.03309739" lon="-120.36882581">
      </trkpt>
      <trkpt lat="52.03363026" lon="-120.36833042">
      </trkpt>
      <trkpt lat="52.03404861" lon="-120.3679274">
      </trkpt>
      <trkpt lat="52.03418926" lon="-120.36778514">
      </trkpt>
      <trkpt lat="52.03457428" lon="-120.36747944">
      </trkpt>
      <trkpt lat="52.03502726" lon="-120.36710289">
      </trkpt>
      <trkpt lat="52.03541039" lon="-120.36675865">
      </trkpt>
      <trkpt lat="52.03572518" lon="-120.36647753">
      </trkpt>
      <trkpt lat="52.03594949" lon="-120.36629342">
      </trkpt>
      <trkpt lat="52.03629038" lon="-120.36615616">
      </trkpt>
      <trkpt lat="52.03668936" lon="-120.36613536">
      </trkpt>
      <trkpt lat="52.03695015" lon="-120.36621003">
      </trkpt>
      <trkpt lat="52.03763812" lon="-120.36635325">
      </trkpt>
      <trkpt lat="52.03804673" lon="-120.36643197">
      </trkpt>
      <trkpt lat="52.03830337" lon="-120.3664219">
      </trkpt>
      <trkpt lat="52.03846048" lon="-120.36632401">
      </trkpt>
      <trkpt lat="52.03875748" lon="-120.36606843">
      </trkpt>
      <trkpt lat="52.03905959" lon="-120.36581993">
      </trkpt>
      <trkpt lat="52.03935449" lon="-120.36561888">
      </trkpt>
      <trkpt lat="52.03956176" lon="-120.3654757">
      </trkpt>
      <trkpt lat="52.03973515" lon="-120.36532141">
      </trkpt>
      <trkpt lat="52.0400821" lon="-120.3651136">
      </trkpt>
      <trkpt lat="52.04043756" lon="-120.36498218">
      </trkpt>
      <trkpt lat="52.04075705" lon="-120.36489419">
      </trkpt>
      <trkpt lat="52.04116093" lon="-120.36497352">
      </trkpt>
      <trkpt lat="52.04134414" lon="-120.36501949">
      </trkpt>
      <trkpt lat="52.04158488" lon="-120.3650735">
      </trkpt>
      <trkpt lat="52.04177604" lon="-120.36508743">
      </trkpt>
      <trkpt lat="52.04197837" lon="-120.36503791">
      </trkpt>
      <trkpt lat="52.04227818" lon="-120.36493696">
      </trkpt>
      <trkpt lat="52.04256493" lon="-120.36486097">
      </trkpt>
      <trkpt lat="52.04303224" lon="-120.36477704">
      </trkpt>
      <trkpt lat="52.04349992" lon="-120.36470081">
      </trkpt>
      <trkpt lat="52.04404219" lon="-120.36459162">
      </trkpt>
      <trkpt lat="52.04445271" lon="-120.36451505">
      </trkpt>
      <trkpt lat="52.04488974" lon="-120.36439628">
      </trkpt>
      <trkpt lat="52.04518046" lon="-120.36430426">
      </trkpt>
      <trkpt lat="52.04532525" lon="-120.36424669">
      </trkpt>
      <trkpt lat="52.04609864" lon="-120.36389818">
      </trkpt>
      <trkpt lat="52.04693449" lon="-120.363464">
      </trkpt>
      <trkpt lat="52.04740881" lon="-120.36323184">
      </trkpt>
      <trkpt lat="52.04788239" lon="-120.36298425">
      </trkpt>
      <trkpt lat="52.04814681" lon="-120.36284136">
      </trkpt>
      <trkpt lat="52.04851532" lon="-120.36268495">
      </trkpt>
      <trkpt lat="52.04877993" lon="-120.36264282">
      </trkpt>
      <trkpt lat="52.04908142" lon="-120.36267341">
      </trkpt>
      <trkpt lat="52.04945293" lon="-120.36277246">
      </trkpt>
      <trkpt lat="52.0499028" lon="-120.36291558">
      </trkpt>
      <trkpt lat="52.05034528" lon="-120.3630054">
      </trkpt>
      <trkpt lat="52.0507768" lon="-120.36306564">
      </trkpt>
      <trkpt lat="52.05090209" lon="-120.36309588">
      </trkpt>
      <trkpt lat="52.05133796" lon="-120.36314779">
      </trkpt>
      <trkpt lat="52.05178765" lon="-120.36319015">
      </trkpt>
      <trkpt lat="52.05233916" lon="-120.36317277">
      </trkpt>
      <trkpt lat="52.05274626" lon="-120.36322068">
      </trkpt>
      <trkpt lat="52.05323532" lon="-120.36328894">
      </trkpt>
      <trkpt lat="52.05365225" lon="-120.36334333">
      </trkpt>
      <trkpt lat="52.05426961" lon="-120.36350348">
      </trkpt>
      <trkpt lat="52.05454933" lon="-120.36357568">
      </trkpt>
      <trkpt lat="52.05492406" lon="-120.36364331">
      </trkpt>
      <trkpt lat="52.0553586" lon="-120.3637652">
      </trkpt>
      <trkpt lat="52.05575017" lon="-120.3638849">
      </trkpt>
      <trkpt lat="52.05610825" lon="-120.36400122">
      </trkpt>
      <trkpt lat="52.05634027" lon="-120.36407188">
      </trkpt>
      <trkpt lat="52.05655015" lon="-120.36417643">
      </trkpt>
      <trkpt lat="52.05686564" lon="-120.36429828">
      </trkpt>
      <trkpt lat="52.0572835" lon="-120.36446886">
      </trkpt>
      <trkpt lat="52.05792602" lon="-120.3646568">
      </trkpt>
      <trkpt lat="52.05849058" lon="-120.36480834">
      </trkpt>
      <trkpt lat="52.05912384" lon="-120.36490443">
      </trkpt>
      <trkpt lat="52.05965015" lon="-120.36505319">
      </trkpt>
      <trkpt lat="52.05999612" lon="-120.36511681">
      </trkpt>
      <trkpt lat="52.06053097" lon="-120.36514814">
      </trkpt>
      <trkpt lat="52.06103537" lon="-120.36504384">
      </trkpt>
      <trkpt lat="52.06142981" lon="-120.36493056">
      </trkpt>
      <trkpt lat="52.06175499" lon="-120.36476423">
      </trkpt>
      <trkpt lat="52.06221665" lon="-120.36437079">
      </trkpt>
      <trkpt lat="52.06242563" lon="-120.36416527">
      </trkpt>
      <trkpt lat="52.0626753" lon="-120.36391568">
      </trkpt>
      <trkpt lat="52.06282389" lon="-120.36374127">
      </trkpt>
      <trkpt lat="52.06358976" lon="-120.36285071">
      </trkpt>
      <trkpt lat="52.06410784" lon="-120.36224824">
      </trkpt>
      <trkpt lat="52.06463747" lon="-120.36158999">
      </trkpt>
      <trkpt lat="52.06481578" lon="-120.36134189">
      </trkpt>
      <trkpt lat="52.06507797" lon="-120.36076491">
      </trkpt>
      <trkpt lat="52.06538559" lon="-120.36014324">
      </trkpt>
      <trkpt lat="52.06557035" lon="-120.35963835">
      </trkpt>
      <trkpt lat="52.06567942" lon="-120.35914332">
      </trkpt>
      <trkpt lat="52.06578186" lon="-120.35861034">
      </trkpt>
      <trkpt lat="52.06586725" lon="-120.35811838">
      </trkpt>
      <trkpt lat="52.06592652" lon="-120.35767635">
      </trkpt>
      <trkpt lat="52.066053" lon="-120.35714801">
      </trkpt>
      <trkpt lat="52.06617718" lon="-120.35676733">
      </trkpt>
      <trkpt lat="52.06630552" lon="-120.35647142">
      </trkpt>
      <trkpt lat="52.06650048" lon="-120.35617459">
      </trkpt>
      <trkpt lat="52.06673158" lon="-120.3559351">
      </trkpt>
      <trkpt lat="52.06699012" lon="-120.3557696">
      </trkpt>
      <trkpt lat="52.06716576" lon="-120.35566144">
      </trkpt>
      <trkpt lat="52.06743472" lon="-120.35541701">
      </trkpt>
      <trkpt lat="52.0678481" lon="-120.35491335">
      </trkpt>
      <trkpt lat="52.06812859" lon="-120.35461314">
      </trkpt>
      <trkpt lat="52.06837655" lon="-120.35423182">
      </trkpt>
      <trkpt lat="52.06855939" lon="-120.35388225">
      </trkpt>
      <trkpt lat="52.06875112" lon="-120.35361685">
      </trkpt>
      <trkpt lat="52.06899565" lon="-120.35355398">
      </trkpt>
      <trkpt lat="52.06927481" lon="-120.35351763">
      </trkpt>
      <trkpt lat="52.069483" lon="-120.35349053">
      </trkpt>
      <trkpt lat="52.06968305" lon="-120.35358859">
      </trkpt>
      <trkpt lat="52.06997772" lon="-120.35367433">
      </trkpt>
      <trkpt lat="52.07014238" lon="-120.35373045">
      </trkpt>
      <trkpt lat="52.07029984" lon="-120.35383406">
      </trkpt>
      <trkpt lat="52.07047149" lon="-120.35393582">
      </trkpt>
      <trkpt lat="52.07057748" lon="-120.35396079">
      </trkpt>
      <trkpt lat="52.07068517" lon="-120.35392351">
      </trkpt>
      <trkpt lat="52.07078208" lon="-120.35376352">
      </trkpt>
      <trkpt lat="52.07083816" lon="-120.35363272">
      </trkpt>
      <trkpt lat="52.07086869" lon="-120.3535972">
      </trkpt>
      <trkpt lat="52.070948" lon="-120.35350272">
      </trkpt>
      <trkpt lat="52.07105117" lon="-120.35349981">
      </trkpt>
      <trkpt lat="52.07116281" lon="-120.35353787">
      </trkpt>
      <trkpt lat="52.07130113" lon="-120.35359349">
      </trkpt>
      <trkpt lat="52.07142612" lon="-120.35364032">
      </trkpt>
      <trkpt lat="52.07160936" lon="-120.35369009">
      </trkpt>
      <trkpt lat="52.07181185" lon="-120.35373736">
      </trkpt>
      <trkpt lat="52.07203461" lon="-120.35380302">
      </trkpt>
      <trkpt lat="52.07223556" lon="-120.35381893">
      </trkpt>
      <trkpt lat="52.07242316" lon="-120.35382606">
      </trkpt>
      <trkpt lat="52.07256252" lon="-120.35390258">
      </trkpt>
      <trkpt lat="52.07269828" lon="-120.35390594">
      </trkpt>
      <trkpt lat="52.07286998" lon="-120.35385203">
      </trkpt>
      <trkpt lat="52.072977" lon="-120.35379602">
      </trkpt>
      <trkpt lat="52.0731433" lon="-120.35376386">
      </trkpt>
      <trkpt lat="52.07333271" lon="-120.35367607">
      </trkpt>
      <trkpt lat="52.07352058" lon="-120.35355694">
      </trkpt>
      <trkpt lat="52.07370561" lon="-120.35351181">
      </trkpt>
      <trkpt lat="52.07397021" lon="-120.35350892">
      </trkpt>
      <trkpt lat="52.07416372" lon="-120.35350476">
      </trkpt>
      <trkpt lat="52.07437109" lon="-120.35351983">
      </trkpt>
      <trkpt lat="52.07457742" lon="-120.353514">
      </trkpt>
      <trkpt lat="52.07467316" lon="-120.35349102">
      </trkpt>
      <trkpt lat="52.07477812" lon="-120.35339319">
      </trkpt>
      <trkpt lat="52.07490081" lon="-120.3532615">
      </trkpt>
      <trkpt lat="52.07501373" lon="-120.3531942">
      </trkpt>
      <trkpt lat="52.07516823" lon="-120.35318461">
      </trkpt>
      <trkpt lat="52.07531682" lon="-120.35318629">
      </trkpt>
      <trkpt lat="52.0754572" lon="-120.35328372">
      </trkpt>
      <trkpt lat="52.0755827" lon="-120.35334101">
      </trkpt>
      <trkpt lat="52.07570768" lon="-120.35338785">
      </trkpt>
      <trkpt lat="52.07584395" lon="-120.35340167">
      </trkpt>
      <trkpt lat="52.07613576" lon="-120.35342678">
      </trkpt>
      <trkpt lat="52.07631104" lon="-120.35344604">
      </trkpt>
      <trkpt lat="52.07647734" lon="-120.35341386">
      </trkpt>
      <trkpt lat="52.07665546" lon="-120.3533591">
      </trkpt>
      <trkpt lat="52.07683793" lon="-120.3532617">
      </trkpt>
      <trkpt lat="52.07703529" lon="-120.35320445">
      </trkpt>
      <trkpt lat="52.07717106" lon="-120.35320781">
      </trkpt>
      <trkpt lat="52.07735173" lon="-120.35320531">
      </trkpt>
      <trkpt lat="52.07753728" lon="-120.35317062">
      </trkpt>
      <trkpt lat="52.07770308" lon="-120.35312799">
      </trkpt>
      <trkpt lat="52.0778491" lon="-120.35307742">
      </trkpt>
      <trkpt lat="52.0779669" lon="-120.35297792">
      </trkpt>
      <trkpt lat="52.07807342" lon="-120.35291144">
      </trkpt>
      <trkpt lat="52.07817684" lon="-120.35278225">
      </trkpt>
      <trkpt lat="52.07828079" lon="-120.35266351">
      </trkpt>
      <trkpt lat="52.07839217" lon="-120.35256485">
      </trkpt>
      <trkpt lat="52.07850998" lon="-120.35246533">
      </trkpt>
      <trkpt lat="52.07863676" lon="-120.35241727">
      </trkpt>
      <trkpt lat="52.07874481" lon="-120.35238216">
      </trkpt>
      <trkpt lat="52.07891213" lon="-120.35237087">
      </trkpt>
      <trkpt lat="52.07911411" lon="-120.35240769">
      </trkpt>
      <trkpt lat="52.0792799" lon="-120.35236505">
      </trkpt>
      <trkpt lat="52.07944569" lon="-120.35232241">
      </trkpt>
      <trkpt lat="52.07954732" lon="-120.35228813">
      </trkpt>
      <trkpt lat="52.0796895" lon="-120.35229065">
      </trkpt>
      <trkpt lat="52.07984195" lon="-120.35223924">
      </trkpt>
      <trkpt lat="52.08003725" lon="-120.35214016">
      </trkpt>
      <trkpt lat="52.0801743" lon="-120.35203813">
      </trkpt>
      <trkpt lat="52.08032033" lon="-120.35198754">
      </trkpt>
      <trkpt lat="52.08041118" lon="-120.35199676">
      </trkpt>
      <trkpt lat="52.08054053" lon="-120.35200095">
      </trkpt>
      <trkpt lat="52.08071042" lon="-120.35204194">
      </trkpt>
      <trkpt lat="52.08087826" lon="-120.35204111">
      </trkpt>
      <trkpt lat="52.08100504" lon="-120.35199305">
      </trkpt>
      <trkpt lat="52.08126656" lon="-120.35192741">
      </trkpt>
      <trkpt lat="52.08153398" lon="-120.35185049">
      </trkpt>
      <trkpt lat="52.08169644" lon="-120.35187141">
      </trkpt>
      <trkpt lat="52.08186582" lon="-120.35190195">
      </trkpt>
      <trkpt lat="52.08207036" lon="-120.35199103">
      </trkpt>
      <trkpt lat="52.08228876" lon="-120.35209935">
      </trkpt>
      <trkpt lat="52.08241425" lon="-120.35215665">
      </trkpt>
      <trkpt lat="52.0825631" lon="-120.35229508">
      </trkpt>
      <trkpt lat="52.08270656" lon="-120.35245525">
      </trkpt>
      <trkpt lat="52.08287131" lon="-120.35265473">
      </trkpt>
      <trkpt lat="52.08306917" lon="-120.35287095">
      </trkpt>
      <trkpt lat="52.08320057" lon="-120.35291696">
      </trkpt>
      <trkpt lat="52.08333633" lon="-120.35292031">
      </trkpt>
      <trkpt lat="52.0835283" lon="-120.35288479">
      </trkpt>
      <trkpt lat="52.08373849" lon="-120.35282585">
      </trkpt>
      <trkpt lat="52.08386886" lon="-120.35285095">
      </trkpt>
      <trkpt lat="52.08399538" lon="-120.35292917">
      </trkpt>
      <trkpt lat="52.08412934" lon="-120.35302746">
      </trkpt>
      <trkpt lat="52.0842456" lon="-120.35315962">
      </trkpt>
      <trkpt lat="52.08432874" lon="-120.35327503">
      </trkpt>
      <trkpt lat="52.08439367" lon="-120.35341388">
      </trkpt>
      <trkpt lat="52.08449426" lon="-120.35362174">
      </trkpt>
      <trkpt lat="52.08464232" lon="-120.35387602">
      </trkpt>
      <trkpt lat="52.08478783" lon="-120.35407803">
      </trkpt>
      <trkpt lat="52.0848992" lon="-120.35424238">
      </trkpt>
      <trkpt lat="52.08500776" lon="-120.35448077">
      </trkpt>
      <trkpt lat="52.08506395" lon="-120.35470493">
      </trkpt>
      <trkpt lat="52.08513195" lon="-120.3549065">
      </trkpt>
      <trkpt lat="52.0851748" lon="-120.35512188">
      </trkpt>
      <trkpt lat="52.08528668" lon="-120.3552967">
      </trkpt>
      <trkpt lat="52.08545836" lon="-120.35550584">
      </trkpt>
      <trkpt lat="52.08563337" lon="-120.3556514">
      </trkpt>
      <trkpt lat="52.08581044" lon="-120.35583878">
      </trkpt>
      <trkpt lat="52.08602472" lon="-120.35612654">
      </trkpt>
      <trkpt lat="52.08626414" lon="-120.3564005">
      </trkpt>
      <trkpt lat="52.08646842" lon="-120.35661592">
      </trkpt>
      <trkpt lat="52.08671989" lon="-120.35700407">
      </trkpt>
      <trkpt lat="52.08678891" lon="-120.35722657">
      </trkpt>
      <trkpt lat="52.08687026" lon="-120.35743695">
      </trkpt>
      <trkpt lat="52.0869816" lon="-120.35786438">
      </trkpt>
      <trkpt lat="52.08710092" lon="-120.3580593">
      </trkpt>
      <trkpt lat="52.08721871" lon="-120.35822284">
      </trkpt>
      <trkpt lat="52.08743939" lon="-120.35850979">
      </trkpt>
      <trkpt lat="52.08763338" lon="-120.35877917">
      </trkpt>
      <trkpt lat="52.0878356" lon="-120.35895278">
      </trkpt>
      <trkpt lat="52.08798058" lon="-120.35914436">
      </trkpt>
      <trkpt lat="52.0881012" lon="-120.35923389">
      </trkpt>
      <trkpt lat="52.0883042" lon="-120.35929165">
      </trkpt>
      <trkpt lat="52.08847666" lon="-120.35935881">
      </trkpt>
      <trkpt lat="52.08856749" lon="-120.35939418">
      </trkpt>
      <trkpt lat="52.08889881" lon="-120.35943525">
      </trkpt>
      <trkpt lat="52.08910822" lon="-120.35949218">
      </trkpt>
      <trkpt lat="52.08934944" lon="-120.35967125">
      </trkpt>
      <trkpt lat="52.08946903" lon="-120.35973987">
      </trkpt>
      <trkpt lat="52.08972821" lon="-120.36002183">
      </trkpt>
      <trkpt lat="52.09005025" lon="-120.36040085">
      </trkpt>
      <trkpt lat="52.0903682" lon="-120.36069622">
      </trkpt>
      <trkpt lat="52.09058376" lon="-120.36087863">
      </trkpt>
      <trkpt lat="52.09059015" lon="-120.36104644">
      </trkpt>
      <trkpt lat="52.09060186" lon="-120.36120062">
      </trkpt>
      <trkpt lat="52.09062082" lon="-120.36133354">
      </trkpt>
      <trkpt lat="52.09063088" lon="-120.36145406">
      </trkpt>
      <trkpt lat="52.09059802" lon="-120.36154634">
      </trkpt>
      <trkpt lat="52.09055113" lon="-120.3616066">
      </trkpt>
      <trkpt lat="52.0904367" lon="-120.36172978">
      </trkpt>
      <trkpt lat="52.09033831" lon="-120.36175612">
      </trkpt>
      <trkpt lat="52.090231" lon="-120.36177007">
      </trkpt>
      <trkpt lat="52.09012402" lon="-120.36179077">
      </trkpt>
      <trkpt lat="52.08997626" lon="-120.36174229">
      </trkpt>
      <trkpt lat="52.08983561" lon="-120.36175381">
      </trkpt>
      <trkpt lat="52.08975504" lon="-120.36180491">
      </trkpt>
      <trkpt lat="52.08968405" lon="-120.36188184">
      </trkpt>
      <trkpt lat="52.08963467" lon="-120.36197626">
      </trkpt>
      <trkpt lat="52.08958315" lon="-120.36211157">
      </trkpt>
      <trkpt lat="52.08955094" lon="-120.3622173">
      </trkpt>
      <trkpt lat="52.08955077" lon="-120.36229855">
      </trkpt>
      <trkpt lat="52.08959731" lon="-120.36240081">
      </trkpt>
      <trkpt lat="52.08964765" lon="-120.36249578">
      </trkpt>
      <trkpt lat="52.0897358" lon="-120.36259941">
      </trkpt>
      <trkpt lat="52.08981817" lon="-120.36266992">
      </trkpt>
      <trkpt lat="52.08990021" lon="-120.3627337">
      </trkpt>
      <trkpt lat="52.08998225" lon="-120.3627975">
      </trkpt>
      <trkpt lat="52.09009433" lon="-120.36296569">
      </trkpt>
      <trkpt lat="52.09013492" lon="-120.3631161">
      </trkpt>
      <trkpt lat="52.09010897" lon="-120.36334963">
      </trkpt>
      <trkpt lat="52.09008667" lon="-120.36348792">
      </trkpt>
      <trkpt lat="52.09010381" lon="-120.36366845">
      </trkpt>
      <trkpt lat="52.09015033" lon="-120.36393993">
      </trkpt>
      <trkpt lat="52.09018267" lon="-120.36409142">
      </trkpt>
      <trkpt lat="52.09024076" lon="-120.36425986">
      </trkpt>
      <trkpt lat="52.09031766" lon="-120.36447325">
      </trkpt>
      <trkpt lat="52.09044772" lon="-120.36475419">
      </trkpt>
      <trkpt lat="52.09059" lon="-120.36494553">
      </trkpt>
      <trkpt lat="52.09066839" lon="-120.36510457">
      </trkpt>
      <trkpt lat="52.09074448" lon="-120.36521653">
      </trkpt>
      <trkpt lat="52.09080918" lon="-120.36535026">
      </trkpt>
      <trkpt lat="52.09082351" lon="-120.36555826">
      </trkpt>
      <trkpt lat="52.09083174" lon="-120.3657264">
      </trkpt>
      <trkpt lat="52.090786" lon="-120.36577136">
      </trkpt>
      <trkpt lat="52.09079847" lon="-120.36588031">
      </trkpt>
      <trkpt lat="52.09082813" lon="-120.3659754">
      </trkpt>
      <trkpt lat="52.09081916" lon="-120.36615699">
      </trkpt>
      <trkpt lat="52.09084084" lon="-120.36638115">
      </trkpt>
      <trkpt lat="52.09091179" lon="-120.36651744">
      </trkpt>
      <trkpt lat="52.09092398" lon="-120.36662062">
      </trkpt>
      <trkpt lat="52.09090125" lon="-120.36673998">
      </trkpt>
      <trkpt lat="52.09090095" lon="-120.36687971">
      </trkpt>
      <trkpt lat="52.09093085" lon="-120.36712608">
      </trkpt>
      <trkpt lat="52.09098306" lon="-120.36731718">
      </trkpt>
      <trkpt lat="52.09100716" lon="-120.36751776">
      </trkpt>
      <trkpt lat="52.09105833" lon="-120.36790687">
      </trkpt>
      <trkpt lat="52.0911351" lon="-120.36808897">
      </trkpt>
      <trkpt lat="52.09129518" lon="-120.36829515">
      </trkpt>
      <trkpt lat="52.09149498" lon="-120.36858349">
      </trkpt>
      <trkpt lat="52.09167437" lon="-120.36874644">
      </trkpt>
      <trkpt lat="52.09178634" lon="-120.36891814">
      </trkpt>
      <trkpt lat="52.09184139" lon="-120.36902156">
      </trkpt>
      <trkpt lat="52.09192496" lon="-120.36919695">
      </trkpt>
      <trkpt lat="52.09198639" lon="-120.36935777">
      </trkpt>
      <trkpt lat="52.09208303" lon="-120.36950818">
      </trkpt>
      <trkpt lat="52.09216434" lon="-120.3696373">
      </trkpt>
      <trkpt lat="52.09230523" lon="-120.3699624">
      </trkpt>
      <trkpt lat="52.09238397" lon="-120.37018499">
      </trkpt>
      <trkpt lat="52.09246483" lon="-120.3703782">
      </trkpt>
      <trkpt lat="52.09251635" lon="-120.37048209">
      </trkpt>
      <trkpt lat="52.0925738" lon="-120.3706379">
      </trkpt>
      <trkpt lat="52.09272274" lon="-120.37076389">
      </trkpt>
      <trkpt lat="52.09276086" lon="-120.37081427">
      </trkpt>
      <trkpt lat="52.09293359" lon="-120.371027">
      </trkpt>
      <trkpt lat="52.09307236" lon="-120.37128334">
      </trkpt>
      <trkpt lat="52.0931605" lon="-120.37148746">
      </trkpt>
      <trkpt lat="52.09332604" lon="-120.37179913">
      </trkpt>
      <trkpt lat="52.09338457" lon="-120.37188951">
      </trkpt>
      <trkpt lat="52.09344025" lon="-120.37192198">
      </trkpt>
      <trkpt lat="52.09348551" lon="-120.37204415">
      </trkpt>
      <trkpt lat="52.09353673" lon="-120.37214227">
      </trkpt>
      <trkpt lat="52.09358271" lon="-120.37220615">
      </trkpt>
      <trkpt lat="52.09365679" lon="-120.37226055">
      </trkpt>
      <trkpt lat="52.09376721" lon="-120.37232769">
      </trkpt>
      <trkpt lat="52.09385364" lon="-120.37241542">
      </trkpt>
      <trkpt lat="52.09398095" lon="-120.37246292">
      </trkpt>
      <trkpt lat="52.09416432" lon="-120.37256134">
      </trkpt>
      <trkpt lat="52.09430369" lon="-120.37263637">
      </trkpt>
      <trkpt lat="52.0944256" lon="-120.3727195">
      </trkpt>
      <trkpt lat="52.09454566" lon="-120.37283778">
      </trkpt>
      <trkpt lat="52.09466701" lon="-120.37290935">
      </trkpt>
      <trkpt lat="52.09480638" lon="-120.37298438">
      </trkpt>
      <trkpt lat="52.09496095" lon="-120.37300506">
      </trkpt>
      <trkpt lat="52.09503641" lon="-120.37307554">
      </trkpt>
      <trkpt lat="52.09508485" lon="-120.37332522">
      </trkpt>
      <trkpt lat="52.0951277" lon="-120.37354282">
      </trkpt>
      <trkpt lat="52.09522051" lon="-120.37362921">
      </trkpt>
      <trkpt lat="52.09543574" lon="-120.37383099">
      </trkpt>
      <trkpt lat="52.09547653" lon="-120.37392415">
      </trkpt>
      <trkpt lat="52.09547073" lon="-120.37413493">
      </trkpt>
      <trkpt lat="52.09544459" lon="-120.37434179">
      </trkpt>
      <trkpt lat="52.09542855" lon="-120.37450796">
      </trkpt>
      <trkpt lat="52.09545093" lon="-120.37463632">
      </trkpt>
      <trkpt lat="52.09551109" lon="-120.37471384">
      </trkpt>
      <trkpt lat="52.09561672" lon="-120.37473295">
      </trkpt>
      <trkpt lat="52.09574317" lon="-120.37468371">
      </trkpt>
      <trkpt lat="52.09584544" lon="-120.37471639">
      </trkpt>
      <trkpt lat="52.09595171" lon="-120.37474853">
      </trkpt>
      <trkpt lat="52.09611222" lon="-120.37481958">
      </trkpt>
      <trkpt lat="52.09622409" lon="-120.37488384">
      </trkpt>
      <trkpt lat="52.09634009" lon="-120.37503286">
      </trkpt>
      <trkpt lat="52.09641463" lon="-120.37523978">
      </trkpt>
      <trkpt lat="52.09649171" lon="-120.37549888">
      </trkpt>
      <trkpt lat="52.09655648" lon="-120.37575303">
      </trkpt>
      <trkpt lat="52.09655035" lon="-120.37595729">
      </trkpt>
      <trkpt lat="52.09661607" lon="-120.37623099">
      </trkpt>
      <trkpt lat="52.09670642" lon="-120.37651463">
      </trkpt>
      <trkpt lat="52.0967715" lon="-120.37677529">
      </trkpt>
      <trkpt lat="52.09681098" lon="-120.37700645">
      </trkpt>
      <trkpt lat="52.09684642" lon="-120.37740224">
      </trkpt>
      <trkpt lat="52.09680972" lon="-120.37755795">
      </trkpt>
      <trkpt lat="52.09681557" lon="-120.37767768">
      </trkpt>
      <trkpt lat="52.09677966" lon="-120.37775802">
      </trkpt>
      <trkpt lat="52.09670566" lon="-120.37792477">
      </trkpt>
      <trkpt lat="52.09662756" lon="-120.37808042">
      </trkpt>
      <trkpt lat="52.09656876" lon="-120.37819283">
      </trkpt>
      <trkpt lat="52.09651279" lon="-120.37836306">
      </trkpt>
      <trkpt lat="52.09645896" lon="-120.37850394">
      </trkpt>
      <trkpt lat="52.09641319" lon="-120.37873688">
      </trkpt>
      <trkpt lat="52.09637823" lon="-120.37889857">
      </trkpt>
      <trkpt lat="52.09632722" lon="-120.37909727">
      </trkpt>
      <trkpt lat="52.09628844" lon="-120.37925365">
      </trkpt>
      <trkpt lat="52.09624101" lon="-120.37930636">
      </trkpt>
      <trkpt lat="52.09616701" lon="-120.37947313">
      </trkpt>
      <trkpt lat="52.09609092" lon="-120.37952374">
      </trkpt>
      <trkpt lat="52.09598317" lon="-120.37958428">
      </trkpt>
      <trkpt lat="52.0959224" lon="-120.37965619">
      </trkpt>
      <trkpt lat="52.09583053" lon="-120.37974959">
      </trkpt>
      <trkpt lat="52.09572165" lon="-120.37978698">
      </trkpt>
      <trkpt lat="52.09565052" lon="-120.37986606">
      </trkpt>
      <trkpt lat="52.09559031" lon="-120.37994953">
      </trkpt>
      <trkpt lat="52.09553309" lon="-120.38002099">
      </trkpt>
      <trkpt lat="52.09546523" lon="-120.38009381">
      </trkpt>
      <trkpt lat="52.09536299" lon="-120.38019438">
      </trkpt>
      <trkpt lat="52.09531952" lon="-120.38032807">
      </trkpt>
      <trkpt lat="52.09522101" lon="-120.3803583">
      </trkpt>
      <trkpt lat="52.09511044" lon="-120.380361">
      </trkpt>
      <trkpt lat="52.09501547" lon="-120.38039077">
      </trkpt>
      <trkpt lat="52.09497401" lon="-120.38041943">
      </trkpt>
      <trkpt lat="52.09490175" lon="-120.38047537">
      </trkpt>
      <trkpt lat="52.09484239" lon="-120.38057619">
      </trkpt>
      <trkpt lat="52.09483796" lon="-120.38070482">
      </trkpt>
      <trkpt lat="52.09487779" lon="-120.38086264">
      </trkpt>
      <trkpt lat="52.09492135" lon="-120.38095012">
      </trkpt>
      <trkpt lat="52.09501627" lon="-120.38106586">
      </trkpt>
      <trkpt lat="52.0951183" lon="-120.38118068">
      </trkpt>
      <trkpt lat="52.0951864" lon="-120.38125916">
      </trkpt>
      <trkpt lat="52.09533981" lon="-120.38140226">
      </trkpt>
      <trkpt lat="52.09540634" lon="-120.38152169">
      </trkpt>
      <trkpt lat="52.09547074" lon="-120.3816705">
      </trkpt>
      <trkpt lat="52.09563176" lon="-120.38196976">
      </trkpt>
      <trkpt lat="52.09573548" lon="-120.38211929">
      </trkpt>
      <trkpt lat="52.09583609" lon="-120.3822052">
      </trkpt>
      <trkpt lat="52.09592489" lon="-120.38241489">
      </trkpt>
      <trkpt lat="52.09597735" lon="-120.38261181">
      </trkpt>
      <trkpt lat="52.09607905" lon="-120.38286639">
      </trkpt>
      <trkpt lat="52.09616873" lon="-120.3829479">
      </trkpt>
      <trkpt lat="52.09631176" lon="-120.38309816">
      </trkpt>
      <trkpt lat="52.09637334" lon="-120.38318913">
      </trkpt>
      <trkpt lat="52.09644354" lon="-120.38338377">
      </trkpt>
      <trkpt lat="52.09651205" lon="-120.38354369">
      </trkpt>
      <trkpt lat="52.09663875" lon="-120.38372518">
      </trkpt>
      <trkpt lat="52.09673497" lon="-120.3837942">
      </trkpt>
      <trkpt lat="52.0968522" lon="-120.38385467">
      </trkpt>
      <trkpt lat="52.09698773" lon="-120.38392442">
      </trkpt>
      <trkpt lat="52.0971271" lon="-120.38399951">
      </trkpt>
      <trkpt lat="52.09727384" lon="-120.38407944">
      </trkpt>
      <trkpt lat="52.09738228" lon="-120.38410614">
      </trkpt>
      <trkpt lat="52.0974812" lon="-120.38415735">
      </trkpt>
      <trkpt lat="52.09756963" lon="-120.38414007">
      </trkpt>
      <trkpt lat="52.0976223" lon="-120.38412161">
      </trkpt>
      <trkpt lat="52.09766601" lon="-120.38413922">
      </trkpt>
    </trkseg>
    <trkseg>
      <trkpt lat="52.07048863" lon="-120.35308922">
      </trkpt>
      <trkpt lat="52.07059102" lon="-120.35320211">
      </trkpt>
      <trkpt lat="52.0706485" lon="-120.35332083">
      </trkpt>
      <trkpt lat="52.07073524" lon="-120.35350939">
      </trkpt>
      <trkpt lat="52.0707976" lon="-120.35359593">
      </trkpt>
      <trkpt lat="52.07083816" lon="-120.35363272">
      </trkpt>
    </trkseg>
    <trkseg>
      <trkpt lat="52.08847666" lon="-120.35935881">
      </trkpt>
      <trkpt lat="52.08856749" lon="-120.35939418">
      </trkpt>
      <trkpt lat="52.08889881" lon="-120.35943525">
      </trkpt>
      <trkpt lat="52.08910822" lon="-120.35949218">
      </trkpt>
      <trkpt lat="52.08934944" lon="-120.35967125">
      </trkpt>
      <trkpt lat="52.08946903" lon="-120.35973987">
      </trkpt>
      <trkpt lat="52.08972821" lon="-120.36002183">
      </trkpt>
      <trkpt lat="52.09005025" lon="-120.36040085">
      </trkpt>
      <trkpt lat="52.0903682" lon="-120.36069622">
      </trkpt>
      <trkpt lat="52.09058376" lon="-120.36087863">
      </trkpt>
      <trkpt lat="52.0907965" lon="-120.36087199">
      </trkpt>
      <trkpt lat="52.09118096" lon="-120.36081145">
      </trkpt>
      <trkpt lat="52.09143118" lon="-120.36077889">
      </trkpt>
      <trkpt lat="52.091598" lon="-120.36075719">
      </trkpt>
      <trkpt lat="52.09174635" lon="-120.36075552">
      </trkpt>
      <trkpt lat="52.09188654" lon="-120.36099639">
      </trkpt>
      <trkpt lat="52.09206175" lon="-120.3612028">
      </trkpt>
      <trkpt lat="52.09231132" lon="-120.36142942">
      </trkpt>
      <trkpt lat="52.09244011" lon="-120.36156216">
      </trkpt>
      <trkpt lat="52.09265785" lon="-120.36176304">
      </trkpt>
      <trkpt lat="52.09287557" lon="-120.36196393">
      </trkpt>
      <trkpt lat="52.09290085" lon="-120.36198057">
      </trkpt>
      <trkpt lat="52.0930085" lon="-120.36205625">
      </trkpt>
      <trkpt lat="52.09317375" lon="-120.36218424">
      </trkpt>
      <trkpt lat="52.0933356" lon="-120.36224291">
      </trkpt>
      <trkpt lat="52.09345175" lon="-120.36236732">
      </trkpt>
      <trkpt lat="52.09357689" lon="-120.36255037">
      </trkpt>
      <trkpt lat="52.09368697" lon="-120.36267557">
      </trkpt>
      <trkpt lat="52.09389814" lon="-120.36286734">
      </trkpt>
      <trkpt lat="52.09413823" lon="-120.36302547">
      </trkpt>
      <trkpt lat="52.09435037" lon="-120.36323707">
      </trkpt>
      <trkpt lat="52.09452046" lon="-120.3634641">
      </trkpt>
      <trkpt lat="52.09462253" lon="-120.36355048">
      </trkpt>
      <trkpt lat="52.09474986" lon="-120.36365351">
      </trkpt>
      <trkpt lat="52.09496297" lon="-120.36388492">
      </trkpt>
      <trkpt lat="52.09510875" lon="-120.3641151">
      </trkpt>
      <trkpt lat="52.09528879" lon="-120.36442059">
      </trkpt>
      <trkpt lat="52.09544066" lon="-120.36464998">
      </trkpt>
      <trkpt lat="52.09562461" lon="-120.36478553">
      </trkpt>
      <trkpt lat="52.09577163" lon="-120.36491591">
      </trkpt>
      <trkpt lat="52.09592204" lon="-120.36511561">
      </trkpt>
      <trkpt lat="52.09608556" lon="-120.36533353">
      </trkpt>
      <trkpt lat="52.09629624" lon="-120.36551543">
      </trkpt>
      <trkpt lat="52.09646268" lon="-120.36579279">
      </trkpt>
      <trkpt lat="52.09659363" lon="-120.36609469">
      </trkpt>
      <trkpt lat="52.09677243" lon="-120.36650001">
      </trkpt>
      <trkpt lat="52.09689853" lon="-120.36670287">
      </trkpt>
      <trkpt lat="52.09698479" lon="-120.36684116">
      </trkpt>
      <trkpt lat="52.09714299" lon="-120.36695016">
      </trkpt>
      <trkpt lat="52.09729365" lon="-120.36703025">
      </trkpt>
      <trkpt lat="52.0975031" lon="-120.36731199">
      </trkpt>
      <trkpt lat="52.09776358" lon="-120.36763693">
      </trkpt>
      <trkpt lat="52.09797619" lon="-120.36785846">
      </trkpt>
      <trkpt lat="52.09813535" lon="-120.36798728">
      </trkpt>
      <trkpt lat="52.09822719" lon="-120.36811488">
      </trkpt>
      <trkpt lat="52.09854235" lon="-120.36843273">
      </trkpt>
      <trkpt lat="52.09872313" lon="-120.36862851">
      </trkpt>
      <trkpt lat="52.09883465" lon="-120.36878345">
      </trkpt>
      <trkpt lat="52.09888956" lon="-120.36890589">
      </trkpt>
      <trkpt lat="52.09895345" lon="-120.36899893">
      </trkpt>
      <trkpt lat="52.09904881" lon="-120.36915184">
      </trkpt>
      <trkpt lat="52.09912848" lon="-120.36919108">
      </trkpt>
      <trkpt lat="52.09921353" lon="-120.36920206">
      </trkpt>
      <trkpt lat="52.09930675" lon="-120.36931118">
      </trkpt>
      <trkpt lat="52.09941798" lon="-120.36937387">
      </trkpt>
      <trkpt lat="52.09953742" lon="-120.36939692">
      </trkpt>
      <trkpt lat="52.09966087" lon="-120.3695021">
      </trkpt>
      <trkpt lat="52.0997428" lon="-120.36965676">
      </trkpt>
      <trkpt lat="52.09983977" lon="-120.36984253">
      </trkpt>
      <trkpt lat="52.09991296" lon="-120.37002588">
      </trkpt>
      <trkpt lat="52.09997702" lon="-120.37016081">
      </trkpt>
      <trkpt lat="52.10009644" lon="-120.37032163">
      </trkpt>
      <trkpt lat="52.10019893" lon="-120.37041301">
      </trkpt>
      <trkpt lat="52.10031807" lon="-120.37056834">
      </trkpt>
      <trkpt lat="52.10043103" lon="-120.37073551">
      </trkpt>
      <trkpt lat="52.10052158" lon="-120.37078987">
      </trkpt>
      <trkpt lat="52.10063724" lon="-120.37087403">
      </trkpt>
      <trkpt lat="52.10078542" lon="-120.37093193">
      </trkpt>
      <trkpt lat="52.10088818" lon="-120.37102878">
      </trkpt>
      <trkpt lat="52.10098354" lon="-120.3711817">
      </trkpt>
      <trkpt lat="52.10108669" lon="-120.37135565">
      </trkpt>
      <trkpt lat="52.10118137" lon="-120.37156377">
      </trkpt>
      <trkpt lat="52.10119383" lon="-120.3717495">
      </trkpt>
      <trkpt lat="52.10125305" lon="-120.37192365">
      </trkpt>
      <trkpt lat="52.10131672" lon="-120.37198151">
      </trkpt>
      <trkpt lat="52.10137326" lon="-120.3721009">
      </trkpt>
      <trkpt lat="52.10137559" lon="-120.37210658">
      </trkpt>
      <trkpt lat="52.10142245" lon="-120.3722109">
      </trkpt>
      <trkpt lat="52.10146347" lon="-120.372338">
      </trkpt>
      <trkpt lat="52.10151614" lon="-120.37252509">
      </trkpt>
      <trkpt lat="52.10161034" lon="-120.37261219">
      </trkpt>
      <trkpt lat="52.10176405" lon="-120.3727294">
      </trkpt>
      <trkpt lat="52.10186874" lon="-120.37285297">
      </trkpt>
      <trkpt lat="52.10201069" lon="-120.37296698">
      </trkpt>
      <trkpt lat="52.10212599" lon="-120.37307027">
      </trkpt>
      <trkpt lat="52.10221397" lon="-120.3731487">
      </trkpt>
      <trkpt lat="52.10223114" lon="-120.37320324">
      </trkpt>
      <trkpt lat="52.102225" lon="-120.37337431">
      </trkpt>
      <trkpt lat="52.10220971" lon="-120.37365537">
      </trkpt>
      <trkpt lat="52.10218856" lon="-120.37387569">
      </trkpt>
      <trkpt lat="52.10214378" lon="-120.37402815">
      </trkpt>
      <trkpt lat="52.10209945" lon="-120.37418999">
      </trkpt>
      <trkpt lat="52.10206517" lon="-120.37437891">
      </trkpt>
      <trkpt lat="52.10199512" lon="-120.37454882">
      </trkpt>
      <trkpt lat="52.10192118" lon="-120.37463883">
      </trkpt>
      <trkpt lat="52.1018681" lon="-120.37474032">
      </trkpt>
      <trkpt lat="52.10180291" lon="-120.37489068">
      </trkpt>
      <trkpt lat="52.10176275" lon="-120.37501888">
      </trkpt>
      <trkpt lat="52.10172638" lon="-120.3751655">
      </trkpt>
      <trkpt lat="52.10169694" lon="-120.37533487">
      </trkpt>
      <trkpt lat="52.10171651" lon="-120.37549788">
      </trkpt>
      <trkpt lat="52.10174334" lon="-120.37563156">
      </trkpt>
      <trkpt lat="52.10185865" lon="-120.37573483">
      </trkpt>
      <trkpt lat="52.10194063" lon="-120.37580934">
      </trkpt>
      <trkpt lat="52.10207012" lon="-120.37590606">
      </trkpt>
      <trkpt lat="52.10225933" lon="-120.37603759">
      </trkpt>
      <trkpt lat="52.10237326" lon="-120.37611266">
      </trkpt>
      <trkpt lat="52.10242202" lon="-120.37621986">
      </trkpt>
      <trkpt lat="52.10245141" lon="-120.37628699">
      </trkpt>
    </trkseg>
  </trk>
</gpx>