<?xml version="1.0" encoding="UTF-8"?>
<gpx xmlns="http://www.topografix.com/GPX/1/1" xmlns:xsi="http://www.w3.org/2001/XMLSchema-instance" xsi:schemaLocation="http://www.topografix.com/GPX/1/1 http://www.topografix.com/GPX/1/1/gpx.xsd" version="1.1" creator="gpx.py -- https://github.com/tkrajina/gpxpy">
  <trk>
    <name>Placer Lake Trail</name>
    <trkseg>
      <trkpt lat="49.09515215" lon="-120.48771056">
      </trkpt>
      <trkpt lat="49.09519173" lon="-120.48771839">
      </trkpt>
      <trkpt lat="49.0952261" lon="-120.48772332">
      </trkpt>
      <trkpt lat="49.09525566" lon="-120.48772578">
      </trkpt>
      <trkpt lat="49.09528103" lon="-120.48772642">
      </trkpt>
      <trkpt lat="49.09530269" lon="-120.48772543">
      </trkpt>
      <trkpt lat="49.09532119" lon="-120.4877236">
      </trkpt>
      <trkpt lat="49.09533697" lon="-120.48772122">
      </trkpt>
      <trkpt lat="49.09535059" lon="-120.48771895">
      </trkpt>
      <trkpt lat="49.0953625" lon="-120.487717">
      </trkpt>
      <trkpt lat="49.09537309" lon="-120.48771568">
      </trkpt>
      <trkpt lat="49.0953827" lon="-120.48771507">
      </trkpt>
      <trkpt lat="49.09539188" lon="-120.4877154">
      </trkpt>
      <trkpt lat="49.09540978" lon="-120.48771946">
      </trkpt>
      <trkpt lat="49.09541941" lon="-120.48772349">
      </trkpt>
      <trkpt lat="49.09542996" lon="-120.48772895">
      </trkpt>
      <trkpt lat="49.09544171" lon="-120.48773605">
      </trkpt>
      <trkpt lat="49.09545458" lon="-120.48774443">
      </trkpt>
      <trkpt lat="49.09546873" lon="-120.487754">
      </trkpt>
      <trkpt lat="49.09548398" lon="-120.48776441">
      </trkpt>
      <trkpt lat="49.09550032" lon="-120.48777555">
      </trkpt>
      <trkpt lat="49.09551775" lon="-120.48778687">
      </trkpt>
      <trkpt lat="49.09553608" lon="-120.48779838">
      </trkpt>
      <trkpt lat="49.0955554" lon="-120.48780983">
      </trkpt>
      <trkpt lat="49.0955756" lon="-120.48782079">
      </trkpt>
      <trkpt lat="49.09559652" lon="-120.48783124">
      </trkpt>
      <trkpt lat="49.09561807" lon="-120.48784146">
      </trkpt>
      <trkpt lat="49.09564004" lon="-120.48785108">
      </trkpt>
      <trkpt lat="49.09566237" lon="-120.48786034">
      </trkpt>
      <trkpt lat="49.09568487" lon="-120.48786927">
      </trkpt>
      <trkpt lat="49.09570745" lon="-120.48787762">
      </trkpt>
      <trkpt lat="49.09572984" lon="-120.48788552">
      </trkpt>
      <trkpt lat="49.09575195" lon="-120.4878931">
      </trkpt>
      <trkpt lat="49.09577379" lon="-120.48790036">
      </trkpt>
      <trkpt lat="49.09579536" lon="-120.48790763">
      </trkpt>
      <trkpt lat="49.09581656" lon="-120.48791503">
      </trkpt>
      <trkpt lat="49.09583742" lon="-120.4879228">
      </trkpt>
      <trkpt lat="49.09585792" lon="-120.48793102">
      </trkpt>
      <trkpt lat="49.095878" lon="-120.48793995">
      </trkpt>
      <trkpt lat="49.09589773" lon="-120.48794979">
      </trkpt>
      <trkpt lat="49.09591704" lon="-120.4879608">
      </trkpt>
      <trkpt lat="49.09593583" lon="-120.48797295">
      </trkpt>
      <trkpt lat="49.09595439" lon="-120.48798625">
      </trkpt>
      <trkpt lat="49.09597252" lon="-120.48800081">
      </trkpt>
      <trkpt lat="49.0959904" lon="-120.48801663">
      </trkpt>
      <trkpt lat="49.09600796" lon="-120.48803381">
      </trkpt>
      <trkpt lat="49.09602518" lon="-120.48805238">
      </trkpt>
      <trkpt lat="49.09604225" lon="-120.48807241">
      </trkpt>
      <trkpt lat="49.09605918" lon="-120.48809381">
      </trkpt>
      <trkpt lat="49.09607587" lon="-120.48811669">
      </trkpt>
      <trkpt lat="49.09609241" lon="-120.48814082">
      </trkpt>
      <trkpt lat="49.09610879" lon="-120.48816621">
      </trkpt>
      <trkpt lat="49.09612511" lon="-120.48819284">
      </trkpt>
      <trkpt lat="49.09614136" lon="-120.48822049">
      </trkpt>
      <trkpt lat="49.09615754" lon="-120.48824915">
      </trkpt>
      <trkpt lat="49.09617366" lon="-120.48827872">
      </trkpt>
      <trkpt lat="49.09618979" lon="-120.4883092">
      </trkpt>
      <trkpt lat="49.09620577" lon="-120.48834037">
      </trkpt>
      <trkpt lat="49.09622157" lon="-120.48837211">
      </trkpt>
      <trkpt lat="49.09623711" lon="-120.48840408">
      </trkpt>
      <trkpt lat="49.0962522" lon="-120.48843631">
      </trkpt>
      <trkpt lat="49.09626675" lon="-120.48846845">
      </trkpt>
      <trkpt lat="49.09628067" lon="-120.48850039">
      </trkpt>
      <trkpt lat="49.09629395" lon="-120.48853203">
      </trkpt>
      <trkpt lat="49.09630641" lon="-120.48856315">
      </trkpt>
      <trkpt lat="49.09631804" lon="-120.48859341">
      </trkpt>
      <trkpt lat="49.09632894" lon="-120.48862279">
      </trkpt>
      <trkpt lat="49.096339" lon="-120.48865086">
      </trkpt>
      <trkpt lat="49.09634839" lon="-120.4886775">
      </trkpt>
      <trkpt lat="49.09635703" lon="-120.48870236">
      </trkpt>
      <trkpt lat="49.09636499" lon="-120.48872535">
      </trkpt>
      <trkpt lat="49.09637219" lon="-120.48874622">
      </trkpt>
      <trkpt lat="49.0963788" lon="-120.48876476">
      </trkpt>
      <trkpt lat="49.09638501" lon="-120.48878151">
      </trkpt>
      <trkpt lat="49.09639093" lon="-120.48879713">
      </trkpt>
      <trkpt lat="49.09639692" lon="-120.48881231">
      </trkpt>
      <trkpt lat="49.09640329" lon="-120.48882758">
      </trkpt>
      <trkpt lat="49.09641011" lon="-120.48884351">
      </trkpt>
      <trkpt lat="49.09641777" lon="-120.48886085">
      </trkpt>
      <trkpt lat="49.09642638" lon="-120.48888029">
      </trkpt>
      <trkpt lat="49.0964362" lon="-120.48890205">
      </trkpt>
      <trkpt lat="49.09644707" lon="-120.48892591">
      </trkpt>
      <trkpt lat="49.09645895" lon="-120.48895119">
      </trkpt>
      <trkpt lat="49.09647149" lon="-120.48897732">
      </trkpt>
      <trkpt lat="49.09648465" lon="-120.48900366">
      </trkpt>
      <trkpt lat="49.09649826" lon="-120.48902964">
      </trkpt>
      <trkpt lat="49.09651203" lon="-120.4890547">
      </trkpt>
      <trkpt lat="49.09652595" lon="-120.48907828">
      </trkpt>
      <trkpt lat="49.09653973" lon="-120.48909972">
      </trkpt>
      <trkpt lat="49.09655356" lon="-120.48911936">
      </trkpt>
      <trkpt lat="49.09656726" lon="-120.48913731">
      </trkpt>
      <trkpt lat="49.09658111" lon="-120.48915378">
      </trkpt>
      <trkpt lat="49.09659512" lon="-120.48916901">
      </trkpt>
      <trkpt lat="49.09660919" lon="-120.48918332">
      </trkpt>
      <trkpt lat="49.09662342" lon="-120.48919684">
      </trkpt>
      <trkpt lat="49.09663801" lon="-120.48920988">
      </trkpt>
      <trkpt lat="49.09665286" lon="-120.48922269">
      </trkpt>
      <trkpt lat="49.09666816" lon="-120.48923537">
      </trkpt>
      <trkpt lat="49.09668381" lon="-120.48924814">
      </trkpt>
      <trkpt lat="49.09670002" lon="-120.48926132">
      </trkpt>
      <trkpt lat="49.09671678" lon="-120.48927493">
      </trkpt>
      <trkpt lat="49.09673418" lon="-120.48928931">
      </trkpt>
      <trkpt lat="49.09675233" lon="-120.48930455">
      </trkpt>
      <trkpt lat="49.0967713" lon="-120.48932088">
      </trkpt>
      <trkpt lat="49.09679102" lon="-120.48933851">
      </trkpt>
      <trkpt lat="49.09681167" lon="-120.48935714">
      </trkpt>
      <trkpt lat="49.09683296" lon="-120.48937662">
      </trkpt>
      <trkpt lat="49.09685507" lon="-120.48939686">
      </trkpt>
      <trkpt lat="49.09687783" lon="-120.4894174">
      </trkpt>
      <trkpt lat="49.09690131" lon="-120.48943813">
      </trkpt>
      <trkpt lat="49.09692533" lon="-120.48945895">
      </trkpt>
      <trkpt lat="49.09694988" lon="-120.48947951">
      </trkpt>
      <trkpt lat="49.09697497" lon="-120.4894996">
      </trkpt>
      <trkpt lat="49.09700031" lon="-120.48951933">
      </trkpt>
      <trkpt lat="49.09702574" lon="-120.48953872">
      </trkpt>
      <trkpt lat="49.09705089" lon="-120.48955779">
      </trkpt>
      <trkpt lat="49.09707558" lon="-120.48957654">
      </trkpt>
      <trkpt lat="49.09709955" lon="-120.4895951">
      </trkpt>
      <trkpt lat="49.09712253" lon="-120.48961349">
      </trkpt>
      <trkpt lat="49.09714424" lon="-120.4896317">
      </trkpt>
      <trkpt lat="49.09716461" lon="-120.48964988">
      </trkpt>
      <trkpt lat="49.09718362" lon="-120.48966779">
      </trkpt>
      <trkpt lat="49.09720146" lon="-120.48968553">
      </trkpt>
      <trkpt lat="49.09721811" lon="-120.48970299">
      </trkpt>
      <trkpt lat="49.09723387" lon="-120.48972026">
      </trkpt>
      <trkpt lat="49.09724872" lon="-120.48973715">
      </trkpt>
      <trkpt lat="49.09726292" lon="-120.48975349">
      </trkpt>
      <trkpt lat="49.09727659" lon="-120.48976952">
      </trkpt>
      <trkpt lat="49.0972897" lon="-120.48978501">
      </trkpt>
      <trkpt lat="49.09730244" lon="-120.48979995">
      </trkpt>
      <trkpt lat="49.09731471" lon="-120.48981414">
      </trkpt>
      <trkpt lat="49.0973267" lon="-120.48982766">
      </trkpt>
      <trkpt lat="49.09733831" lon="-120.48984029">
      </trkpt>
      <trkpt lat="49.09734971" lon="-120.48985192">
      </trkpt>
      <trkpt lat="49.09736083" lon="-120.48986265">
      </trkpt>
      <trkpt lat="49.09737174" lon="-120.48987226">
      </trkpt>
      <trkpt lat="49.09738245" lon="-120.48988065">
      </trkpt>
      <trkpt lat="49.09739305" lon="-120.48988825">
      </trkpt>
      <trkpt lat="49.09740372" lon="-120.48989517">
      </trkpt>
      <trkpt lat="49.09741466" lon="-120.48990162">
      </trkpt>
      <trkpt lat="49.09742576" lon="-120.48990795">
      </trkpt>
      <trkpt lat="49.09743733" lon="-120.48991437">
      </trkpt>
      <trkpt lat="49.09744935" lon="-120.48992134">
      </trkpt>
      <trkpt lat="49.09746211" lon="-120.48992883">
      </trkpt>
      <trkpt lat="49.09747551" lon="-120.48993708">
      </trkpt>
      <trkpt lat="49.09748965" lon="-120.48994618">
      </trkpt>
      <trkpt lat="49.09750434" lon="-120.48995572">
      </trkpt>
      <trkpt lat="49.09751967" lon="-120.48996558">
      </trkpt>
      <trkpt lat="49.09753545" lon="-120.48997551">
      </trkpt>
      <trkpt lat="49.09755158" lon="-120.48998542">
      </trkpt>
      <trkpt lat="49.09756807" lon="-120.48999499">
      </trkpt>
      <trkpt lat="49.09758482" lon="-120.49000409">
      </trkpt>
      <trkpt lat="49.09760173" lon="-120.49001261">
      </trkpt>
      <trkpt lat="49.09761873" lon="-120.49002079">
      </trkpt>
      <trkpt lat="49.09763574" lon="-120.4900292">
      </trkpt>
      <trkpt lat="49.09765266" lon="-120.49003794">
      </trkpt>
      <trkpt lat="49.09766933" lon="-120.49004761">
      </trkpt>
      <trkpt lat="49.09768576" lon="-120.49005864">
      </trkpt>
      <trkpt lat="49.09770177" lon="-120.49007127">
      </trkpt>
      <trkpt lat="49.09771738" lon="-120.49008597">
      </trkpt>
      <trkpt lat="49.09773233" lon="-120.49010306">
      </trkpt>
      <trkpt lat="49.09774668" lon="-120.49012199">
      </trkpt>
      <trkpt lat="49.09776061" lon="-120.49014242">
      </trkpt>
      <trkpt lat="49.09777394" lon="-120.49016343">
      </trkpt>
      <trkpt lat="49.09778682" lon="-120.49018482">
      </trkpt>
      <trkpt lat="49.09779915" lon="-120.49020588">
      </trkpt>
      <trkpt lat="49.0978111" lon="-120.49022607">
      </trkpt>
      <trkpt lat="49.09782257" lon="-120.4902447">
      </trkpt>
      <trkpt lat="49.09783364" lon="-120.49026165">
      </trkpt>
      <trkpt lat="49.09784468" lon="-120.49027679">
      </trkpt>
      <trkpt lat="49.09785577" lon="-120.49029082">
      </trkpt>
      <trkpt lat="49.09786722" lon="-120.49030391">
      </trkpt>
      <trkpt lat="49.09787945" lon="-120.49031651">
      </trkpt>
      <trkpt lat="49.09789258" lon="-120.49032894">
      </trkpt>
      <trkpt lat="49.09790689" lon="-120.49034156">
      </trkpt>
      <trkpt lat="49.09792274" lon="-120.49035488">
      </trkpt>
      <trkpt lat="49.09794023" lon="-120.49036902">
      </trkpt>
      <trkpt lat="49.09795926" lon="-120.49038388">
      </trkpt>
      <trkpt lat="49.09797948" lon="-120.49039936">
      </trkpt>
      <trkpt lat="49.09800059" lon="-120.49041512">
      </trkpt>
      <trkpt lat="49.09802244" lon="-120.49043107">
      </trkpt>
      <trkpt lat="49.09804464" lon="-120.49044702">
      </trkpt>
      <trkpt lat="49.09806702" lon="-120.4904626">
      </trkpt>
      <trkpt lat="49.09808921" lon="-120.49047775">
      </trkpt>
      <trkpt lat="49.09811093" lon="-120.49049225">
      </trkpt>
      <trkpt lat="49.09813228" lon="-120.49050597">
      </trkpt>
      <trkpt lat="49.09815316" lon="-120.49051881">
      </trkpt>
      <trkpt lat="49.09817347" lon="-120.49053056">
      </trkpt>
      <trkpt lat="49.09819322" lon="-120.4905412">
      </trkpt>
      <trkpt lat="49.0982124" lon="-120.49055063">
      </trkpt>
      <trkpt lat="49.09823093" lon="-120.49055861">
      </trkpt>
      <trkpt lat="49.09824879" lon="-120.49056517">
      </trkpt>
      <trkpt lat="49.09826608" lon="-120.49057006">
      </trkpt>
      <trkpt lat="49.09828262" lon="-120.49057374">
      </trkpt>
      <trkpt lat="49.09829851" lon="-120.49057644">
      </trkpt>
      <trkpt lat="49.09831384" lon="-120.49057838">
      </trkpt>
      <trkpt lat="49.09832845" lon="-120.49058001">
      </trkpt>
      <trkpt lat="49.09834243" lon="-120.49058157">
      </trkpt>
      <trkpt lat="49.09835569" lon="-120.49058338">
      </trkpt>
      <trkpt lat="49.09836842" lon="-120.4905858">
      </trkpt>
      <trkpt lat="49.09838054" lon="-120.49058903">
      </trkpt>
      <trkpt lat="49.09839223" lon="-120.49059284">
      </trkpt>
      <trkpt lat="49.09840357" lon="-120.49059712">
      </trkpt>
      <trkpt lat="49.09841473" lon="-120.49060165">
      </trkpt>
      <trkpt lat="49.09842589" lon="-120.49060606">
      </trkpt>
      <trkpt lat="49.09843714" lon="-120.49061023">
      </trkpt>
      <trkpt lat="49.09844864" lon="-120.49061383">
      </trkpt>
      <trkpt lat="49.09846057" lon="-120.49061674">
      </trkpt>
      <trkpt lat="49.09847303" lon="-120.49061871">
      </trkpt>
      <trkpt lat="49.09848592" lon="-120.49061998">
      </trkpt>
      <trkpt lat="49.09849916" lon="-120.49062077">
      </trkpt>
      <trkpt lat="49.09851266" lon="-120.49062134">
      </trkpt>
      <trkpt lat="49.09852626" lon="-120.49062213">
      </trkpt>
      <trkpt lat="49.09853987" lon="-120.49062313">
      </trkpt>
      <trkpt lat="49.09855339" lon="-120.49062482">
      </trkpt>
      <trkpt lat="49.09856668" lon="-120.49062731">
      </trkpt>
      <trkpt lat="49.09857971" lon="-120.49063083">
      </trkpt>
      <trkpt lat="49.09859239" lon="-120.49063539">
      </trkpt>
      <trkpt lat="49.09860492" lon="-120.49064052">
      </trkpt>
      <trkpt lat="49.0986171" lon="-120.49064611">
      </trkpt>
      <trkpt lat="49.09862901" lon="-120.49065196">
      </trkpt>
      <trkpt lat="49.09864082" lon="-120.4906578">
      </trkpt>
      <trkpt lat="49.09865237" lon="-120.49066343">
      </trkpt>
      <trkpt lat="49.09866382" lon="-120.49066851">
      </trkpt>
      <trkpt lat="49.09867506" lon="-120.49067302">
      </trkpt>
      <trkpt lat="49.09868622" lon="-120.49067709">
      </trkpt>
      <trkpt lat="49.09869727" lon="-120.49068083">
      </trkpt>
      <trkpt lat="49.09870824" lon="-120.49068446">
      </trkpt>
      <trkpt lat="49.09871911" lon="-120.49068819">
      </trkpt>
      <trkpt lat="49.0987299" lon="-120.49069217">
      </trkpt>
      <trkpt lat="49.0987407" lon="-120.49069659">
      </trkpt>
      <trkpt lat="49.09875143" lon="-120.4907017">
      </trkpt>
      <trkpt lat="49.09876217" lon="-120.49070761">
      </trkpt>
      <trkpt lat="49.09877285" lon="-120.49071486">
      </trkpt>
      <trkpt lat="49.09878338" lon="-120.49072371">
      </trkpt>
      <trkpt lat="49.0987937" lon="-120.49073471">
      </trkpt>
      <trkpt lat="49.09880362" lon="-120.49074833">
      </trkpt>
      <trkpt lat="49.09881324" lon="-120.49076479">
      </trkpt>
      <trkpt lat="49.0988224" lon="-120.49078456">
      </trkpt>
      <trkpt lat="49.09883101" lon="-120.49080818">
      </trkpt>
      <trkpt lat="49.09883898" lon="-120.49083568">
      </trkpt>
      <trkpt lat="49.0988464" lon="-120.49086661">
      </trkpt>
      <trkpt lat="49.09885324" lon="-120.49089993">
      </trkpt>
      <trkpt lat="49.09885949" lon="-120.49093486">
      </trkpt>
      <trkpt lat="49.09886512" lon="-120.49097039">
      </trkpt>
      <trkpt lat="49.0988702" lon="-120.49100571">
      </trkpt>
      <trkpt lat="49.09887472" lon="-120.49103994">
      </trkpt>
      <trkpt lat="49.09887876" lon="-120.49107217">
      </trkpt>
      <trkpt lat="49.09888219" lon="-120.49110172">
      </trkpt>
      <trkpt lat="49.09888529" lon="-120.49112879">
      </trkpt>
      <trkpt lat="49.09888808" lon="-120.49115349">
      </trkpt>
      <trkpt lat="49.09889082" lon="-120.49117618">
      </trkpt>
      <trkpt lat="49.09889353" lon="-120.49119716">
      </trkpt>
      <trkpt lat="49.09889647" lon="-120.49121668">
      </trkpt>
      <trkpt lat="49.09889975" lon="-120.49123516">
      </trkpt>
      <trkpt lat="49.09890345" lon="-120.4912527">
      </trkpt>
      <trkpt lat="49.0989077" lon="-120.49126954">
      </trkpt>
      <trkpt lat="49.09891254" lon="-120.49128569">
      </trkpt>
      <trkpt lat="49.09891791" lon="-120.49130089">
      </trkpt>
      <trkpt lat="49.09892379" lon="-120.49131483">
      </trkpt>
      <trkpt lat="49.09893009" lon="-120.4913275">
      </trkpt>
      <trkpt lat="49.09893681" lon="-120.49133857">
      </trkpt>
      <trkpt lat="49.09894394" lon="-120.49134794">
      </trkpt>
      <trkpt lat="49.09895905" lon="-120.49136062">
      </trkpt>
      <trkpt lat="49.09897562" lon="-120.49136509">
      </trkpt>
      <trkpt lat="49.09898468" lon="-120.4913644">
      </trkpt>
      <trkpt lat="49.09899435" lon="-120.49136199">
      </trkpt>
      <trkpt lat="49.09900469" lon="-120.49135775">
      </trkpt>
      <trkpt lat="49.0990158" lon="-120.49135199">
      </trkpt>
      <trkpt lat="49.09902779" lon="-120.49134461">
      </trkpt>
      <trkpt lat="49.09904064" lon="-120.49133571">
      </trkpt>
      <trkpt lat="49.09905436" lon="-120.49132565">
      </trkpt>
      <trkpt lat="49.0990686" lon="-120.49131454">
      </trkpt>
      <trkpt lat="49.09908327" lon="-120.4913026">
      </trkpt>
      <trkpt lat="49.09909812" lon="-120.49129023">
      </trkpt>
      <trkpt lat="49.09911313" lon="-120.49127761">
      </trkpt>
      <trkpt lat="49.09912805" lon="-120.49126476">
      </trkpt>
      <trkpt lat="49.09914262" lon="-120.49125227">
      </trkpt>
      <trkpt lat="49.09915684" lon="-120.49124004">
      </trkpt>
      <trkpt lat="49.09917062" lon="-120.49122816">
      </trkpt>
      <trkpt lat="49.09918421" lon="-120.49121663">
      </trkpt>
      <trkpt lat="49.09919755" lon="-120.49120544">
      </trkpt>
      <trkpt lat="49.09921072" lon="-120.49119439">
      </trkpt>
      <trkpt lat="49.09922388" lon="-120.49118367">
      </trkpt>
      <trkpt lat="49.09923714" lon="-120.49117294">
      </trkpt>
      <trkpt lat="49.0992504" lon="-120.49116244">
      </trkpt>
      <trkpt lat="49.09926394" lon="-120.49115204">
      </trkpt>
      <trkpt lat="49.09927758" lon="-120.49114187">
      </trkpt>
      <trkpt lat="49.0992913" lon="-120.49113202">
      </trkpt>
      <trkpt lat="49.09930495" lon="-120.49112275">
      </trkpt>
      <trkpt lat="49.09931843" lon="-120.49111405">
      </trkpt>
      <trkpt lat="49.09933166" lon="-120.49110615">
      </trkpt>
      <trkpt lat="49.09934465" lon="-120.49109917">
      </trkpt>
      <trkpt lat="49.0993572" lon="-120.49109322">
      </trkpt>
      <trkpt lat="49.09936924" lon="-120.49108856">
      </trkpt>
      <trkpt lat="49.09938096" lon="-120.49108548">
      </trkpt>
      <trkpt lat="49.09939244" lon="-120.49108411">
      </trkpt>
      <trkpt lat="49.09940362" lon="-120.49108501">
      </trkpt>
      <trkpt lat="49.09941475" lon="-120.49108841">
      </trkpt>
      <trkpt lat="49.09942586" lon="-120.49109462">
      </trkpt>
      <trkpt lat="49.09943704" lon="-120.49110411">
      </trkpt>
      <trkpt lat="49.09944838" lon="-120.49111699">
      </trkpt>
      <trkpt lat="49.09946007" lon="-120.49113346">
      </trkpt>
      <trkpt lat="49.09947201" lon="-120.49115286">
      </trkpt>
      <trkpt lat="49.09948435" lon="-120.49117416">
      </trkpt>
      <trkpt lat="49.09949715" lon="-120.49119632">
      </trkpt>
      <trkpt lat="49.09951022" lon="-120.49121849">
      </trkpt>
      <trkpt lat="49.09952391" lon="-120.49123971">
      </trkpt>
      <trkpt lat="49.099538" lon="-120.49125888">
      </trkpt>
      <trkpt lat="49.09955275" lon="-120.49127531">
      </trkpt>
      <trkpt lat="49.09956796" lon="-120.49128811">
      </trkpt>
      <trkpt lat="49.09958364" lon="-120.49129771">
      </trkpt>
      <trkpt lat="49.09959981" lon="-120.49130492">
      </trkpt>
      <trkpt lat="49.09961611" lon="-120.49131053">
      </trkpt>
      <trkpt lat="49.09963268" lon="-120.49131523">
      </trkpt>
      <trkpt lat="49.09964924" lon="-120.49131971">
      </trkpt>
      <trkpt lat="49.09966581" lon="-120.49132474">
      </trkpt>
      <trkpt lat="49.09968223" lon="-120.49133115">
      </trkpt>
      <trkpt lat="49.09969842" lon="-120.49133926">
      </trkpt>
      <trkpt lat="49.09971427" lon="-120.49134885">
      </trkpt>
      <trkpt lat="49.09972997" lon="-120.49135936">
      </trkpt>
      <trkpt lat="49.09974541" lon="-120.49137022">
      </trkpt>
      <trkpt lat="49.09976058" lon="-120.49138086">
      </trkpt>
      <trkpt lat="49.09977555" lon="-120.49139072">
      </trkpt>
      <trkpt lat="49.09979021" lon="-120.49139925">
      </trkpt>
      <trkpt lat="49.09980465" lon="-120.49140576">
      </trkpt>
      <trkpt lat="49.09981887" lon="-120.49141001">
      </trkpt>
      <trkpt lat="49.09983285" lon="-120.49141179">
      </trkpt>
      <trkpt lat="49.09984686" lon="-120.4914112">
      </trkpt>
      <trkpt lat="49.09986075" lon="-120.49140834">
      </trkpt>
      <trkpt lat="49.09987475" lon="-120.49140324">
      </trkpt>
      <trkpt lat="49.09988899" lon="-120.49139597">
      </trkpt>
      <trkpt lat="49.09990336" lon="-120.49138643">
      </trkpt>
      <trkpt lat="49.09991804" lon="-120.49137495">
      </trkpt>
      <trkpt lat="49.09993312" lon="-120.49136142">
      </trkpt>
      <trkpt lat="49.09994844" lon="-120.49134619">
      </trkpt>
      <trkpt lat="49.09996409" lon="-120.4913297">
      </trkpt>
      <trkpt lat="49.09998" lon="-120.49131241">
      </trkpt>
      <trkpt lat="49.09999598" lon="-120.49129442">
      </trkpt>
      <trkpt lat="49.10001205" lon="-120.49127633">
      </trkpt>
      <trkpt lat="49.10002812" lon="-120.49125834">
      </trkpt>
      <trkpt lat="49.1000442" lon="-120.49124104">
      </trkpt>
      <trkpt lat="49.10006012" lon="-120.49122453">
      </trkpt>
      <trkpt lat="49.10007598" lon="-120.49120904">
      </trkpt>
      <trkpt lat="49.10009185" lon="-120.49119457">
      </trkpt>
      <trkpt lat="49.10010758" lon="-120.49118136">
      </trkpt>
      <trkpt lat="49.10012333" lon="-120.49116938">
      </trkpt>
      <trkpt lat="49.1001391" lon="-120.49115864">
      </trkpt>
      <trkpt lat="49.10015482" lon="-120.49114936">
      </trkpt>
      <trkpt lat="49.10017067" lon="-120.49114156">
      </trkpt>
      <trkpt lat="49.10018645" lon="-120.49113534">
      </trkpt>
      <trkpt lat="49.10020245" lon="-120.49113059">
      </trkpt>
      <trkpt lat="49.10021848" lon="-120.49112751">
      </trkpt>
      <trkpt lat="49.10023455" lon="-120.49112591">
      </trkpt>
      <trkpt lat="49.10025074" lon="-120.49112589">
      </trkpt>
      <trkpt lat="49.10026705" lon="-120.49112755">
      </trkpt>
      <trkpt lat="49.10028349" lon="-120.49113068">
      </trkpt>
      <trkpt lat="49.10030006" lon="-120.49113549">
      </trkpt>
      <trkpt lat="49.10031675" lon="-120.49114177">
      </trkpt>
      <trkpt lat="49.10033336" lon="-120.49114917">
      </trkpt>
      <trkpt lat="49.10034983" lon="-120.4911575">
      </trkpt>
      <trkpt lat="49.10036594" lon="-120.49116617">
      </trkpt>
      <trkpt lat="49.10038151" lon="-120.49117488">
      </trkpt>
      <trkpt lat="49.10039635" lon="-120.49118328">
      </trkpt>
      <trkpt lat="49.10041046" lon="-120.49119093">
      </trkpt>
      <trkpt lat="49.10042347" lon="-120.4911974">
      </trkpt>
      <trkpt lat="49.10043536" lon="-120.49120244">
      </trkpt>
      <trkpt lat="49.10044633" lon="-120.4912063">
      </trkpt>
      <trkpt lat="49.10045647" lon="-120.49120951">
      </trkpt>
      <trkpt lat="49.10046607" lon="-120.49121242">
      </trkpt>
      <trkpt lat="49.1004753" lon="-120.49121523">
      </trkpt>
      <trkpt lat="49.10048437" lon="-120.49121861">
      </trkpt>
      <trkpt lat="49.10049355" lon="-120.4912229">
      </trkpt>
      <trkpt lat="49.10050293" lon="-120.49122842">
      </trkpt>
      <trkpt lat="49.10051281" lon="-120.49123559">
      </trkpt>
      <trkpt lat="49.10052289" lon="-120.49124423">
      </trkpt>
      <trkpt lat="49.10053327" lon="-120.49125422">
      </trkpt>
      <trkpt lat="49.10054359" lon="-120.49126557">
      </trkpt>
      <trkpt lat="49.10055394" lon="-120.49127803">
      </trkpt>
      <trkpt lat="49.10056394" lon="-120.49129154">
      </trkpt>
      <trkpt lat="49.10057361" lon="-120.49130597">
      </trkpt>
      <trkpt lat="49.10058276" lon="-120.49132109">
      </trkpt>
      <trkpt lat="49.10059128" lon="-120.49133671">
      </trkpt>
      <trkpt lat="49.10059927" lon="-120.49135269">
      </trkpt>
      <trkpt lat="49.10060682" lon="-120.49136847">
      </trkpt>
      <trkpt lat="49.10061397" lon="-120.49138358">
      </trkpt>
      <trkpt lat="49.10062085" lon="-120.49139769">
      </trkpt>
      <trkpt lat="49.10062761" lon="-120.49141046">
      </trkpt>
      <trkpt lat="49.10063432" lon="-120.49142142">
      </trkpt>
      <trkpt lat="49.10064814" lon="-120.49143643">
      </trkpt>
      <trkpt lat="49.10066268" lon="-120.49144361">
      </trkpt>
      <trkpt lat="49.10067852" lon="-120.49144811">
      </trkpt>
      <trkpt lat="49.10069585" lon="-120.49145503">
      </trkpt>
      <trkpt lat="49.10070525" lon="-120.49146099">
      </trkpt>
      <trkpt lat="49.10071515" lon="-120.49146943">
      </trkpt>
      <trkpt lat="49.10072554" lon="-120.49147986">
      </trkpt>
      <trkpt lat="49.10073624" lon="-120.4914922">
      </trkpt>
      <trkpt lat="49.10074742" lon="-120.49150576">
      </trkpt>
      <trkpt lat="49.10075898" lon="-120.49152032">
      </trkpt>
      <trkpt lat="49.10077074" lon="-120.49153543">
      </trkpt>
      <trkpt lat="49.10078276" lon="-120.49155064">
      </trkpt>
      <trkpt lat="49.10079495" lon="-120.49156573">
      </trkpt>
      <trkpt lat="49.10080732" lon="-120.49158013">
      </trkpt>
      <trkpt lat="49.10081968" lon="-120.49159386">
      </trkpt>
      <trkpt lat="49.10083201" lon="-120.4916069">
      </trkpt>
      <trkpt lat="49.10084415" lon="-120.49161917">
      </trkpt>
      <trkpt lat="49.1008561" lon="-120.49163077">
      </trkpt>
      <trkpt lat="49.10086766" lon="-120.49164149">
      </trkpt>
      <trkpt lat="49.10087877" lon="-120.49165144">
      </trkpt>
      <trkpt lat="49.10088931" lon="-120.49166051">
      </trkpt>
      <trkpt lat="49.10089928" lon="-120.4916687">
      </trkpt>
      <trkpt lat="49.10090889" lon="-120.49167601">
      </trkpt>
      <trkpt lat="49.10091839" lon="-120.49168243">
      </trkpt>
      <trkpt lat="49.10092796" lon="-120.49168816">
      </trkpt>
      <trkpt lat="49.10093795" lon="-120.49169297">
      </trkpt>
      <trkpt lat="49.10094856" lon="-120.49169695">
      </trkpt>
      <trkpt lat="49.10096006" lon="-120.49170021">
      </trkpt>
      <trkpt lat="49.10097279" lon="-120.49170272">
      </trkpt>
      <trkpt lat="49.10098686" lon="-120.4917045">
      </trkpt>
      <trkpt lat="49.101002" lon="-120.49170566">
      </trkpt>
      <trkpt lat="49.10101784" lon="-120.49170622">
      </trkpt>
      <trkpt lat="49.10103395" lon="-120.49170643">
      </trkpt>
      <trkpt lat="49.10105014" lon="-120.49170617">
      </trkpt>
      <trkpt lat="49.10106596" lon="-120.49170571">
      </trkpt>
      <trkpt lat="49.10108097" lon="-120.49170518">
      </trkpt>
      <trkpt lat="49.10109489" lon="-120.49170448">
      </trkpt>
      <trkpt lat="49.10110748" lon="-120.49170396">
      </trkpt>
      <trkpt lat="49.10111879" lon="-120.49170328">
      </trkpt>
      <trkpt lat="49.10112903" lon="-120.49170253">
      </trkpt>
      <trkpt lat="49.10113845" lon="-120.49170139">
      </trkpt>
      <trkpt lat="49.10115574" lon="-120.49169813">
      </trkpt>
      <trkpt lat="49.10117226" lon="-120.49169244">
      </trkpt>
      <trkpt lat="49.1011898" lon="-120.49168399">
      </trkpt>
      <trkpt lat="49.10119949" lon="-120.49167898">
      </trkpt>
      <trkpt lat="49.10120999" lon="-120.49167383">
      </trkpt>
      <trkpt lat="49.10122166" lon="-120.49166849">
      </trkpt>
      <trkpt lat="49.1012345" lon="-120.49166332">
      </trkpt>
      <trkpt lat="49.10124897" lon="-120.49165852">
      </trkpt>
      <trkpt lat="49.10126506" lon="-120.49165421">
      </trkpt>
      <trkpt lat="49.10128297" lon="-120.49165049">
      </trkpt>
      <trkpt lat="49.10130233" lon="-120.49164725">
      </trkpt>
      <trkpt lat="49.1013226" lon="-120.49164453">
      </trkpt>
      <trkpt lat="49.10134341" lon="-120.49164201">
      </trkpt>
      <trkpt lat="49.10136415" lon="-120.49163984">
      </trkpt>
      <trkpt lat="49.10138451" lon="-120.49163757">
      </trkpt>
      <trkpt lat="49.1014038" lon="-120.49163535">
      </trkpt>
      <trkpt lat="49.10142174" lon="-120.49163298">
      </trkpt>
      <trkpt lat="49.10143787" lon="-120.49163024">
      </trkpt>
      <trkpt lat="49.10145238" lon="-120.49162725">
      </trkpt>
      <trkpt lat="49.10146527" lon="-120.49162412">
      </trkpt>
      <trkpt lat="49.10147688" lon="-120.49162059">
      </trkpt>
      <trkpt lat="49.10148741" lon="-120.49161679">
      </trkpt>
      <trkpt lat="49.10149704" lon="-120.49161279">
      </trkpt>
      <trkpt lat="49.10150594" lon="-120.49160862">
      </trkpt>
      <trkpt lat="49.10152257" lon="-120.49159953">
      </trkpt>
      <trkpt lat="49.10153883" lon="-120.49159035">
      </trkpt>
      <trkpt lat="49.10154755" lon="-120.49158619">
      </trkpt>
      <trkpt lat="49.10155691" lon="-120.49158255">
      </trkpt>
      <trkpt lat="49.1015672" lon="-120.49157966">
      </trkpt>
      <trkpt lat="49.10157867" lon="-120.49157773">
      </trkpt>
      <trkpt lat="49.10159142" lon="-120.49157674">
      </trkpt>
      <trkpt lat="49.10160582" lon="-120.49157703">
      </trkpt>
      <trkpt lat="49.1016215" lon="-120.49157828">
      </trkpt>
      <trkpt lat="49.10163809" lon="-120.49158026">
      </trkpt>
      <trkpt lat="49.10165524" lon="-120.49158257">
      </trkpt>
      <trkpt lat="49.10167246" lon="-120.49158486">
      </trkpt>
      <trkpt lat="49.1016896" lon="-120.49158704">
      </trkpt>
      <trkpt lat="49.10170627" lon="-120.49158858">
      </trkpt>
      <trkpt lat="49.10172194" lon="-120.49158925">
      </trkpt>
      <trkpt lat="49.1017365" lon="-120.49158898">
      </trkpt>
      <trkpt lat="49.10175006" lon="-120.49158761">
      </trkpt>
      <trkpt lat="49.10176297" lon="-120.49158561">
      </trkpt>
      <trkpt lat="49.1017756" lon="-120.49158304">
      </trkpt>
      <trkpt lat="49.10178821" lon="-120.49158004">
      </trkpt>
      <trkpt lat="49.10180101" lon="-120.4915769">
      </trkpt>
      <trkpt lat="49.10181452" lon="-120.49157385">
      </trkpt>
      <trkpt lat="49.10182885" lon="-120.49157099">
      </trkpt>
      <trkpt lat="49.10184427" lon="-120.49156851">
      </trkpt>
      <trkpt lat="49.10186068" lon="-120.49156632">
      </trkpt>
      <trkpt lat="49.10187763" lon="-120.49156434">
      </trkpt>
      <trkpt lat="49.10189505" lon="-120.49156244">
      </trkpt>
      <trkpt lat="49.10191236" lon="-120.49156045">
      </trkpt>
      <trkpt lat="49.1019295" lon="-120.49155844">
      </trkpt>
      <trkpt lat="49.10194618" lon="-120.49155614">
      </trkpt>
      <trkpt lat="49.10196195" lon="-120.49155342">
      </trkpt>
      <trkpt lat="49.10197664" lon="-120.49155031">
      </trkpt>
      <trkpt lat="49.10199032" lon="-120.49154679">
      </trkpt>
      <trkpt lat="49.1020031" lon="-120.4915431">
      </trkpt>
      <trkpt lat="49.10201507" lon="-120.49153933">
      </trkpt>
      <trkpt lat="49.10202633" lon="-120.4915356">
      </trkpt>
      <trkpt lat="49.10203695" lon="-120.49153202">
      </trkpt>
      <trkpt lat="49.10204704" lon="-120.49152868">
      </trkpt>
      <trkpt lat="49.1020567" lon="-120.49152582">
      </trkpt>
      <trkpt lat="49.102066" lon="-120.49152354">
      </trkpt>
      <trkpt lat="49.10207505" lon="-120.49152162">
      </trkpt>
      <trkpt lat="49.10208401" lon="-120.49152027">
      </trkpt>
      <trkpt lat="49.1021016" lon="-120.49151882">
      </trkpt>
      <trkpt lat="49.10211932" lon="-120.49151871">
      </trkpt>
      <trkpt lat="49.10212851" lon="-120.49151903">
      </trkpt>
      <trkpt lat="49.10213787" lon="-120.49151958">
      </trkpt>
      <trkpt lat="49.10214761" lon="-120.49152034">
      </trkpt>
      <trkpt lat="49.10215769" lon="-120.49152106">
      </trkpt>
      <trkpt lat="49.10216824" lon="-120.49152201">
      </trkpt>
      <trkpt lat="49.10217923" lon="-120.49152281">
      </trkpt>
      <trkpt lat="49.10219085" lon="-120.49152358">
      </trkpt>
      <trkpt lat="49.10220301" lon="-120.4915242">
      </trkpt>
      <trkpt lat="49.10221579" lon="-120.49152458">
      </trkpt>
      <trkpt lat="49.10222928" lon="-120.49152468">
      </trkpt>
      <trkpt lat="49.1022434" lon="-120.49152455">
      </trkpt>
      <trkpt lat="49.10225796" lon="-120.49152415">
      </trkpt>
      <trkpt lat="49.10227288" lon="-120.4915234">
      </trkpt>
      <trkpt lat="49.10228806" lon="-120.49152229">
      </trkpt>
      <trkpt lat="49.10230332" lon="-120.49152096">
      </trkpt>
      <trkpt lat="49.10231857" lon="-120.49151928">
      </trkpt>
      <trkpt lat="49.10233374" lon="-120.49151727">
      </trkpt>
      <trkpt lat="49.10234861" lon="-120.49151494">
      </trkpt>
      <trkpt lat="49.1023633" lon="-120.49151206">
      </trkpt>
      <trkpt lat="49.10237761" lon="-120.49150851">
      </trkpt>
      <trkpt lat="49.10239155" lon="-120.49150407">
      </trkpt>
      <trkpt lat="49.10240511" lon="-120.49149865">
      </trkpt>
      <trkpt lat="49.10241809" lon="-120.49149201">
      </trkpt>
      <trkpt lat="49.10243069" lon="-120.49148403">
      </trkpt>
      <trkpt lat="49.10244272" lon="-120.49147449">
      </trkpt>
      <trkpt lat="49.10245407" lon="-120.4914633">
      </trkpt>
      <trkpt lat="49.10246504" lon="-120.49145054">
      </trkpt>
      <trkpt lat="49.10247536" lon="-120.49143659">
      </trkpt>
      <trkpt lat="49.10248528" lon="-120.49142162">
      </trkpt>
      <trkpt lat="49.10249483" lon="-120.49140566">
      </trkpt>
      <trkpt lat="49.102504" lon="-120.49138915">
      </trkpt>
      <trkpt lat="49.1025129" lon="-120.49137221">
      </trkpt>
      <trkpt lat="49.10252153" lon="-120.49135516">
      </trkpt>
      <trkpt lat="49.10252988" lon="-120.49133791">
      </trkpt>
      <trkpt lat="49.10253796" lon="-120.49132089">
      </trkpt>
      <trkpt lat="49.10254578" lon="-120.49130411">
      </trkpt>
      <trkpt lat="49.10255333" lon="-120.49128747">
      </trkpt>
      <trkpt lat="49.10256054" lon="-120.49127129">
      </trkpt>
      <trkpt lat="49.1025673" lon="-120.49125546">
      </trkpt>
      <trkpt lat="49.10257363" lon="-120.49124022">
      </trkpt>
      <trkpt lat="49.10257951" lon="-120.49122559">
      </trkpt>
      <trkpt lat="49.10258497" lon="-120.49121175">
      </trkpt>
      <trkpt lat="49.10259017" lon="-120.49119861">
      </trkpt>
      <trkpt lat="49.10259548" lon="-120.49118647">
      </trkpt>
      <trkpt lat="49.102601" lon="-120.49117535">
      </trkpt>
      <trkpt lat="49.1026139" lon="-120.49115639">
      </trkpt>
      <trkpt lat="49.10262174" lon="-120.49114888">
      </trkpt>
      <trkpt lat="49.10263097" lon="-120.49114276">
      </trkpt>
      <trkpt lat="49.10264165" lon="-120.49113816">
      </trkpt>
      <trkpt lat="49.10265365" lon="-120.49113518">
      </trkpt>
      <trkpt lat="49.10266656" lon="-120.49113362">
      </trkpt>
      <trkpt lat="49.10268024" lon="-120.49113362">
      </trkpt>
      <trkpt lat="49.10269422" lon="-120.49113517">
      </trkpt>
      <trkpt lat="49.1027084" lon="-120.49113841">
      </trkpt>
      <trkpt lat="49.10272236" lon="-120.49114313">
      </trkpt>
      <trkpt lat="49.1027359" lon="-120.49114944">
      </trkpt>
      <trkpt lat="49.10274867" lon="-120.4911574">
      </trkpt>
      <trkpt lat="49.10276074" lon="-120.49116651">
      </trkpt>
      <trkpt lat="49.10277193" lon="-120.49117644">
      </trkpt>
      <trkpt lat="49.10278231" lon="-120.49118666">
      </trkpt>
      <trkpt lat="49.1027918" lon="-120.49119691">
      </trkpt>
      <trkpt lat="49.10280047" lon="-120.49120664">
      </trkpt>
      <trkpt lat="49.10280822" lon="-120.49121552">
      </trkpt>
      <trkpt lat="49.10282092" lon="-120.49122899">
      </trkpt>
      <trkpt lat="49.1028306" lon="-120.49123552">
      </trkpt>
      <trkpt lat="49.10284203" lon="-120.49123188">
      </trkpt>
      <trkpt lat="49.10284961" lon="-120.4912202">
      </trkpt>
      <trkpt lat="49.10285855" lon="-120.49120157">
      </trkpt>
      <trkpt lat="49.10286903" lon="-120.49117878">
      </trkpt>
      <trkpt lat="49.10287498" lon="-120.49116695">
      </trkpt>
      <trkpt lat="49.1028813" lon="-120.49115545">
      </trkpt>
      <trkpt lat="49.10288816" lon="-120.49114459">
      </trkpt>
      <trkpt lat="49.10289552" lon="-120.49113496">
      </trkpt>
      <trkpt lat="49.10290335" lon="-120.49112689">
      </trkpt>
      <trkpt lat="49.10291166" lon="-120.49112025">
      </trkpt>
      <trkpt lat="49.10292053" lon="-120.49111495">
      </trkpt>
      <trkpt lat="49.10292998" lon="-120.49111074">
      </trkpt>
      <trkpt lat="49.10293998" lon="-120.49110774">
      </trkpt>
      <trkpt lat="49.10295055" lon="-120.49110575">
      </trkpt>
      <trkpt lat="49.10296177" lon="-120.4911045">
      </trkpt>
      <trkpt lat="49.10297354" lon="-120.49110403">
      </trkpt>
      <trkpt lat="49.10298605" lon="-120.49110407">
      </trkpt>
      <trkpt lat="49.10299892" lon="-120.49110444">
      </trkpt>
      <trkpt lat="49.10301197" lon="-120.49110513">
      </trkpt>
      <trkpt lat="49.10302494" lon="-120.49110584">
      </trkpt>
      <trkpt lat="49.10303773" lon="-120.49110644">
      </trkpt>
      <trkpt lat="49.10304996" lon="-120.49110661">
      </trkpt>
      <trkpt lat="49.10306147" lon="-120.49110637">
      </trkpt>
      <trkpt lat="49.10307207" lon="-120.49110537">
      </trkpt>
      <trkpt lat="49.10308147" lon="-120.49110355">
      </trkpt>
      <trkpt lat="49.1030977" lon="-120.49109663">
      </trkpt>
      <trkpt lat="49.10311199" lon="-120.49108393">
      </trkpt>
      <trkpt lat="49.10311908" lon="-120.49107498">
      </trkpt>
      <trkpt lat="49.1031264" lon="-120.49106399">
      </trkpt>
      <trkpt lat="49.10313412" lon="-120.49105084">
      </trkpt>
      <trkpt lat="49.1031426" lon="-120.49103549">
      </trkpt>
      <trkpt lat="49.10315157" lon="-120.4910181">
      </trkpt>
      <trkpt lat="49.10316096" lon="-120.4909991">
      </trkpt>
      <trkpt lat="49.1031706" lon="-120.49097883">
      </trkpt>
      <trkpt lat="49.10318031" lon="-120.49095778">
      </trkpt>
      <trkpt lat="49.10318991" lon="-120.49093628">
      </trkpt>
      <trkpt lat="49.10319924" lon="-120.49091457">
      </trkpt>
      <trkpt lat="49.10320822" lon="-120.49089332">
      </trkpt>
      <trkpt lat="49.10321659" lon="-120.49087257">
      </trkpt>
      <trkpt lat="49.10322443" lon="-120.49085263">
      </trkpt>
      <trkpt lat="49.10323193" lon="-120.4908336">
      </trkpt>
      <trkpt lat="49.10323901" lon="-120.49081573">
      </trkpt>
      <trkpt lat="49.10324584" lon="-120.4907989">
      </trkpt>
      <trkpt lat="49.10325242" lon="-120.49078342">
      </trkpt>
      <trkpt lat="49.10325896" lon="-120.49076942">
      </trkpt>
      <trkpt lat="49.10326543" lon="-120.4907569">
      </trkpt>
      <trkpt lat="49.10327185" lon="-120.49074594">
      </trkpt>
      <trkpt lat="49.10327838" lon="-120.49073624">
      </trkpt>
      <trkpt lat="49.10329141" lon="-120.49071886">
      </trkpt>
      <trkpt lat="49.10330444" lon="-120.49070148">
      </trkpt>
      <trkpt lat="49.10331097" lon="-120.49069177">
      </trkpt>
      <trkpt lat="49.10331738" lon="-120.4906806">
      </trkpt>
      <trkpt lat="49.10332376" lon="-120.49066796">
      </trkpt>
      <trkpt lat="49.1033302" lon="-120.49065374">
      </trkpt>
      <trkpt lat="49.10333661" lon="-120.49063829">
      </trkpt>
      <trkpt lat="49.10334309" lon="-120.49062168">
      </trkpt>
      <trkpt lat="49.10334973" lon="-120.4906043">
      </trkpt>
      <trkpt lat="49.10335643" lon="-120.4905861">
      </trkpt>
      <trkpt lat="49.1033634" lon="-120.49056744">
      </trkpt>
      <trkpt lat="49.10337055" lon="-120.49054855">
      </trkpt>
      <trkpt lat="49.10337805" lon="-120.49052954">
      </trkpt>
      <trkpt lat="49.10338573" lon="-120.49051061">
      </trkpt>
      <trkpt lat="49.10339378" lon="-120.4904919">
      </trkpt>
      <trkpt lat="49.10340211" lon="-120.49047363">
      </trkpt>
      <trkpt lat="49.1034109" lon="-120.4904559">
      </trkpt>
      <trkpt lat="49.10341997" lon="-120.49043884">
      </trkpt>
      <trkpt lat="49.10342951" lon="-120.49042264">
      </trkpt>
      <trkpt lat="49.10343953" lon="-120.49040757">
      </trkpt>
      <trkpt lat="49.10344993" lon="-120.49039359">
      </trkpt>
      <trkpt lat="49.10346063" lon="-120.49038075">
      </trkpt>
      <trkpt lat="49.10347162" lon="-120.49036911">
      </trkpt>
      <trkpt lat="49.10348263" lon="-120.49035861">
      </trkpt>
      <trkpt lat="49.10349376" lon="-120.49034935">
      </trkpt>
      <trkpt lat="49.10350465" lon="-120.49034124">
      </trkpt>
      <trkpt lat="49.10351538" lon="-120.49033426">
      </trkpt>
      <trkpt lat="49.10352569" lon="-120.49032854">
      </trkpt>
      <trkpt lat="49.10353558" lon="-120.49032396">
      </trkpt>
      <trkpt lat="49.10354512" lon="-120.49032032">
      </trkpt>
      <trkpt lat="49.1035545" lon="-120.49031737">
      </trkpt>
      <trkpt lat="49.10356371" lon="-120.49031487">
      </trkpt>
      <trkpt lat="49.10357293" lon="-120.4903126">
      </trkpt>
      <trkpt lat="49.10358233" lon="-120.49031032">
      </trkpt>
      <trkpt lat="49.10359198" lon="-120.49030791">
      </trkpt>
      <trkpt lat="49.10360208" lon="-120.49030491">
      </trkpt>
      <trkpt lat="49.10361262" lon="-120.49030133">
      </trkpt>
      <trkpt lat="49.10362377" lon="-120.49029738">
      </trkpt>
      <trkpt lat="49.10363548" lon="-120.49029362">
      </trkpt>
      <trkpt lat="49.10364791" lon="-120.49029051">
      </trkpt>
      <trkpt lat="49.10366109" lon="-120.49028837">
      </trkpt>
      <trkpt lat="49.10367493" lon="-120.49028756">
      </trkpt>
      <trkpt lat="49.10368961" lon="-120.49028874">
      </trkpt>
      <trkpt lat="49.10370516" lon="-120.49029214">
      </trkpt>
      <trkpt lat="49.10372157" lon="-120.49029797">
      </trkpt>
      <trkpt lat="49.10373865" lon="-120.49030605">
      </trkpt>
      <trkpt lat="49.1037563" lon="-120.49031555">
      </trkpt>
      <trkpt lat="49.10377425" lon="-120.49032583">
      </trkpt>
      <trkpt lat="49.10379238" lon="-120.4903362">
      </trkpt>
      <trkpt lat="49.10381058" lon="-120.49034614">
      </trkpt>
      <trkpt lat="49.1038285" lon="-120.49035506">
      </trkpt>
      <trkpt lat="49.10384601" lon="-120.4903622">
      </trkpt>
      <trkpt lat="49.10386312" lon="-120.4903671">
      </trkpt>
      <trkpt lat="49.10387954" lon="-120.49036955">
      </trkpt>
      <trkpt lat="49.10389538" lon="-120.49036965">
      </trkpt>
      <trkpt lat="49.10391071" lon="-120.49036753">
      </trkpt>
      <trkpt lat="49.10392536" lon="-120.49036294">
      </trkpt>
      <trkpt lat="49.10393933" lon="-120.49035603">
      </trkpt>
      <trkpt lat="49.10395271" lon="-120.49034687">
      </trkpt>
      <trkpt lat="49.10396551" lon="-120.49033538">
      </trkpt>
      <trkpt lat="49.10397763" lon="-120.49032177">
      </trkpt>
      <trkpt lat="49.10398934" lon="-120.49030639">
      </trkpt>
      <trkpt lat="49.10400068" lon="-120.49028999">
      </trkpt>
      <trkpt lat="49.1040121" lon="-120.49027315">
      </trkpt>
      <trkpt lat="49.10402352" lon="-120.49025641">
      </trkpt>
      <trkpt lat="49.1040354" lon="-120.49024045">
      </trkpt>
      <trkpt lat="49.10404777" lon="-120.4902257">
      </trkpt>
      <trkpt lat="49.10406089" lon="-120.49021306">
      </trkpt>
      <trkpt lat="49.10407497" lon="-120.49020274">
      </trkpt>
      <trkpt lat="49.10408982" lon="-120.49019477">
      </trkpt>
      <trkpt lat="49.10410542" lon="-120.49018867">
      </trkpt>
      <trkpt lat="49.1041217" lon="-120.49018423">
      </trkpt>
      <trkpt lat="49.10413854" lon="-120.49018123">
      </trkpt>
      <trkpt lat="49.10415586" lon="-120.49017912">
      </trkpt>
      <trkpt lat="49.10417355" lon="-120.49017789">
      </trkpt>
      <trkpt lat="49.10419152" lon="-120.49017698">
      </trkpt>
      <trkpt lat="49.10420967" lon="-120.49017617">
      </trkpt>
      <trkpt lat="49.10422775" lon="-120.49017583">
      </trkpt>
      <trkpt lat="49.10424555" lon="-120.49017583">
      </trkpt>
      <trkpt lat="49.10426294" lon="-120.49017654">
      </trkpt>
      <trkpt lat="49.1042796" lon="-120.49017796">
      </trkpt>
      <trkpt lat="49.10429539" lon="-120.49018033">
      </trkpt>
      <trkpt lat="49.10431004" lon="-120.49018387">
      </trkpt>
      <trkpt lat="49.10432337" lon="-120.49018874">
      </trkpt>
      <trkpt lat="49.10433529" lon="-120.49019503">
      </trkpt>
      <trkpt lat="49.10434589" lon="-120.4902024">
      </trkpt>
      <trkpt lat="49.1043556" lon="-120.4902105">
      </trkpt>
      <trkpt lat="49.1043646" lon="-120.49021909">
      </trkpt>
      <trkpt lat="49.10437333" lon="-120.49022769">
      </trkpt>
      <trkpt lat="49.10438188" lon="-120.49023618">
      </trkpt>
      <trkpt lat="49.10439078" lon="-120.49024398">
      </trkpt>
      <trkpt lat="49.10440019" lon="-120.49025074">
      </trkpt>
      <trkpt lat="49.10441039" lon="-120.49025643">
      </trkpt>
      <trkpt lat="49.10442145" lon="-120.49026063">
      </trkpt>
      <trkpt lat="49.10443339" lon="-120.4902633">
      </trkpt>
      <trkpt lat="49.10444636" lon="-120.49026445">
      </trkpt>
      <trkpt lat="49.10446029" lon="-120.49026398">
      </trkpt>
      <trkpt lat="49.10447526" lon="-120.49026164">
      </trkpt>
      <trkpt lat="49.10449137" lon="-120.49025755">
      </trkpt>
      <trkpt lat="49.1045085" lon="-120.49025149">
      </trkpt>
      <trkpt lat="49.10452677" lon="-120.49024345">
      </trkpt>
      <trkpt lat="49.10454589" lon="-120.49023378">
      </trkpt>
      <trkpt lat="49.10456563" lon="-120.49022296">
      </trkpt>
      <trkpt lat="49.10458552" lon="-120.49021121">
      </trkpt>
      <trkpt lat="49.1046055" lon="-120.49019913">
      </trkpt>
      <trkpt lat="49.10462502" lon="-120.49018697">
      </trkpt>
      <trkpt lat="49.10464393" lon="-120.49017516">
      </trkpt>
      <trkpt lat="49.10466185" lon="-120.4901642">
      </trkpt>
      <trkpt lat="49.10467863" lon="-120.4901542">
      </trkpt>
      <trkpt lat="49.10469409" lon="-120.49014495">
      </trkpt>
      <trkpt lat="49.10470837" lon="-120.49013598">
      </trkpt>
      <trkpt lat="49.10472148" lon="-120.49012685">
      </trkpt>
      <trkpt lat="49.10473342" lon="-120.4901171">
      </trkpt>
      <trkpt lat="49.10474416" lon="-120.49010627">
      </trkpt>
      <trkpt lat="49.10475378" lon="-120.49009392">
      </trkpt>
      <trkpt lat="49.10476228" lon="-120.49007959">
      </trkpt>
      <trkpt lat="49.10476966" lon="-120.49006306">
      </trkpt>
      <trkpt lat="49.10477645" lon="-120.49004464">
      </trkpt>
      <trkpt lat="49.10478305" lon="-120.49002521">
      </trkpt>
      <trkpt lat="49.10478981" lon="-120.4900051">
      </trkpt>
      <trkpt lat="49.1047972" lon="-120.48998507">
      </trkpt>
      <trkpt lat="49.10480569" lon="-120.48996576">
      </trkpt>
      <trkpt lat="49.10481572" lon="-120.48994775">
      </trkpt>
      <trkpt lat="49.1048277" lon="-120.48993155">
      </trkpt>
      <trkpt lat="49.10484188" lon="-120.48991773">
      </trkpt>
      <trkpt lat="49.10485809" lon="-120.48990618">
      </trkpt>
      <trkpt lat="49.10487568" lon="-120.48989637">
      </trkpt>
      <trkpt lat="49.10489439" lon="-120.48988796">
      </trkpt>
      <trkpt lat="49.10491357" lon="-120.48988077">
      </trkpt>
      <trkpt lat="49.10493286" lon="-120.48987426">
      </trkpt>
      <trkpt lat="49.10495188" lon="-120.48986811">
      </trkpt>
      <trkpt lat="49.10497001" lon="-120.48986211">
      </trkpt>
      <trkpt lat="49.10498697" lon="-120.48985572">
      </trkpt>
      <trkpt lat="49.10500274" lon="-120.48984905">
      </trkpt>
      <trkpt lat="49.10501751" lon="-120.48984186">
      </trkpt>
      <trkpt lat="49.10503138" lon="-120.48983427">
      </trkpt>
      <trkpt lat="49.10504451" lon="-120.48982604">
      </trkpt>
      <trkpt lat="49.10505691" lon="-120.48981727">
      </trkpt>
      <trkpt lat="49.10506885" lon="-120.48980775">
      </trkpt>
      <trkpt lat="49.10508023" lon="-120.48979756">
      </trkpt>
      <trkpt lat="49.10509142" lon="-120.4897866">
      </trkpt>
      <trkpt lat="49.10510241" lon="-120.48977509">
      </trkpt>
      <trkpt lat="49.10511322" lon="-120.48976325">
      </trkpt>
      <trkpt lat="49.10512393" lon="-120.4897513">
      </trkpt>
      <trkpt lat="49.10513473" lon="-120.48973945">
      </trkpt>
      <trkpt lat="49.10514564" lon="-120.48972794">
      </trkpt>
      <trkpt lat="49.10515674" lon="-120.4897171">
      </trkpt>
      <trkpt lat="49.10516812" lon="-120.48970704">
      </trkpt>
      <trkpt lat="49.10517989" lon="-120.48969796">
      </trkpt>
      <trkpt lat="49.10519202" lon="-120.48968944">
      </trkpt>
      <trkpt lat="49.10520453" lon="-120.48968124">
      </trkpt>
      <trkpt lat="49.10521757" lon="-120.4896729">
      </trkpt>
      <trkpt lat="49.10523095" lon="-120.48966386">
      </trkpt>
      <trkpt lat="49.10524486" lon="-120.48965401">
      </trkpt>
      <trkpt lat="49.10525927" lon="-120.48964265">
      </trkpt>
      <trkpt lat="49.10527419" lon="-120.4896297">
      </trkpt>
      <trkpt lat="49.1052897" lon="-120.48961457">
      </trkpt>
      <trkpt lat="49.10530552" lon="-120.48959761">
      </trkpt>
      <trkpt lat="49.10532176" lon="-120.48957917">
      </trkpt>
      <trkpt lat="49.10533824" lon="-120.48955947">
      </trkpt>
      <trkpt lat="49.1053547" lon="-120.48953897">
      </trkpt>
      <trkpt lat="49.10537125" lon="-120.48951803">
      </trkpt>
      <trkpt lat="49.10538761" lon="-120.48949687">
      </trkpt>
      <trkpt lat="49.1054038" lon="-120.48947582">
      </trkpt>
      <trkpt lat="49.10541962" lon="-120.48945514">
      </trkpt>
      <trkpt lat="49.10543501" lon="-120.48943469">
      </trkpt>
      <trkpt lat="49.10545013" lon="-120.4894145">
      </trkpt>
      <trkpt lat="49.1054648" lon="-120.48939421">
      </trkpt>
      <trkpt lat="49.10547919" lon="-120.4893736">
      </trkpt>
      <trkpt lat="49.10549313" lon="-120.48935267">
      </trkpt>
      <trkpt lat="49.10550669" lon="-120.48933108">
      </trkpt>
      <trkpt lat="49.10551987" lon="-120.48930861">
      </trkpt>
      <trkpt lat="49.10553278" lon="-120.48928536">
      </trkpt>
      <trkpt lat="49.10554529" lon="-120.48926145">
      </trkpt>
      <trkpt lat="49.1055579" lon="-120.48923697">
      </trkpt>
      <trkpt lat="49.1055704" lon="-120.48921238">
      </trkpt>
      <trkpt lat="49.10558327" lon="-120.48918779">
      </trkpt>
      <trkpt lat="49.1055965" lon="-120.4891635">
      </trkpt>
      <trkpt lat="49.1056102" lon="-120.48913987">
      </trkpt>
      <trkpt lat="49.10562463" lon="-120.489117">
      </trkpt>
      <trkpt lat="49.1056399" lon="-120.4890951">
      </trkpt>
      <trkpt lat="49.10565573" lon="-120.4890742">
      </trkpt>
      <trkpt lat="49.10567184" lon="-120.48905417">
      </trkpt>
      <trkpt lat="49.10568797" lon="-120.48903493">
      </trkpt>
      <trkpt lat="49.10570394" lon="-120.48901639">
      </trkpt>
      <trkpt lat="49.10571937" lon="-120.48899832">
      </trkpt>
      <trkpt lat="49.1057341" lon="-120.48898074">
      </trkpt>
      <trkpt lat="49.10574776" lon="-120.48896345">
      </trkpt>
      <trkpt lat="49.10576025" lon="-120.48894644">
      </trkpt>
      <trkpt lat="49.10577167" lon="-120.48892947">
      </trkpt>
      <trkpt lat="49.10578235" lon="-120.48891209">
      </trkpt>
      <trkpt lat="49.10579248" lon="-120.48889418">
      </trkpt>
      <trkpt lat="49.10580251" lon="-120.48887548">
      </trkpt>
      <trkpt lat="49.1058126" lon="-120.48885565">
      </trkpt>
      <trkpt lat="49.10582294" lon="-120.48883457">
      </trkpt>
      <trkpt lat="49.10583396" lon="-120.48881175">
      </trkpt>
      <trkpt lat="49.10584575" lon="-120.4887872">
      </trkpt>
      <trkpt lat="49.10585812" lon="-120.48876082">
      </trkpt>
      <trkpt lat="49.10587082" lon="-120.48873294">
      </trkpt>
      <trkpt lat="49.1058835" lon="-120.48870372">
      </trkpt>
      <trkpt lat="49.10589598" lon="-120.48867326">
      </trkpt>
      <trkpt lat="49.10590779" lon="-120.4886417">
      </trkpt>
      <trkpt lat="49.10591869" lon="-120.48860929">
      </trkpt>
      <trkpt lat="49.10592849" lon="-120.48857625">
      </trkpt>
      <trkpt lat="49.10593685" lon="-120.4885426">
      </trkpt>
      <trkpt lat="49.10594402" lon="-120.48850868">
      </trkpt>
      <trkpt lat="49.10595021" lon="-120.4884747">
      </trkpt>
      <trkpt lat="49.10595559" lon="-120.48844087">
      </trkpt>
      <trkpt lat="49.10596053" lon="-120.48840752">
      </trkpt>
      <trkpt lat="49.10596521" lon="-120.48837473">
      </trkpt>
      <trkpt lat="49.10596983" lon="-120.48834287">
      </trkpt>
      <trkpt lat="49.10597473" lon="-120.4883121">
      </trkpt>
      <trkpt lat="49.10597994" lon="-120.4882827">
      </trkpt>
      <trkpt lat="49.10598571" lon="-120.48825449">
      </trkpt>
      <trkpt lat="49.10599195" lon="-120.4882274">
      </trkpt>
      <trkpt lat="49.10599877" lon="-120.48820129">
      </trkpt>
      <trkpt lat="49.10600614" lon="-120.48817617">
      </trkpt>
      <trkpt lat="49.10601414" lon="-120.4881517">
      </trkpt>
      <trkpt lat="49.1060228" lon="-120.488128">
      </trkpt>
      <trkpt lat="49.10603211" lon="-120.48810482">
      </trkpt>
      <trkpt lat="49.10604204" lon="-120.48808205">
      </trkpt>
      <trkpt lat="49.10605271" lon="-120.48805993">
      </trkpt>
      <trkpt lat="49.10606412" lon="-120.48803856">
      </trkpt>
      <trkpt lat="49.10607618" lon="-120.48801818">
      </trkpt>
      <trkpt lat="49.10608898" lon="-120.48799877">
      </trkpt>
      <trkpt lat="49.10610252" lon="-120.48798057">
      </trkpt>
      <trkpt lat="49.10611673" lon="-120.48796381">
      </trkpt>
      <trkpt lat="49.10613169" lon="-120.4879486">
      </trkpt>
      <trkpt lat="49.10614733" lon="-120.48793515">
      </trkpt>
      <trkpt lat="49.10616353" lon="-120.48792326">
      </trkpt>
      <trkpt lat="49.10618029" lon="-120.4879128">
      </trkpt>
      <trkpt lat="49.10619746" lon="-120.48790381">
      </trkpt>
      <trkpt lat="49.10621484" lon="-120.48789626">
      </trkpt>
      <trkpt lat="49.1062325" lon="-120.48788983">
      </trkpt>
      <trkpt lat="49.10625011" lon="-120.48788464">
      </trkpt>
      <trkpt lat="49.10626783" lon="-120.48788048">
      </trkpt>
      <trkpt lat="49.1062853" lon="-120.48787722">
      </trkpt>
      <trkpt lat="49.10630261" lon="-120.48787477">
      </trkpt>
      <trkpt lat="49.10631947" lon="-120.48787267">
      </trkpt>
      <trkpt lat="49.10633598" lon="-120.48787083">
      </trkpt>
      <trkpt lat="49.10635195" lon="-120.487869">
      </trkpt>
      <trkpt lat="49.10636721" lon="-120.48786699">
      </trkpt>
      <trkpt lat="49.1063818" lon="-120.48786432">
      </trkpt>
      <trkpt lat="49.10639549" lon="-120.48786092">
      </trkpt>
      <trkpt lat="49.10640826" lon="-120.48785666">
      </trkpt>
      <trkpt lat="49.10642011" lon="-120.48785131">
      </trkpt>
      <trkpt lat="49.10643122" lon="-120.48784522">
      </trkpt>
      <trkpt lat="49.10644141" lon="-120.48783815">
      </trkpt>
      <trkpt lat="49.10645096" lon="-120.48783033">
      </trkpt>
      <trkpt lat="49.10645976" lon="-120.48782163">
      </trkpt>
      <trkpt lat="49.10646792" lon="-120.48781229">
      </trkpt>
      <trkpt lat="49.10647544" lon="-120.48780231">
      </trkpt>
      <trkpt lat="49.10648249" lon="-120.48779156">
      </trkpt>
      <trkpt lat="49.10648935" lon="-120.48778024">
      </trkpt>
      <trkpt lat="49.10649611" lon="-120.48776827">
      </trkpt>
      <trkpt lat="49.10650329" lon="-120.48775559">
      </trkpt>
      <trkpt lat="49.10651101" lon="-120.48774232">
      </trkpt>
      <trkpt lat="49.10651961" lon="-120.48772821">
      </trkpt>
      <trkpt lat="49.10652937" lon="-120.48771348">
      </trkpt>
      <trkpt lat="49.10654063" lon="-120.487698">
      </trkpt>
      <trkpt lat="49.1065535" lon="-120.48768187">
      </trkpt>
      <trkpt lat="49.10656781" lon="-120.48766533">
      </trkpt>
      <trkpt lat="49.10658346" lon="-120.48764905">
      </trkpt>
      <trkpt lat="49.10659994" lon="-120.48763341">
      </trkpt>
      <trkpt lat="49.10661725" lon="-120.48761888">
      </trkpt>
      <trkpt lat="49.10663496" lon="-120.48760589">
      </trkpt>
      <trkpt lat="49.10665289" lon="-120.48759493">
      </trkpt>
      <trkpt lat="49.10667079" lon="-120.48758633">
      </trkpt>
      <trkpt lat="49.10668828" lon="-120.4875807">
      </trkpt>
      <trkpt lat="49.10670549" lon="-120.48757747">
      </trkpt>
      <trkpt lat="49.10672219" lon="-120.48757618">
      </trkpt>
      <trkpt lat="49.1067383" lon="-120.4875766">
      </trkpt>
      <trkpt lat="49.1067539" lon="-120.48757796">
      </trkpt>
      <trkpt lat="49.10676869" lon="-120.48758014">
      </trkpt>
      <trkpt lat="49.10678268" lon="-120.48758238">
      </trkpt>
      <trkpt lat="49.10679586" lon="-120.48758432">
      </trkpt>
      <trkpt lat="49.10680811" lon="-120.48758561">
      </trkpt>
      <trkpt lat="49.10681955" lon="-120.48758605">
      </trkpt>
      <trkpt lat="49.10683024" lon="-120.48758529">
      </trkpt>
      <trkpt lat="49.10684036" lon="-120.48758331">
      </trkpt>
      <trkpt lat="49.10684982" lon="-120.4875799">
      </trkpt>
      <trkpt lat="49.10685888" lon="-120.4875748">
      </trkpt>
      <trkpt lat="49.10686763" lon="-120.48756781">
      </trkpt>
      <trkpt lat="49.10687608" lon="-120.4875589">
      </trkpt>
      <trkpt lat="49.10688439" lon="-120.48754798">
      </trkpt>
      <trkpt lat="49.10689283" lon="-120.48753524">
      </trkpt>
      <trkpt lat="49.10690171" lon="-120.48752156">
      </trkpt>
      <trkpt lat="49.1069112" lon="-120.4875073">
      </trkpt>
      <trkpt lat="49.10692169" lon="-120.48749298">
      </trkpt>
      <trkpt lat="49.10693335" lon="-120.48747918">
      </trkpt>
      <trkpt lat="49.10694656" lon="-120.48746653">
      </trkpt>
      <trkpt lat="49.10696153" lon="-120.4874556">
      </trkpt>
      <trkpt lat="49.10697842" lon="-120.48744661">
      </trkpt>
      <trkpt lat="49.10699698" lon="-120.48743935">
      </trkpt>
      <trkpt lat="49.10701645" lon="-120.48743339">
      </trkpt>
      <trkpt lat="49.10703666" lon="-120.48742808">
      </trkpt>
      <trkpt lat="49.10705689" lon="-120.48742322">
      </trkpt>
      <trkpt lat="49.10707666" lon="-120.48741815">
      </trkpt>
      <trkpt lat="49.1070956" lon="-120.48741245">
      </trkpt>
      <trkpt lat="49.10711308" lon="-120.48740558">
      </trkpt>
      <trkpt lat="49.10712891" lon="-120.48739732">
      </trkpt>
      <trkpt lat="49.10714309" lon="-120.48738744">
      </trkpt>
      <trkpt lat="49.10715606" lon="-120.48737618">
      </trkpt>
      <trkpt lat="49.10716811" lon="-120.48736347">
      </trkpt>
      <trkpt lat="49.10717968" lon="-120.48734955">
      </trkpt>
      <trkpt lat="49.10719087" lon="-120.48733441">
      </trkpt>
      <trkpt lat="49.1072022" lon="-120.48731803">
      </trkpt>
      <trkpt lat="49.10721387" lon="-120.4873006">
      </trkpt>
      <trkpt lat="49.10722624" lon="-120.48728212">
      </trkpt>
      <trkpt lat="49.10723931" lon="-120.48726292">
      </trkpt>
      <trkpt lat="49.10725311" lon="-120.48724348">
      </trkpt>
      <trkpt lat="49.10726752" lon="-120.48722409">
      </trkpt>
      <trkpt lat="49.1072825" lon="-120.48720515">
      </trkpt>
      <trkpt lat="49.10729811" lon="-120.48718696">
      </trkpt>
      <trkpt lat="49.10731429" lon="-120.48716988">
      </trkpt>
      <trkpt lat="49.10733104" lon="-120.48715433">
      </trkpt>
      <trkpt lat="49.10734828" lon="-120.48714058">
      </trkpt>
      <trkpt lat="49.10736591" lon="-120.48712828">
      </trkpt>
      <trkpt lat="49.10738393" lon="-120.48711731">
      </trkpt>
      <trkpt lat="49.10740224" lon="-120.48710712">
      </trkpt>
      <trkpt lat="49.10742066" lon="-120.48709771">
      </trkpt>
      <trkpt lat="49.10743907" lon="-120.48708842">
      </trkpt>
      <trkpt lat="49.10745758" lon="-120.48707924">
      </trkpt>
      <trkpt lat="49.1074759" lon="-120.48706961">
      </trkpt>
      <trkpt lat="49.10749402" lon="-120.48705944">
      </trkpt>
      <trkpt lat="49.10751215" lon="-120.48704869">
      </trkpt>
      <trkpt lat="49.10753025" lon="-120.48703737">
      </trkpt>
      <trkpt lat="49.10754861" lon="-120.4870256">
      </trkpt>
      <trkpt lat="49.10756714" lon="-120.48701336">
      </trkpt>
      <trkpt lat="49.1075862" lon="-120.48700064">
      </trkpt>
      <trkpt lat="49.1076058" lon="-120.48698769">
      </trkpt>
      <trkpt lat="49.10762611" lon="-120.48697434">
      </trkpt>
      <trkpt lat="49.10764721" lon="-120.48696072">
      </trkpt>
      <trkpt lat="49.10766878" lon="-120.48694687">
      </trkpt>
      <trkpt lat="49.10769041" lon="-120.48693278">
      </trkpt>
      <trkpt lat="49.10771196" lon="-120.48691836">
      </trkpt>
      <trkpt lat="49.10773287" lon="-120.48690351">
      </trkpt>
      <trkpt lat="49.10775296" lon="-120.48688838">
      </trkpt>
      <trkpt lat="49.10777186" lon="-120.48687284">
      </trkpt>
      <trkpt lat="49.10778915" lon="-120.48685695">
      </trkpt>
      <trkpt lat="49.10780462" lon="-120.48684068">
      </trkpt>
      <trkpt lat="49.10781847" lon="-120.48682383">
      </trkpt>
      <trkpt lat="49.10783068" lon="-120.48680648">
      </trkpt>
      <trkpt lat="49.10784163" lon="-120.48678854">
      </trkpt>
      <trkpt lat="49.10785138" lon="-120.48676984">
      </trkpt>
      <trkpt lat="49.10786023" lon="-120.48675053">
      </trkpt>
      <trkpt lat="49.10786816" lon="-120.48673035">
      </trkpt>
      <trkpt lat="49.10787561" lon="-120.48670929">
      </trkpt>
      <trkpt lat="49.10788251" lon="-120.48668737">
      </trkpt>
      <trkpt lat="49.10788912" lon="-120.48666466">
      </trkpt>
      <trkpt lat="49.10789536" lon="-120.48664129">
      </trkpt>
      <trkpt lat="49.10790131" lon="-120.48661737">
      </trkpt>
      <trkpt lat="49.10790708" lon="-120.4865929">
      </trkpt>
      <trkpt lat="49.10791265" lon="-120.48656811">
      </trkpt>
      <trkpt lat="49.10791813" lon="-120.48654296">
      </trkpt>
      <trkpt lat="49.10792351" lon="-120.48651772">
      </trkpt>
      <trkpt lat="49.1079289" lon="-120.48649248">
      </trkpt>
      <trkpt lat="49.10793438" lon="-120.48646722">
      </trkpt>
      <trkpt lat="49.10793977" lon="-120.48644198">
      </trkpt>
      <trkpt lat="49.10794524" lon="-120.48641673">
      </trkpt>
      <trkpt lat="49.10795081" lon="-120.48639171">
      </trkpt>
      <trkpt lat="49.10795648" lon="-120.48636679">
      </trkpt>
      <trkpt lat="49.10796223" lon="-120.48634208">
      </trkpt>
      <trkpt lat="49.10796818" lon="-120.48631761">
      </trkpt>
      <trkpt lat="49.10797421" lon="-120.48629335">
      </trkpt>
      <trkpt lat="49.10798044" lon="-120.48626942">
      </trkpt>
      <trkpt lat="49.10798677" lon="-120.48624593">
      </trkpt>
      <trkpt lat="49.10799328" lon="-120.486223">
      </trkpt>
      <trkpt lat="49.1079999" lon="-120.48620063">
      </trkpt>
      <trkpt lat="49.10800672" lon="-120.48617904">
      </trkpt>
      <trkpt lat="49.10801372" lon="-120.48615812">
      </trkpt>
      <trkpt lat="49.10802084" lon="-120.48613811">
      </trkpt>
      <trkpt lat="49.10802816" lon="-120.48611897">
      </trkpt>
      <trkpt lat="49.10803541" lon="-120.48610052">
      </trkpt>
      <trkpt lat="49.10804256" lon="-120.48608232">
      </trkpt>
      <trkpt lat="49.10804945" lon="-120.48606422">
      </trkpt>
      <trkpt lat="49.10805589" lon="-120.48604559">
      </trkpt>
      <trkpt lat="49.10806168" lon="-120.48602644">
      </trkpt>
      <trkpt lat="49.10806681" lon="-120.48600629">
      </trkpt>
      <trkpt lat="49.10807093" lon="-120.48598483">
      </trkpt>
      <trkpt lat="49.10807421" lon="-120.48596184">
      </trkpt>
      <trkpt lat="49.10807647" lon="-120.48593744">
      </trkpt>
      <trkpt lat="49.10807789" lon="-120.48591183">
      </trkpt>
      <trkpt lat="49.10807857" lon="-120.48588534">
      </trkpt>
      <trkpt lat="49.1080787" lon="-120.48585823">
      </trkpt>
      <trkpt lat="49.10807828" lon="-120.48583067">
      </trkpt>
      <trkpt lat="49.10807749" lon="-120.4858028">
      </trkpt>
      <trkpt lat="49.10807635" lon="-120.48577506">
      </trkpt>
      <trkpt lat="49.10807503" lon="-120.48574755">
      </trkpt>
      <trkpt lat="49.10807354" lon="-120.4857204">
      </trkpt>
      <trkpt lat="49.10807188" lon="-120.48569371">
      </trkpt>
      <trkpt lat="49.10806996" lon="-120.48566736">
      </trkpt>
      <trkpt lat="49.10806778" lon="-120.4856416">
      </trkpt>
      <trkpt lat="49.10806542" lon="-120.4856164">
      </trkpt>
      <trkpt lat="49.10806291" lon="-120.48559179">
      </trkpt>
      <trkpt lat="49.10806005" lon="-120.48556785">
      </trkpt>
      <trkpt lat="49.10805702" lon="-120.48554474">
      </trkpt>
      <trkpt lat="49.10805393" lon="-120.48552241">
      </trkpt>
      <trkpt lat="49.10805104" lon="-120.48550097">
      </trkpt>
      <trkpt lat="49.10804834" lon="-120.48548043">
      </trkpt>
      <trkpt lat="49.1080463" lon="-120.48546109">
      </trkpt>
      <trkpt lat="49.10804491" lon="-120.48544275">
      </trkpt>
      <trkpt lat="49.10804444" lon="-120.48542571">
      </trkpt>
      <trkpt lat="49.10804501" lon="-120.48540997">
      </trkpt>
      <trkpt lat="49.10804694" lon="-120.48539552">
      </trkpt>
      <trkpt lat="49.10804998" lon="-120.48538226">
      </trkpt>
      <trkpt lat="49.10805411" lon="-120.48536996">
      </trkpt>
      <trkpt lat="49.10805936" lon="-120.48535851">
      </trkpt>
      <trkpt lat="49.10806559" lon="-120.48534768">
      </trkpt>
      <trkpt lat="49.10807266" lon="-120.48533739">
      </trkpt>
      <trkpt lat="49.10808052" lon="-120.48532728">
      </trkpt>
      <trkpt lat="49.10808913" lon="-120.48531735">
      </trkpt>
      <trkpt lat="49.10809835" lon="-120.48530727">
      </trkpt>
      <trkpt lat="49.10810839" lon="-120.48529739">
      </trkpt>
      <trkpt lat="49.10811915" lon="-120.48528758">
      </trkpt>
      <trkpt lat="49.10813091" lon="-120.48527828">
      </trkpt>
      <trkpt lat="49.10814358" lon="-120.4852694">
      </trkpt>
      <trkpt lat="49.10815735" lon="-120.48526135">
      </trkpt>
      <trkpt lat="49.10817239" lon="-120.48525404">
      </trkpt>
      <trkpt lat="49.10818853" lon="-120.48524768">
      </trkpt>
      <trkpt lat="49.10820605" lon="-120.4852425">
      </trkpt>
      <trkpt lat="49.10822485" lon="-120.48523828">
      </trkpt>
      <trkpt lat="49.10824465" lon="-120.48523479">
      </trkpt>
      <trkpt lat="49.10826545" lon="-120.48523193">
      </trkpt>
      <trkpt lat="49.10828707" lon="-120.48522936">
      </trkpt>
      <trkpt lat="49.10830942" lon="-120.48522711">
      </trkpt>
      <trkpt lat="49.10833231" lon="-120.48522482">
      </trkpt>
      <trkpt lat="49.10835564" lon="-120.48522228">
      </trkpt>
      <trkpt lat="49.10837924" lon="-120.48521939">
      </trkpt>
      <trkpt lat="49.10840327" lon="-120.48521614">
      </trkpt>
      <trkpt lat="49.10842748" lon="-120.48521243">
      </trkpt>
      <trkpt lat="49.10845203" lon="-120.48520826">
      </trkpt>
      <trkpt lat="49.10847684" lon="-120.4852035">
      </trkpt>
      <trkpt lat="49.10850183" lon="-120.4851984">
      </trkpt>
      <trkpt lat="49.10852716" lon="-120.4851927">
      </trkpt>
      <trkpt lat="49.10855275" lon="-120.48518644">
      </trkpt>
      <trkpt lat="49.10857842" lon="-120.48517961">
      </trkpt>
      <trkpt lat="49.10860425" lon="-120.48517219">
      </trkpt>
      <trkpt lat="49.10862998" lon="-120.48516445">
      </trkpt>
      <trkpt lat="49.10865535" lon="-120.4851565">
      </trkpt>
      <trkpt lat="49.10868036" lon="-120.48514823">
      </trkpt>
      <trkpt lat="49.10870473" lon="-120.48513988">
      </trkpt>
      <trkpt lat="49.10872839" lon="-120.48513145">
      </trkpt>
      <trkpt lat="49.10875106" lon="-120.48512308">
      </trkpt>
      <trkpt lat="49.10877264" lon="-120.48511487">
      </trkpt>
      <trkpt lat="49.10879325" lon="-120.48510682">
      </trkpt>
      <trkpt lat="49.10881286" lon="-120.4850987">
      </trkpt>
      <trkpt lat="49.10883148" lon="-120.48509065">
      </trkpt>
      <trkpt lat="49.10884929" lon="-120.48508262">
      </trkpt>
      <trkpt lat="49.10886621" lon="-120.48507454">
      </trkpt>
      <trkpt lat="49.1088824" lon="-120.48506626">
      </trkpt>
      <trkpt lat="49.10889795" lon="-120.48505779">
      </trkpt>
      <trkpt lat="49.10891287" lon="-120.48504913">
      </trkpt>
      <trkpt lat="49.10892725" lon="-120.48504026">
      </trkpt>
      <trkpt lat="49.10894135" lon="-120.48503085">
      </trkpt>
      <trkpt lat="49.10895535" lon="-120.48502098">
      </trkpt>
      <trkpt lat="49.10896924" lon="-120.48501046">
      </trkpt>
      <trkpt lat="49.1089833" lon="-120.48499924">
      </trkpt>
      <trkpt lat="49.10899761" lon="-120.48498733">
      </trkpt>
      <trkpt lat="49.10901235" lon="-120.48497437">
      </trkpt>
      <trkpt lat="49.10902779" lon="-120.48496049">
      </trkpt>
      <trkpt lat="49.1090441" lon="-120.48494566">
      </trkpt>
      <trkpt lat="49.10906158" lon="-120.48493008">
      </trkpt>
      <trkpt lat="49.10908047" lon="-120.48491387">
      </trkpt>
      <trkpt lat="49.10910106" lon="-120.484897">
      </trkpt>
      <trkpt lat="49.1091238" lon="-120.48487958">
      </trkpt>
      <trkpt lat="49.10914868" lon="-120.48486182">
      </trkpt>
      <trkpt lat="49.10917627" lon="-120.4848437">
      </trkpt>
      <trkpt lat="49.10920654" lon="-120.48482556">
      </trkpt>
      <trkpt lat="49.10923898" lon="-120.48480765">
      </trkpt>
      <trkpt lat="49.10927305" lon="-120.48479045">
      </trkpt>
      <trkpt lat="49.10930805" lon="-120.48477433">
      </trkpt>
      <trkpt lat="49.10934336" lon="-120.48475989">
      </trkpt>
      <trkpt lat="49.10937826" lon="-120.4847475">
      </trkpt>
      <trkpt lat="49.10941222" lon="-120.48473753">
      </trkpt>
      <trkpt lat="49.10944454" lon="-120.48473058">
      </trkpt>
      <trkpt lat="49.10947468" lon="-120.4847268">
      </trkpt>
      <trkpt lat="49.10950281" lon="-120.4847256">
      </trkpt>
      <trkpt lat="49.10952927" lon="-120.48472629">
      </trkpt>
      <trkpt lat="49.10955431" lon="-120.48472785">
      </trkpt>
      <trkpt lat="49.10957818" lon="-120.48472959">
      </trkpt>
      <trkpt lat="49.10960132" lon="-120.48473079">
      </trkpt>
      <trkpt lat="49.10962381" lon="-120.48473055">
      </trkpt>
      <trkpt lat="49.10964615" lon="-120.48472807">
      </trkpt>
      <trkpt lat="49.10966843" lon="-120.48472276">
      </trkpt>
      <trkpt lat="49.10969057" lon="-120.48471474">
      </trkpt>
      <trkpt lat="49.10971246" lon="-120.48470415">
      </trkpt>
      <trkpt lat="49.10973395" lon="-120.48469143">
      </trkpt>
      <trkpt lat="49.10975477" lon="-120.48467669">
      </trkpt>
      <trkpt lat="49.10977483" lon="-120.48466031">
      </trkpt>
      <trkpt lat="49.10979405" lon="-120.48464262">
      </trkpt>
      <trkpt lat="49.10981217" lon="-120.48462362">
      </trkpt>
      <trkpt lat="49.1098291" lon="-120.4846039">
      </trkpt>
      <trkpt lat="49.10984494" lon="-120.48458377">
      </trkpt>
      <trkpt lat="49.10985988" lon="-120.48456358">
      </trkpt>
      <trkpt lat="49.10987402" lon="-120.48454376">
      </trkpt>
      <trkpt lat="49.10988764" lon="-120.48452477">
      </trkpt>
      <trkpt lat="49.10990083" lon="-120.48450704">
      </trkpt>
      <trkpt lat="49.1099138" lon="-120.48449113">
      </trkpt>
      <trkpt lat="49.10992663" lon="-120.48447726">
      </trkpt>
      <trkpt lat="49.1099396" lon="-120.48446576">
      </trkpt>
      <trkpt lat="49.1099529" lon="-120.48445661">
      </trkpt>
      <trkpt lat="49.1099666" lon="-120.4844497">
      </trkpt>
      <trkpt lat="49.10998115" lon="-120.48444466">
      </trkpt>
      <trkpt lat="49.10999654" lon="-120.48444129">
      </trkpt>
      <trkpt lat="49.11001315" lon="-120.48443955">
      </trkpt>
      <trkpt lat="49.11003113" lon="-120.48443909">
      </trkpt>
      <trkpt lat="49.11005075" lon="-120.48443968">
      </trkpt>
      <trkpt lat="49.11007201" lon="-120.48444132">
      </trkpt>
      <trkpt lat="49.11009482" lon="-120.48444377">
      </trkpt>
      <trkpt lat="49.110119" lon="-120.48444685">
      </trkpt>
      <trkpt lat="49.11014408" lon="-120.48445055">
      </trkpt>
      <trkpt lat="49.11016999" lon="-120.48445489">
      </trkpt>
      <trkpt lat="49.11019627" lon="-120.48445955">
      </trkpt>
      <trkpt lat="49.11022291" lon="-120.48446453">
      </trkpt>
      <trkpt lat="49.11024938" lon="-120.48446974">
      </trkpt>
      <trkpt lat="49.11027568" lon="-120.48447519">
      </trkpt>
      <trkpt lat="49.11030134" lon="-120.48448057">
      </trkpt>
      <trkpt lat="49.11032636" lon="-120.48448585">
      </trkpt>
      <trkpt lat="49.11035041" lon="-120.48449097">
      </trkpt>
      <trkpt lat="49.11037336" lon="-120.4844959">
      </trkpt>
      <trkpt lat="49.11039505" lon="-120.48450034">
      </trkpt>
      <trkpt lat="49.1104151" lon="-120.48450441">
      </trkpt>
      <trkpt lat="49.11043343" lon="-120.48450778">
      </trkpt>
      <trkpt lat="49.11044996" lon="-120.48451068">
      </trkpt>
      <trkpt lat="49.11046495" lon="-120.4845133">
      </trkpt>
      <trkpt lat="49.11047895" lon="-120.48451599">
      </trkpt>
      <trkpt lat="49.11049243" lon="-120.48451927">
      </trkpt>
      <trkpt lat="49.11050591" lon="-120.48452344">
      </trkpt>
      <trkpt lat="49.11051971" lon="-120.48452885">
      </trkpt>
      <trkpt lat="49.11053434" lon="-120.48453602">
      </trkpt>
      <trkpt lat="49.11055047" lon="-120.48454526">
      </trkpt>
      <trkpt lat="49.11056817" lon="-120.48455679">
      </trkpt>
      <trkpt lat="49.11058726" lon="-120.48457018">
      </trkpt>
      <trkpt lat="49.11060746" lon="-120.48458474">
      </trkpt>
      <trkpt lat="49.11062829" lon="-120.48459996">
      </trkpt>
      <trkpt lat="49.1106494" lon="-120.48461506">
      </trkpt>
      <trkpt lat="49.1106704" lon="-120.48462948">
      </trkpt>
      <trkpt lat="49.11069093" lon="-120.48464245">
      </trkpt>
      <trkpt lat="49.1107106" lon="-120.48465343">
      </trkpt>
      <trkpt lat="49.11072913" lon="-120.48466199">
      </trkpt>
      <trkpt lat="49.11074663" lon="-120.48466811">
      </trkpt>
      <trkpt lat="49.11076353" lon="-120.48467188">
      </trkpt>
      <trkpt lat="49.11078012" lon="-120.48467353">
      </trkpt>
      <trkpt lat="49.11079656" lon="-120.48467327">
      </trkpt>
      <trkpt lat="49.11081334" lon="-120.48467117">
      </trkpt>
      <trkpt lat="49.11083062" lon="-120.48466747">
      </trkpt>
      <trkpt lat="49.11084877" lon="-120.48466237">
      </trkpt>
      <trkpt lat="49.11086806" lon="-120.48465598">
      </trkpt>
      <trkpt lat="49.11088814" lon="-120.48464886">
      </trkpt>
      <trkpt lat="49.11090903" lon="-120.48464147">
      </trkpt>
      <trkpt lat="49.11093019" lon="-120.48463418">
      </trkpt>
      <trkpt lat="49.11095164" lon="-120.48462756">
      </trkpt>
      <trkpt lat="49.11097292" lon="-120.4846222">
      </trkpt>
      <trkpt lat="49.11099397" lon="-120.48461842">
      </trkpt>
      <trkpt lat="49.11101436" lon="-120.4846167">
      </trkpt>
      <trkpt lat="49.11103398" lon="-120.48461752">
      </trkpt>
      <trkpt lat="49.11105276" lon="-120.48462086">
      </trkpt>
      <trkpt lat="49.11107079" lon="-120.48462663">
      </trkpt>
      <trkpt lat="49.11108815" lon="-120.48463467">
      </trkpt>
      <trkpt lat="49.11110474" lon="-120.48464502">
      </trkpt>
      <trkpt lat="49.11112076" lon="-120.48465744">
      </trkpt>
      <trkpt lat="49.11113609" lon="-120.48467191">
      </trkpt>
      <trkpt lat="49.11115084" lon="-120.48468834">
      </trkpt>
      <trkpt lat="49.11116501" lon="-120.48470661">
      </trkpt>
      <trkpt lat="49.11117865" lon="-120.48472637">
      </trkpt>
      <trkpt lat="49.11119153" lon="-120.48474742">
      </trkpt>
      <trkpt lat="49.1112037" lon="-120.4847694">
      </trkpt>
      <trkpt lat="49.11121508" lon="-120.484792">
      </trkpt>
      <trkpt lat="49.11122566" lon="-120.48481485">
      </trkpt>
      <trkpt lat="49.11123542" lon="-120.48483775">
      </trkpt>
      <trkpt lat="49.11124409" lon="-120.48486037">
      </trkpt>
      <trkpt lat="49.11125195" lon="-120.48488234">
      </trkpt>
      <trkpt lat="49.11125916" lon="-120.48490368">
      </trkpt>
      <trkpt lat="49.11126608" lon="-120.48492423">
      </trkpt>
      <trkpt lat="49.11127316" lon="-120.48494376">
      </trkpt>
      <trkpt lat="49.11128068" lon="-120.48496248">
      </trkpt>
      <trkpt lat="49.11128916" lon="-120.4849799">
      </trkpt>
      <trkpt lat="49.11129886" lon="-120.48499625">
      </trkpt>
      <trkpt lat="49.11131026" lon="-120.48501138">
      </trkpt>
      <trkpt lat="49.11132351" lon="-120.48502506">
      </trkpt>
      <trkpt lat="49.11133845" lon="-120.48503752">
      </trkpt>
      <trkpt lat="49.1113547" lon="-120.4850488">
      </trkpt>
      <trkpt lat="49.1113721" lon="-120.48505899">
      </trkpt>
      <trkpt lat="49.11139011" lon="-120.48506825">
      </trkpt>
      <trkpt lat="49.11140856" lon="-120.4850767">
      </trkpt>
      <trkpt lat="49.11142699" lon="-120.48508446">
      </trkpt>
      <trkpt lat="49.11144522" lon="-120.48509167">
      </trkpt>
      <trkpt lat="49.11146299" lon="-120.48509824">
      </trkpt>
      <trkpt lat="49.11148022" lon="-120.48510437">
      </trkpt>
      <trkpt lat="49.11149716" lon="-120.48510984">
      </trkpt>
      <trkpt lat="49.11151382" lon="-120.48511488">
      </trkpt>
      <trkpt lat="49.11153046" lon="-120.48511923">
      </trkpt>
      <trkpt lat="49.11154719" lon="-120.48512292">
      </trkpt>
      <trkpt lat="49.11156407" lon="-120.48512589">
      </trkpt>
      <trkpt lat="49.1115813" lon="-120.48512819">
      </trkpt>
      <trkpt lat="49.11159888" lon="-120.4851299">
      </trkpt>
      <trkpt lat="49.11161698" lon="-120.48513091">
      </trkpt>
      <trkpt lat="49.11163534" lon="-120.48513134">
      </trkpt>
      <trkpt lat="49.11165396" lon="-120.48513141">
      </trkpt>
      <trkpt lat="49.11167293" lon="-120.48513124">
      </trkpt>
      <trkpt lat="49.11169208" lon="-120.48513084">
      </trkpt>
      <trkpt lat="49.11171151" lon="-120.48513041">
      </trkpt>
      <trkpt lat="49.11173093" lon="-120.48513011">
      </trkpt>
      <trkpt lat="49.11175054" lon="-120.48512991">
      </trkpt>
      <trkpt lat="49.11177013" lon="-120.48512961">
      </trkpt>
      <trkpt lat="49.11178983" lon="-120.48512929">
      </trkpt>
      <trkpt lat="49.1118096" lon="-120.48512851">
      </trkpt>
      <trkpt lat="49.11182927" lon="-120.48512728">
      </trkpt>
      <trkpt lat="49.11184901" lon="-120.48512538">
      </trkpt>
      <trkpt lat="49.11186874" lon="-120.48512257">
      </trkpt>
      <trkpt lat="49.11188845" lon="-120.48511888">
      </trkpt>
      <trkpt lat="49.11190804" lon="-120.48511404">
      </trkpt>
      <trkpt lat="49.11192753" lon="-120.48510831">
      </trkpt>
      <trkpt lat="49.11194683" lon="-120.48510213">
      </trkpt>
      <trkpt lat="49.11196585" lon="-120.48509574">
      </trkpt>
      <trkpt lat="49.1119846" lon="-120.48508948">
      </trkpt>
      <trkpt lat="49.11200299" lon="-120.48508358">
      </trkpt>
      <trkpt lat="49.11202097" lon="-120.4850786">
      </trkpt>
      <trkpt lat="49.11203851" lon="-120.48507467">
      </trkpt>
      <trkpt lat="49.11205546" lon="-120.48507211">
      </trkpt>
      <trkpt lat="49.11207197" lon="-120.48507049">
      </trkpt>
      <trkpt lat="49.11208805" lon="-120.48506934">
      </trkpt>
      <trkpt lat="49.11210368" lon="-120.48506843">
      </trkpt>
      <trkpt lat="49.11211903" lon="-120.48506709">
      </trkpt>
      <trkpt lat="49.11213409" lon="-120.48506485">
      </trkpt>
      <trkpt lat="49.11214886" lon="-120.48506151">
      </trkpt>
      <trkpt lat="49.1121635" lon="-120.48505637">
      </trkpt>
      <trkpt lat="49.11217792" lon="-120.48504931">
      </trkpt>
      <trkpt lat="49.1121922" lon="-120.48504034">
      </trkpt>
      <trkpt lat="49.11220619" lon="-120.48502969">
      </trkpt>
      <trkpt lat="49.11222004" lon="-120.48501768">
      </trkpt>
      <trkpt lat="49.11223361" lon="-120.48500468">
      </trkpt>
      <trkpt lat="49.11224689" lon="-120.48499089">
      </trkpt>
      <trkpt lat="49.1122598" lon="-120.48497646">
      </trkpt>
      <trkpt lat="49.11227243" lon="-120.4849618">
      </trkpt>
      <trkpt lat="49.11228471" lon="-120.48494717">
      </trkpt>
      <trkpt lat="49.11229672" lon="-120.48493289">
      </trkpt>
      <trkpt lat="49.11230874" lon="-120.48491895">
      </trkpt>
      <trkpt lat="49.11232087" lon="-120.48490591">
      </trkpt>
      <trkpt lat="49.11233338" lon="-120.48489386">
      </trkpt>
      <trkpt lat="49.11234628" lon="-120.48488326">
      </trkpt>
      <trkpt lat="49.11235976" lon="-120.4848741">
      </trkpt>
      <trkpt lat="49.11237416" lon="-120.48486682">
      </trkpt>
      <trkpt lat="49.11238934" lon="-120.48486153">
      </trkpt>
      <trkpt lat="49.11240537" lon="-120.48485812">
      </trkpt>
      <trkpt lat="49.11242179" lon="-120.48485594">
      </trkpt>
      <trkpt lat="49.11243848" lon="-120.48485475">
      </trkpt>
      <trkpt lat="49.11245529" lon="-120.48485435">
      </trkpt>
      <trkpt lat="49.11247175" lon="-120.48485409">
      </trkpt>
      <trkpt lat="49.11248785" lon="-120.48485373">
      </trkpt>
      <trkpt lat="49.11250321" lon="-120.48485295">
      </trkpt>
      <trkpt lat="49.11251774" lon="-120.48485143">
      </trkpt>
      <trkpt lat="49.11253163" lon="-120.48484902">
      </trkpt>
      <trkpt lat="49.11253843" lon="-120.48484726">
      </trkpt>
    </trkseg>
  </trk>
</gpx>