<?xml version="1.0" encoding="UTF-8"?>
<gpx xmlns="http://www.topografix.com/GPX/1/1" xmlns:xsi="http://www.w3.org/2001/XMLSchema-instance" xsi:schemaLocation="http://www.topografix.com/GPX/1/1 http://www.topografix.com/GPX/1/1/gpx.xsd" version="1.1" creator="gpx.py -- https://github.com/tkrajina/gpxpy">
  <trk>
    <name>Ski tour near Placer Mountain</name>
    <trkseg>
      <trkpt lat="49.1695063" lon="-120.4755712">
      </trkpt>
      <trkpt lat="49.1693616" lon="-120.4752254">
      </trkpt>
      <trkpt lat="49.1693262" lon="-120.4744314">
      </trkpt>
      <trkpt lat="49.1690393" lon="-120.4732386">
      </trkpt>
      <trkpt lat="49.1690162" lon="-120.4730065">
      </trkpt>
      <trkpt lat="49.1688655" lon="-120.472287">
      </trkpt>
      <trkpt lat="49.1687987" lon="-120.4721121">
      </trkpt>
      <trkpt lat="49.1686034" lon="-120.4718202">
      </trkpt>
      <trkpt lat="49.1680606" lon="-120.4712716">
      </trkpt>
      <trkpt lat="49.1678755" lon="-120.471034">
      </trkpt>
      <trkpt lat="49.1677257" lon="-120.4707673">
      </trkpt>
      <trkpt lat="49.1675184" lon="-120.4703388">
      </trkpt>
      <trkpt lat="49.1673485" lon="-120.4695654">
      </trkpt>
      <trkpt lat="49.1673083" lon="-120.4689638">
      </trkpt>
      <trkpt lat="49.1672993" lon="-120.468141">
      </trkpt>
      <trkpt lat="49.1674418" lon="-120.4668441">
      </trkpt>
      <trkpt lat="49.1674582" lon="-120.466363">
      </trkpt>
      <trkpt lat="49.1673707" lon="-120.465654">
      </trkpt>
      <trkpt lat="49.1673721" lon="-120.465311">
      </trkpt>
      <trkpt lat="49.1672855" lon="-120.4646431">
      </trkpt>
      <trkpt lat="49.1673071" lon="-120.4630322">
      </trkpt>
      <trkpt lat="49.1672592" lon="-120.4616128">
      </trkpt>
      <trkpt lat="49.1672514" lon="-120.4602735">
      </trkpt>
      <trkpt lat="49.1670826" lon="-120.4596014">
      </trkpt>
      <trkpt lat="49.1669246" lon="-120.45902">
      </trkpt>
      <trkpt lat="49.166894" lon="-120.4586752">
      </trkpt>
      <trkpt lat="49.1668024" lon="-120.4585691">
      </trkpt>
      <trkpt lat="49.1666369" lon="-120.458633">
      </trkpt>
      <trkpt lat="49.1664857" lon="-120.4588151">
      </trkpt>
      <trkpt lat="49.1664085" lon="-120.4590114">
      </trkpt>
      <trkpt lat="49.1663741" lon="-120.4592942">
      </trkpt>
      <trkpt lat="49.1663983" lon="-120.4597602">
      </trkpt>
      <trkpt lat="49.1663933" lon="-120.4599945">
      </trkpt>
      <trkpt lat="49.1661523" lon="-120.4604836">
      </trkpt>
      <trkpt lat="49.1658861" lon="-120.4607986">
      </trkpt>
      <trkpt lat="49.1657624" lon="-120.46102">
      </trkpt>
      <trkpt lat="49.1656989" lon="-120.461197">
      </trkpt>
      <trkpt lat="49.1655939" lon="-120.4613963">
      </trkpt>
      <trkpt lat="49.1655055" lon="-120.4614275">
      </trkpt>
      <trkpt lat="49.1653996" lon="-120.4608779">
      </trkpt>
      <trkpt lat="49.1652858" lon="-120.4606854">
      </trkpt>
      <trkpt lat="49.1651611" lon="-120.4606143">
      </trkpt>
      <trkpt lat="49.1648707" lon="-120.4605481">
      </trkpt>
      <trkpt lat="49.164566" lon="-120.4604328">
      </trkpt>
      <trkpt lat="49.164046" lon="-120.4600271">
      </trkpt>
      <trkpt lat="49.1638786" lon="-120.459944">
      </trkpt>
      <trkpt lat="49.1633921" lon="-120.4597024">
      </trkpt>
      <trkpt lat="49.1628439" lon="-120.4594313">
      </trkpt>
      <trkpt lat="49.1624791" lon="-120.4593894">
      </trkpt>
      <trkpt lat="49.1621957" lon="-120.4594761">
      </trkpt>
      <trkpt lat="49.1619907" lon="-120.4594934">
      </trkpt>
      <trkpt lat="49.1617797" lon="-120.4593267">
      </trkpt>
      <trkpt lat="49.1615679" lon="-120.4589978">
      </trkpt>
      <trkpt lat="49.1611992" lon="-120.4584938">
      </trkpt>
      <trkpt lat="49.1608414" lon="-120.4579237">
      </trkpt>
      <trkpt lat="49.1602783" lon="-120.4574756">
      </trkpt>
      <trkpt lat="49.1600747" lon="-120.4572759">
      </trkpt>
      <trkpt lat="49.1592885" lon="-120.4565046">
      </trkpt>
      <trkpt lat="49.1589721" lon="-120.4561242">
      </trkpt>
    </trkseg>
  </trk>
</gpx>