<?xml version="1.0" encoding="UTF-8"?>
<gpx xmlns="http://www.topografix.com/GPX/1/1" xmlns:xsi="http://www.w3.org/2001/XMLSchema-instance" xsi:schemaLocation="http://www.topografix.com/GPX/1/1 http://www.topografix.com/GPX/1/1/gpx.xsd" version="1.1" creator="gpx.py -- https://github.com/tkrajina/gpxpy">
  <trk>
    <name>McBride Range Traverse</name>
    <trkseg>
      <trkpt lat="49.9293549" lon="-122.9935298">
      </trkpt>
      <trkpt lat="49.9287215" lon="-122.9896649">
      </trkpt>
      <trkpt lat="49.9241181" lon="-122.9779919">
      </trkpt>
      <trkpt lat="49.9221702" lon="-122.9703959">
      </trkpt>
      <trkpt lat="49.917687" lon="-122.9603537">
      </trkpt>
      <trkpt lat="49.9153105" lon="-122.9530581">
      </trkpt>
      <trkpt lat="49.9140117" lon="-122.9397329">
      </trkpt>
      <trkpt lat="49.9134037" lon="-122.9358919">
      </trkpt>
      <trkpt lat="49.9132241" lon="-122.9281457">
      </trkpt>
      <trkpt lat="49.913155" lon="-122.9237254">
      </trkpt>
      <trkpt lat="49.9134452" lon="-122.9215904">
      </trkpt>
      <trkpt lat="49.9136179" lon="-122.9205068">
      </trkpt>
      <trkpt lat="49.9135419" lon="-122.9189082">
      </trkpt>
      <trkpt lat="49.9127336" lon="-122.9165693">
      </trkpt>
      <trkpt lat="49.9114209" lon="-122.9146488">
      </trkpt>
      <trkpt lat="49.9099216" lon="-122.9139193">
      </trkpt>
      <trkpt lat="49.9057137" lon="-122.914048">
      </trkpt>
      <trkpt lat="49.9044699" lon="-122.9140802">
      </trkpt>
      <trkpt lat="49.8997501" lon="-122.9117842">
      </trkpt>
      <trkpt lat="49.8949607" lon="-122.9097887">
      </trkpt>
      <trkpt lat="49.8929702" lon="-122.9094132">
      </trkpt>
      <trkpt lat="49.8896524" lon="-122.909102">
      </trkpt>
      <trkpt lat="49.8893759" lon="-122.9089304">
      </trkpt>
      <trkpt lat="49.8893068" lon="-122.9086192">
      </trkpt>
      <trkpt lat="49.8893483" lon="-122.9081042">
      </trkpt>
      <trkpt lat="49.8897423" lon="-122.9069563">
      </trkpt>
      <trkpt lat="49.8902469" lon="-122.9042633">
      </trkpt>
      <trkpt lat="49.8908344" lon="-122.9008086">
      </trkpt>
      <trkpt lat="49.8907584" lon="-122.8963562">
      </trkpt>
      <trkpt lat="49.8901363" lon="-122.8855308">
      </trkpt>
      <trkpt lat="49.8900948" lon="-122.8833206">
      </trkpt>
      <trkpt lat="49.8904612" lon="-122.882398">
      </trkpt>
      <trkpt lat="49.8910072" lon="-122.8816255">
      </trkpt>
      <trkpt lat="49.8944492" lon="-122.8768619">
      </trkpt>
      <trkpt lat="49.895873" lon="-122.8745659">
      </trkpt>
      <trkpt lat="49.8979671" lon="-122.872345">
      </trkpt>
      <trkpt lat="49.8999436" lon="-122.8711112">
      </trkpt>
      <trkpt lat="49.9018647" lon="-122.8707572">
      </trkpt>
      <trkpt lat="49.9027147" lon="-122.8706928">
      </trkpt>
      <trkpt lat="49.9032799" lon="-122.8703527">
      </trkpt>
      <trkpt lat="49.9045459" lon="-122.8685256">
      </trkpt>
      <trkpt lat="49.9053958" lon="-122.8661009">
      </trkpt>
      <trkpt lat="49.906764" lon="-122.8637191">
      </trkpt>
      <trkpt lat="49.9078819" lon="-122.8617063">
      </trkpt>
      <trkpt lat="49.9100515" lon="-122.8598395">
      </trkpt>
      <trkpt lat="49.9126438" lon="-122.8555544">
      </trkpt>
      <trkpt lat="49.9133885" lon="-122.8527263">
      </trkpt>
      <trkpt lat="49.9149789" lon="-122.8460487">
      </trkpt>
      <trkpt lat="49.9167198" lon="-122.8396757">
      </trkpt>
      <trkpt lat="49.9163869" lon="-122.8349593">
      </trkpt>
      <trkpt lat="49.9157237" lon="-122.8313974">
      </trkpt>
      <trkpt lat="49.9152401" lon="-122.8277066">
      </trkpt>
      <trkpt lat="49.9145644" lon="-122.8233035">
      </trkpt>
      <trkpt lat="49.9139979" lon="-122.819527">
      </trkpt>
      <trkpt lat="49.9143019" lon="-122.8178533">
      </trkpt>
      <trkpt lat="49.9154487" lon="-122.8168019">
      </trkpt>
      <trkpt lat="49.9172988" lon="-122.8171924">
      </trkpt>
      <trkpt lat="49.9179619" lon="-122.8171924">
      </trkpt>
      <trkpt lat="49.9181706" lon="-122.8165873">
      </trkpt>
      <trkpt lat="49.9178528" lon="-122.8134545">
      </trkpt>
      <trkpt lat="49.9178804" lon="-122.8097637">
      </trkpt>
      <trkpt lat="49.9182673" lon="-122.8085406">
      </trkpt>
      <trkpt lat="49.9199252" lon="-122.8059872">
      </trkpt>
      <trkpt lat="49.9227988" lon="-122.8031333">
      </trkpt>
      <trkpt lat="49.9260175" lon="-122.8001722">
      </trkpt>
      <trkpt lat="49.9299267" lon="-122.7948292">
      </trkpt>
      <trkpt lat="49.9322817" lon="-122.7898296">
      </trkpt>
      <trkpt lat="49.9340358" lon="-122.7855273">
      </trkpt>
      <trkpt lat="49.9363216" lon="-122.7823408">
      </trkpt>
      <trkpt lat="49.9390009" lon="-122.780238">
      </trkpt>
      <trkpt lat="49.9438342" lon="-122.7755387">
      </trkpt>
      <trkpt lat="49.945146" lon="-122.7747877">
      </trkpt>
      <trkpt lat="49.9463474" lon="-122.7734359">
      </trkpt>
      <trkpt lat="49.9473829" lon="-122.7709039">
      </trkpt>
      <trkpt lat="49.9480043" lon="-122.7686938">
      </trkpt>
      <trkpt lat="49.9480532" lon="-122.7649443">
      </trkpt>
      <trkpt lat="49.9470874" lon="-122.7614607">
      </trkpt>
      <trkpt lat="49.9467118" lon="-122.7580543">
      </trkpt>
      <trkpt lat="49.946495" lon="-122.7556553">
      </trkpt>
      <trkpt lat="49.946506" lon="-122.7543636">
      </trkpt>
      <trkpt lat="49.946999" lon="-122.7524763">
      </trkpt>
      <trkpt lat="49.9475278" lon="-122.7515537">
      </trkpt>
      <trkpt lat="49.948426" lon="-122.7501868">
      </trkpt>
      <trkpt lat="49.9491351" lon="-122.7486244">
      </trkpt>
      <trkpt lat="49.9493781" lon="-122.7469357">
      </trkpt>
      <trkpt lat="49.949171" lon="-122.7453263">
      </trkpt>
      <trkpt lat="49.9487085" lon="-122.7436419">
      </trkpt>
      <trkpt lat="49.948239" lon="-122.7411421">
      </trkpt>
      <trkpt lat="49.9485069" lon="-122.7386144">
      </trkpt>
      <trkpt lat="49.9488811" lon="-122.7359708">
      </trkpt>
      <trkpt lat="49.9503239" lon="-122.7332242">
      </trkpt>
      <trkpt lat="49.9509784" lon="-122.7305034">
      </trkpt>
      <trkpt lat="49.9516618" lon="-122.7270594">
      </trkpt>
      <trkpt lat="49.951746" lon="-122.7235039">
      </trkpt>
      <trkpt lat="49.9506429" lon="-122.7201629">
      </trkpt>
      <trkpt lat="49.950676" lon="-122.7175708">
      </trkpt>
      <trkpt lat="49.9522154" lon="-122.7151569">
      </trkpt>
      <trkpt lat="49.9535685" lon="-122.7133544">
      </trkpt>
      <trkpt lat="49.9555703" lon="-122.711788">
      </trkpt>
      <trkpt lat="49.9574271" lon="-122.7103074">
      </trkpt>
      <trkpt lat="49.960961" lon="-122.7084513">
      </trkpt>
      <trkpt lat="49.96279" lon="-122.7066167">
      </trkpt>
      <trkpt lat="49.9661841" lon="-122.7055481">
      </trkpt>
      <trkpt lat="49.9672897" lon="-122.7053936">
      </trkpt>
      <trkpt lat="49.9691253" lon="-122.7057155">
      </trkpt>
      <trkpt lat="49.9733277" lon="-122.7053185">
      </trkpt>
      <trkpt lat="49.9768674" lon="-122.7067776">
      </trkpt>
      <trkpt lat="49.9789787" lon="-122.7068313">
      </trkpt>
      <trkpt lat="49.9804137" lon="-122.705222">
      </trkpt>
      <trkpt lat="49.9826214" lon="-122.7012308">
      </trkpt>
      <trkpt lat="49.985505" lon="-122.6980766">
      </trkpt>
      <trkpt lat="49.9889541" lon="-122.6954802">
      </trkpt>
      <trkpt lat="49.99057" lon="-122.6948716">
      </trkpt>
      <trkpt lat="49.9919063" lon="-122.693828">
      </trkpt>
      <trkpt lat="49.9933575" lon="-122.6921242">
      </trkpt>
      <trkpt lat="49.996624" lon="-122.690223">
      </trkpt>
      <trkpt lat="49.9979344" lon="-122.689118">
      </trkpt>
      <trkpt lat="49.9992241" lon="-122.6872297">
      </trkpt>
      <trkpt lat="49.9995551" lon="-122.6856311">
      </trkpt>
      <trkpt lat="49.9991882" lon="-122.6836506">
      </trkpt>
      <trkpt lat="49.9985413" lon="-122.6821228">
      </trkpt>
      <trkpt lat="49.9979827" lon="-122.6811572">
      </trkpt>
      <trkpt lat="49.9964861" lon="-122.6794728">
      </trkpt>
      <trkpt lat="49.995264" lon="-122.6781896">
      </trkpt>
      <trkpt lat="49.995017" lon="-122.6771231">
      </trkpt>
      <trkpt lat="49.9951343" lon="-122.6749452">
      </trkpt>
      <trkpt lat="49.9949481" lon="-122.6720269">
      </trkpt>
      <trkpt lat="49.9942915" lon="-122.6700571">
      </trkpt>
      <trkpt lat="49.9933893" lon="-122.6687868">
      </trkpt>
      <trkpt lat="49.9925271" lon="-122.6681967">
      </trkpt>
      <trkpt lat="49.991934" lon="-122.6676603">
      </trkpt>
      <trkpt lat="49.9918305" lon="-122.6668556">
      </trkpt>
      <trkpt lat="49.9921685" lon="-122.6657291">
      </trkpt>
      <trkpt lat="49.9918857" lon="-122.6645489">
      </trkpt>
      <trkpt lat="49.9905199" lon="-122.6621135">
      </trkpt>
      <trkpt lat="49.9883264" lon="-122.6604291">
      </trkpt>
      <trkpt lat="49.9859396" lon="-122.658691">
      </trkpt>
      <trkpt lat="49.9850359" lon="-122.6567276">
      </trkpt>
      <trkpt lat="49.9840839" lon="-122.6555045">
      </trkpt>
      <trkpt lat="49.9840632" lon="-122.6530905">
      </trkpt>
      <trkpt lat="49.9841943" lon="-122.6514705">
      </trkpt>
      <trkpt lat="49.9834906" lon="-122.6485201">
      </trkpt>
      <trkpt lat="49.9829801" lon="-122.6475545">
      </trkpt>
      <trkpt lat="49.9818556" lon="-122.6468571">
      </trkpt>
      <trkpt lat="49.9809518" lon="-122.6465352">
      </trkpt>
      <trkpt lat="49.980669" lon="-122.6454945">
      </trkpt>
      <trkpt lat="49.9809381" lon="-122.641718">
      </trkpt>
      <trkpt lat="49.982035" lon="-122.6287575">
      </trkpt>
      <trkpt lat="49.9818004" lon="-122.6239081">
      </trkpt>
      <trkpt lat="49.9810691" lon="-122.621537">
      </trkpt>
      <trkpt lat="49.9800205" lon="-122.6188763">
      </trkpt>
      <trkpt lat="49.9795223" lon="-122.6163378">
      </trkpt>
      <trkpt lat="49.9795513" lon="-122.6144238">
      </trkpt>
      <trkpt lat="49.9793581" lon="-122.6100894">
      </trkpt>
      <trkpt lat="49.9786875" lon="-122.6082376">
      </trkpt>
      <trkpt lat="49.9758807" lon="-122.6028903">
      </trkpt>
      <trkpt lat="49.9744318" lon="-122.5992211">
      </trkpt>
      <trkpt lat="49.974113" lon="-122.5943008">
      </trkpt>
      <trkpt lat="49.9741475" lon="-122.590299">
      </trkpt>
      <trkpt lat="49.9751563" lon="-122.5859173">
      </trkpt>
      <trkpt lat="49.9771365" lon="-122.5820656">
      </trkpt>
      <trkpt lat="49.980364" lon="-122.5787976">
      </trkpt>
      <trkpt lat="49.9835113" lon="-122.5736006">
      </trkpt>
      <trkpt lat="49.9857258" lon="-122.5699528">
      </trkpt>
      <trkpt lat="49.9879746" lon="-122.5672169">
      </trkpt>
      <trkpt lat="49.9904992" lon="-122.5634726">
      </trkpt>
      <trkpt lat="49.9922719" lon="-122.5594814">
      </trkpt>
      <trkpt lat="49.9946032" lon="-122.5562199">
      </trkpt>
      <trkpt lat="49.9967827" lon="-122.5543209">
      </trkpt>
      <trkpt lat="49.998962" lon="-122.5525292">
      </trkpt>
      <trkpt lat="50.0022929" lon="-122.5522717">
      </trkpt>
      <trkpt lat="50.0044375" lon="-122.5541492">
      </trkpt>
    </trkseg>
  </trk>
</gpx>