<?xml version="1.0" encoding="UTF-8"?>
<gpx xmlns="http://www.topografix.com/GPX/1/1" xmlns:xsi="http://www.w3.org/2001/XMLSchema-instance" xsi:schemaLocation="http://www.topografix.com/GPX/1/1 http://www.topografix.com/GPX/1/1/gpx.xsd" version="1.1" creator="gpx.py -- https://github.com/tkrajina/gpxpy">
  <trk>
    <name>E&amp;N Rail Trail - Humpback Connector</name>
    <trkseg>
      <trkpt lat="48.4279068" lon="-123.3743009">
      </trkpt>
      <trkpt lat="48.4278959" lon="-123.3743179">
      </trkpt>
      <trkpt lat="48.4278784" lon="-123.3743543">
      </trkpt>
      <trkpt lat="48.427868" lon="-123.3744008">
      </trkpt>
    </trkseg>
    <trkseg>
      <trkpt lat="48.427868" lon="-123.3744008">
      </trkpt>
      <trkpt lat="48.4278371" lon="-123.3746691">
      </trkpt>
    </trkseg>
    <trkseg>
      <trkpt lat="48.4278371" lon="-123.3746691">
      </trkpt>
      <trkpt lat="48.4278219" lon="-123.3748044">
      </trkpt>
    </trkseg>
    <trkseg>
      <trkpt lat="48.4274749" lon="-123.3774078">
      </trkpt>
      <trkpt lat="48.4275182" lon="-123.3770549">
      </trkpt>
      <trkpt lat="48.4276033" lon="-123.3764453">
      </trkpt>
      <trkpt lat="48.4277808" lon="-123.3751416">
      </trkpt>
      <trkpt lat="48.4278121" lon="-123.3749043">
      </trkpt>
      <trkpt lat="48.4278219" lon="-123.3748044">
      </trkpt>
    </trkseg>
    <trkseg>
      <trkpt lat="48.4274612" lon="-123.3775334">
      </trkpt>
      <trkpt lat="48.4274749" lon="-123.3774078">
      </trkpt>
    </trkseg>
    <trkseg>
      <trkpt lat="48.4274612" lon="-123.3775334">
      </trkpt>
      <trkpt lat="48.4274356" lon="-123.3776375">
      </trkpt>
    </trkseg>
    <trkseg>
      <trkpt lat="48.4274356" lon="-123.3776375">
      </trkpt>
      <trkpt lat="48.4274162" lon="-123.3777299">
      </trkpt>
      <trkpt lat="48.4273527" lon="-123.3781839">
      </trkpt>
      <trkpt lat="48.4273345" lon="-123.3783772">
      </trkpt>
      <trkpt lat="48.427326" lon="-123.3785418">
      </trkpt>
      <trkpt lat="48.4273223" lon="-123.3787095">
      </trkpt>
      <trkpt lat="48.427325" lon="-123.3788775">
      </trkpt>
      <trkpt lat="48.4273356" lon="-123.3790844">
      </trkpt>
      <trkpt lat="48.4273523" lon="-123.3792539">
      </trkpt>
      <trkpt lat="48.4273795" lon="-123.3794512">
      </trkpt>
      <trkpt lat="48.4274149" lon="-123.37963">
      </trkpt>
      <trkpt lat="48.4274474" lon="-123.3797809">
      </trkpt>
      <trkpt lat="48.4274885" lon="-123.3799268">
      </trkpt>
      <trkpt lat="48.4275326" lon="-123.3800744">
      </trkpt>
      <trkpt lat="48.427573" lon="-123.3802003">
      </trkpt>
      <trkpt lat="48.4276223" lon="-123.3803326">
      </trkpt>
      <trkpt lat="48.4276888" lon="-123.3804794">
      </trkpt>
      <trkpt lat="48.4277687" lon="-123.3806404">
      </trkpt>
      <trkpt lat="48.4278516" lon="-123.3807883">
      </trkpt>
      <trkpt lat="48.4279382" lon="-123.3809208">
      </trkpt>
      <trkpt lat="48.4280192" lon="-123.381032">
      </trkpt>
      <trkpt lat="48.4280982" lon="-123.3811305">
      </trkpt>
      <trkpt lat="48.4281847" lon="-123.3812298">
      </trkpt>
      <trkpt lat="48.4282774" lon="-123.3813297">
      </trkpt>
      <trkpt lat="48.4284396" lon="-123.3814823">
      </trkpt>
      <trkpt lat="48.4285018" lon="-123.381552">
      </trkpt>
      <trkpt lat="48.4285989" lon="-123.381672">
      </trkpt>
    </trkseg>
    <trkseg>
      <trkpt lat="48.4285989" lon="-123.381672">
      </trkpt>
      <trkpt lat="48.4286601" lon="-123.3817593">
      </trkpt>
      <trkpt lat="48.4287479" lon="-123.3819009">
      </trkpt>
    </trkseg>
    <trkseg>
      <trkpt lat="48.4287479" lon="-123.3819009">
      </trkpt>
      <trkpt lat="48.4288166" lon="-123.3820512">
      </trkpt>
      <trkpt lat="48.428859" lon="-123.3821504">
      </trkpt>
      <trkpt lat="48.4288929" lon="-123.3822457">
      </trkpt>
      <trkpt lat="48.4289298" lon="-123.3823699">
      </trkpt>
      <trkpt lat="48.428961" lon="-123.3825023">
      </trkpt>
      <trkpt lat="48.4289886" lon="-123.3826589">
      </trkpt>
      <trkpt lat="48.4290338" lon="-123.3829382">
      </trkpt>
      <trkpt lat="48.4291454" lon="-123.3836133">
      </trkpt>
      <trkpt lat="48.4292363" lon="-123.384193">
      </trkpt>
      <trkpt lat="48.429252" lon="-123.3842667">
      </trkpt>
      <trkpt lat="48.4292692" lon="-123.3843259">
      </trkpt>
      <trkpt lat="48.4292891" lon="-123.3843686">
      </trkpt>
      <trkpt lat="48.4293216" lon="-123.3844283">
      </trkpt>
      <trkpt lat="48.4293617" lon="-123.3844866">
      </trkpt>
      <trkpt lat="48.4294034" lon="-123.3845309">
      </trkpt>
      <trkpt lat="48.4294502" lon="-123.3845658">
      </trkpt>
      <trkpt lat="48.4294914" lon="-123.384591">
      </trkpt>
      <trkpt lat="48.429536" lon="-123.3846094">
      </trkpt>
      <trkpt lat="48.4295842" lon="-123.3846184">
      </trkpt>
      <trkpt lat="48.4298017" lon="-123.3846264">
      </trkpt>
    </trkseg>
    <trkseg>
      <trkpt lat="48.4298017" lon="-123.3846264">
      </trkpt>
      <trkpt lat="48.4298042" lon="-123.3847016">
      </trkpt>
      <trkpt lat="48.4298056" lon="-123.3848038">
      </trkpt>
    </trkseg>
    <trkseg>
      <trkpt lat="48.4298056" lon="-123.3848038">
      </trkpt>
      <trkpt lat="48.4299587" lon="-123.3848103">
      </trkpt>
      <trkpt lat="48.4300372" lon="-123.3848137">
      </trkpt>
    </trkseg>
    <trkseg>
      <trkpt lat="48.4300372" lon="-123.3848137">
      </trkpt>
      <trkpt lat="48.4300402" lon="-123.3848742">
      </trkpt>
      <trkpt lat="48.4300447" lon="-123.3853335">
      </trkpt>
      <trkpt lat="48.4300528" lon="-123.3853996">
      </trkpt>
      <trkpt lat="48.4301122" lon="-123.3857963">
      </trkpt>
      <trkpt lat="48.4301187" lon="-123.3858299">
      </trkpt>
    </trkseg>
    <trkseg>
      <trkpt lat="48.4301187" lon="-123.3858299">
      </trkpt>
      <trkpt lat="48.4301441" lon="-123.3859498">
      </trkpt>
      <trkpt lat="48.4301715" lon="-123.3860769">
      </trkpt>
    </trkseg>
    <trkseg>
      <trkpt lat="48.4301715" lon="-123.3860769">
      </trkpt>
      <trkpt lat="48.4301844" lon="-123.3861417">
      </trkpt>
      <trkpt lat="48.4302077" lon="-123.3865906">
      </trkpt>
      <trkpt lat="48.4302306" lon="-123.3869427">
      </trkpt>
      <trkpt lat="48.430239" lon="-123.3870306">
      </trkpt>
    </trkseg>
    <trkseg>
      <trkpt lat="48.430239" lon="-123.3870306">
      </trkpt>
      <trkpt lat="48.4302564" lon="-123.3871612">
      </trkpt>
      <trkpt lat="48.4302737" lon="-123.3872902">
      </trkpt>
    </trkseg>
    <trkseg>
      <trkpt lat="48.4302737" lon="-123.3872902">
      </trkpt>
      <trkpt lat="48.430322" lon="-123.387519">
      </trkpt>
      <trkpt lat="48.4303538" lon="-123.3876628">
      </trkpt>
    </trkseg>
    <trkseg>
      <trkpt lat="48.4303538" lon="-123.3876628">
      </trkpt>
      <trkpt lat="48.4303697" lon="-123.3877264">
      </trkpt>
      <trkpt lat="48.4303778" lon="-123.3877891">
      </trkpt>
      <trkpt lat="48.4303881" lon="-123.3878686">
      </trkpt>
      <trkpt lat="48.4304004" lon="-123.3879537">
      </trkpt>
    </trkseg>
    <trkseg>
      <trkpt lat="48.4304004" lon="-123.3879537">
      </trkpt>
      <trkpt lat="48.4304623" lon="-123.3886371">
      </trkpt>
      <trkpt lat="48.4304784" lon="-123.388702">
      </trkpt>
    </trkseg>
    <trkseg>
      <trkpt lat="48.4304784" lon="-123.388702">
      </trkpt>
      <trkpt lat="48.4305029" lon="-123.3886979">
      </trkpt>
    </trkseg>
    <trkseg>
      <trkpt lat="48.4305029" lon="-123.3886979">
      </trkpt>
      <trkpt lat="48.4305073" lon="-123.3886971">
      </trkpt>
      <trkpt lat="48.4305624" lon="-123.3886877">
      </trkpt>
    </trkseg>
    <trkseg>
      <trkpt lat="48.4305624" lon="-123.3886877">
      </trkpt>
      <trkpt lat="48.4306141" lon="-123.3886789">
      </trkpt>
      <trkpt lat="48.4306202" lon="-123.3886779">
      </trkpt>
    </trkseg>
    <trkseg>
      <trkpt lat="48.4306202" lon="-123.3886779">
      </trkpt>
      <trkpt lat="48.4306375" lon="-123.388675">
      </trkpt>
    </trkseg>
    <trkseg>
      <trkpt lat="48.4306375" lon="-123.388675">
      </trkpt>
      <trkpt lat="48.4306263" lon="-123.3885653">
      </trkpt>
    </trkseg>
    <trkseg>
      <trkpt lat="48.4306263" lon="-123.3885653">
      </trkpt>
      <trkpt lat="48.430648" lon="-123.3885783">
      </trkpt>
      <trkpt lat="48.4306608" lon="-123.3885948">
      </trkpt>
      <trkpt lat="48.4306739" lon="-123.3886168">
      </trkpt>
      <trkpt lat="48.4307683" lon="-123.3887762">
      </trkpt>
      <trkpt lat="48.430863" lon="-123.3889297">
      </trkpt>
      <trkpt lat="48.4309672" lon="-123.3890773">
      </trkpt>
      <trkpt lat="48.4310573" lon="-123.3891901">
      </trkpt>
      <trkpt lat="48.4311487" lon="-123.3892972">
      </trkpt>
      <trkpt lat="48.4312338" lon="-123.3893866">
      </trkpt>
      <trkpt lat="48.4313626" lon="-123.3895077">
      </trkpt>
      <trkpt lat="48.4314989" lon="-123.3896191">
      </trkpt>
      <trkpt lat="48.4315901" lon="-123.3896838">
      </trkpt>
      <trkpt lat="48.4316777" lon="-123.3897406">
      </trkpt>
      <trkpt lat="48.4317727" lon="-123.3897954">
      </trkpt>
      <trkpt lat="48.4318584" lon="-123.3898397">
      </trkpt>
      <trkpt lat="48.4320025" lon="-123.3899">
      </trkpt>
      <trkpt lat="48.4321344" lon="-123.3899561">
      </trkpt>
      <trkpt lat="48.432225" lon="-123.3900018">
      </trkpt>
      <trkpt lat="48.4323074" lon="-123.3900468">
      </trkpt>
      <trkpt lat="48.4323788" lon="-123.3900905">
      </trkpt>
      <trkpt lat="48.4324096" lon="-123.3901118">
      </trkpt>
      <trkpt lat="48.4324185" lon="-123.3901136">
      </trkpt>
      <trkpt lat="48.4324267" lon="-123.3901057">
      </trkpt>
      <trkpt lat="48.4324392" lon="-123.3900641">
      </trkpt>
      <trkpt lat="48.4324506" lon="-123.3900293">
      </trkpt>
      <trkpt lat="48.4324583" lon="-123.3900208">
      </trkpt>
      <trkpt lat="48.4324697" lon="-123.3900211">
      </trkpt>
      <trkpt lat="48.4325106" lon="-123.3900512">
      </trkpt>
      <trkpt lat="48.4325411" lon="-123.3900648">
      </trkpt>
    </trkseg>
    <trkseg>
      <trkpt lat="48.4326014" lon="-123.3901191">
      </trkpt>
      <trkpt lat="48.4325716" lon="-123.3900912">
      </trkpt>
      <trkpt lat="48.4325411" lon="-123.3900648">
      </trkpt>
    </trkseg>
    <trkseg>
      <trkpt lat="48.4340765" lon="-123.3935034">
      </trkpt>
      <trkpt lat="48.4335587" lon="-123.3918745">
      </trkpt>
      <trkpt lat="48.4333847" lon="-123.3913645">
      </trkpt>
      <trkpt lat="48.4332818" lon="-123.3911012">
      </trkpt>
      <trkpt lat="48.4331244" lon="-123.3907832">
      </trkpt>
      <trkpt lat="48.4329698" lon="-123.3905292">
      </trkpt>
      <trkpt lat="48.4329374" lon="-123.3904879">
      </trkpt>
      <trkpt lat="48.4328068" lon="-123.390317">
      </trkpt>
      <trkpt lat="48.432678" lon="-123.3901827">
      </trkpt>
      <trkpt lat="48.4326014" lon="-123.3901191">
      </trkpt>
    </trkseg>
    <trkseg>
      <trkpt lat="48.4341999" lon="-123.3938861">
      </trkpt>
      <trkpt lat="48.4340765" lon="-123.3935034">
      </trkpt>
    </trkseg>
    <trkseg>
      <trkpt lat="48.4357377" lon="-123.3986633">
      </trkpt>
      <trkpt lat="48.4357315" lon="-123.3986515">
      </trkpt>
      <trkpt lat="48.4357103" lon="-123.3985983">
      </trkpt>
      <trkpt lat="48.4350042" lon="-123.3963987">
      </trkpt>
      <trkpt lat="48.434786" lon="-123.395721">
      </trkpt>
      <trkpt lat="48.4344865" lon="-123.3947886">
      </trkpt>
      <trkpt lat="48.4342961" lon="-123.3941776">
      </trkpt>
      <trkpt lat="48.4341999" lon="-123.3938861">
      </trkpt>
    </trkseg>
    <trkseg>
      <trkpt lat="48.4358237" lon="-123.3987937">
      </trkpt>
      <trkpt lat="48.4357826" lon="-123.398731">
      </trkpt>
      <trkpt lat="48.4357377" lon="-123.3986633">
      </trkpt>
    </trkseg>
    <trkseg>
      <trkpt lat="48.4358883" lon="-123.3989248">
      </trkpt>
      <trkpt lat="48.4358884" lon="-123.3989102">
      </trkpt>
      <trkpt lat="48.4358551" lon="-123.3988736">
      </trkpt>
      <trkpt lat="48.4358399" lon="-123.3988188">
      </trkpt>
      <trkpt lat="48.4358237" lon="-123.3987937">
      </trkpt>
    </trkseg>
    <trkseg>
      <trkpt lat="48.4358879" lon="-123.399039">
      </trkpt>
      <trkpt lat="48.4358882" lon="-123.3989659">
      </trkpt>
      <trkpt lat="48.4358883" lon="-123.3989248">
      </trkpt>
    </trkseg>
    <trkseg>
      <trkpt lat="48.4369546" lon="-123.4024774">
      </trkpt>
      <trkpt lat="48.43695" lon="-123.4024653">
      </trkpt>
      <trkpt lat="48.4369237" lon="-123.4023961">
      </trkpt>
      <trkpt lat="48.4358874" lon="-123.3991613">
      </trkpt>
      <trkpt lat="48.4358879" lon="-123.399039">
      </trkpt>
    </trkseg>
    <trkseg>
      <trkpt lat="48.4370011" lon="-123.4026101">
      </trkpt>
      <trkpt lat="48.4369766" lon="-123.4025392">
      </trkpt>
      <trkpt lat="48.4369546" lon="-123.4024774">
      </trkpt>
    </trkseg>
    <trkseg>
      <trkpt lat="48.438128" lon="-123.4061902">
      </trkpt>
      <trkpt lat="48.4380726" lon="-123.4061605">
      </trkpt>
      <trkpt lat="48.4380325" lon="-123.406077">
      </trkpt>
      <trkpt lat="48.4380029" lon="-123.4059718">
      </trkpt>
      <trkpt lat="48.4379488" lon="-123.4057159">
      </trkpt>
      <trkpt lat="48.4378644" lon="-123.4053628">
      </trkpt>
      <trkpt lat="48.4378043" lon="-123.4051459">
      </trkpt>
      <trkpt lat="48.4375739" lon="-123.4044168">
      </trkpt>
      <trkpt lat="48.4374332" lon="-123.4039811">
      </trkpt>
      <trkpt lat="48.4370212" lon="-123.4027122">
      </trkpt>
      <trkpt lat="48.4370039" lon="-123.4026244">
      </trkpt>
      <trkpt lat="48.4370011" lon="-123.4026101">
      </trkpt>
    </trkseg>
    <trkseg>
      <trkpt lat="48.438128" lon="-123.4061902">
      </trkpt>
      <trkpt lat="48.4381279" lon="-123.4062977">
      </trkpt>
      <trkpt lat="48.4381308" lon="-123.4064051">
      </trkpt>
      <trkpt lat="48.4381369" lon="-123.4065122">
      </trkpt>
      <trkpt lat="48.4381461" lon="-123.4066188">
      </trkpt>
      <trkpt lat="48.4381561" lon="-123.4067248">
      </trkpt>
      <trkpt lat="48.4381649" lon="-123.4068311">
      </trkpt>
      <trkpt lat="48.4381724" lon="-123.4069376">
      </trkpt>
      <trkpt lat="48.4381787" lon="-123.4070443">
      </trkpt>
      <trkpt lat="48.4381837" lon="-123.4071511">
      </trkpt>
      <trkpt lat="48.4381874" lon="-123.407258">
      </trkpt>
      <trkpt lat="48.43819" lon="-123.4073651">
      </trkpt>
      <trkpt lat="48.4381909" lon="-123.4074714">
      </trkpt>
      <trkpt lat="48.43819" lon="-123.4075777">
      </trkpt>
      <trkpt lat="48.4381873" lon="-123.4076839">
      </trkpt>
      <trkpt lat="48.4381828" lon="-123.40779">
      </trkpt>
      <trkpt lat="48.4381777" lon="-123.4078894">
      </trkpt>
    </trkseg>
    <trkseg>
      <trkpt lat="48.4378809" lon="-123.4105016">
      </trkpt>
      <trkpt lat="48.437898" lon="-123.4103517">
      </trkpt>
      <trkpt lat="48.4380385" lon="-123.409032">
      </trkpt>
      <trkpt lat="48.43807" lon="-123.4087281">
      </trkpt>
      <trkpt lat="48.4380967" lon="-123.4084629">
      </trkpt>
      <trkpt lat="48.4381354" lon="-123.4080167">
      </trkpt>
      <trkpt lat="48.4381463" lon="-123.4079507">
      </trkpt>
      <trkpt lat="48.4381777" lon="-123.4078894">
      </trkpt>
    </trkseg>
    <trkseg>
      <trkpt lat="48.437868" lon="-123.4106148">
      </trkpt>
      <trkpt lat="48.4378764" lon="-123.410541">
      </trkpt>
      <trkpt lat="48.4378809" lon="-123.4105016">
      </trkpt>
    </trkseg>
    <trkseg>
      <trkpt lat="48.4375375" lon="-123.4136721">
      </trkpt>
      <trkpt lat="48.4375473" lon="-123.4135809">
      </trkpt>
      <trkpt lat="48.4376028" lon="-123.4131202">
      </trkpt>
      <trkpt lat="48.4376699" lon="-123.4124871">
      </trkpt>
      <trkpt lat="48.4377125" lon="-123.4120466">
      </trkpt>
      <trkpt lat="48.4377656" lon="-123.4115721">
      </trkpt>
      <trkpt lat="48.437856" lon="-123.4107204">
      </trkpt>
      <trkpt lat="48.437868" lon="-123.4106148">
      </trkpt>
    </trkseg>
    <trkseg>
      <trkpt lat="48.4375258" lon="-123.4137829">
      </trkpt>
      <trkpt lat="48.4375332" lon="-123.413713">
      </trkpt>
      <trkpt lat="48.4375375" lon="-123.4136721">
      </trkpt>
    </trkseg>
    <trkseg>
      <trkpt lat="48.4373182" lon="-123.4186699">
      </trkpt>
      <trkpt lat="48.4373174" lon="-123.4186435">
      </trkpt>
      <trkpt lat="48.4372921" lon="-123.4186226">
      </trkpt>
      <trkpt lat="48.4372786" lon="-123.418444">
      </trkpt>
      <trkpt lat="48.4372639" lon="-123.4183299">
      </trkpt>
      <trkpt lat="48.437256" lon="-123.4182683">
      </trkpt>
      <trkpt lat="48.4372454" lon="-123.4181545">
      </trkpt>
      <trkpt lat="48.4372338" lon="-123.417949">
      </trkpt>
      <trkpt lat="48.4372218" lon="-123.41767">
      </trkpt>
      <trkpt lat="48.4372161" lon="-123.4172758">
      </trkpt>
      <trkpt lat="48.437221" lon="-123.4170065">
      </trkpt>
      <trkpt lat="48.4372287" lon="-123.4168075">
      </trkpt>
      <trkpt lat="48.4372455" lon="-123.4165352">
      </trkpt>
      <trkpt lat="48.4372616" lon="-123.4163146">
      </trkpt>
      <trkpt lat="48.4375191" lon="-123.413846">
      </trkpt>
      <trkpt lat="48.4375258" lon="-123.4137829">
      </trkpt>
    </trkseg>
    <trkseg>
      <trkpt lat="48.4373239" lon="-123.4188093">
      </trkpt>
      <trkpt lat="48.4373225" lon="-123.4187741">
      </trkpt>
      <trkpt lat="48.4373205" lon="-123.418727">
      </trkpt>
      <trkpt lat="48.4373182" lon="-123.4186699">
      </trkpt>
    </trkseg>
    <trkseg>
      <trkpt lat="48.4373049" lon="-123.4188843">
      </trkpt>
      <trkpt lat="48.4373262" lon="-123.4188563">
      </trkpt>
      <trkpt lat="48.4373239" lon="-123.4188093">
      </trkpt>
    </trkseg>
    <trkseg>
      <trkpt lat="48.4371536" lon="-123.4190742">
      </trkpt>
      <trkpt lat="48.437194" lon="-123.4190235">
      </trkpt>
      <trkpt lat="48.4372527" lon="-123.418949">
      </trkpt>
      <trkpt lat="48.437283" lon="-123.4189118">
      </trkpt>
      <trkpt lat="48.4373049" lon="-123.4188843">
      </trkpt>
    </trkseg>
    <trkseg>
      <trkpt lat="48.4371541" lon="-123.4191694">
      </trkpt>
      <trkpt lat="48.4371377" lon="-123.4190942">
      </trkpt>
      <trkpt lat="48.4371536" lon="-123.4190742">
      </trkpt>
    </trkseg>
    <trkseg>
      <trkpt lat="48.4372046" lon="-123.4193912">
      </trkpt>
      <trkpt lat="48.4371783" lon="-123.4192813">
      </trkpt>
      <trkpt lat="48.4371541" lon="-123.4191694">
      </trkpt>
    </trkseg>
    <trkseg>
      <trkpt lat="48.4372224" lon="-123.4195225">
      </trkpt>
      <trkpt lat="48.4372174" lon="-123.4194451">
      </trkpt>
      <trkpt lat="48.4372046" lon="-123.4193912">
      </trkpt>
    </trkseg>
    <trkseg>
      <trkpt lat="48.4372336" lon="-123.4196952">
      </trkpt>
      <trkpt lat="48.4372274" lon="-123.4196">
      </trkpt>
      <trkpt lat="48.4372224" lon="-123.4195225">
      </trkpt>
    </trkseg>
    <trkseg>
      <trkpt lat="48.4404301" lon="-123.4293482">
      </trkpt>
      <trkpt lat="48.4403764" lon="-123.429331">
      </trkpt>
      <trkpt lat="48.4402671" lon="-123.4292861">
      </trkpt>
      <trkpt lat="48.4401755" lon="-123.4292403">
      </trkpt>
      <trkpt lat="48.4400295" lon="-123.4291557">
      </trkpt>
      <trkpt lat="48.4398673" lon="-123.4290503">
      </trkpt>
      <trkpt lat="48.43944" lon="-123.4287653">
      </trkpt>
      <trkpt lat="48.4389851" lon="-123.4284488">
      </trkpt>
      <trkpt lat="48.4388435" lon="-123.4283511">
      </trkpt>
      <trkpt lat="48.4387392" lon="-123.4282737">
      </trkpt>
      <trkpt lat="48.4386626" lon="-123.4282068">
      </trkpt>
      <trkpt lat="48.4385713" lon="-123.428116">
      </trkpt>
      <trkpt lat="48.4384703" lon="-123.428002">
      </trkpt>
      <trkpt lat="48.4383919" lon="-123.4278954">
      </trkpt>
      <trkpt lat="48.4383306" lon="-123.4278063">
      </trkpt>
      <trkpt lat="48.438268" lon="-123.427704">
      </trkpt>
      <trkpt lat="48.4382126" lon="-123.427597">
      </trkpt>
      <trkpt lat="48.4381653" lon="-123.4274995">
      </trkpt>
      <trkpt lat="48.4380938" lon="-123.4273353">
      </trkpt>
      <trkpt lat="48.4380473" lon="-123.4272095">
      </trkpt>
      <trkpt lat="48.4380074" lon="-123.4270873">
      </trkpt>
      <trkpt lat="48.437965" lon="-123.426936">
      </trkpt>
      <trkpt lat="48.4379315" lon="-123.4267899">
      </trkpt>
      <trkpt lat="48.437902" lon="-123.4266337">
      </trkpt>
      <trkpt lat="48.4378754" lon="-123.4264505">
      </trkpt>
      <trkpt lat="48.4378538" lon="-123.4262551">
      </trkpt>
      <trkpt lat="48.4378379" lon="-123.4260596">
      </trkpt>
      <trkpt lat="48.4377683" lon="-123.4251086">
      </trkpt>
      <trkpt lat="48.4377579" lon="-123.4249392">
      </trkpt>
      <trkpt lat="48.4377439" lon="-123.42476">
      </trkpt>
      <trkpt lat="48.4377023" lon="-123.4242568">
      </trkpt>
      <trkpt lat="48.4376853" lon="-123.4240137">
      </trkpt>
      <trkpt lat="48.4376376" lon="-123.4233845">
      </trkpt>
      <trkpt lat="48.4376332" lon="-123.4233025">
      </trkpt>
      <trkpt lat="48.4376324" lon="-123.4231556">
      </trkpt>
      <trkpt lat="48.4376298" lon="-123.4230905">
      </trkpt>
      <trkpt lat="48.4375969" lon="-123.4226583">
      </trkpt>
      <trkpt lat="48.4375871" lon="-123.4225577">
      </trkpt>
      <trkpt lat="48.437572" lon="-123.422455">
      </trkpt>
      <trkpt lat="48.4375633" lon="-123.4223689">
      </trkpt>
      <trkpt lat="48.4375283" lon="-123.4218978">
      </trkpt>
      <trkpt lat="48.4374877" lon="-123.4214125">
      </trkpt>
      <trkpt lat="48.4374779" lon="-123.42126">
      </trkpt>
      <trkpt lat="48.4374692" lon="-123.4210639">
      </trkpt>
      <trkpt lat="48.4373978" lon="-123.4201735">
      </trkpt>
      <trkpt lat="48.4373952" lon="-123.4201244">
      </trkpt>
      <trkpt lat="48.4374025" lon="-123.4200908">
      </trkpt>
      <trkpt lat="48.4374119" lon="-123.4200576">
      </trkpt>
      <trkpt lat="48.4374008" lon="-123.4200194">
      </trkpt>
      <trkpt lat="48.4373917" lon="-123.4199969">
      </trkpt>
      <trkpt lat="48.4373793" lon="-123.4199787">
      </trkpt>
      <trkpt lat="48.4373623" lon="-123.4199675">
      </trkpt>
      <trkpt lat="48.4373438" lon="-123.4199643">
      </trkpt>
      <trkpt lat="48.4373278" lon="-123.4199672">
      </trkpt>
      <trkpt lat="48.4372879" lon="-123.4199717">
      </trkpt>
      <trkpt lat="48.4372777" lon="-123.4199564">
      </trkpt>
      <trkpt lat="48.4372777" lon="-123.419898">
      </trkpt>
      <trkpt lat="48.4372706" lon="-123.4198703">
      </trkpt>
      <trkpt lat="48.4372546" lon="-123.419851">
      </trkpt>
      <trkpt lat="48.4372412" lon="-123.4198116">
      </trkpt>
      <trkpt lat="48.4372336" lon="-123.4196952">
      </trkpt>
    </trkseg>
    <trkseg>
      <trkpt lat="48.4404935" lon="-123.4293678">
      </trkpt>
      <trkpt lat="48.4404638" lon="-123.4293594">
      </trkpt>
      <trkpt lat="48.4404301" lon="-123.4293482">
      </trkpt>
    </trkseg>
    <trkseg>
      <trkpt lat="48.4447272" lon="-123.4279193">
      </trkpt>
      <trkpt lat="48.444488" lon="-123.4280742">
      </trkpt>
      <trkpt lat="48.4444299" lon="-123.428105">
      </trkpt>
      <trkpt lat="48.4442463" lon="-123.4282012">
      </trkpt>
      <trkpt lat="48.4441531" lon="-123.4282452">
      </trkpt>
      <trkpt lat="48.4440477" lon="-123.4282905">
      </trkpt>
      <trkpt lat="48.4439245" lon="-123.4283712">
      </trkpt>
      <trkpt lat="48.4438336" lon="-123.4284307">
      </trkpt>
      <trkpt lat="48.4435025" lon="-123.4286444">
      </trkpt>
      <trkpt lat="48.4433674" lon="-123.4287351">
      </trkpt>
      <trkpt lat="48.4432427" lon="-123.428814">
      </trkpt>
      <trkpt lat="48.44319" lon="-123.4288487">
      </trkpt>
      <trkpt lat="48.4431229" lon="-123.42888">
      </trkpt>
      <trkpt lat="48.4430511" lon="-123.4289016">
      </trkpt>
      <trkpt lat="48.4417424" lon="-123.429272">
      </trkpt>
      <trkpt lat="48.4415377" lon="-123.4293291">
      </trkpt>
      <trkpt lat="48.4413365" lon="-123.4293803">
      </trkpt>
      <trkpt lat="48.4411387" lon="-123.4294202">
      </trkpt>
      <trkpt lat="48.4410211" lon="-123.4294314">
      </trkpt>
      <trkpt lat="48.440906" lon="-123.4294333">
      </trkpt>
      <trkpt lat="48.4407459" lon="-123.4294208">
      </trkpt>
      <trkpt lat="48.4406306" lon="-123.429401">
      </trkpt>
      <trkpt lat="48.4405516" lon="-123.4293851">
      </trkpt>
      <trkpt lat="48.4404935" lon="-123.4293678">
      </trkpt>
    </trkseg>
    <trkseg>
      <trkpt lat="48.4449377" lon="-123.427784">
      </trkpt>
      <trkpt lat="48.4448798" lon="-123.4278245">
      </trkpt>
      <trkpt lat="48.4447676" lon="-123.4278931">
      </trkpt>
      <trkpt lat="48.4447272" lon="-123.4279193">
      </trkpt>
    </trkseg>
    <trkseg>
      <trkpt lat="48.4518847" lon="-123.4314391">
      </trkpt>
      <trkpt lat="48.4514255" lon="-123.4316701">
      </trkpt>
      <trkpt lat="48.4512173" lon="-123.4317775">
      </trkpt>
      <trkpt lat="48.4510899" lon="-123.4318369">
      </trkpt>
      <trkpt lat="48.4508996" lon="-123.4319243">
      </trkpt>
      <trkpt lat="48.4506957" lon="-123.4319961">
      </trkpt>
      <trkpt lat="48.4505258" lon="-123.432043">
      </trkpt>
      <trkpt lat="48.4503253" lon="-123.4320744">
      </trkpt>
      <trkpt lat="48.4501646" lon="-123.432088">
      </trkpt>
      <trkpt lat="48.4500474" lon="-123.4320908">
      </trkpt>
      <trkpt lat="48.4499178" lon="-123.4320842">
      </trkpt>
      <trkpt lat="48.4497984" lon="-123.4320692">
      </trkpt>
      <trkpt lat="48.4495914" lon="-123.4320313">
      </trkpt>
      <trkpt lat="48.4494896" lon="-123.4320028">
      </trkpt>
      <trkpt lat="48.4493795" lon="-123.431968">
      </trkpt>
      <trkpt lat="48.4492309" lon="-123.431917">
      </trkpt>
      <trkpt lat="48.4491703" lon="-123.4318954">
      </trkpt>
      <trkpt lat="48.4490641" lon="-123.4318576">
      </trkpt>
      <trkpt lat="48.4489634" lon="-123.4318218">
      </trkpt>
      <trkpt lat="48.4485609" lon="-123.4316814">
      </trkpt>
      <trkpt lat="48.4484152" lon="-123.4316255">
      </trkpt>
      <trkpt lat="48.4484045" lon="-123.4316214">
      </trkpt>
      <trkpt lat="48.4481534" lon="-123.4315251">
      </trkpt>
      <trkpt lat="48.447733" lon="-123.4313757">
      </trkpt>
      <trkpt lat="48.4475161" lon="-123.4312998">
      </trkpt>
      <trkpt lat="48.4473807" lon="-123.4312474">
      </trkpt>
      <trkpt lat="48.4472843" lon="-123.431204">
      </trkpt>
      <trkpt lat="48.4471861" lon="-123.4311506">
      </trkpt>
      <trkpt lat="48.4470824" lon="-123.4310838">
      </trkpt>
      <trkpt lat="48.4469668" lon="-123.4310055">
      </trkpt>
      <trkpt lat="48.4467831" lon="-123.4308771">
      </trkpt>
      <trkpt lat="48.4466407" lon="-123.4307504">
      </trkpt>
      <trkpt lat="48.4465755" lon="-123.4306964">
      </trkpt>
      <trkpt lat="48.446485" lon="-123.430617">
      </trkpt>
      <trkpt lat="48.4464141" lon="-123.4305588">
      </trkpt>
      <trkpt lat="48.4464022" lon="-123.4305448">
      </trkpt>
      <trkpt lat="48.4463936" lon="-123.4305184">
      </trkpt>
      <trkpt lat="48.4463885" lon="-123.4304919">
      </trkpt>
      <trkpt lat="48.4463856" lon="-123.4304749">
      </trkpt>
      <trkpt lat="48.4463861" lon="-123.4304473">
      </trkpt>
      <trkpt lat="48.4463946" lon="-123.430383">
      </trkpt>
      <trkpt lat="48.4463998" lon="-123.4303322">
      </trkpt>
      <trkpt lat="48.4464038" lon="-123.4302928">
      </trkpt>
      <trkpt lat="48.4464039" lon="-123.4302203">
      </trkpt>
      <trkpt lat="48.4463942" lon="-123.4286538">
      </trkpt>
      <trkpt lat="48.4463938" lon="-123.4285502">
      </trkpt>
      <trkpt lat="48.4463957" lon="-123.4284642">
      </trkpt>
      <trkpt lat="48.4463992" lon="-123.4283816">
      </trkpt>
      <trkpt lat="48.446407" lon="-123.4282801">
      </trkpt>
      <trkpt lat="48.4464279" lon="-123.4280512">
      </trkpt>
      <trkpt lat="48.4464365" lon="-123.4278584">
      </trkpt>
      <trkpt lat="48.4464371" lon="-123.4277513">
      </trkpt>
      <trkpt lat="48.4464402" lon="-123.4276018">
      </trkpt>
      <trkpt lat="48.4464357" lon="-123.4271475">
      </trkpt>
      <trkpt lat="48.4464335" lon="-123.4270804">
      </trkpt>
      <trkpt lat="48.4464259" lon="-123.4270407">
      </trkpt>
      <trkpt lat="48.4464104" lon="-123.4270046">
      </trkpt>
      <trkpt lat="48.4463892" lon="-123.4269689">
      </trkpt>
      <trkpt lat="48.4463646" lon="-123.4269486">
      </trkpt>
      <trkpt lat="48.4463322" lon="-123.426935">
      </trkpt>
      <trkpt lat="48.4463028" lon="-123.4269357">
      </trkpt>
      <trkpt lat="48.4462746" lon="-123.4269417">
      </trkpt>
      <trkpt lat="48.4462338" lon="-123.4269557">
      </trkpt>
      <trkpt lat="48.4461749" lon="-123.4269875">
      </trkpt>
      <trkpt lat="48.4460562" lon="-123.4270627">
      </trkpt>
      <trkpt lat="48.4449377" lon="-123.427784">
      </trkpt>
    </trkseg>
    <trkseg>
      <trkpt lat="48.4518847" lon="-123.4314391">
      </trkpt>
      <trkpt lat="48.4519939" lon="-123.4313838">
      </trkpt>
      <trkpt lat="48.4526481" lon="-123.4310536">
      </trkpt>
    </trkseg>
    <trkseg>
      <trkpt lat="48.4526481" lon="-123.4310536">
      </trkpt>
      <trkpt lat="48.4527477" lon="-123.4310035">
      </trkpt>
      <trkpt lat="48.4529299" lon="-123.4309131">
      </trkpt>
    </trkseg>
    <trkseg>
      <trkpt lat="48.4529299" lon="-123.4309131">
      </trkpt>
      <trkpt lat="48.4530558" lon="-123.4308503">
      </trkpt>
      <trkpt lat="48.453289" lon="-123.4307343">
      </trkpt>
      <trkpt lat="48.4535751" lon="-123.4305918">
      </trkpt>
      <trkpt lat="48.4537003" lon="-123.4305425">
      </trkpt>
      <trkpt lat="48.4538422" lon="-123.4305145">
      </trkpt>
      <trkpt lat="48.4540142" lon="-123.4304954">
      </trkpt>
      <trkpt lat="48.454167" lon="-123.4305071">
      </trkpt>
      <trkpt lat="48.4543048" lon="-123.4305307">
      </trkpt>
      <trkpt lat="48.4544463" lon="-123.4305733">
      </trkpt>
      <trkpt lat="48.4545786" lon="-123.430623">
      </trkpt>
      <trkpt lat="48.4547195" lon="-123.4306934">
      </trkpt>
      <trkpt lat="48.4548644" lon="-123.4307807">
      </trkpt>
      <trkpt lat="48.4549939" lon="-123.430883">
      </trkpt>
      <trkpt lat="48.4551264" lon="-123.4310149">
      </trkpt>
      <trkpt lat="48.4552688" lon="-123.4311806">
      </trkpt>
      <trkpt lat="48.4553248" lon="-123.4312665">
      </trkpt>
      <trkpt lat="48.455385" lon="-123.431367">
      </trkpt>
      <trkpt lat="48.4554292" lon="-123.4314586">
      </trkpt>
      <trkpt lat="48.455488" lon="-123.431593">
      </trkpt>
      <trkpt lat="48.4555713" lon="-123.4317913">
      </trkpt>
      <trkpt lat="48.4557" lon="-123.4320692">
      </trkpt>
      <trkpt lat="48.4559782" lon="-123.4326813">
      </trkpt>
      <trkpt lat="48.4562847" lon="-123.4333633">
      </trkpt>
      <trkpt lat="48.4565642" lon="-123.4339875">
      </trkpt>
      <trkpt lat="48.4568929" lon="-123.4347194">
      </trkpt>
      <trkpt lat="48.4571074" lon="-123.4351959">
      </trkpt>
      <trkpt lat="48.4572223" lon="-123.4354331">
      </trkpt>
      <trkpt lat="48.4574147" lon="-123.4358051">
      </trkpt>
      <trkpt lat="48.4575792" lon="-123.4361161">
      </trkpt>
      <trkpt lat="48.4577396" lon="-123.4364554">
      </trkpt>
    </trkseg>
    <trkseg>
      <trkpt lat="48.4579358" lon="-123.4368902">
      </trkpt>
      <trkpt lat="48.4578078" lon="-123.4366066">
      </trkpt>
      <trkpt lat="48.4577396" lon="-123.4364554">
      </trkpt>
    </trkseg>
    <trkseg>
      <trkpt lat="48.4608497" lon="-123.4537452">
      </trkpt>
      <trkpt lat="48.4608205" lon="-123.4535418">
      </trkpt>
      <trkpt lat="48.4607519" lon="-123.4530577">
      </trkpt>
      <trkpt lat="48.4606392" lon="-123.4523554">
      </trkpt>
      <trkpt lat="48.4605624" lon="-123.4519547">
      </trkpt>
      <trkpt lat="48.4605135" lon="-123.4516994">
      </trkpt>
      <trkpt lat="48.4604725" lon="-123.4514383">
      </trkpt>
      <trkpt lat="48.460466" lon="-123.4512989">
      </trkpt>
      <trkpt lat="48.4604944" lon="-123.4511398">
      </trkpt>
      <trkpt lat="48.4605375" lon="-123.4509445">
      </trkpt>
      <trkpt lat="48.4605493" lon="-123.4508677">
      </trkpt>
      <trkpt lat="48.460554" lon="-123.4507807">
      </trkpt>
      <trkpt lat="48.4605519" lon="-123.4506875">
      </trkpt>
      <trkpt lat="48.460533" lon="-123.4502866">
      </trkpt>
      <trkpt lat="48.4605182" lon="-123.4499696">
      </trkpt>
      <trkpt lat="48.460505" lon="-123.4496324">
      </trkpt>
      <trkpt lat="48.4604861" lon="-123.4492417">
      </trkpt>
      <trkpt lat="48.4604679" lon="-123.4488564">
      </trkpt>
      <trkpt lat="48.4604493" lon="-123.448411">
      </trkpt>
      <trkpt lat="48.4604395" lon="-123.4480906">
      </trkpt>
      <trkpt lat="48.4604359" lon="-123.4477964">
      </trkpt>
      <trkpt lat="48.4604359" lon="-123.4474629">
      </trkpt>
      <trkpt lat="48.460434" lon="-123.4471003">
      </trkpt>
      <trkpt lat="48.4604335" lon="-123.4470082">
      </trkpt>
      <trkpt lat="48.460429" lon="-123.4458954">
      </trkpt>
      <trkpt lat="48.4604259" lon="-123.4450569">
      </trkpt>
      <trkpt lat="48.4604229" lon="-123.4443827">
      </trkpt>
      <trkpt lat="48.460418" lon="-123.4442219">
      </trkpt>
      <trkpt lat="48.4604017" lon="-123.4440161">
      </trkpt>
      <trkpt lat="48.4603799" lon="-123.4438497">
      </trkpt>
      <trkpt lat="48.4603488" lon="-123.4436691">
      </trkpt>
      <trkpt lat="48.4603227" lon="-123.4435451">
      </trkpt>
      <trkpt lat="48.4602895" lon="-123.4434118">
      </trkpt>
      <trkpt lat="48.4602448" lon="-123.443257">
      </trkpt>
      <trkpt lat="48.4601915" lon="-123.4431029">
      </trkpt>
      <trkpt lat="48.4601386" lon="-123.4429664">
      </trkpt>
      <trkpt lat="48.460079" lon="-123.4428369">
      </trkpt>
      <trkpt lat="48.4600233" lon="-123.4427423">
      </trkpt>
      <trkpt lat="48.4599643" lon="-123.4426574">
      </trkpt>
      <trkpt lat="48.4599125" lon="-123.4425732">
      </trkpt>
      <trkpt lat="48.459832" lon="-123.4424281">
      </trkpt>
      <trkpt lat="48.4597558" lon="-123.4422954">
      </trkpt>
      <trkpt lat="48.4596132" lon="-123.4420308">
      </trkpt>
      <trkpt lat="48.4595571" lon="-123.4419171">
      </trkpt>
      <trkpt lat="48.459496" lon="-123.4417838">
      </trkpt>
      <trkpt lat="48.4594226" lon="-123.4416071">
      </trkpt>
      <trkpt lat="48.4593666" lon="-123.4414603">
      </trkpt>
      <trkpt lat="48.4593143" lon="-123.4413145">
      </trkpt>
      <trkpt lat="48.4592664" lon="-123.4411712">
      </trkpt>
      <trkpt lat="48.4592279" lon="-123.4410439">
      </trkpt>
      <trkpt lat="48.4591896" lon="-123.4409052">
      </trkpt>
      <trkpt lat="48.4591244" lon="-123.4406565">
      </trkpt>
      <trkpt lat="48.4589797" lon="-123.4400819">
      </trkpt>
      <trkpt lat="48.4587752" lon="-123.4392841">
      </trkpt>
      <trkpt lat="48.458693" lon="-123.4389553">
      </trkpt>
      <trkpt lat="48.4585821" lon="-123.4385237">
      </trkpt>
      <trkpt lat="48.4585152" lon="-123.438295">
      </trkpt>
      <trkpt lat="48.4584448" lon="-123.4380795">
      </trkpt>
      <trkpt lat="48.4583864" lon="-123.4379222">
      </trkpt>
      <trkpt lat="48.4583123" lon="-123.4377396">
      </trkpt>
      <trkpt lat="48.4582211" lon="-123.437533">
      </trkpt>
      <trkpt lat="48.4580853" lon="-123.4372329">
      </trkpt>
      <trkpt lat="48.4579713" lon="-123.4369716">
      </trkpt>
      <trkpt lat="48.4579358" lon="-123.4368902">
      </trkpt>
    </trkseg>
    <trkseg>
      <trkpt lat="48.4608497" lon="-123.4537452">
      </trkpt>
      <trkpt lat="48.460857" lon="-123.4538773">
      </trkpt>
      <trkpt lat="48.460864" lon="-123.4540845">
      </trkpt>
      <trkpt lat="48.4608667" lon="-123.4541936">
      </trkpt>
      <trkpt lat="48.4608681" lon="-123.4542285">
      </trkpt>
      <trkpt lat="48.4609012" lon="-123.4542849">
      </trkpt>
    </trkseg>
    <trkseg>
      <trkpt lat="48.4610691" lon="-123.4545707">
      </trkpt>
      <trkpt lat="48.4609503" lon="-123.4543685">
      </trkpt>
      <trkpt lat="48.46093" lon="-123.454334">
      </trkpt>
      <trkpt lat="48.4609012" lon="-123.4542849">
      </trkpt>
    </trkseg>
    <trkseg>
      <trkpt lat="48.4610691" lon="-123.4545707">
      </trkpt>
      <trkpt lat="48.4609752" lon="-123.454748">
      </trkpt>
      <trkpt lat="48.4609019" lon="-123.4549031">
      </trkpt>
      <trkpt lat="48.4608356" lon="-123.4550206">
      </trkpt>
      <trkpt lat="48.4608085" lon="-123.4550856">
      </trkpt>
      <trkpt lat="48.4607808" lon="-123.4551582">
      </trkpt>
      <trkpt lat="48.460757" lon="-123.4552286">
      </trkpt>
      <trkpt lat="48.4607249" lon="-123.4553363">
      </trkpt>
      <trkpt lat="48.4607029" lon="-123.4554134">
      </trkpt>
      <trkpt lat="48.4606843" lon="-123.4554634">
      </trkpt>
      <trkpt lat="48.4606624" lon="-123.4555127">
      </trkpt>
      <trkpt lat="48.4606228" lon="-123.4555928">
      </trkpt>
      <trkpt lat="48.4605553" lon="-123.4557459">
      </trkpt>
      <trkpt lat="48.4604971" lon="-123.4558774">
      </trkpt>
      <trkpt lat="48.4604386" lon="-123.455995">
      </trkpt>
      <trkpt lat="48.4603777" lon="-123.4561026">
      </trkpt>
      <trkpt lat="48.4603236" lon="-123.4561807">
      </trkpt>
      <trkpt lat="48.4602753" lon="-123.4562759">
      </trkpt>
      <trkpt lat="48.4602309" lon="-123.4563899">
      </trkpt>
      <trkpt lat="48.460192" lon="-123.4565239">
      </trkpt>
      <trkpt lat="48.4601468" lon="-123.4566631">
      </trkpt>
      <trkpt lat="48.4601211" lon="-123.4567405">
      </trkpt>
      <trkpt lat="48.4600964" lon="-123.4567956">
      </trkpt>
      <trkpt lat="48.4599916" lon="-123.4570041">
      </trkpt>
      <trkpt lat="48.4599045" lon="-123.4571732">
      </trkpt>
      <trkpt lat="48.4598856" lon="-123.4572089">
      </trkpt>
      <trkpt lat="48.4598739" lon="-123.4572365">
      </trkpt>
      <trkpt lat="48.4598603" lon="-123.4572723">
      </trkpt>
      <trkpt lat="48.4598432" lon="-123.4573057">
      </trkpt>
      <trkpt lat="48.4598255" lon="-123.4573333">
      </trkpt>
      <trkpt lat="48.4598021" lon="-123.4573619">
      </trkpt>
      <trkpt lat="48.4597662" lon="-123.4573977">
      </trkpt>
      <trkpt lat="48.4597427" lon="-123.4574239">
      </trkpt>
      <trkpt lat="48.4597142" lon="-123.4574597">
      </trkpt>
      <trkpt lat="48.4596848" lon="-123.4575026">
      </trkpt>
      <trkpt lat="48.459656" lon="-123.4575593">
      </trkpt>
      <trkpt lat="48.4596343" lon="-123.4576193">
      </trkpt>
    </trkseg>
    <trkseg>
      <trkpt lat="48.4596343" lon="-123.4576193">
      </trkpt>
      <trkpt lat="48.4595736" lon="-123.4578686">
      </trkpt>
      <trkpt lat="48.4595076" lon="-123.4581769">
      </trkpt>
      <trkpt lat="48.4594518" lon="-123.4584286">
      </trkpt>
      <trkpt lat="48.4593948" lon="-123.4586656">
      </trkpt>
      <trkpt lat="48.4593295" lon="-123.458935">
      </trkpt>
      <trkpt lat="48.459085" lon="-123.4599538">
      </trkpt>
      <trkpt lat="48.4589992" lon="-123.4603304">
      </trkpt>
      <trkpt lat="48.4589135" lon="-123.4607297">
      </trkpt>
      <trkpt lat="48.458374" lon="-123.4631249">
      </trkpt>
      <trkpt lat="48.4583023" lon="-123.4634338">
      </trkpt>
      <trkpt lat="48.4582318" lon="-123.4637385">
      </trkpt>
    </trkseg>
    <trkseg>
      <trkpt lat="48.4582318" lon="-123.4637385">
      </trkpt>
      <trkpt lat="48.4581203" lon="-123.4642165">
      </trkpt>
    </trkseg>
    <trkseg>
      <trkpt lat="48.4581203" lon="-123.4642165">
      </trkpt>
      <trkpt lat="48.4580556" lon="-123.4644857">
      </trkpt>
      <trkpt lat="48.4579913" lon="-123.4647604">
      </trkpt>
      <trkpt lat="48.4579475" lon="-123.4649513">
      </trkpt>
      <trkpt lat="48.457931" lon="-123.4650239">
      </trkpt>
      <trkpt lat="48.4578611" lon="-123.4653022">
      </trkpt>
      <trkpt lat="48.457826" lon="-123.4654321">
      </trkpt>
      <trkpt lat="48.4577972" lon="-123.4655284">
      </trkpt>
    </trkseg>
    <trkseg>
      <trkpt lat="48.4577972" lon="-123.4655284">
      </trkpt>
      <trkpt lat="48.4577609" lon="-123.4656002">
      </trkpt>
      <trkpt lat="48.4577163" lon="-123.4656705">
      </trkpt>
      <trkpt lat="48.4576549" lon="-123.4657556">
      </trkpt>
      <trkpt lat="48.4576387" lon="-123.4657883">
      </trkpt>
      <trkpt lat="48.4576331" lon="-123.4657997">
      </trkpt>
      <trkpt lat="48.4576183" lon="-123.4658503">
      </trkpt>
      <trkpt lat="48.4576083" lon="-123.4659145">
      </trkpt>
    </trkseg>
    <trkseg>
      <trkpt lat="48.4576083" lon="-123.4659145">
      </trkpt>
      <trkpt lat="48.4576058" lon="-123.4660117">
      </trkpt>
      <trkpt lat="48.4576018" lon="-123.4661215">
      </trkpt>
    </trkseg>
    <trkseg>
      <trkpt lat="48.4576018" lon="-123.4661215">
      </trkpt>
      <trkpt lat="48.4575942" lon="-123.4661817">
      </trkpt>
      <trkpt lat="48.4575798" lon="-123.466232">
      </trkpt>
      <trkpt lat="48.4575538" lon="-123.466279">
      </trkpt>
    </trkseg>
    <trkseg>
      <trkpt lat="48.4575538" lon="-123.466279">
      </trkpt>
      <trkpt lat="48.4575196" lon="-123.4663205">
      </trkpt>
      <trkpt lat="48.4574231" lon="-123.4664244">
      </trkpt>
      <trkpt lat="48.4573868" lon="-123.4664745">
      </trkpt>
      <trkpt lat="48.4572741" lon="-123.466651">
      </trkpt>
      <trkpt lat="48.4571872" lon="-123.4667783">
      </trkpt>
      <trkpt lat="48.4570549" lon="-123.4669516">
      </trkpt>
      <trkpt lat="48.4568966" lon="-123.4671426">
      </trkpt>
      <trkpt lat="48.4567473" lon="-123.4673123">
      </trkpt>
      <trkpt lat="48.4566152" lon="-123.4674606">
      </trkpt>
      <trkpt lat="48.4564663" lon="-123.4676289">
      </trkpt>
      <trkpt lat="48.4562198" lon="-123.4679091">
      </trkpt>
      <trkpt lat="48.4560848" lon="-123.4680381">
      </trkpt>
      <trkpt lat="48.4559391" lon="-123.4681999">
      </trkpt>
      <trkpt lat="48.455801" lon="-123.468351">
      </trkpt>
      <trkpt lat="48.4556764" lon="-123.4684732">
      </trkpt>
      <trkpt lat="48.4555219" lon="-123.4686217">
      </trkpt>
      <trkpt lat="48.4552355" lon="-123.4688981">
      </trkpt>
      <trkpt lat="48.4550747" lon="-123.4690556">
      </trkpt>
      <trkpt lat="48.455026" lon="-123.4690917">
      </trkpt>
      <trkpt lat="48.454943" lon="-123.4691396">
      </trkpt>
      <trkpt lat="48.4547889" lon="-123.469226">
      </trkpt>
      <trkpt lat="48.4545654" lon="-123.4693618">
      </trkpt>
      <trkpt lat="48.4541262" lon="-123.4696195">
      </trkpt>
      <trkpt lat="48.4538719" lon="-123.4697589">
      </trkpt>
      <trkpt lat="48.4536424" lon="-123.4698856">
      </trkpt>
      <trkpt lat="48.4532367" lon="-123.4701102">
      </trkpt>
      <trkpt lat="48.4530783" lon="-123.470196">
      </trkpt>
      <trkpt lat="48.4530127" lon="-123.4702316">
      </trkpt>
      <trkpt lat="48.4529452" lon="-123.4702663">
      </trkpt>
      <trkpt lat="48.4527856" lon="-123.4703484">
      </trkpt>
      <trkpt lat="48.4527352" lon="-123.4703714">
      </trkpt>
      <trkpt lat="48.4526719" lon="-123.4703973">
      </trkpt>
      <trkpt lat="48.4525992" lon="-123.4704243">
      </trkpt>
      <trkpt lat="48.4525168" lon="-123.4704492">
      </trkpt>
      <trkpt lat="48.452399" lon="-123.4704811">
      </trkpt>
      <trkpt lat="48.4522978" lon="-123.4705034">
      </trkpt>
      <trkpt lat="48.4522396" lon="-123.4705116">
      </trkpt>
      <trkpt lat="48.4521744" lon="-123.4705144">
      </trkpt>
      <trkpt lat="48.4520778" lon="-123.4705086">
      </trkpt>
      <trkpt lat="48.4520391" lon="-123.4705015">
      </trkpt>
      <trkpt lat="48.4519888" lon="-123.470493">
      </trkpt>
      <trkpt lat="48.4519438" lon="-123.4704818">
      </trkpt>
      <trkpt lat="48.4517971" lon="-123.4704348">
      </trkpt>
      <trkpt lat="48.4516633" lon="-123.4703785">
      </trkpt>
      <trkpt lat="48.4515786" lon="-123.4703313">
      </trkpt>
      <trkpt lat="48.4514582" lon="-123.4702523">
      </trkpt>
      <trkpt lat="48.4512949" lon="-123.4701363">
      </trkpt>
      <trkpt lat="48.4511456" lon="-123.4700261">
      </trkpt>
      <trkpt lat="48.4508605" lon="-123.4697898">
      </trkpt>
      <trkpt lat="48.4507703" lon="-123.4697145">
      </trkpt>
      <trkpt lat="48.4507082" lon="-123.4696599">
      </trkpt>
      <trkpt lat="48.4506716" lon="-123.469628">
      </trkpt>
    </trkseg>
    <trkseg>
      <trkpt lat="48.4506716" lon="-123.469628">
      </trkpt>
      <trkpt lat="48.4506305" lon="-123.4696084">
      </trkpt>
      <trkpt lat="48.4506002" lon="-123.4695916">
      </trkpt>
    </trkseg>
    <trkseg>
      <trkpt lat="48.4506002" lon="-123.4695916">
      </trkpt>
      <trkpt lat="48.4505796" lon="-123.4695778">
      </trkpt>
      <trkpt lat="48.4505796" lon="-123.4695777">
      </trkpt>
      <trkpt lat="48.4504838" lon="-123.4695163">
      </trkpt>
      <trkpt lat="48.4504401" lon="-123.4694904">
      </trkpt>
      <trkpt lat="48.4503697" lon="-123.4694484">
      </trkpt>
      <trkpt lat="48.4503063" lon="-123.4694193">
      </trkpt>
      <trkpt lat="48.4502493" lon="-123.4693974">
      </trkpt>
      <trkpt lat="48.4501931" lon="-123.4693788">
      </trkpt>
      <trkpt lat="48.4501301" lon="-123.4693611">
      </trkpt>
      <trkpt lat="48.4500696" lon="-123.469349">
      </trkpt>
      <trkpt lat="48.4500157" lon="-123.4693443">
      </trkpt>
      <trkpt lat="48.4499485" lon="-123.4693468">
      </trkpt>
      <trkpt lat="48.4498747" lon="-123.469356">
      </trkpt>
      <trkpt lat="48.4497797" lon="-123.4693751">
      </trkpt>
      <trkpt lat="48.4496569" lon="-123.4694129">
      </trkpt>
      <trkpt lat="48.4495494" lon="-123.4694576">
      </trkpt>
      <trkpt lat="48.4494973" lon="-123.4694845">
      </trkpt>
      <trkpt lat="48.4494432" lon="-123.4695165">
      </trkpt>
      <trkpt lat="48.4493533" lon="-123.4695769">
      </trkpt>
      <trkpt lat="48.4492675" lon="-123.4696541">
      </trkpt>
      <trkpt lat="48.449149" lon="-123.469765">
      </trkpt>
      <trkpt lat="48.449072" lon="-123.4698577">
      </trkpt>
      <trkpt lat="48.4490016" lon="-123.4699643">
      </trkpt>
      <trkpt lat="48.4489281" lon="-123.470101">
      </trkpt>
      <trkpt lat="48.4488804" lon="-123.4702005">
      </trkpt>
      <trkpt lat="48.44883" lon="-123.4703186">
      </trkpt>
      <trkpt lat="48.4487707" lon="-123.4704857">
      </trkpt>
      <trkpt lat="48.4487166" lon="-123.4706702">
      </trkpt>
      <trkpt lat="48.4486843" lon="-123.4707991">
      </trkpt>
      <trkpt lat="48.4486472" lon="-123.4709844">
      </trkpt>
      <trkpt lat="48.4486102" lon="-123.4711971">
      </trkpt>
      <trkpt lat="48.4485998" lon="-123.4712507">
      </trkpt>
      <trkpt lat="48.4485517" lon="-123.4714997">
      </trkpt>
      <trkpt lat="48.4485087" lon="-123.4716945">
      </trkpt>
      <trkpt lat="48.4484564" lon="-123.4719488">
      </trkpt>
      <trkpt lat="48.4484179" lon="-123.4721055">
      </trkpt>
      <trkpt lat="48.4483864" lon="-123.4722358">
      </trkpt>
      <trkpt lat="48.4483534" lon="-123.4723463">
      </trkpt>
    </trkseg>
    <trkseg>
      <trkpt lat="48.4483534" lon="-123.4723463">
      </trkpt>
      <trkpt lat="48.4483853" lon="-123.4723777">
      </trkpt>
      <trkpt lat="48.448395" lon="-123.4724069">
      </trkpt>
      <trkpt lat="48.448395" lon="-123.4724425">
      </trkpt>
      <trkpt lat="48.4483887" lon="-123.4724871">
      </trkpt>
      <trkpt lat="48.4483422" lon="-123.4726875">
      </trkpt>
      <trkpt lat="48.448328" lon="-123.472748">
      </trkpt>
      <trkpt lat="48.4483233" lon="-123.4727854">
      </trkpt>
      <trkpt lat="48.4483277" lon="-123.4728216">
      </trkpt>
      <trkpt lat="48.448343" lon="-123.4728716">
      </trkpt>
      <trkpt lat="48.4483576" lon="-123.4729272">
      </trkpt>
      <trkpt lat="48.4483533" lon="-123.4729624">
      </trkpt>
      <trkpt lat="48.4483183" lon="-123.4730766">
      </trkpt>
      <trkpt lat="48.4482565" lon="-123.4732681">
      </trkpt>
      <trkpt lat="48.4480324" lon="-123.4738948">
      </trkpt>
      <trkpt lat="48.447945" lon="-123.4741479">
      </trkpt>
      <trkpt lat="48.4478642" lon="-123.4744058">
      </trkpt>
      <trkpt lat="48.4477447" lon="-123.4748401">
      </trkpt>
      <trkpt lat="48.4476465" lon="-123.4751846">
      </trkpt>
      <trkpt lat="48.4476026" lon="-123.4753351">
      </trkpt>
      <trkpt lat="48.4475887" lon="-123.4754094">
      </trkpt>
      <trkpt lat="48.4475835" lon="-123.4754605">
      </trkpt>
      <trkpt lat="48.4475759" lon="-123.4755468">
      </trkpt>
    </trkseg>
    <trkseg>
      <trkpt lat="48.4474412" lon="-123.4789573">
      </trkpt>
      <trkpt lat="48.4474838" lon="-123.4789027">
      </trkpt>
      <trkpt lat="48.4475075" lon="-123.478848">
      </trkpt>
      <trkpt lat="48.447528" lon="-123.478785">
      </trkpt>
      <trkpt lat="48.4475366" lon="-123.4787315">
      </trkpt>
      <trkpt lat="48.4475358" lon="-123.4786816">
      </trkpt>
      <trkpt lat="48.4475201" lon="-123.4786329">
      </trkpt>
      <trkpt lat="48.4474996" lon="-123.4785818">
      </trkpt>
      <trkpt lat="48.4474909" lon="-123.4785188">
      </trkpt>
      <trkpt lat="48.4474909" lon="-123.4784297">
      </trkpt>
      <trkpt lat="48.4475043" lon="-123.4774065">
      </trkpt>
      <trkpt lat="48.4474948" lon="-123.4772235">
      </trkpt>
      <trkpt lat="48.4474988" lon="-123.4770155">
      </trkpt>
      <trkpt lat="48.447513" lon="-123.4766744">
      </trkpt>
      <trkpt lat="48.4475358" lon="-123.4763369">
      </trkpt>
      <trkpt lat="48.4475508" lon="-123.4762127">
      </trkpt>
      <trkpt lat="48.4475572" lon="-123.4761596">
      </trkpt>
      <trkpt lat="48.4475144" lon="-123.4761479">
      </trkpt>
      <trkpt lat="48.4474819" lon="-123.4761391">
      </trkpt>
      <trkpt lat="48.4474935" lon="-123.4760661">
      </trkpt>
      <trkpt lat="48.4475759" lon="-123.4755468">
      </trkpt>
    </trkseg>
    <trkseg>
      <trkpt lat="48.4473368" lon="-123.4790744">
      </trkpt>
      <trkpt lat="48.4474412" lon="-123.4789573">
      </trkpt>
    </trkseg>
    <trkseg>
      <trkpt lat="48.4473917" lon="-123.4948482">
      </trkpt>
      <trkpt lat="48.447432" lon="-123.4947168">
      </trkpt>
      <trkpt lat="48.4474522" lon="-123.4946366">
      </trkpt>
      <trkpt lat="48.4474756" lon="-123.4945252">
      </trkpt>
      <trkpt lat="48.4476494" lon="-123.4936038">
      </trkpt>
      <trkpt lat="48.4476781" lon="-123.4934285">
      </trkpt>
      <trkpt lat="48.4476905" lon="-123.4933095">
      </trkpt>
      <trkpt lat="48.4477002" lon="-123.493203">
      </trkpt>
      <trkpt lat="48.4477197" lon="-123.4930682">
      </trkpt>
      <trkpt lat="48.4488789" lon="-123.4868598">
      </trkpt>
      <trkpt lat="48.4489222" lon="-123.4866202">
      </trkpt>
      <trkpt lat="48.4489297" lon="-123.4865529">
      </trkpt>
      <trkpt lat="48.4489286" lon="-123.486463">
      </trkpt>
      <trkpt lat="48.4489332" lon="-123.4864141">
      </trkpt>
      <trkpt lat="48.448989" lon="-123.4861691">
      </trkpt>
      <trkpt lat="48.4490387" lon="-123.485916">
      </trkpt>
      <trkpt lat="48.4490568" lon="-123.4858602">
      </trkpt>
      <trkpt lat="48.4490675" lon="-123.4858335">
      </trkpt>
      <trkpt lat="48.4490793" lon="-123.4858043">
      </trkpt>
      <trkpt lat="48.449099" lon="-123.4857532">
      </trkpt>
      <trkpt lat="48.4491108" lon="-123.4857104">
      </trkpt>
      <trkpt lat="48.4491238" lon="-123.4856385">
      </trkpt>
      <trkpt lat="48.4491305" lon="-123.4855779">
      </trkpt>
      <trkpt lat="48.4491293" lon="-123.4855137">
      </trkpt>
      <trkpt lat="48.4491344" lon="-123.4854484">
      </trkpt>
      <trkpt lat="48.449151" lon="-123.4853426">
      </trkpt>
      <trkpt lat="48.4492144" lon="-123.485033">
      </trkpt>
      <trkpt lat="48.4492365" lon="-123.4849106">
      </trkpt>
      <trkpt lat="48.4492621" lon="-123.4847389">
      </trkpt>
      <trkpt lat="48.4492767" lon="-123.4845874">
      </trkpt>
      <trkpt lat="48.449287" lon="-123.4844305">
      </trkpt>
      <trkpt lat="48.4492909" lon="-123.4842754">
      </trkpt>
      <trkpt lat="48.4492854" lon="-123.4841441">
      </trkpt>
      <trkpt lat="48.4492743" lon="-123.4839617">
      </trkpt>
      <trkpt lat="48.4492558" lon="-123.4837971">
      </trkpt>
      <trkpt lat="48.4492211" lon="-123.483626">
      </trkpt>
      <trkpt lat="48.44919" lon="-123.4835315">
      </trkpt>
      <trkpt lat="48.4491297" lon="-123.4834144">
      </trkpt>
      <trkpt lat="48.4490666" lon="-123.4833146">
      </trkpt>
      <trkpt lat="48.4486599" lon="-123.4826943">
      </trkpt>
      <trkpt lat="48.4485992" lon="-123.4825968">
      </trkpt>
      <trkpt lat="48.4485452" lon="-123.4825053">
      </trkpt>
      <trkpt lat="48.4484956" lon="-123.4824108">
      </trkpt>
      <trkpt lat="48.4484091" lon="-123.4822481">
      </trkpt>
      <trkpt lat="48.4478575" lon="-123.4811808">
      </trkpt>
      <trkpt lat="48.4477652" lon="-123.4810216">
      </trkpt>
      <trkpt lat="48.4476651" lon="-123.480835">
      </trkpt>
      <trkpt lat="48.447595" lon="-123.4806912">
      </trkpt>
      <trkpt lat="48.4475256" lon="-123.4805213">
      </trkpt>
      <trkpt lat="48.4474452" lon="-123.4803026">
      </trkpt>
      <trkpt lat="48.4473632" lon="-123.4800305">
      </trkpt>
      <trkpt lat="48.4473191" lon="-123.4798201">
      </trkpt>
      <trkpt lat="48.4472852" lon="-123.4795931">
      </trkpt>
      <trkpt lat="48.4472844" lon="-123.4791891">
      </trkpt>
      <trkpt lat="48.4472962" lon="-123.4791392">
      </trkpt>
      <trkpt lat="48.4473143" lon="-123.4791023">
      </trkpt>
      <trkpt lat="48.4473368" lon="-123.4790744">
      </trkpt>
    </trkseg>
    <trkseg>
      <trkpt lat="48.4473327" lon="-123.4950217">
      </trkpt>
      <trkpt lat="48.4473543" lon="-123.4949766">
      </trkpt>
      <trkpt lat="48.4473665" lon="-123.4949092">
      </trkpt>
      <trkpt lat="48.4473917" lon="-123.4948482">
      </trkpt>
    </trkseg>
    <trkseg>
      <trkpt lat="48.4473728" lon="-123.4951382">
      </trkpt>
      <trkpt lat="48.4473327" lon="-123.4950217">
      </trkpt>
    </trkseg>
    <trkseg>
      <trkpt lat="48.447368" lon="-123.495158">
      </trkpt>
      <trkpt lat="48.4473728" lon="-123.4951382">
      </trkpt>
    </trkseg>
    <trkseg>
      <trkpt lat="48.4472404" lon="-123.4954548">
      </trkpt>
      <trkpt lat="48.4472733" lon="-123.4954057">
      </trkpt>
      <trkpt lat="48.4473118" lon="-123.4953484">
      </trkpt>
      <trkpt lat="48.4473449" lon="-123.495236">
      </trkpt>
      <trkpt lat="48.447368" lon="-123.495158">
      </trkpt>
    </trkseg>
    <trkseg>
      <trkpt lat="48.4472491" lon="-123.4958359">
      </trkpt>
      <trkpt lat="48.4472502" lon="-123.4958166">
      </trkpt>
    </trkseg>
    <trkseg>
      <trkpt lat="48.4472502" lon="-123.4958166">
      </trkpt>
      <trkpt lat="48.4472551" lon="-123.4957358">
      </trkpt>
      <trkpt lat="48.4472589" lon="-123.4956743">
      </trkpt>
      <trkpt lat="48.4472454" lon="-123.4955587">
      </trkpt>
      <trkpt lat="48.4472381" lon="-123.495496">
      </trkpt>
    </trkseg>
    <trkseg>
      <trkpt lat="48.4473896" lon="-123.4958439">
      </trkpt>
      <trkpt lat="48.4473687" lon="-123.4958312">
      </trkpt>
      <trkpt lat="48.4473425" lon="-123.4958205">
      </trkpt>
      <trkpt lat="48.4473207" lon="-123.4958198">
      </trkpt>
      <trkpt lat="48.447308" lon="-123.4958212">
      </trkpt>
      <trkpt lat="48.4472912" lon="-123.4958231">
      </trkpt>
      <trkpt lat="48.4472779" lon="-123.4958271">
      </trkpt>
      <trkpt lat="48.4472491" lon="-123.4958359">
      </trkpt>
    </trkseg>
    <trkseg>
      <trkpt lat="48.4473896" lon="-123.4958439">
      </trkpt>
      <trkpt lat="48.447404" lon="-123.4958618">
      </trkpt>
    </trkseg>
    <trkseg>
      <trkpt lat="48.4473126" lon="-123.4959674">
      </trkpt>
      <trkpt lat="48.447404" lon="-123.4958618">
      </trkpt>
    </trkseg>
    <trkseg>
      <trkpt lat="48.4461598" lon="-123.5022655">
      </trkpt>
      <trkpt lat="48.4463094" lon="-123.5014919">
      </trkpt>
      <trkpt lat="48.4463656" lon="-123.5012219">
      </trkpt>
      <trkpt lat="48.4464352" lon="-123.5008905">
      </trkpt>
      <trkpt lat="48.4465813" lon="-123.5001089">
      </trkpt>
      <trkpt lat="48.4470989" lon="-123.4973398">
      </trkpt>
      <trkpt lat="48.4471536" lon="-123.4970108">
      </trkpt>
      <trkpt lat="48.4471713" lon="-123.496877">
      </trkpt>
      <trkpt lat="48.447204" lon="-123.4965898">
      </trkpt>
      <trkpt lat="48.4472283" lon="-123.4964423">
      </trkpt>
      <trkpt lat="48.4473126" lon="-123.4959674">
      </trkpt>
    </trkseg>
    <trkseg>
      <trkpt lat="48.4461647" lon="-123.5024522">
      </trkpt>
      <trkpt lat="48.4461482" lon="-123.5023825">
      </trkpt>
      <trkpt lat="48.4461506" lon="-123.5023132">
      </trkpt>
      <trkpt lat="48.4461598" lon="-123.5022655">
      </trkpt>
    </trkseg>
    <trkseg>
      <trkpt lat="48.4461647" lon="-123.5024522">
      </trkpt>
      <trkpt lat="48.4461451" lon="-123.5024805">
      </trkpt>
      <trkpt lat="48.4461151" lon="-123.5025087">
      </trkpt>
      <trkpt lat="48.4460761" lon="-123.5025231">
      </trkpt>
      <trkpt lat="48.4460483" lon="-123.5025242">
      </trkpt>
      <trkpt lat="48.4460348" lon="-123.5025186">
      </trkpt>
      <trkpt lat="48.4460208" lon="-123.5025141">
      </trkpt>
      <trkpt lat="48.4459985" lon="-123.5025062">
      </trkpt>
      <trkpt lat="48.4459717" lon="-123.5024933">
      </trkpt>
      <trkpt lat="48.4459495" lon="-123.5024969">
      </trkpt>
      <trkpt lat="48.44593" lon="-123.5025109">
      </trkpt>
    </trkseg>
    <trkseg>
      <trkpt lat="48.44593" lon="-123.5025109">
      </trkpt>
      <trkpt lat="48.4458998" lon="-123.5025368">
      </trkpt>
      <trkpt lat="48.4458722" lon="-123.5025605">
      </trkpt>
    </trkseg>
    <trkseg>
      <trkpt lat="48.4458722" lon="-123.5025605">
      </trkpt>
      <trkpt lat="48.4458461" lon="-123.5026467">
      </trkpt>
      <trkpt lat="48.445834" lon="-123.5026433">
      </trkpt>
    </trkseg>
    <trkseg>
      <trkpt lat="48.4457718" lon="-123.5026235">
      </trkpt>
      <trkpt lat="48.4458069" lon="-123.5026344">
      </trkpt>
      <trkpt lat="48.445834" lon="-123.5026433">
      </trkpt>
    </trkseg>
    <trkseg>
      <trkpt lat="48.4456797" lon="-123.5027025">
      </trkpt>
      <trkpt lat="48.4456913" lon="-123.5026957">
      </trkpt>
      <trkpt lat="48.4457104" lon="-123.5026987">
      </trkpt>
      <trkpt lat="48.4457344" lon="-123.502692">
      </trkpt>
      <trkpt lat="48.4457529" lon="-123.5026757">
      </trkpt>
      <trkpt lat="48.4457641" lon="-123.5026477">
      </trkpt>
      <trkpt lat="48.4457667" lon="-123.5026219">
      </trkpt>
      <trkpt lat="48.4457718" lon="-123.5026235">
      </trkpt>
    </trkseg>
    <trkseg>
      <trkpt lat="48.4457387" lon="-123.5029396">
      </trkpt>
      <trkpt lat="48.4457112" lon="-123.5028272">
      </trkpt>
      <trkpt lat="48.4456797" lon="-123.5027025">
      </trkpt>
    </trkseg>
    <trkseg>
      <trkpt lat="48.4457536" lon="-123.5029744">
      </trkpt>
      <trkpt lat="48.4457459" lon="-123.502969">
      </trkpt>
      <trkpt lat="48.4457387" lon="-123.5029396">
      </trkpt>
    </trkseg>
    <trkseg>
      <trkpt lat="48.4457536" lon="-123.5029744">
      </trkpt>
      <trkpt lat="48.4457741" lon="-123.5029908">
      </trkpt>
      <trkpt lat="48.4457989" lon="-123.5030083">
      </trkpt>
    </trkseg>
    <trkseg>
      <trkpt lat="48.4457989" lon="-123.5030083">
      </trkpt>
      <trkpt lat="48.4458159" lon="-123.5030179">
      </trkpt>
    </trkseg>
    <trkseg>
      <trkpt lat="48.4457944" lon="-123.503284">
      </trkpt>
      <trkpt lat="48.445794" lon="-123.5031699">
      </trkpt>
      <trkpt lat="48.4458022" lon="-123.5030901">
      </trkpt>
      <trkpt lat="48.4458159" lon="-123.5030179">
      </trkpt>
    </trkseg>
    <trkseg>
      <trkpt lat="48.4458208" lon="-123.5034078">
      </trkpt>
      <trkpt lat="48.4458214" lon="-123.5032827">
      </trkpt>
      <trkpt lat="48.4457944" lon="-123.503284">
      </trkpt>
    </trkseg>
    <trkseg>
      <trkpt lat="48.4458859" lon="-123.50349">
      </trkpt>
      <trkpt lat="48.4458566" lon="-123.5034762">
      </trkpt>
      <trkpt lat="48.4458206" lon="-123.5034601">
      </trkpt>
      <trkpt lat="48.4458208" lon="-123.5034078">
      </trkpt>
    </trkseg>
    <trkseg>
      <trkpt lat="48.4459072" lon="-123.5036032">
      </trkpt>
      <trkpt lat="48.4459248" lon="-123.5035083">
      </trkpt>
      <trkpt lat="48.4458859" lon="-123.50349">
      </trkpt>
    </trkseg>
    <trkseg>
      <trkpt lat="48.4448977" lon="-123.5088828">
      </trkpt>
      <trkpt lat="48.4449133" lon="-123.5087992">
      </trkpt>
      <trkpt lat="48.4449255" lon="-123.508734">
      </trkpt>
      <trkpt lat="48.444978" lon="-123.5084979">
      </trkpt>
      <trkpt lat="48.4450551" lon="-123.508219">
      </trkpt>
      <trkpt lat="48.4459072" lon="-123.5036032">
      </trkpt>
    </trkseg>
    <trkseg>
      <trkpt lat="48.4449318" lon="-123.5090228">
      </trkpt>
      <trkpt lat="48.4448977" lon="-123.5088828">
      </trkpt>
    </trkseg>
  </trk>
</gpx>