<?xml version="1.0" encoding="UTF-8"?>
<gpx xmlns="http://www.topografix.com/GPX/1/1" xmlns:xsi="http://www.w3.org/2001/XMLSchema-instance" xsi:schemaLocation="http://www.topografix.com/GPX/1/1 http://www.topografix.com/GPX/1/1/gpx.xsd" version="1.1" creator="gpx.py -- https://github.com/tkrajina/gpxpy">
  <trk>
    <name>Cliff's and Rob's corners</name>
    <trkseg>
      <trkpt lat="49.77915691" lon="-123.10154155">
      </trkpt>
      <trkpt lat="49.77920839" lon="-123.10162872">
      </trkpt>
      <trkpt lat="49.77925706" lon="-123.10172328">
      </trkpt>
      <trkpt lat="49.77933155" lon="-123.10181318">
      </trkpt>
      <trkpt lat="49.77936307" lon="-123.10185102">
      </trkpt>
      <trkpt lat="49.77940035" lon="-123.10185109">
      </trkpt>
      <trkpt lat="49.77947212" lon="-123.10176152">
      </trkpt>
      <trkpt lat="49.77952955" lon="-123.10168135">
      </trkpt>
      <trkpt lat="49.77963583" lon="-123.10148795">
      </trkpt>
      <trkpt lat="49.77965594" lon="-123.10145492">
      </trkpt>
      <trkpt lat="49.77965892" lon="-123.10132742">
      </trkpt>
      <trkpt lat="49.77969334" lon="-123.10131805">
      </trkpt>
      <trkpt lat="49.77972771" lon="-123.10136534">
      </trkpt>
      <trkpt lat="49.77977926" lon="-123.10144573">
      </trkpt>
      <trkpt lat="49.77984801" lon="-123.1015356">
      </trkpt>
      <trkpt lat="49.77991677" lon="-123.1016302">
      </trkpt>
      <trkpt lat="49.77997117" lon="-123.10173423">
      </trkpt>
      <trkpt lat="49.7800199" lon="-123.1017485">
      </trkpt>
      <trkpt lat="49.78008304" lon="-123.10169668">
      </trkpt>
      <trkpt lat="49.78015197" lon="-123.10157402">
      </trkpt>
      <trkpt lat="49.78016353" lon="-123.10147015">
      </trkpt>
      <trkpt lat="49.78022383" lon="-123.10138528">
      </trkpt>
      <trkpt lat="49.78026975" lon="-123.10134757">
      </trkpt>
      <trkpt lat="49.7802927" lon="-123.10134762">
      </trkpt>
      <trkpt lat="49.78031846" lon="-123.10139963">
      </trkpt>
      <trkpt lat="49.78037857" lon="-123.10153199">
      </trkpt>
      <trkpt lat="49.78042723" lon="-123.10163599">
      </trkpt>
      <trkpt lat="49.78047308" lon="-123.10169276">
      </trkpt>
      <trkpt lat="49.78051321" lon="-123.10171174">
      </trkpt>
      <trkpt lat="49.78054765" lon="-123.10168819">
      </trkpt>
      <trkpt lat="49.78062229" lon="-123.10159391">
      </trkpt>
      <trkpt lat="49.7808118" lon="-123.10134869">
      </trkpt>
      <trkpt lat="49.78084338" lon="-123.10130153">
      </trkpt>
      <trkpt lat="49.7808749" lon="-123.10132049">
      </trkpt>
      <trkpt lat="49.78090929" lon="-123.10136306">
      </trkpt>
      <trkpt lat="49.78096941" lon="-123.10149073">
      </trkpt>
      <trkpt lat="49.78102094" lon="-123.10158056">
      </trkpt>
      <trkpt lat="49.78106387" lon="-123.10167982">
      </trkpt>
      <trkpt lat="49.78110687" lon="-123.10170825">
      </trkpt>
      <trkpt lat="49.78115849" lon="-123.10170364">
      </trkpt>
      <trkpt lat="49.78119578" lon="-123.10169899">
      </trkpt>
      <trkpt lat="49.78122449" lon="-123.10166128">
      </trkpt>
      <trkpt lat="49.78126178" lon="-123.10165663">
      </trkpt>
      <trkpt lat="49.78129904" lon="-123.10168977">
      </trkpt>
      <trkpt lat="49.78133627" lon="-123.10174651">
      </trkpt>
      <trkpt lat="49.78137351" lon="-123.10179384">
      </trkpt>
      <trkpt lat="49.78140219" lon="-123.10179861">
      </trkpt>
      <trkpt lat="49.78143087" lon="-123.10178924">
      </trkpt>
      <trkpt lat="49.7814114" lon="-123.10162316">
      </trkpt>
      <trkpt lat="49.78147748" lon="-123.1015984">
      </trkpt>
      <trkpt lat="49.7815294" lon="-123.10153862">
      </trkpt>
      <trkpt lat="49.78157051" lon="-123.1014716">
      </trkpt>
      <trkpt lat="49.78160048" lon="-123.10147166">
      </trkpt>
      <trkpt lat="49.78162326" lon="-123.10150154">
      </trkpt>
      <trkpt lat="49.78166049" lon="-123.10157718">
      </trkpt>
      <trkpt lat="49.78170923" lon="-123.10159145">
      </trkpt>
      <trkpt lat="49.78176085" lon="-123.10159155">
      </trkpt>
      <trkpt lat="49.78182968" lon="-123.10159643">
      </trkpt>
      <trkpt lat="49.78188415" lon="-123.10161543">
      </trkpt>
      <trkpt lat="49.78192718" lon="-123.10160135">
      </trkpt>
      <trkpt lat="49.78197885" lon="-123.10155421">
      </trkpt>
      <trkpt lat="49.78199897" lon="-123.10148814">
      </trkpt>
      <trkpt lat="49.78203055" lon="-123.1014457">
      </trkpt>
      <trkpt lat="49.78206211" lon="-123.10144576">
      </trkpt>
      <trkpt lat="49.78210512" lon="-123.1014553">
      </trkpt>
      <trkpt lat="49.78215103" lon="-123.1014176">
      </trkpt>
      <trkpt lat="49.78219985" lon="-123.10135159">
      </trkpt>
      <trkpt lat="49.78224002" lon="-123.10132806">
      </trkpt>
      <trkpt lat="49.78229161" lon="-123.1013565">
      </trkpt>
      <trkpt lat="49.78232022" lon="-123.10144158">
      </trkpt>
      <trkpt lat="49.7823259" lon="-123.10151243">
      </trkpt>
      <trkpt lat="49.78234308" lon="-123.10154553">
      </trkpt>
      <trkpt lat="49.78238895" lon="-123.10155507">
      </trkpt>
      <trkpt lat="49.78242913" lon="-123.1015221">
      </trkpt>
      <trkpt lat="49.78247218" lon="-123.10148439">
      </trkpt>
      <trkpt lat="49.782521" lon="-123.10142783">
      </trkpt>
      <trkpt lat="49.78256687" lon="-123.10142792">
      </trkpt>
      <trkpt lat="49.78258694" lon="-123.10143269">
      </trkpt>
      <trkpt lat="49.78262131" lon="-123.10149889">
      </trkpt>
      <trkpt lat="49.78267858" lon="-123.10158875">
      </trkpt>
      <trkpt lat="49.78273877" lon="-123.10164555">
      </trkpt>
      <trkpt lat="49.78280472" lon="-123.10163624">
      </trkpt>
      <trkpt lat="49.78286213" lon="-123.10158441">
      </trkpt>
      <trkpt lat="49.78290801" lon="-123.10158922">
      </trkpt>
      <trkpt lat="49.78294812" lon="-123.10163654">
      </trkpt>
      <trkpt lat="49.7829825" lon="-123.10168385">
      </trkpt>
      <trkpt lat="49.78301118" lon="-123.1016839">
      </trkpt>
      <trkpt lat="49.78306856" lon="-123.10165096">
      </trkpt>
      <trkpt lat="49.78313171" lon="-123.10159442">
      </trkpt>
      <trkpt lat="49.78316898" lon="-123.10159923">
      </trkpt>
      <trkpt lat="49.78324926" lon="-123.10162301">
      </trkpt>
      <trkpt lat="49.78331233" lon="-123.1016562">
      </trkpt>
      <trkpt lat="49.78336681" lon="-123.10166104">
      </trkpt>
      <trkpt lat="49.78341559" lon="-123.10163279">
      </trkpt>
      <trkpt lat="49.7834816" lon="-123.10158098">
      </trkpt>
      <trkpt lat="49.78353323" lon="-123.10157635">
      </trkpt>
      <trkpt lat="49.78361069" lon="-123.10154346">
      </trkpt>
      <trkpt lat="49.78365083" lon="-123.10154827">
      </trkpt>
      <trkpt lat="49.78369094" lon="-123.10159084">
      </trkpt>
      <trkpt lat="49.78373393" lon="-123.10161456">
      </trkpt>
      <trkpt lat="49.78381139" lon="-123.10160055">
      </trkpt>
      <trkpt lat="49.78387164" lon="-123.10157707">
      </trkpt>
      <trkpt lat="49.78390896" lon="-123.1015299">
      </trkpt>
      <trkpt lat="49.78396632" lon="-123.10153475">
      </trkpt>
      <trkpt lat="49.78400069" lon="-123.10157733">
      </trkpt>
      <trkpt lat="49.78405228" lon="-123.10161522">
      </trkpt>
      <trkpt lat="49.78410104" lon="-123.10160588">
      </trkpt>
      <trkpt lat="49.78414691" lon="-123.10162959">
      </trkpt>
      <trkpt lat="49.78420136" lon="-123.10166749">
      </trkpt>
      <trkpt lat="49.78423861" lon="-123.10170536">
      </trkpt>
      <trkpt lat="49.78431031" lon="-123.10171023">
      </trkpt>
      <trkpt lat="49.7843562" lon="-123.10170559">
      </trkpt>
      <trkpt lat="49.78444791" lon="-123.10177192">
      </trkpt>
      <trkpt lat="49.78451958" lon="-123.10180514">
      </trkpt>
      <trkpt lat="49.78462569" lon="-123.10180536">
      </trkpt>
      <trkpt lat="49.78470598" lon="-123.10181971">
      </trkpt>
      <trkpt lat="49.78475187" lon="-123.10181979">
      </trkpt>
      <trkpt lat="49.78479491" lon="-123.10179627">
      </trkpt>
      <trkpt lat="49.78484366" lon="-123.10179637">
      </trkpt>
      <trkpt lat="49.78488956" lon="-123.10179175">
      </trkpt>
      <trkpt lat="49.78492112" lon="-123.10176819">
      </trkpt>
      <trkpt lat="49.78496129" lon="-123.10173048">
      </trkpt>
      <trkpt lat="49.78499286" lon="-123.10172111">
      </trkpt>
      <trkpt lat="49.78503876" lon="-123.10169286">
      </trkpt>
      <trkpt lat="49.78509043" lon="-123.10165518">
      </trkpt>
      <trkpt lat="49.78514783" lon="-123.10160335">
      </trkpt>
      <trkpt lat="49.78520232" lon="-123.10159401">
      </trkpt>
      <trkpt lat="49.78525392" lon="-123.1016319">
      </trkpt>
      <trkpt lat="49.78529692" lon="-123.10163671">
      </trkpt>
      <trkpt lat="49.78534286" lon="-123.10158958">
      </trkpt>
      <trkpt lat="49.7853888" lon="-123.10153772">
      </trkpt>
      <trkpt lat="49.78544901" lon="-123.10154256">
      </trkpt>
      <trkpt lat="49.78549485" lon="-123.10159462">
      </trkpt>
      <trkpt lat="49.78553497" lon="-123.10162777">
      </trkpt>
      <trkpt lat="49.78556367" lon="-123.10160894">
      </trkpt>
      <trkpt lat="49.78560387" lon="-123.10155707">
      </trkpt>
      <trkpt lat="49.78567272" lon="-123.10152888">
      </trkpt>
      <trkpt lat="49.78574154" lon="-123.10153846">
      </trkpt>
      <trkpt lat="49.78578456" lon="-123.10155272">
      </trkpt>
      <trkpt lat="49.7858275" lon="-123.1016331">
      </trkpt>
      <trkpt lat="49.78584749" lon="-123.10173235">
      </trkpt>
      <trkpt lat="49.78589328" lon="-123.10183164">
      </trkpt>
      <trkpt lat="49.78591907" lon="-123.10186003">
      </trkpt>
      <trkpt lat="49.78595349" lon="-123.10184593">
      </trkpt>
      <trkpt lat="49.78597648" lon="-123.10180819">
      </trkpt>
      <trkpt lat="49.78601382" lon="-123.1017327">
      </trkpt>
      <trkpt lat="49.78606834" lon="-123.10169503">
      </trkpt>
      <trkpt lat="49.78612859" lon="-123.10167624">
      </trkpt>
      <trkpt lat="49.78617448" lon="-123.10167634">
      </trkpt>
      <trkpt lat="49.78623754" lon="-123.10170955">
      </trkpt>
      <trkpt lat="49.78630924" lon="-123.10170497">
      </trkpt>
      <trkpt lat="49.78637235" lon="-123.10169094">
      </trkpt>
      <trkpt lat="49.78644687" lon="-123.10173833">
      </trkpt>
      <trkpt lat="49.78652425" lon="-123.10179517">
      </trkpt>
      <trkpt lat="49.78657873" lon="-123.10180945">
      </trkpt>
      <trkpt lat="49.78663611" lon="-123.10179068">
      </trkpt>
      <trkpt lat="49.78669064" lon="-123.10175301">
      </trkpt>
      <trkpt lat="49.78672792" lon="-123.10173892">
      </trkpt>
      <trkpt lat="49.78678814" lon="-123.10175793">
      </trkpt>
      <trkpt lat="49.78681969" lon="-123.10174856">
      </trkpt>
      <trkpt lat="49.78687713" lon="-123.10165419">
      </trkpt>
      <trkpt lat="49.7869489" lon="-123.10156461">
      </trkpt>
      <trkpt lat="49.78698624" lon="-123.10150797">
      </trkpt>
      <trkpt lat="49.78704933" lon="-123.10151283">
      </trkpt>
      <trkpt lat="49.78709806" lon="-123.10154128">
      </trkpt>
      <trkpt lat="49.78714966" lon="-123.10156974">
      </trkpt>
      <trkpt lat="49.787207" lon="-123.10159347">
      </trkpt>
      <trkpt lat="49.78723561" lon="-123.10165021">
      </trkpt>
      <trkpt lat="49.78727284" lon="-123.10171169">
      </trkpt>
      <trkpt lat="49.78729866" lon="-123.10171175">
      </trkpt>
      <trkpt lat="49.7873446" lon="-123.10165988">
      </trkpt>
      <trkpt lat="49.78736753" lon="-123.10166938">
      </trkpt>
      <trkpt lat="49.78737893" lon="-123.10174497">
      </trkpt>
      <trkpt lat="49.78740759" lon="-123.1017781">
      </trkpt>
      <trkpt lat="49.78746782" lon="-123.10176405">
      </trkpt>
      <trkpt lat="49.78750227" lon="-123.10173107">
      </trkpt>
      <trkpt lat="49.78753964" lon="-123.10163194">
      </trkpt>
      <trkpt lat="49.78757978" lon="-123.10164148">
      </trkpt>
      <trkpt lat="49.78761703" lon="-123.10167935">
      </trkpt>
      <trkpt lat="49.78767436" lon="-123.10171253">
      </trkpt>
      <trkpt lat="49.78771739" lon="-123.10169372">
      </trkpt>
      <trkpt lat="49.78776333" lon="-123.10164186">
      </trkpt>
      <trkpt lat="49.78784939" lon="-123.10160425">
      </trkpt>
      <trkpt lat="49.78790103" lon="-123.10158547">
      </trkpt>
      <trkpt lat="49.78794116" lon="-123.10161863">
      </trkpt>
      <trkpt lat="49.78798416" lon="-123.1016376">
      </trkpt>
      <trkpt lat="49.78804437" lon="-123.10164246">
      </trkpt>
      <trkpt lat="49.78809024" lon="-123.10167562">
      </trkpt>
      <trkpt lat="49.78814471" lon="-123.10168518">
      </trkpt>
      <trkpt lat="49.78823076" lon="-123.10167591">
      </trkpt>
      <trkpt lat="49.7883053" lon="-123.10170913">
      </trkpt>
      <trkpt lat="49.78837697" lon="-123.10173762">
      </trkpt>
      <trkpt lat="49.78840853" lon="-123.10172824">
      </trkpt>
      <trkpt lat="49.78846591" lon="-123.10170002">
      </trkpt>
      <trkpt lat="49.78849744" lon="-123.10170953">
      </trkpt>
      <trkpt lat="49.78854332" lon="-123.10171908">
      </trkpt>
      <trkpt lat="49.78857203" lon="-123.10169079">
      </trkpt>
      <trkpt lat="49.7885979" lon="-123.10162">
      </trkpt>
      <trkpt lat="49.78865247" lon="-123.10154452">
      </trkpt>
      <trkpt lat="49.78868117" lon="-123.10150207">
      </trkpt>
      <trkpt lat="49.78870129" lon="-123.10145488">
      </trkpt>
      <trkpt lat="49.78870994" lon="-123.10140765">
      </trkpt>
      <trkpt lat="49.78871571" lon="-123.10136988">
      </trkpt>
      <trkpt lat="49.78872154" lon="-123.10126126">
      </trkpt>
      <trkpt lat="49.78873302" lon="-123.10123766">
      </trkpt>
      <trkpt lat="49.78874168" lon="-123.101181">
      </trkpt>
      <trkpt lat="49.78874172" lon="-123.10113376">
      </trkpt>
    </trkseg>
    <trkseg>
      <trkpt lat="49.77916142" lon="-123.10113795">
      </trkpt>
      <trkpt lat="49.77924014" lon="-123.10113225">
      </trkpt>
      <trkpt lat="49.77939318" lon="-123.10113299">
      </trkpt>
      <trkpt lat="49.77952819" lon="-123.10113313">
      </trkpt>
      <trkpt lat="49.77986104" lon="-123.10110514">
      </trkpt>
      <trkpt lat="49.7800765" lon="-123.1011054">
      </trkpt>
      <trkpt lat="49.78014852" lon="-123.10110606">
      </trkpt>
      <trkpt lat="49.78033778" lon="-123.10109409">
      </trkpt>
      <trkpt lat="49.78050879" lon="-123.10109369">
      </trkpt>
      <trkpt lat="49.78069724" lon="-123.10109393">
      </trkpt>
      <trkpt lat="49.78076048" lon="-123.10108125">
      </trkpt>
      <trkpt lat="49.7809579" lon="-123.1011226">
      </trkpt>
      <trkpt lat="49.78102126" lon="-123.10113596">
      </trkpt>
      <trkpt lat="49.78107519" lon="-123.10130274">
      </trkpt>
      <trkpt lat="49.7812006" lon="-123.10142852">
      </trkpt>
      <trkpt lat="49.78129939" lon="-123.10152647">
      </trkpt>
      <trkpt lat="49.78140292" lon="-123.10160922">
      </trkpt>
      <trkpt lat="49.78145845" lon="-123.10153962">
      </trkpt>
      <trkpt lat="49.7814941" lon="-123.10152811">
      </trkpt>
      <trkpt lat="49.78151609" lon="-123.10151747">
      </trkpt>
      <trkpt lat="49.78154528" lon="-123.10148786">
      </trkpt>
      <trkpt lat="49.78157784" lon="-123.10145673">
      </trkpt>
      <trkpt lat="49.78160699" lon="-123.10141923">
      </trkpt>
      <trkpt lat="49.78187561" lon="-123.10115139">
      </trkpt>
      <trkpt lat="49.78192949" lon="-123.10112541">
      </trkpt>
      <trkpt lat="49.7821277" lon="-123.10106946">
      </trkpt>
      <trkpt lat="49.78231617" lon="-123.10106969">
      </trkpt>
      <trkpt lat="49.7825232" lon="-123.10107049">
      </trkpt>
      <trkpt lat="49.7825774" lon="-123.10105665">
      </trkpt>
      <trkpt lat="49.7827664" lon="-123.10109853">
      </trkpt>
      <trkpt lat="49.78290984" lon="-123.10109814">
      </trkpt>
      <trkpt lat="49.78300867" lon="-123.10111273">
      </trkpt>
      <trkpt lat="49.78309889" lon="-123.10114176">
      </trkpt>
      <trkpt lat="49.78326086" lon="-123.1011402">
      </trkpt>
      <trkpt lat="49.78335952" lon="-123.10112701">
      </trkpt>
      <trkpt lat="49.78357536" lon="-123.10109947">
      </trkpt>
      <trkpt lat="49.78364758" lon="-123.10108622">
      </trkpt>
      <trkpt lat="49.78380961" lon="-123.10104471">
      </trkpt>
      <trkpt lat="49.78398942" lon="-123.10101597">
      </trkpt>
      <trkpt lat="49.7841695" lon="-123.10101847">
      </trkpt>
      <trkpt lat="49.78424148" lon="-123.10101739">
      </trkpt>
      <trkpt lat="49.78443912" lon="-123.10108825">
      </trkpt>
      <trkpt lat="49.78464608" lon="-123.10117069">
      </trkpt>
      <trkpt lat="49.78472653" lon="-123.10117081">
      </trkpt>
      <trkpt lat="49.78494274" lon="-123.10115713">
      </trkpt>
      <trkpt lat="49.7850956" lon="-123.1011301">
      </trkpt>
      <trkpt lat="49.78525725" lon="-123.1011164">
      </trkpt>
      <trkpt lat="49.78534748" lon="-123.10110375">
      </trkpt>
      <trkpt lat="49.78553651" lon="-123.10106226">
      </trkpt>
      <trkpt lat="49.78569836" lon="-123.10103466">
      </trkpt>
      <trkpt lat="49.78589598" lon="-123.10106211">
      </trkpt>
      <trkpt lat="49.78600379" lon="-123.10107613">
      </trkpt>
      <trkpt lat="49.78614784" lon="-123.10107744">
      </trkpt>
      <trkpt lat="49.78634584" lon="-123.10107707">
      </trkpt>
      <trkpt lat="49.78653467" lon="-123.10109118">
      </trkpt>
      <trkpt lat="49.7867597" lon="-123.10113426">
      </trkpt>
      <trkpt lat="49.78683153" lon="-123.10114883">
      </trkpt>
      <trkpt lat="49.78693055" lon="-123.10114951">
      </trkpt>
      <trkpt lat="49.78706552" lon="-123.10114792">
      </trkpt>
      <trkpt lat="49.78719136" lon="-123.10116254">
      </trkpt>
      <trkpt lat="49.78741604" lon="-123.10115007">
      </trkpt>
      <trkpt lat="49.78757806" lon="-123.10115024">
      </trkpt>
      <trkpt lat="49.78779408" lon="-123.10115047">
      </trkpt>
      <trkpt lat="49.7879017" lon="-123.1011784">
      </trkpt>
      <trkpt lat="49.78809091" lon="-123.1011647">
      </trkpt>
      <trkpt lat="49.78821638" lon="-123.10116544">
      </trkpt>
      <trkpt lat="49.78831541" lon="-123.10116613">
      </trkpt>
      <trkpt lat="49.7883784" lon="-123.10116562">
      </trkpt>
      <trkpt lat="49.7885582" lon="-123.10113688">
      </trkpt>
      <trkpt lat="49.78865723" lon="-123.10113756">
      </trkpt>
      <trkpt lat="49.78882847" lon="-123.10112499">
      </trkpt>
      <trkpt lat="49.78900789" lon="-123.10112406">
      </trkpt>
      <trkpt lat="49.78914332" lon="-123.10113981">
      </trkpt>
      <trkpt lat="49.78935897" lon="-123.10112617">
      </trkpt>
      <trkpt lat="49.78956601" lon="-123.10112697">
      </trkpt>
      <trkpt lat="49.78978166" lon="-123.10111333">
      </trkpt>
      <trkpt lat="49.78996165" lon="-123.10111237">
      </trkpt>
      <trkpt lat="49.79015066" lon="-123.10111257">
      </trkpt>
      <trkpt lat="49.79036651" lon="-123.10108502">
      </trkpt>
      <trkpt lat="49.79050999" lon="-123.10108637">
      </trkpt>
      <trkpt lat="49.79067201" lon="-123.10108654">
      </trkpt>
      <trkpt lat="49.79084305" lon="-123.10108788">
      </trkpt>
      <trkpt lat="49.79096511" lon="-123.1010919">
      </trkpt>
      <trkpt lat="49.79105059" lon="-123.10120662">
      </trkpt>
      <trkpt lat="49.79115749" lon="-123.10129495">
      </trkpt>
      <trkpt lat="49.7912644" lon="-123.10137448">
      </trkpt>
      <trkpt lat="49.79134464" lon="-123.10137465">
      </trkpt>
      <trkpt lat="49.7914249" lon="-123.10134838">
      </trkpt>
      <trkpt lat="49.79149977" lon="-123.10135734">
      </trkpt>
      <trkpt lat="49.79161208" lon="-123.10138401">
      </trkpt>
      <trkpt lat="49.79167088" lon="-123.10142817">
      </trkpt>
      <trkpt lat="49.79174042" lon="-123.10142832">
      </trkpt>
      <trkpt lat="49.79182598" lon="-123.10145494">
      </trkpt>
      <trkpt lat="49.791858" lon="-123.1015343">
      </trkpt>
      <trkpt lat="49.79190071" lon="-123.10163131">
      </trkpt>
      <trkpt lat="49.79200223" lon="-123.10174606">
      </trkpt>
      <trkpt lat="49.79215728" lon="-123.10184112">
      </trkpt>
      <trkpt lat="49.7922455" lon="-123.10187653">
      </trkpt>
      <trkpt lat="49.79232305" lon="-123.1018811">
      </trkpt>
      <trkpt lat="49.79239529" lon="-123.10185483">
      </trkpt>
      <trkpt lat="49.79245149" lon="-123.1018153">
      </trkpt>
      <trkpt lat="49.79248896" lon="-123.10178894">
      </trkpt>
      <trkpt lat="49.79255851" lon="-123.10176705">
      </trkpt>
      <trkpt lat="49.79265216" lon="-123.1017232">
      </trkpt>
      <trkpt lat="49.79277521" lon="-123.10169263">
      </trkpt>
      <trkpt lat="49.79292233" lon="-123.10167531">
      </trkpt>
      <trkpt lat="49.79297046" lon="-123.101671">
      </trkpt>
      <trkpt lat="49.79300526" lon="-123.10164024">
      </trkpt>
      <trkpt lat="49.79305611" lon="-123.10160509">
      </trkpt>
      <trkpt lat="49.79311762" lon="-123.10160521">
      </trkpt>
      <trkpt lat="49.79308196" lon="-123.10171186">
      </trkpt>
      <trkpt lat="49.79299404" lon="-123.10192002">
      </trkpt>
      <trkpt lat="49.79315337" lon="-123.10180561">
      </trkpt>
      <trkpt lat="49.79330265" lon="-123.10182232">
      </trkpt>
      <trkpt lat="49.79348168" lon="-123.10193744">
      </trkpt>
      <trkpt lat="49.79369053" lon="-123.10210182">
      </trkpt>
      <trkpt lat="49.79386963" lon="-123.10215137">
      </trkpt>
      <trkpt lat="49.7939393" lon="-123.10215153">
      </trkpt>
      <trkpt lat="49.79399891" lon="-123.10226641">
      </trkpt>
      <trkpt lat="49.79408839" lon="-123.10236496">
      </trkpt>
      <trkpt lat="49.79426748" lon="-123.10241452">
      </trkpt>
      <trkpt lat="49.79440673" lon="-123.10251316">
      </trkpt>
      <trkpt lat="49.79447635" lon="-123.1025625">
      </trkpt>
      <trkpt lat="49.7945161" lon="-123.10262817">
      </trkpt>
      <trkpt lat="49.79453592" lon="-123.10272657">
      </trkpt>
      <trkpt lat="49.79455574" lon="-123.10280859">
      </trkpt>
      <trkpt lat="49.79468501" lon="-123.10294001">
      </trkpt>
      <trkpt lat="49.79484415" lon="-123.1030551">
      </trkpt>
      <trkpt lat="49.79491376" lon="-123.10310444">
      </trkpt>
      <trkpt lat="49.79500326" lon="-123.1031866">
      </trkpt>
      <trkpt lat="49.79524198" lon="-123.10333465">
      </trkpt>
      <trkpt lat="49.79541117" lon="-123.10333501">
      </trkpt>
      <trkpt lat="49.79550069" lon="-123.10338437">
      </trkpt>
      <trkpt lat="49.79555045" lon="-123.10338448">
      </trkpt>
      <trkpt lat="49.79563014" lon="-123.10330269">
      </trkpt>
      <trkpt lat="49.79573962" lon="-123.10330291">
      </trkpt>
      <trkpt lat="49.7958092" lon="-123.10340142">
      </trkpt>
      <trkpt lat="49.79584902" lon="-123.10338512">
      </trkpt>
    </trkseg>
  </trk>
</gpx>