<?xml version="1.0" encoding="UTF-8"?>
<gpx xmlns="http://www.topografix.com/GPX/1/1" xmlns:xsi="http://www.w3.org/2001/XMLSchema-instance" xsi:schemaLocation="http://www.topografix.com/GPX/1/1 http://www.topografix.com/GPX/1/1/gpx.xsd" version="1.1" creator="gpx.py -- https://github.com/tkrajina/gpxpy">
  <trk>
    <name>Black Water Trail</name>
    <trkseg>
      <trkpt lat="49.8548734" lon="-124.3914345">
      </trkpt>
      <trkpt lat="49.854678" lon="-124.391158">
      </trkpt>
      <trkpt lat="49.854616" lon="-124.391103">
      </trkpt>
      <trkpt lat="49.853937" lon="-124.390631">
      </trkpt>
      <trkpt lat="49.853636" lon="-124.390354">
      </trkpt>
      <trkpt lat="49.853028" lon="-124.389948">
      </trkpt>
      <trkpt lat="49.852565" lon="-124.389582">
      </trkpt>
      <trkpt lat="49.851728" lon="-124.388773">
      </trkpt>
      <trkpt lat="49.851625" lon="-124.388691">
      </trkpt>
      <trkpt lat="49.851272" lon="-124.38849">
      </trkpt>
      <trkpt lat="49.851094" lon="-124.38836">
      </trkpt>
      <trkpt lat="49.850086" lon="-124.387426">
      </trkpt>
      <trkpt lat="49.849923" lon="-124.38735">
      </trkpt>
      <trkpt lat="49.849524" lon="-124.387245">
      </trkpt>
      <trkpt lat="49.848787" lon="-124.386943">
      </trkpt>
      <trkpt lat="49.848079" lon="-124.386758">
      </trkpt>
      <trkpt lat="49.847965" lon="-124.386716">
      </trkpt>
      <trkpt lat="49.847843" lon="-124.386633">
      </trkpt>
      <trkpt lat="49.846661" lon="-124.385254">
      </trkpt>
      <trkpt lat="49.846237" lon="-124.38479">
      </trkpt>
      <trkpt lat="49.84597" lon="-124.38444">
      </trkpt>
      <trkpt lat="49.844714" lon="-124.383183">
      </trkpt>
      <trkpt lat="49.844433" lon="-124.38282">
      </trkpt>
      <trkpt lat="49.84434" lon="-124.382621">
      </trkpt>
      <trkpt lat="49.844197" lon="-124.382024">
      </trkpt>
      <trkpt lat="49.844159" lon="-124.381914">
      </trkpt>
      <trkpt lat="49.843829" lon="-124.381106">
      </trkpt>
      <trkpt lat="49.843774" lon="-124.380916">
      </trkpt>
      <trkpt lat="49.843557" lon="-124.379816">
      </trkpt>
      <trkpt lat="49.843528" lon="-124.379716">
      </trkpt>
      <trkpt lat="49.843418" lon="-124.379469">
      </trkpt>
      <trkpt lat="49.843379" lon="-124.37927">
      </trkpt>
    </trkseg>
    <trkseg>
      <trkpt lat="49.855827" lon="-124.410444">
      </trkpt>
      <trkpt lat="49.8558477" lon="-124.4102764">
      </trkpt>
      <trkpt lat="49.8558505" lon="-124.4100494">
      </trkpt>
      <trkpt lat="49.8558201" lon="-124.4095942">
      </trkpt>
      <trkpt lat="49.855784" lon="-124.4091192">
      </trkpt>
      <trkpt lat="49.8557629" lon="-124.4088816">
      </trkpt>
      <trkpt lat="49.8557308" lon="-124.4085647">
      </trkpt>
      <trkpt lat="49.8556625" lon="-124.4082793">
      </trkpt>
      <trkpt lat="49.8556112" lon="-124.4080605">
      </trkpt>
      <trkpt lat="49.8556074" lon="-124.4078827">
      </trkpt>
      <trkpt lat="49.8556097" lon="-124.4076951">
      </trkpt>
      <trkpt lat="49.8555938" lon="-124.4075268">
      </trkpt>
      <trkpt lat="49.8555538" lon="-124.4073676">
      </trkpt>
      <trkpt lat="49.8554902" lon="-124.4071781">
      </trkpt>
      <trkpt lat="49.8554681" lon="-124.4070294">
      </trkpt>
      <trkpt lat="49.8554992" lon="-124.4069316">
      </trkpt>
      <trkpt lat="49.8555124" lon="-124.4068332">
      </trkpt>
      <trkpt lat="49.8555556" lon="-124.4067258">
      </trkpt>
      <trkpt lat="49.8555566" lon="-124.4066468">
      </trkpt>
      <trkpt lat="49.8555157" lon="-124.4065568">
      </trkpt>
      <trkpt lat="49.8554515" lon="-124.4064265">
      </trkpt>
      <trkpt lat="49.8553464" lon="-124.4062063">
      </trkpt>
      <trkpt lat="49.855241" lon="-124.4060057">
      </trkpt>
      <trkpt lat="49.8550695" lon="-124.4058328">
      </trkpt>
      <trkpt lat="49.8548926" lon="-124.4056105">
      </trkpt>
      <trkpt lat="49.8547927" lon="-124.4054496">
      </trkpt>
      <trkpt lat="49.8547362" lon="-124.4051714">
      </trkpt>
      <trkpt lat="49.854824" lon="-124.4048481">
      </trkpt>
      <trkpt lat="49.8549097" lon="-124.4046926">
      </trkpt>
      <trkpt lat="49.8549822" lon="-124.4046355">
      </trkpt>
      <trkpt lat="49.855078" lon="-124.4046383">
      </trkpt>
      <trkpt lat="49.8552164" lon="-124.404583">
      </trkpt>
      <trkpt lat="49.855367" lon="-124.4045084">
      </trkpt>
      <trkpt lat="49.855454" lon="-124.4042443">
      </trkpt>
      <trkpt lat="49.8554752" lon="-124.4039783">
      </trkpt>
      <trkpt lat="49.8553837" lon="-124.4036201">
      </trkpt>
      <trkpt lat="49.8553034" lon="-124.4033314">
      </trkpt>
      <trkpt lat="49.85527" lon="-124.4031231">
      </trkpt>
      <trkpt lat="49.855272" lon="-124.4029553">
      </trkpt>
      <trkpt lat="49.8552797" lon="-124.4028173">
      </trkpt>
      <trkpt lat="49.855305" lon="-124.4026995">
      </trkpt>
      <trkpt lat="49.8553742" lon="-124.402425">
      </trkpt>
      <trkpt lat="49.8553482" lon="-124.4020984">
      </trkpt>
      <trkpt lat="49.8553599" lon="-124.4016247">
      </trkpt>
      <trkpt lat="49.8553811" lon="-124.4013638">
      </trkpt>
      <trkpt lat="49.8553826" lon="-124.4012354">
      </trkpt>
      <trkpt lat="49.8553734" lon="-124.401008">
      </trkpt>
      <trkpt lat="49.8553716" lon="-124.4006624">
      </trkpt>
      <trkpt lat="49.8552956" lon="-124.400512">
      </trkpt>
      <trkpt lat="49.8552914" lon="-124.4003638">
      </trkpt>
      <trkpt lat="49.855304" lon="-124.4003049">
      </trkpt>
      <trkpt lat="49.8553119" lon="-124.4001472">
      </trkpt>
      <trkpt lat="49.8553021" lon="-124.3999691">
      </trkpt>
      <trkpt lat="49.8552096" lon="-124.3996998">
      </trkpt>
      <trkpt lat="49.8550682" lon="-124.3995081">
      </trkpt>
      <trkpt lat="49.8548683" lon="-124.3992061">
      </trkpt>
      <trkpt lat="49.854513" lon="-124.3988799">
      </trkpt>
      <trkpt lat="49.8544564" lon="-124.398837">
      </trkpt>
      <trkpt lat="49.8543761" lon="-124.3987486">
      </trkpt>
      <trkpt lat="49.8542894" lon="-124.398585">
      </trkpt>
      <trkpt lat="49.8542911" lon="-124.3984415">
      </trkpt>
      <trkpt lat="49.8543474" lon="-124.398188">
      </trkpt>
      <trkpt lat="49.854408" lon="-124.3979665">
      </trkpt>
      <trkpt lat="49.8545455" lon="-124.3977951">
      </trkpt>
      <trkpt lat="49.8546544" lon="-124.397583">
      </trkpt>
      <trkpt lat="49.8547763" lon="-124.3974908">
      </trkpt>
      <trkpt lat="49.8548454" lon="-124.3973732">
      </trkpt>
      <trkpt lat="49.8548234" lon="-124.3971972">
      </trkpt>
      <trkpt lat="49.8547819" lon="-124.3970286">
      </trkpt>
      <trkpt lat="49.8546245" lon="-124.3968486">
      </trkpt>
      <trkpt lat="49.8545256" lon="-124.3966385">
      </trkpt>
      <trkpt lat="49.8544848" lon="-124.3964141">
      </trkpt>
      <trkpt lat="49.8544498" lon="-124.3961101">
      </trkpt>
      <trkpt lat="49.8544819" lon="-124.395848">
      </trkpt>
      <trkpt lat="49.8546633" lon="-124.3952393">
      </trkpt>
      <trkpt lat="49.8547802" lon="-124.3947643">
      </trkpt>
      <trkpt lat="49.8548853" lon="-124.3944644">
      </trkpt>
      <trkpt lat="49.8549804" lon="-124.3941961">
      </trkpt>
      <trkpt lat="49.8550935" lon="-124.3940319">
      </trkpt>
      <trkpt lat="49.8552561" lon="-124.3937815">
      </trkpt>
      <trkpt lat="49.8554094" lon="-124.3934909">
      </trkpt>
      <trkpt lat="49.8555333" lon="-124.3932393">
      </trkpt>
      <trkpt lat="49.8556274" lon="-124.3930507">
      </trkpt>
      <trkpt lat="49.8556928" lon="-124.3928373">
      </trkpt>
      <trkpt lat="49.855781" lon="-124.3927362">
      </trkpt>
      <trkpt lat="49.8557969" lon="-124.3926171">
      </trkpt>
      <trkpt lat="49.8557738" lon="-124.3925367">
      </trkpt>
      <trkpt lat="49.8556789" lon="-124.3923825">
      </trkpt>
      <trkpt lat="49.8556083" lon="-124.392229">
      </trkpt>
      <trkpt lat="49.8556168" lon="-124.3921823">
      </trkpt>
      <trkpt lat="49.855547" lon="-124.3920996">
      </trkpt>
      <trkpt lat="49.8554129" lon="-124.3919921">
      </trkpt>
      <trkpt lat="49.8552936" lon="-124.3918611">
      </trkpt>
      <trkpt lat="49.8551407" lon="-124.3917132">
      </trkpt>
      <trkpt lat="49.8549977" lon="-124.3915497">
      </trkpt>
      <trkpt lat="49.8548734" lon="-124.3914345">
      </trkpt>
    </trkseg>
    <trkseg>
      <trkpt lat="49.8597238" lon="-124.4065397">
      </trkpt>
      <trkpt lat="49.859535" lon="-124.406693">
      </trkpt>
      <trkpt lat="49.859304" lon="-124.406798">
      </trkpt>
      <trkpt lat="49.859049" lon="-124.406987">
      </trkpt>
      <trkpt lat="49.858929" lon="-124.4071">
      </trkpt>
      <trkpt lat="49.858797" lon="-124.407278">
      </trkpt>
      <trkpt lat="49.858771" lon="-124.407347">
      </trkpt>
      <trkpt lat="49.858762" lon="-124.407554">
      </trkpt>
      <trkpt lat="49.858723" lon="-124.40769">
      </trkpt>
      <trkpt lat="49.858632" lon="-124.407877">
      </trkpt>
      <trkpt lat="49.858519" lon="-124.408173">
      </trkpt>
      <trkpt lat="49.858399" lon="-124.408388">
      </trkpt>
      <trkpt lat="49.85831" lon="-124.408497">
      </trkpt>
      <trkpt lat="49.858091" lon="-124.408617">
      </trkpt>
      <trkpt lat="49.857709" lon="-124.408686">
      </trkpt>
      <trkpt lat="49.857417" lon="-124.408816">
      </trkpt>
      <trkpt lat="49.857312" lon="-124.408889">
      </trkpt>
      <trkpt lat="49.856554" lon="-124.409512">
      </trkpt>
      <trkpt lat="49.856266" lon="-124.409779">
      </trkpt>
      <trkpt lat="49.856115" lon="-124.409985">
      </trkpt>
      <trkpt lat="49.855888" lon="-124.410374">
      </trkpt>
      <trkpt lat="49.855827" lon="-124.410444">
      </trkpt>
    </trkseg>
    <trkseg>
      <trkpt lat="49.8627545" lon="-124.3975472">
      </trkpt>
      <trkpt lat="49.8625928" lon="-124.3977066">
      </trkpt>
      <trkpt lat="49.8625536" lon="-124.3977946">
      </trkpt>
      <trkpt lat="49.862485" lon="-124.3979498">
      </trkpt>
      <trkpt lat="49.8624035" lon="-124.3981257">
      </trkpt>
      <trkpt lat="49.8623742" lon="-124.3981825">
      </trkpt>
      <trkpt lat="49.8623675" lon="-124.3983011">
      </trkpt>
      <trkpt lat="49.86236" lon="-124.3984005">
      </trkpt>
      <trkpt lat="49.8623455" lon="-124.3985468">
      </trkpt>
      <trkpt lat="49.862281" lon="-124.3986236">
      </trkpt>
      <trkpt lat="49.8622297" lon="-124.398664">
      </trkpt>
      <trkpt lat="49.8621376" lon="-124.3986614">
      </trkpt>
      <trkpt lat="49.8619515" lon="-124.398808">
      </trkpt>
      <trkpt lat="49.8618969" lon="-124.3988589">
      </trkpt>
      <trkpt lat="49.8618419" lon="-124.3989411">
      </trkpt>
      <trkpt lat="49.8618024" lon="-124.3990501">
      </trkpt>
      <trkpt lat="49.8617437" lon="-124.3991742">
      </trkpt>
      <trkpt lat="49.8616819" lon="-124.3992929">
      </trkpt>
      <trkpt lat="49.8616201" lon="-124.3994117">
      </trkpt>
      <trkpt lat="49.8615966" lon="-124.3995211">
      </trkpt>
      <trkpt lat="49.8615625" lon="-124.399714">
      </trkpt>
      <trkpt lat="49.8615364" lon="-124.3997657">
      </trkpt>
      <trkpt lat="49.8614949" lon="-124.3997855">
      </trkpt>
      <trkpt lat="49.8614342" lon="-124.3998099">
      </trkpt>
      <trkpt lat="49.8613665" lon="-124.3998866">
      </trkpt>
      <trkpt lat="49.8613052" lon="-124.3999634">
      </trkpt>
      <trkpt lat="49.8612089" lon="-124.4000497">
      </trkpt>
      <trkpt lat="49.8611058" lon="-124.4001621">
      </trkpt>
      <trkpt lat="49.8610413" lon="-124.4002441">
      </trkpt>
      <trkpt lat="49.8610213" lon="-124.4003221">
      </trkpt>
      <trkpt lat="49.8610428" lon="-124.4003804">
      </trkpt>
      <trkpt lat="49.8610677" lon="-124.4004283">
      </trkpt>
      <trkpt lat="49.8610795" lon="-124.400502">
      </trkpt>
      <trkpt lat="49.8610877" lon="-124.4006071">
      </trkpt>
      <trkpt lat="49.8610868" lon="-124.4006856">
      </trkpt>
      <trkpt lat="49.8610666" lon="-124.4007794">
      </trkpt>
      <trkpt lat="49.8610651" lon="-124.4008999">
      </trkpt>
      <trkpt lat="49.8610639" lon="-124.4010047">
      </trkpt>
      <trkpt lat="49.8610247" lon="-124.4010874">
      </trkpt>
      <trkpt lat="49.8609955" lon="-124.4011442">
      </trkpt>
      <trkpt lat="49.860999" lon="-124.4012097">
      </trkpt>
      <trkpt lat="49.8609914" lon="-124.4013143">
      </trkpt>
      <trkpt lat="49.8609617" lon="-124.4014077">
      </trkpt>
      <trkpt lat="49.8609194" lon="-124.4014852">
      </trkpt>
      <trkpt lat="49.8608542" lon="-124.4016248">
      </trkpt>
      <trkpt lat="49.8608078" lon="-124.4017807">
      </trkpt>
      <trkpt lat="49.8607971" lon="-124.4018799">
      </trkpt>
      <trkpt lat="49.8607862" lon="-124.4019949">
      </trkpt>
      <trkpt lat="49.8607854" lon="-124.4020578">
      </trkpt>
      <trkpt lat="49.8607747" lon="-124.4021518">
      </trkpt>
      <trkpt lat="49.8607769" lon="-124.4022358">
      </trkpt>
      <trkpt lat="49.8607665" lon="-124.4023036">
      </trkpt>
      <trkpt lat="49.8607468" lon="-124.4023607">
      </trkpt>
      <trkpt lat="49.8607557" lon="-124.4024081">
      </trkpt>
      <trkpt lat="49.8607447" lon="-124.4025336">
      </trkpt>
      <trkpt lat="49.8606859" lon="-124.4026629">
      </trkpt>
      <trkpt lat="49.8606443" lon="-124.4026932">
      </trkpt>
      <trkpt lat="49.8605737" lon="-124.4027488">
      </trkpt>
      <trkpt lat="49.8604222" lon="-124.4029278">
      </trkpt>
      <trkpt lat="49.8603059" lon="-124.4030869">
      </trkpt>
      <trkpt lat="49.8602349" lon="-124.4031687">
      </trkpt>
      <trkpt lat="49.8602085" lon="-124.4032571">
      </trkpt>
      <trkpt lat="49.8601949" lon="-124.4033301">
      </trkpt>
      <trkpt lat="49.8601691" lon="-124.4033607">
      </trkpt>
      <trkpt lat="49.8601077" lon="-124.4034428">
      </trkpt>
      <trkpt lat="49.860008" lon="-124.4035448">
      </trkpt>
      <trkpt lat="49.8599558" lon="-124.4036533">
      </trkpt>
      <trkpt lat="49.859952" lon="-124.4037056">
      </trkpt>
      <trkpt lat="49.8599764" lon="-124.4037902">
      </trkpt>
      <trkpt lat="49.8600005" lon="-124.4038957">
      </trkpt>
      <trkpt lat="49.8600093" lon="-124.4039589">
      </trkpt>
      <trkpt lat="49.8599895" lon="-124.4040212">
      </trkpt>
      <trkpt lat="49.859938" lon="-124.4040773">
      </trkpt>
      <trkpt lat="49.8598534" lon="-124.4042374">
      </trkpt>
      <trkpt lat="49.8597657" lon="-124.4043973">
      </trkpt>
      <trkpt lat="49.8597508" lon="-124.4045751">
      </trkpt>
      <trkpt lat="49.859775" lon="-124.4046754">
      </trkpt>
      <trkpt lat="49.8598156" lon="-124.4047394">
      </trkpt>
      <trkpt lat="49.8598898" lon="-124.4049093">
      </trkpt>
      <trkpt lat="49.8598953" lon="-124.4049776">
      </trkpt>
      <trkpt lat="49.859891" lon="-124.4050666">
      </trkpt>
      <trkpt lat="49.8598393" lon="-124.4051384">
      </trkpt>
      <trkpt lat="49.859781" lon="-124.4052311">
      </trkpt>
      <trkpt lat="49.8597513" lon="-124.4053193">
      </trkpt>
      <trkpt lat="49.8597177" lon="-124.4054703">
      </trkpt>
      <trkpt lat="49.8597164" lon="-124.4055804">
      </trkpt>
      <trkpt lat="49.8596699" lon="-124.4057467">
      </trkpt>
      <trkpt lat="49.8596429" lon="-124.405877">
      </trkpt>
      <trkpt lat="49.8596098" lon="-124.4059809">
      </trkpt>
      <trkpt lat="49.8595826" lon="-124.4061268">
      </trkpt>
      <trkpt lat="49.8595947" lon="-124.4061796">
      </trkpt>
      <trkpt lat="49.8596355" lon="-124.4062227">
      </trkpt>
      <trkpt lat="49.8596763" lon="-124.4062658">
      </trkpt>
      <trkpt lat="49.8596916" lon="-124.4063134">
      </trkpt>
      <trkpt lat="49.8597091" lon="-124.406445">
      </trkpt>
      <trkpt lat="49.8597238" lon="-124.4065397">
      </trkpt>
    </trkseg>
    <trkseg>
      <trkpt lat="49.8627545" lon="-124.3975472">
      </trkpt>
      <trkpt lat="49.8625152" lon="-124.3971203">
      </trkpt>
      <trkpt lat="49.862198" lon="-124.397191">
      </trkpt>
      <trkpt lat="49.862072" lon="-124.39704">
      </trkpt>
      <trkpt lat="49.861591" lon="-124.396569">
      </trkpt>
      <trkpt lat="49.861442" lon="-124.396263">
      </trkpt>
      <trkpt lat="49.861305" lon="-124.396037">
      </trkpt>
      <trkpt lat="49.861064" lon="-124.395751">
      </trkpt>
      <trkpt lat="49.86091" lon="-124.395418">
      </trkpt>
      <trkpt lat="49.860834" lon="-124.395305">
      </trkpt>
      <trkpt lat="49.860599" lon="-124.395106">
      </trkpt>
      <trkpt lat="49.860388" lon="-124.394974">
      </trkpt>
      <trkpt lat="49.860251" lon="-124.394856">
      </trkpt>
      <trkpt lat="49.859866" lon="-124.394627">
      </trkpt>
      <trkpt lat="49.859654" lon="-124.39445">
      </trkpt>
      <trkpt lat="49.859547" lon="-124.39439">
      </trkpt>
      <trkpt lat="49.859039" lon="-124.394004">
      </trkpt>
      <trkpt lat="49.858857" lon="-124.393905">
      </trkpt>
      <trkpt lat="49.858292" lon="-124.393478">
      </trkpt>
      <trkpt lat="49.857893" lon="-124.393272">
      </trkpt>
      <trkpt lat="49.857669" lon="-124.393226">
      </trkpt>
      <trkpt lat="49.857564" lon="-124.393171">
      </trkpt>
      <trkpt lat="49.857478" lon="-124.393089">
      </trkpt>
      <trkpt lat="49.857273" lon="-124.392983">
      </trkpt>
      <trkpt lat="49.857064" lon="-124.392735">
      </trkpt>
      <trkpt lat="49.856906" lon="-124.392611">
      </trkpt>
      <trkpt lat="49.856744" lon="-124.392439">
      </trkpt>
      <trkpt lat="49.856383" lon="-124.391991">
      </trkpt>
      <trkpt lat="49.8562405" lon="-124.3918876">
      </trkpt>
    </trkseg>
    <trkseg>
      <trkpt lat="49.8556168" lon="-124.3921823">
      </trkpt>
      <trkpt lat="49.8557249" lon="-124.3921765">
      </trkpt>
      <trkpt lat="49.855846" lon="-124.392109">
      </trkpt>
      <trkpt lat="49.8559302" lon="-124.3919911">
      </trkpt>
      <trkpt lat="49.8560278" lon="-124.3919141">
      </trkpt>
      <trkpt lat="49.8561332" lon="-124.391863">
      </trkpt>
      <trkpt lat="49.8562405" lon="-124.3918876">
      </trkpt>
    </trkseg>
  </trk>
</gpx>