<?xml version="1.0" encoding="UTF-8"?>
<gpx xmlns="http://www.topografix.com/GPX/1/1" xmlns:xsi="http://www.w3.org/2001/XMLSchema-instance" xsi:schemaLocation="http://www.topografix.com/GPX/1/1 http://www.topografix.com/GPX/1/1/gpx.xsd" version="1.1" creator="gpx.py -- https://github.com/tkrajina/gpxpy">
  <trk>
    <name>Ski tour near The Knuckles</name>
    <trkseg>
      <trkpt lat="49.9060651" lon="-124.1793813">
      </trkpt>
      <trkpt lat="49.9060582" lon="-124.1793627">
      </trkpt>
      <trkpt lat="49.9059964" lon="-124.1790788">
      </trkpt>
      <trkpt lat="49.9058068" lon="-124.1786413">
      </trkpt>
      <trkpt lat="49.9054907" lon="-124.1783669">
      </trkpt>
      <trkpt lat="49.9054502" lon="-124.1782816">
      </trkpt>
      <trkpt lat="49.9054494" lon="-124.1781927">
      </trkpt>
      <trkpt lat="49.9053727" lon="-124.1780795">
      </trkpt>
      <trkpt lat="49.9053386" lon="-124.1777876">
      </trkpt>
      <trkpt lat="49.9051075" lon="-124.1774699">
      </trkpt>
      <trkpt lat="49.9051004" lon="-124.1773556">
      </trkpt>
      <trkpt lat="49.9051793" lon="-124.1770554">
      </trkpt>
      <trkpt lat="49.9051721" lon="-124.1769517">
      </trkpt>
      <trkpt lat="49.9050846" lon="-124.1767237">
      </trkpt>
      <trkpt lat="49.9051166" lon="-124.1765886">
      </trkpt>
    </trkseg>
    <trkseg>
      <trkpt lat="49.9051166" lon="-124.1765886">
      </trkpt>
      <trkpt lat="49.9050683" lon="-124.1765909">
      </trkpt>
      <trkpt lat="49.9045722" lon="-124.1765602">
      </trkpt>
      <trkpt lat="49.904262" lon="-124.1763709">
      </trkpt>
      <trkpt lat="49.9040211" lon="-124.1762941">
      </trkpt>
      <trkpt lat="49.9035076" lon="-124.1763326">
      </trkpt>
      <trkpt lat="49.9031553" lon="-124.176127">
      </trkpt>
      <trkpt lat="49.9030684" lon="-124.1759432">
      </trkpt>
      <trkpt lat="49.9028034" lon="-124.1756729">
      </trkpt>
      <trkpt lat="49.9025417" lon="-124.1753269">
      </trkpt>
      <trkpt lat="49.9024737" lon="-124.17529">
      </trkpt>
      <trkpt lat="49.9023174" lon="-124.1752674">
      </trkpt>
      <trkpt lat="49.9020861" lon="-124.1753397">
      </trkpt>
      <trkpt lat="49.9018224" lon="-124.1758527">
      </trkpt>
      <trkpt lat="49.9017218" lon="-124.1759418">
      </trkpt>
      <trkpt lat="49.9013939" lon="-124.1760602">
      </trkpt>
      <trkpt lat="49.9011719" lon="-124.1760934">
      </trkpt>
      <trkpt lat="49.9010169" lon="-124.1760591">
      </trkpt>
      <trkpt lat="49.9005462" lon="-124.175778">
      </trkpt>
    </trkseg>
    <trkseg>
      <trkpt lat="49.9108026" lon="-124.1844561">
      </trkpt>
      <trkpt lat="49.910696" lon="-124.184311">
      </trkpt>
      <trkpt lat="49.9104617" lon="-124.1841074">
      </trkpt>
      <trkpt lat="49.9104775" lon="-124.1840165">
      </trkpt>
      <trkpt lat="49.9103993" lon="-124.1839255">
      </trkpt>
      <trkpt lat="49.9103291" lon="-124.1837109">
      </trkpt>
      <trkpt lat="49.9103319" lon="-124.1835372">
      </trkpt>
      <trkpt lat="49.910039" lon="-124.1833272">
      </trkpt>
      <trkpt lat="49.9099189" lon="-124.1831818">
      </trkpt>
      <trkpt lat="49.9097134" lon="-124.1832589">
      </trkpt>
      <trkpt lat="49.9096597" lon="-124.1833492">
      </trkpt>
      <trkpt lat="49.9095309" lon="-124.1832212">
      </trkpt>
      <trkpt lat="49.9092866" lon="-124.1832243">
      </trkpt>
      <trkpt lat="49.9092517" lon="-124.1831667">
      </trkpt>
      <trkpt lat="49.9091153" lon="-124.1830976">
      </trkpt>
      <trkpt lat="49.9089492" lon="-124.1831247">
      </trkpt>
      <trkpt lat="49.9088279" lon="-124.1829034">
      </trkpt>
      <trkpt lat="49.9086443" lon="-124.1827035">
      </trkpt>
      <trkpt lat="49.9086364" lon="-124.1825857">
      </trkpt>
      <trkpt lat="49.9085448" lon="-124.1824038">
      </trkpt>
      <trkpt lat="49.9085524" lon="-124.1821121">
      </trkpt>
      <trkpt lat="49.9085369" lon="-124.182003">
      </trkpt>
      <trkpt lat="49.9084929" lon="-124.181939">
      </trkpt>
      <trkpt lat="49.9084626" lon="-124.1816215">
      </trkpt>
      <trkpt lat="49.9084115" lon="-124.1815153">
      </trkpt>
      <trkpt lat="49.908288" lon="-124.1814161">
      </trkpt>
      <trkpt lat="49.90815" lon="-124.1812172">
      </trkpt>
      <trkpt lat="49.908112" lon="-124.1810183">
      </trkpt>
      <trkpt lat="49.9080376" lon="-124.1808463">
      </trkpt>
      <trkpt lat="49.9079432" lon="-124.1809409">
      </trkpt>
      <trkpt lat="49.9078674" lon="-124.180956">
      </trkpt>
      <trkpt lat="49.9075692" lon="-124.1808766">
      </trkpt>
      <trkpt lat="49.9074447" lon="-124.1807404">
      </trkpt>
      <trkpt lat="49.907251" lon="-124.1808701">
      </trkpt>
      <trkpt lat="49.9070312" lon="-124.1809437">
      </trkpt>
      <trkpt lat="49.9066285" lon="-124.1807941">
      </trkpt>
      <trkpt lat="49.9064088" lon="-124.1807958">
      </trkpt>
      <trkpt lat="49.9063793" lon="-124.1807347">
      </trkpt>
      <trkpt lat="49.9063714" lon="-124.1805182">
      </trkpt>
      <trkpt lat="49.9062777" lon="-124.1803575">
      </trkpt>
      <trkpt lat="49.9062909" lon="-124.1802403">
      </trkpt>
      <trkpt lat="49.9062227" lon="-124.180126">
      </trkpt>
      <trkpt lat="49.9062407" lon="-124.1800859">
      </trkpt>
      <trkpt lat="49.9061172" lon="-124.1797355">
      </trkpt>
      <trkpt lat="49.9060651" lon="-124.1793813">
      </trkpt>
    </trkseg>
    <trkseg>
      <trkpt lat="49.9128768" lon="-124.1853319">
      </trkpt>
      <trkpt lat="49.9127927" lon="-124.1852249">
      </trkpt>
      <trkpt lat="49.912697" lon="-124.1851855">
      </trkpt>
      <trkpt lat="49.9125483" lon="-124.185123">
      </trkpt>
      <trkpt lat="49.912195" lon="-124.1851638">
      </trkpt>
      <trkpt lat="49.9115877" lon="-124.1853365">
      </trkpt>
      <trkpt lat="49.9112949" lon="-124.1853352">
      </trkpt>
      <trkpt lat="49.9111401" lon="-124.1853276">
      </trkpt>
      <trkpt lat="49.9110095" lon="-124.1852466">
      </trkpt>
      <trkpt lat="49.9109348" lon="-124.1851494">
      </trkpt>
      <trkpt lat="49.9108197" lon="-124.1848282">
      </trkpt>
      <trkpt lat="49.9108026" lon="-124.1844561">
      </trkpt>
    </trkseg>
  </trk>
</gpx>