<?xml version="1.0" encoding="UTF-8"?>
<gpx xmlns="http://www.topografix.com/GPX/1/1" xmlns:xsi="http://www.w3.org/2001/XMLSchema-instance" xsi:schemaLocation="http://www.topografix.com/GPX/1/1 http://www.topografix.com/GPX/1/1/gpx.xsd" version="1.1" creator="gpx.py -- https://github.com/tkrajina/gpxpy">
  <trk>
    <name>Plantation Trail</name>
    <trkseg>
      <trkpt lat="49.872751" lon="-124.3863593">
      </trkpt>
      <trkpt lat="49.8727016" lon="-124.3862898">
      </trkpt>
      <trkpt lat="49.8726299" lon="-124.3862513">
      </trkpt>
      <trkpt lat="49.8725664" lon="-124.3861966">
      </trkpt>
      <trkpt lat="49.8724886" lon="-124.3861679">
      </trkpt>
      <trkpt lat="49.8724035" lon="-124.3860761">
      </trkpt>
      <trkpt lat="49.8723637" lon="-124.3860452">
      </trkpt>
      <trkpt lat="49.8722898" lon="-124.3860233">
      </trkpt>
      <trkpt lat="49.8722099" lon="-124.3860011">
      </trkpt>
      <trkpt lat="49.8721401" lon="-124.3859694">
      </trkpt>
      <trkpt lat="49.8720664" lon="-124.3859342">
      </trkpt>
      <trkpt lat="49.8719508" lon="-124.3858714">
      </trkpt>
      <trkpt lat="49.8718752" lon="-124.3858229">
      </trkpt>
      <trkpt lat="49.8718145" lon="-124.3857815">
      </trkpt>
      <trkpt lat="49.8717467" lon="-124.3857465">
      </trkpt>
      <trkpt lat="49.8717151" lon="-124.3857092">
      </trkpt>
      <trkpt lat="49.8716513" lon="-124.3856776">
      </trkpt>
      <trkpt lat="49.8715677" lon="-124.3856289">
      </trkpt>
      <trkpt lat="49.871534" lon="-124.3855981">
      </trkpt>
      <trkpt lat="49.8715163" lon="-124.3855646">
      </trkpt>
      <trkpt lat="49.8714806" lon="-124.3855338">
      </trkpt>
      <trkpt lat="49.8714406" lon="-124.3855293">
      </trkpt>
      <trkpt lat="49.8713769" lon="-124.3854878">
      </trkpt>
      <trkpt lat="49.8713073" lon="-124.3854428">
      </trkpt>
      <trkpt lat="49.8711659" lon="-124.3853627">
      </trkpt>
      <trkpt lat="49.8711264" lon="-124.3853119">
      </trkpt>
      <trkpt lat="49.8710968" lon="-124.3852714">
      </trkpt>
      <trkpt lat="49.8710212" lon="-124.3852263">
      </trkpt>
      <trkpt lat="49.8709509" lon="-124.3852045">
      </trkpt>
      <trkpt lat="49.870913" lon="-124.3851868">
      </trkpt>
      <trkpt lat="49.8708509" lon="-124.3851851">
      </trkpt>
      <trkpt lat="49.8708131" lon="-124.3851608">
      </trkpt>
      <trkpt lat="49.8707853" lon="-124.3851402">
      </trkpt>
      <trkpt lat="49.8707514" lon="-124.3851194">
      </trkpt>
      <trkpt lat="49.8707054" lon="-124.3851114">
      </trkpt>
      <trkpt lat="49.8706473" lon="-124.3851131">
      </trkpt>
      <trkpt lat="49.8705949" lon="-124.3851348">
      </trkpt>
      <trkpt lat="49.8705025" lon="-124.385152">
      </trkpt>
      <trkpt lat="49.8704401" lon="-124.3851667">
      </trkpt>
      <trkpt lat="49.8703499" lon="-124.3851707">
      </trkpt>
      <trkpt lat="49.870274" lon="-124.3851454">
      </trkpt>
      <trkpt lat="49.8702281" lon="-124.3851276">
      </trkpt>
      <trkpt lat="49.8701567" lon="-124.385066">
      </trkpt>
      <trkpt lat="49.870085" lon="-124.3850209">
      </trkpt>
      <trkpt lat="49.8700336" lon="-124.3849632">
      </trkpt>
      <trkpt lat="49.8699878" lon="-124.3849355">
      </trkpt>
      <trkpt lat="49.8699623" lon="-124.3848918">
      </trkpt>
      <trkpt lat="49.8699375" lon="-124.3848616">
      </trkpt>
      <trkpt lat="49.869882" lon="-124.3848104">
      </trkpt>
      <trkpt lat="49.8698343" lon="-124.3847759">
      </trkpt>
      <trkpt lat="49.8697864" lon="-124.384758">
      </trkpt>
      <trkpt lat="49.8697226" lon="-124.3847264">
      </trkpt>
      <trkpt lat="49.869667" lon="-124.3846852">
      </trkpt>
      <trkpt lat="49.8696176" lon="-124.3846242">
      </trkpt>
      <trkpt lat="49.8695682" lon="-124.3845633">
      </trkpt>
      <trkpt lat="49.8695187" lon="-124.3845056">
      </trkpt>
      <trkpt lat="49.8694631" lon="-124.3844643">
      </trkpt>
      <trkpt lat="49.8693913" lon="-124.3844358">
      </trkpt>
      <trkpt lat="49.8693434" lon="-124.3844179">
      </trkpt>
      <trkpt lat="49.869286" lon="-124.3843567">
      </trkpt>
      <trkpt lat="49.8692409" lon="-124.3842662">
      </trkpt>
    </trkseg>
  </trk>
</gpx>