<?xml version="1.0" encoding="UTF-8"?>
<gpx xmlns="http://www.topografix.com/GPX/1/1" xmlns:xsi="http://www.w3.org/2001/XMLSchema-instance" xsi:schemaLocation="http://www.topografix.com/GPX/1/1 http://www.topografix.com/GPX/1/1/gpx.xsd" version="1.1" creator="gpx.py -- https://github.com/tkrajina/gpxpy">
  <trk>
    <name>Chateau Rotary Trail</name>
    <trkseg>
      <trkpt lat="49.8907179" lon="-124.1873478">
      </trkpt>
      <trkpt lat="49.8907517" lon="-124.1870112">
      </trkpt>
      <trkpt lat="49.891017" lon="-124.1855885">
      </trkpt>
      <trkpt lat="49.8911275" lon="-124.1847307">
      </trkpt>
      <trkpt lat="49.8913711" lon="-124.1835832">
      </trkpt>
      <trkpt lat="49.8915068" lon="-124.1826635">
      </trkpt>
      <trkpt lat="49.8916725" lon="-124.181966">
      </trkpt>
      <trkpt lat="49.8919036" lon="-124.1812558">
      </trkpt>
      <trkpt lat="49.8921881" lon="-124.1801981">
      </trkpt>
      <trkpt lat="49.8922759" lon="-124.1799507">
      </trkpt>
      <trkpt lat="49.8928587" lon="-124.1790741">
      </trkpt>
      <trkpt lat="49.8936109" lon="-124.17768">
      </trkpt>
      <trkpt lat="49.8936804" lon="-124.177558">
      </trkpt>
      <trkpt lat="49.8937919" lon="-124.1774284">
      </trkpt>
    </trkseg>
    <trkseg>
      <trkpt lat="49.9005462" lon="-124.175778">
      </trkpt>
      <trkpt lat="49.9006072" lon="-124.1756662">
      </trkpt>
      <trkpt lat="49.9006342" lon="-124.1754017">
      </trkpt>
      <trkpt lat="49.9006057" lon="-124.175261">
      </trkpt>
      <trkpt lat="49.9005177" lon="-124.1751673">
      </trkpt>
      <trkpt lat="49.9001114" lon="-124.1748188">
      </trkpt>
      <trkpt lat="49.8998442" lon="-124.1746472">
      </trkpt>
      <trkpt lat="49.8994307" lon="-124.1746556">
      </trkpt>
      <trkpt lat="49.8990629" lon="-124.174419">
      </trkpt>
      <trkpt lat="49.8989401" lon="-124.1742781">
      </trkpt>
      <trkpt lat="49.8988693" lon="-124.1739568">
      </trkpt>
      <trkpt lat="49.8987202" lon="-124.1736609">
      </trkpt>
      <trkpt lat="49.8986882" lon="-124.1736155">
      </trkpt>
      <trkpt lat="49.8984586" lon="-124.1733492">
      </trkpt>
      <trkpt lat="49.8983846" lon="-124.1733076">
      </trkpt>
      <trkpt lat="49.8983617" lon="-124.173242">
      </trkpt>
    </trkseg>
    <trkseg>
      <trkpt lat="49.9005462" lon="-124.175778">
      </trkpt>
      <trkpt lat="49.9004866" lon="-124.1757688">
      </trkpt>
      <trkpt lat="49.9003011" lon="-124.1757557">
      </trkpt>
      <trkpt lat="49.9001034" lon="-124.1758045">
      </trkpt>
      <trkpt lat="49.8996212" lon="-124.176247">
      </trkpt>
      <trkpt lat="49.8985364" lon="-124.1770618">
      </trkpt>
      <trkpt lat="49.8978204" lon="-124.1775067">
      </trkpt>
      <trkpt lat="49.8972707" lon="-124.1777375">
      </trkpt>
    </trkseg>
    <trkseg>
      <trkpt lat="49.8972707" lon="-124.1777375">
      </trkpt>
      <trkpt lat="49.89719" lon="-124.1777913">
      </trkpt>
      <trkpt lat="49.8969878" lon="-124.1778335">
      </trkpt>
      <trkpt lat="49.8962047" lon="-124.1774278">
      </trkpt>
      <trkpt lat="49.8953363" lon="-124.1774624">
      </trkpt>
      <trkpt lat="49.8943437" lon="-124.1774541">
      </trkpt>
      <trkpt lat="49.8941179" lon="-124.1774017">
      </trkpt>
      <trkpt lat="49.8937919" lon="-124.1774284">
      </trkpt>
    </trkseg>
  </trk>
</gpx>