<?xml version="1.0" encoding="UTF-8"?>
<gpx xmlns="http://www.topografix.com/GPX/1/1" xmlns:xsi="http://www.w3.org/2001/XMLSchema-instance" xsi:schemaLocation="http://www.topografix.com/GPX/1/1 http://www.topografix.com/GPX/1/1/gpx.xsd" version="1.1" creator="gpx.py -- https://github.com/tkrajina/gpxpy">
  <trk>
    <name>Dippers Doorway Trail</name>
    <trkseg>
      <trkpt lat="49.9132198" lon="-124.2012459">
      </trkpt>
      <trkpt lat="49.9134011" lon="-124.2009949">
      </trkpt>
      <trkpt lat="49.9142329" lon="-124.2003666">
      </trkpt>
      <trkpt lat="49.9143469" lon="-124.2001189">
      </trkpt>
      <trkpt lat="49.9145748" lon="-124.1998977">
      </trkpt>
      <trkpt lat="49.9149793" lon="-124.1997296">
      </trkpt>
      <trkpt lat="49.9155775" lon="-124.19965">
      </trkpt>
      <trkpt lat="49.9163125" lon="-124.1997384">
      </trkpt>
      <trkpt lat="49.9167739" lon="-124.1998181">
      </trkpt>
      <trkpt lat="49.917093" lon="-124.1998092">
      </trkpt>
      <trkpt lat="49.9172411" lon="-124.1999331">
      </trkpt>
      <trkpt lat="49.9173152" lon="-124.2004286">
      </trkpt>
      <trkpt lat="49.9171841" lon="-124.2008798">
      </trkpt>
      <trkpt lat="49.9170702" lon="-124.2016142">
      </trkpt>
      <trkpt lat="49.9171329" lon="-124.2027025">
      </trkpt>
      <trkpt lat="49.9173892" lon="-124.203897">
      </trkpt>
      <trkpt lat="49.9180045" lon="-124.2065514">
      </trkpt>
      <trkpt lat="49.9182324" lon="-124.2072681">
      </trkpt>
      <trkpt lat="49.9183406" lon="-124.2088253">
      </trkpt>
      <trkpt lat="49.9184831" lon="-124.2097101">
      </trkpt>
      <trkpt lat="49.9186426" lon="-124.2102499">
      </trkpt>
      <trkpt lat="49.9187908" lon="-124.210589">
      </trkpt>
      <trkpt lat="49.9189705" lon="-124.2108679">
      </trkpt>
      <trkpt lat="49.9193573" lon="-124.2120052">
      </trkpt>
      <trkpt lat="49.9197441" lon="-124.2132282">
      </trkpt>
      <trkpt lat="49.9201862" lon="-124.2140651">
      </trkpt>
      <trkpt lat="49.9206422" lon="-124.2145157">
      </trkpt>
      <trkpt lat="49.921029" lon="-124.2147517">
      </trkpt>
      <trkpt lat="49.9212777" lon="-124.2147517">
      </trkpt>
      <trkpt lat="49.9215678" lon="-124.2145586">
      </trkpt>
      <trkpt lat="49.9219546" lon="-124.2141724">
      </trkpt>
      <trkpt lat="49.9221204" lon="-124.2137861">
      </trkpt>
      <trkpt lat="49.9223" lon="-124.2129922">
      </trkpt>
      <trkpt lat="49.9225763" lon="-124.2120695">
      </trkpt>
      <trkpt lat="49.9231565" lon="-124.2102671">
      </trkpt>
      <trkpt lat="49.9234466" lon="-124.2091727">
      </trkpt>
      <trkpt lat="49.9236676" lon="-124.2084432">
      </trkpt>
      <trkpt lat="49.9239973" lon="-124.2075488">
      </trkpt>
    </trkseg>
    <trkseg>
      <trkpt lat="49.9132198" lon="-124.2012459">
      </trkpt>
      <trkpt lat="49.9132233" lon="-124.2011319">
      </trkpt>
      <trkpt lat="49.9131714" lon="-124.2007275">
      </trkpt>
      <trkpt lat="49.9129421" lon="-124.1999611">
      </trkpt>
      <trkpt lat="49.912651" lon="-124.1992327">
      </trkpt>
      <trkpt lat="49.9125399" lon="-124.1987349">
      </trkpt>
      <trkpt lat="49.9124417" lon="-124.1983686">
      </trkpt>
      <trkpt lat="49.9124074" lon="-124.1980421">
      </trkpt>
      <trkpt lat="49.912406" lon="-124.1975719">
      </trkpt>
      <trkpt lat="49.9124683" lon="-124.1967579">
      </trkpt>
      <trkpt lat="49.9122876" lon="-124.1962075">
      </trkpt>
      <trkpt lat="49.9120984" lon="-124.1958981">
      </trkpt>
      <trkpt lat="49.9120724" lon="-124.1958532">
      </trkpt>
      <trkpt lat="49.9120696" lon="-124.1956875">
      </trkpt>
      <trkpt lat="49.9120993" lon="-124.1953644">
      </trkpt>
      <trkpt lat="49.9122914" lon="-124.1945246">
      </trkpt>
      <trkpt lat="49.9123324" lon="-124.1944055">
      </trkpt>
      <trkpt lat="49.9124823" lon="-124.1940686">
      </trkpt>
      <trkpt lat="49.912616" lon="-124.1935924">
      </trkpt>
      <trkpt lat="49.9126702" lon="-124.1932501">
      </trkpt>
      <trkpt lat="49.9126942" lon="-124.1929272">
      </trkpt>
      <trkpt lat="49.9126251" lon="-124.1924694">
      </trkpt>
      <trkpt lat="49.9126367" lon="-124.1919289">
      </trkpt>
      <trkpt lat="49.9127332" lon="-124.1915598">
      </trkpt>
      <trkpt lat="49.9128221" lon="-124.1913499">
      </trkpt>
      <trkpt lat="49.9128981" lon="-124.1909816">
      </trkpt>
      <trkpt lat="49.9129118" lon="-124.1905681">
      </trkpt>
      <trkpt lat="49.9129573" lon="-124.1902169">
      </trkpt>
      <trkpt lat="49.9132945" lon="-124.1895206">
      </trkpt>
      <trkpt lat="49.9134026" lon="-124.1892304">
      </trkpt>
      <trkpt lat="49.9133955" lon="-124.1888019">
      </trkpt>
      <trkpt lat="49.9131679" lon="-124.1880645">
      </trkpt>
      <trkpt lat="49.912997" lon="-124.1876583">
      </trkpt>
      <trkpt lat="49.9128548" lon="-124.187124">
      </trkpt>
      <trkpt lat="49.9128036" lon="-124.1865066">
      </trkpt>
      <trkpt lat="49.9128768" lon="-124.1853319">
      </trkpt>
    </trkseg>
  </trk>
</gpx>