<?xml version="1.0" encoding="UTF-8"?>
<gpx xmlns="http://www.topografix.com/GPX/1/1" xmlns:xsi="http://www.w3.org/2001/XMLSchema-instance" xsi:schemaLocation="http://www.topografix.com/GPX/1/1 http://www.topografix.com/GPX/1/1/gpx.xsd" version="1.1" creator="gpx.py -- https://github.com/tkrajina/gpxpy">
  <trk>
    <name>Pond Peak Trail</name>
    <trkseg>
      <trkpt lat="49.8988253" lon="-124.1717646">
      </trkpt>
      <trkpt lat="49.8988311" lon="-124.171759">
      </trkpt>
      <trkpt lat="49.898948" lon="-124.1713867">
      </trkpt>
      <trkpt lat="49.8989778" lon="-124.17117">
      </trkpt>
      <trkpt lat="49.8991103" lon="-124.1711221">
      </trkpt>
      <trkpt lat="49.8994857" lon="-124.1708294">
      </trkpt>
      <trkpt lat="49.9000073" lon="-124.1707205">
      </trkpt>
      <trkpt lat="49.9002228" lon="-124.1708074">
      </trkpt>
      <trkpt lat="49.9003393" lon="-124.170761">
      </trkpt>
      <trkpt lat="49.900405" lon="-124.1706603">
      </trkpt>
      <trkpt lat="49.9005375" lon="-124.1706809">
      </trkpt>
      <trkpt lat="49.9005584" lon="-124.170368">
      </trkpt>
      <trkpt lat="49.9007882" lon="-124.1699316">
      </trkpt>
      <trkpt lat="49.9008362" lon="-124.1696734">
      </trkpt>
      <trkpt lat="49.9010922" lon="-124.1693414">
      </trkpt>
      <trkpt lat="49.9012555" lon="-124.1688844">
      </trkpt>
      <trkpt lat="49.9013573" lon="-124.1687925">
      </trkpt>
      <trkpt lat="49.9017436" lon="-124.1678693">
      </trkpt>
      <trkpt lat="49.9018555" lon="-124.1677472">
      </trkpt>
      <trkpt lat="49.9020268" lon="-124.1676678">
      </trkpt>
      <trkpt lat="49.9021545" lon="-124.167494">
      </trkpt>
      <trkpt lat="49.9021931" lon="-124.1672791">
      </trkpt>
      <trkpt lat="49.9022442" lon="-124.1672152">
      </trkpt>
      <trkpt lat="49.9023206" lon="-124.1669478">
      </trkpt>
      <trkpt lat="49.9023378" lon="-124.1663587">
      </trkpt>
      <trkpt lat="49.9024213" lon="-124.1659133">
      </trkpt>
      <trkpt lat="49.9025774" lon="-124.1657083">
      </trkpt>
      <trkpt lat="49.9026543" lon="-124.1654718">
      </trkpt>
      <trkpt lat="49.9027118" lon="-124.1654647">
      </trkpt>
      <trkpt lat="49.9028752" lon="-124.1657001">
      </trkpt>
      <trkpt lat="49.902984" lon="-124.1657441">
      </trkpt>
      <trkpt lat="49.9032254" lon="-124.165641">
      </trkpt>
      <trkpt lat="49.9036931" lon="-124.165585">
      </trkpt>
      <trkpt lat="49.9041076" lon="-124.1658534">
      </trkpt>
      <trkpt lat="49.9044307" lon="-124.1657705">
      </trkpt>
      <trkpt lat="49.9045599" lon="-124.1658334">
      </trkpt>
      <trkpt lat="49.9049046" lon="-124.1658789">
      </trkpt>
      <trkpt lat="49.9049791" lon="-124.1659305">
      </trkpt>
      <trkpt lat="49.9051268" lon="-124.165929">
      </trkpt>
      <trkpt lat="49.90522" lon="-124.1659865">
      </trkpt>
      <trkpt lat="49.905463" lon="-124.1659729">
      </trkpt>
      <trkpt lat="49.9056492" lon="-124.1658399">
      </trkpt>
      <trkpt lat="49.9057556" lon="-124.1658168">
      </trkpt>
    </trkseg>
    <trkseg>
      <trkpt lat="49.9057556" lon="-124.1658168">
      </trkpt>
      <trkpt lat="49.9057919" lon="-124.1658234">
      </trkpt>
      <trkpt lat="49.9060032" lon="-124.1657723">
      </trkpt>
      <trkpt lat="49.9061496" lon="-124.1656586">
      </trkpt>
      <trkpt lat="49.9063225" lon="-124.1653633">
      </trkpt>
      <trkpt lat="49.9063917" lon="-124.1653155">
      </trkpt>
      <trkpt lat="49.9066851" lon="-124.1654483">
      </trkpt>
      <trkpt lat="49.9067673" lon="-124.1654448">
      </trkpt>
      <trkpt lat="49.9068693" lon="-124.1654074">
      </trkpt>
      <trkpt lat="49.9069696" lon="-124.1652796">
      </trkpt>
      <trkpt lat="49.9069936" lon="-124.1651742">
      </trkpt>
      <trkpt lat="49.9069437" lon="-124.1648059">
      </trkpt>
      <trkpt lat="49.9071565" lon="-124.1647047">
      </trkpt>
      <trkpt lat="49.9071806" lon="-124.1646246">
      </trkpt>
      <trkpt lat="49.907125" lon="-124.1643502">
      </trkpt>
      <trkpt lat="49.9070474" lon="-124.164294">
      </trkpt>
      <trkpt lat="49.9070467" lon="-124.1642433">
      </trkpt>
      <trkpt lat="49.9071138" lon="-124.1641941">
      </trkpt>
      <trkpt lat="49.9071354" lon="-124.1641299">
      </trkpt>
      <trkpt lat="49.9071428" lon="-124.1637487">
      </trkpt>
      <trkpt lat="49.9072005" lon="-124.1636188">
      </trkpt>
      <trkpt lat="49.9071488" lon="-124.1633743">
      </trkpt>
      <trkpt lat="49.9072488" lon="-124.1633552">
      </trkpt>
      <trkpt lat="49.9072913" lon="-124.1632727">
      </trkpt>
      <trkpt lat="49.9073126" lon="-124.1631093">
      </trkpt>
      <trkpt lat="49.9072931" lon="-124.1629172">
      </trkpt>
      <trkpt lat="49.9075236" lon="-124.1624029">
      </trkpt>
      <trkpt lat="49.9075734" lon="-124.1619149">
      </trkpt>
      <trkpt lat="49.907993" lon="-124.1612045">
      </trkpt>
      <trkpt lat="49.90808" lon="-124.1607044">
      </trkpt>
      <trkpt lat="49.908107" lon="-124.1602574">
      </trkpt>
      <trkpt lat="49.9082363" lon="-124.1593007">
      </trkpt>
      <trkpt lat="49.9083733" lon="-124.1586707">
      </trkpt>
      <trkpt lat="49.908914" lon="-124.1582729">
      </trkpt>
      <trkpt lat="49.9095915" lon="-124.1580583">
      </trkpt>
      <trkpt lat="49.9102453" lon="-124.1575193">
      </trkpt>
      <trkpt lat="49.9106424" lon="-124.1569574">
      </trkpt>
      <trkpt lat="49.9108385" lon="-124.1567481">
      </trkpt>
      <trkpt lat="49.9115346" lon="-124.1564601">
      </trkpt>
      <trkpt lat="49.9122406" lon="-124.1556084">
      </trkpt>
      <trkpt lat="49.9124652" lon="-124.1553834">
      </trkpt>
      <trkpt lat="49.9126623" lon="-124.155275">
      </trkpt>
      <trkpt lat="49.9131307" lon="-124.1551652">
      </trkpt>
      <trkpt lat="49.9133895" lon="-124.1550208">
      </trkpt>
      <trkpt lat="49.9142823" lon="-124.1543232">
      </trkpt>
      <trkpt lat="49.9152882" lon="-124.1540451">
      </trkpt>
      <trkpt lat="49.9160178" lon="-124.1540773">
      </trkpt>
      <trkpt lat="49.9162539" lon="-124.1540207">
      </trkpt>
      <trkpt lat="49.9164105" lon="-124.1540833">
      </trkpt>
    </trkseg>
  </trk>
</gpx>