<?xml version="1.0" encoding="UTF-8"?>
<gpx xmlns="http://www.topografix.com/GPX/1/1" xmlns:xsi="http://www.w3.org/2001/XMLSchema-instance" xsi:schemaLocation="http://www.topografix.com/GPX/1/1 http://www.topografix.com/GPX/1/1/gpx.xsd" version="1.1" creator="gpx.py -- https://github.com/tkrajina/gpxpy">
  <trk>
    <name>Amiskwi Pass Trail</name>
    <trkseg>
      <trkpt lat="51.4718632" lon="-116.6703641">
      </trkpt>
      <trkpt lat="51.4718514" lon="-116.670263">
      </trkpt>
      <trkpt lat="51.4718163" lon="-116.6701664">
      </trkpt>
      <trkpt lat="51.4717708" lon="-116.6700807">
      </trkpt>
      <trkpt lat="51.4715057" lon="-116.6696929">
      </trkpt>
      <trkpt lat="51.4713999" lon="-116.6695518">
      </trkpt>
      <trkpt lat="51.4713101" lon="-116.6694052">
      </trkpt>
      <trkpt lat="51.4712382" lon="-116.6692408">
      </trkpt>
      <trkpt lat="51.4711699" lon="-116.6690385">
      </trkpt>
      <trkpt lat="51.4711249" lon="-116.6688429">
      </trkpt>
      <trkpt lat="51.47109" lon="-116.668652">
      </trkpt>
      <trkpt lat="51.471074" lon="-116.6685477">
      </trkpt>
      <trkpt lat="51.471062" lon="-116.6684318">
      </trkpt>
      <trkpt lat="51.4710644" lon="-116.6683161">
      </trkpt>
      <trkpt lat="51.4710851" lon="-116.6681898">
      </trkpt>
    </trkseg>
    <trkseg>
      <trkpt lat="51.4710851" lon="-116.6681898">
      </trkpt>
      <trkpt lat="51.4711712" lon="-116.6679109">
      </trkpt>
    </trkseg>
    <trkseg>
      <trkpt lat="51.4711712" lon="-116.6679109">
      </trkpt>
      <trkpt lat="51.4710299" lon="-116.6677106">
      </trkpt>
      <trkpt lat="51.470874" lon="-116.6675723">
      </trkpt>
      <trkpt lat="51.4707257" lon="-116.6674973">
      </trkpt>
      <trkpt lat="51.470664" lon="-116.667417">
      </trkpt>
      <trkpt lat="51.470612" lon="-116.667273">
      </trkpt>
      <trkpt lat="51.4705453" lon="-116.6669798">
      </trkpt>
      <trkpt lat="51.4704638" lon="-116.6665716">
      </trkpt>
      <trkpt lat="51.470447" lon="-116.666491">
      </trkpt>
      <trkpt lat="51.4704029" lon="-116.6664134">
      </trkpt>
      <trkpt lat="51.4703413" lon="-116.6663474">
      </trkpt>
      <trkpt lat="51.4702178" lon="-116.6662368">
      </trkpt>
      <trkpt lat="51.4701342" lon="-116.6661319">
      </trkpt>
      <trkpt lat="51.4700647" lon="-116.6660335">
      </trkpt>
      <trkpt lat="51.469982" lon="-116.665827">
      </trkpt>
      <trkpt lat="51.469921" lon="-116.665666">
      </trkpt>
      <trkpt lat="51.4697257" lon="-116.6650624">
      </trkpt>
      <trkpt lat="51.4696666" lon="-116.6647911">
      </trkpt>
      <trkpt lat="51.4696553" lon="-116.6645946">
      </trkpt>
      <trkpt lat="51.4696859" lon="-116.664348">
      </trkpt>
      <trkpt lat="51.4697411" lon="-116.6641749">
      </trkpt>
      <trkpt lat="51.469833" lon="-116.6639557">
      </trkpt>
      <trkpt lat="51.4699845" lon="-116.6637404">
      </trkpt>
      <trkpt lat="51.4701309" lon="-116.663604">
      </trkpt>
      <trkpt lat="51.4703004" lon="-116.663505">
      </trkpt>
      <trkpt lat="51.470624" lon="-116.663334">
      </trkpt>
      <trkpt lat="51.47101" lon="-116.663135">
      </trkpt>
      <trkpt lat="51.471561" lon="-116.6628644">
      </trkpt>
      <trkpt lat="51.4717583" lon="-116.6628301">
      </trkpt>
      <trkpt lat="51.4719202" lon="-116.6628202">
      </trkpt>
      <trkpt lat="51.4723004" lon="-116.6628209">
      </trkpt>
      <trkpt lat="51.4727636" lon="-116.6628321">
      </trkpt>
      <trkpt lat="51.4729896" lon="-116.6627973">
      </trkpt>
      <trkpt lat="51.4731576" lon="-116.6627425">
      </trkpt>
      <trkpt lat="51.473302" lon="-116.662748">
      </trkpt>
      <trkpt lat="51.473378" lon="-116.662812">
      </trkpt>
      <trkpt lat="51.4734636" lon="-116.6629305">
      </trkpt>
      <trkpt lat="51.4735659" lon="-116.6631324">
      </trkpt>
      <trkpt lat="51.4737071" lon="-116.6634049">
      </trkpt>
      <trkpt lat="51.4738435" lon="-116.663593">
      </trkpt>
      <trkpt lat="51.4740009" lon="-116.6637323">
      </trkpt>
      <trkpt lat="51.4740715" lon="-116.6637942">
      </trkpt>
      <trkpt lat="51.474221" lon="-116.663888">
      </trkpt>
      <trkpt lat="51.475531" lon="-116.664564">
      </trkpt>
      <trkpt lat="51.476034" lon="-116.664864">
      </trkpt>
      <trkpt lat="51.4761587" lon="-116.6649335">
      </trkpt>
      <trkpt lat="51.476309" lon="-116.6649699">
      </trkpt>
      <trkpt lat="51.4764313" lon="-116.6649742">
      </trkpt>
      <trkpt lat="51.4765601" lon="-116.6649252">
      </trkpt>
      <trkpt lat="51.4766883" lon="-116.664846">
      </trkpt>
      <trkpt lat="51.4769657" lon="-116.6647145">
      </trkpt>
      <trkpt lat="51.4779045" lon="-116.6643981">
      </trkpt>
      <trkpt lat="51.478034" lon="-116.6643879">
      </trkpt>
      <trkpt lat="51.4781573" lon="-116.664402">
      </trkpt>
      <trkpt lat="51.47888" lon="-116.664511">
      </trkpt>
      <trkpt lat="51.479253" lon="-116.6645168">
      </trkpt>
      <trkpt lat="51.479412" lon="-116.6645385">
      </trkpt>
      <trkpt lat="51.4795112" lon="-116.6645684">
      </trkpt>
      <trkpt lat="51.4796642" lon="-116.6646408">
      </trkpt>
      <trkpt lat="51.480039" lon="-116.6648438">
      </trkpt>
      <trkpt lat="51.4802201" lon="-116.6649752">
      </trkpt>
      <trkpt lat="51.4803221" lon="-116.665057">
      </trkpt>
      <trkpt lat="51.4804195" lon="-116.6651856">
      </trkpt>
      <trkpt lat="51.4807284" lon="-116.6657299">
      </trkpt>
      <trkpt lat="51.4807585" lon="-116.6657935">
      </trkpt>
      <trkpt lat="51.4808591" lon="-116.6659388">
      </trkpt>
      <trkpt lat="51.4809865" lon="-116.666037">
      </trkpt>
      <trkpt lat="51.4811193" lon="-116.6660723">
      </trkpt>
      <trkpt lat="51.4812628" lon="-116.6660438">
      </trkpt>
      <trkpt lat="51.4814965" lon="-116.6660178">
      </trkpt>
      <trkpt lat="51.4817454" lon="-116.6660249">
      </trkpt>
      <trkpt lat="51.482087" lon="-116.666069">
      </trkpt>
      <trkpt lat="51.482218" lon="-116.666104">
      </trkpt>
      <trkpt lat="51.482979" lon="-116.66632">
      </trkpt>
      <trkpt lat="51.4832822" lon="-116.6664324">
      </trkpt>
      <trkpt lat="51.483607" lon="-116.666586">
      </trkpt>
      <trkpt lat="51.4845356" lon="-116.6671101">
      </trkpt>
      <trkpt lat="51.4847596" lon="-116.6672016">
      </trkpt>
      <trkpt lat="51.4849891" lon="-116.6672706">
      </trkpt>
      <trkpt lat="51.485266" lon="-116.6673489">
      </trkpt>
      <trkpt lat="51.485667" lon="-116.6675169">
      </trkpt>
      <trkpt lat="51.4859506" lon="-116.6676389">
      </trkpt>
      <trkpt lat="51.486158" lon="-116.6677115">
      </trkpt>
      <trkpt lat="51.4863593" lon="-116.6677741">
      </trkpt>
      <trkpt lat="51.486565" lon="-116.667814">
      </trkpt>
      <trkpt lat="51.486652" lon="-116.66783">
      </trkpt>
      <trkpt lat="51.486827" lon="-116.667831">
      </trkpt>
      <trkpt lat="51.4870516" lon="-116.6678076">
      </trkpt>
      <trkpt lat="51.4872468" lon="-116.6678154">
      </trkpt>
      <trkpt lat="51.4873881" lon="-116.6678602">
      </trkpt>
      <trkpt lat="51.4874937" lon="-116.6679337">
      </trkpt>
      <trkpt lat="51.4876103" lon="-116.6680685">
      </trkpt>
      <trkpt lat="51.4878296" lon="-116.6683193">
      </trkpt>
      <trkpt lat="51.4879466" lon="-116.6684128">
      </trkpt>
      <trkpt lat="51.4880881" lon="-116.668496">
      </trkpt>
      <trkpt lat="51.4882528" lon="-116.6685566">
      </trkpt>
      <trkpt lat="51.48922" lon="-116.668877">
      </trkpt>
      <trkpt lat="51.4896746" lon="-116.6690687">
      </trkpt>
      <trkpt lat="51.4897734" lon="-116.6691413">
      </trkpt>
      <trkpt lat="51.4898562" lon="-116.669218">
      </trkpt>
      <trkpt lat="51.4899606" lon="-116.6693392">
      </trkpt>
      <trkpt lat="51.4901395" lon="-116.6695816">
      </trkpt>
      <trkpt lat="51.490361" lon="-116.66982">
      </trkpt>
      <trkpt lat="51.490645" lon="-116.6700584">
      </trkpt>
      <trkpt lat="51.490835" lon="-116.6702085">
      </trkpt>
      <trkpt lat="51.4910416" lon="-116.6703666">
      </trkpt>
      <trkpt lat="51.4912605" lon="-116.6705074">
      </trkpt>
      <trkpt lat="51.4914734" lon="-116.6706579">
      </trkpt>
      <trkpt lat="51.4915855" lon="-116.670757">
      </trkpt>
      <trkpt lat="51.491681" lon="-116.6708557">
      </trkpt>
      <trkpt lat="51.491854" lon="-116.6710055">
      </trkpt>
      <trkpt lat="51.491989" lon="-116.671075">
      </trkpt>
      <trkpt lat="51.492037" lon="-116.671106">
      </trkpt>
      <trkpt lat="51.492306" lon="-116.671242">
      </trkpt>
      <trkpt lat="51.4924814" lon="-116.6713411">
      </trkpt>
      <trkpt lat="51.492667" lon="-116.67145">
      </trkpt>
      <trkpt lat="51.4934574" lon="-116.6720083">
      </trkpt>
      <trkpt lat="51.493633" lon="-116.672138">
      </trkpt>
      <trkpt lat="51.493767" lon="-116.6722">
      </trkpt>
      <trkpt lat="51.49389" lon="-116.6722422">
      </trkpt>
      <trkpt lat="51.4940759" lon="-116.6722657">
      </trkpt>
      <trkpt lat="51.4942415" lon="-116.6723236">
      </trkpt>
      <trkpt lat="51.4947198" lon="-116.6726158">
      </trkpt>
      <trkpt lat="51.494979" lon="-116.6727917">
      </trkpt>
      <trkpt lat="51.4952053" lon="-116.6729946">
      </trkpt>
      <trkpt lat="51.4953602" lon="-116.6731646">
      </trkpt>
      <trkpt lat="51.4956292" lon="-116.6734321">
      </trkpt>
      <trkpt lat="51.4957801" lon="-116.6735192">
      </trkpt>
      <trkpt lat="51.496014" lon="-116.6736075">
      </trkpt>
      <trkpt lat="51.496211" lon="-116.6736412">
      </trkpt>
      <trkpt lat="51.496411" lon="-116.673644">
      </trkpt>
      <trkpt lat="51.4965641" lon="-116.6736917">
      </trkpt>
      <trkpt lat="51.497058" lon="-116.673919">
      </trkpt>
      <trkpt lat="51.4971606" lon="-116.6739475">
      </trkpt>
      <trkpt lat="51.497261" lon="-116.673956">
      </trkpt>
      <trkpt lat="51.497394" lon="-116.673956">
      </trkpt>
      <trkpt lat="51.497828" lon="-116.673986">
      </trkpt>
      <trkpt lat="51.4982223" lon="-116.6740187">
      </trkpt>
      <trkpt lat="51.4992369" lon="-116.6741384">
      </trkpt>
      <trkpt lat="51.4997531" lon="-116.6741936">
      </trkpt>
      <trkpt lat="51.4998634" lon="-116.6742126">
      </trkpt>
      <trkpt lat="51.4999708" lon="-116.6742661">
      </trkpt>
      <trkpt lat="51.5000901" lon="-116.6743752">
      </trkpt>
      <trkpt lat="51.5002751" lon="-116.6745426">
      </trkpt>
      <trkpt lat="51.5003328" lon="-116.6746019">
      </trkpt>
      <trkpt lat="51.500452" lon="-116.6746816">
      </trkpt>
      <trkpt lat="51.5005656" lon="-116.6747144">
      </trkpt>
      <trkpt lat="51.500655" lon="-116.6747138">
      </trkpt>
      <trkpt lat="51.500921" lon="-116.674713">
      </trkpt>
      <trkpt lat="51.5012601" lon="-116.6746861">
      </trkpt>
      <trkpt lat="51.5015734" lon="-116.6746839">
      </trkpt>
      <trkpt lat="51.502128" lon="-116.674744">
      </trkpt>
      <trkpt lat="51.5023044" lon="-116.6747478">
      </trkpt>
      <trkpt lat="51.502582" lon="-116.674714">
      </trkpt>
      <trkpt lat="51.5032949" lon="-116.6745804">
      </trkpt>
      <trkpt lat="51.503719" lon="-116.674519">
      </trkpt>
      <trkpt lat="51.5045493" lon="-116.6744165">
      </trkpt>
      <trkpt lat="51.504719" lon="-116.674425">
      </trkpt>
      <trkpt lat="51.5048665" lon="-116.6744517">
      </trkpt>
      <trkpt lat="51.5050537" lon="-116.6744962">
      </trkpt>
      <trkpt lat="51.5053297" lon="-116.6745879">
      </trkpt>
      <trkpt lat="51.5055889" lon="-116.6747314">
      </trkpt>
      <trkpt lat="51.505924" lon="-116.674921">
      </trkpt>
      <trkpt lat="51.50633" lon="-116.6751602">
      </trkpt>
      <trkpt lat="51.5065346" lon="-116.6753109">
      </trkpt>
      <trkpt lat="51.506744" lon="-116.675513">
      </trkpt>
      <trkpt lat="51.506837" lon="-116.675634">
      </trkpt>
      <trkpt lat="51.50695" lon="-116.67577">
      </trkpt>
      <trkpt lat="51.5071539" lon="-116.676011">
      </trkpt>
      <trkpt lat="51.50734" lon="-116.6761296">
      </trkpt>
      <trkpt lat="51.5074237" lon="-116.676162">
      </trkpt>
      <trkpt lat="51.5075461" lon="-116.6761881">
      </trkpt>
      <trkpt lat="51.507669" lon="-116.6761901">
      </trkpt>
      <trkpt lat="51.5081195" lon="-116.6760557">
      </trkpt>
      <trkpt lat="51.508477" lon="-116.675808">
      </trkpt>
      <trkpt lat="51.508796" lon="-116.6755623">
      </trkpt>
      <trkpt lat="51.5090379" lon="-116.6754229">
      </trkpt>
      <trkpt lat="51.5093765" lon="-116.6752534">
      </trkpt>
      <trkpt lat="51.5095834" lon="-116.6751757">
      </trkpt>
      <trkpt lat="51.5098894" lon="-116.6750673">
      </trkpt>
      <trkpt lat="51.5100294" lon="-116.6750275">
      </trkpt>
      <trkpt lat="51.5101443" lon="-116.6750331">
      </trkpt>
      <trkpt lat="51.510259" lon="-116.6750733">
      </trkpt>
      <trkpt lat="51.5103642" lon="-116.6751447">
      </trkpt>
      <trkpt lat="51.510719" lon="-116.67545">
      </trkpt>
      <trkpt lat="51.5110043" lon="-116.6757183">
      </trkpt>
      <trkpt lat="51.5111693" lon="-116.6758361">
      </trkpt>
      <trkpt lat="51.5113309" lon="-116.6759078">
      </trkpt>
      <trkpt lat="51.5115271" lon="-116.6759435">
      </trkpt>
      <trkpt lat="51.5122539" lon="-116.6760955">
      </trkpt>
      <trkpt lat="51.5125413" lon="-116.6761518">
      </trkpt>
      <trkpt lat="51.5126617" lon="-116.6761778">
      </trkpt>
      <trkpt lat="51.5127497" lon="-116.6761801">
      </trkpt>
      <trkpt lat="51.512864" lon="-116.6761512">
      </trkpt>
      <trkpt lat="51.513061" lon="-116.676021">
      </trkpt>
      <trkpt lat="51.5132192" lon="-116.6759757">
      </trkpt>
      <trkpt lat="51.5134329" lon="-116.6759253">
      </trkpt>
      <trkpt lat="51.5136061" lon="-116.675934">
      </trkpt>
      <trkpt lat="51.5138939" lon="-116.6760043">
      </trkpt>
      <trkpt lat="51.5140633" lon="-116.6760097">
      </trkpt>
      <trkpt lat="51.5142374" lon="-116.6759969">
      </trkpt>
      <trkpt lat="51.5145606" lon="-116.6759401">
      </trkpt>
      <trkpt lat="51.5147526" lon="-116.6759492">
      </trkpt>
      <trkpt lat="51.5149657" lon="-116.6759928">
      </trkpt>
      <trkpt lat="51.5153264" lon="-116.6760515">
      </trkpt>
      <trkpt lat="51.5155139" lon="-116.6760628">
      </trkpt>
      <trkpt lat="51.5156729" lon="-116.676041">
      </trkpt>
      <trkpt lat="51.5158391" lon="-116.6759998">
      </trkpt>
      <trkpt lat="51.5164573" lon="-116.6758126">
      </trkpt>
      <trkpt lat="51.5165963" lon="-116.6758387">
      </trkpt>
      <trkpt lat="51.5167327" lon="-116.6759302">
      </trkpt>
      <trkpt lat="51.5168386" lon="-116.676065">
      </trkpt>
      <trkpt lat="51.5169282" lon="-116.6762666">
      </trkpt>
      <trkpt lat="51.5170217" lon="-116.6765329">
      </trkpt>
      <trkpt lat="51.5170923" lon="-116.6766688">
      </trkpt>
      <trkpt lat="51.5172024" lon="-116.676793">
      </trkpt>
      <trkpt lat="51.5173335" lon="-116.676847">
      </trkpt>
      <trkpt lat="51.5178575" lon="-116.6770627">
      </trkpt>
      <trkpt lat="51.5180346" lon="-116.6770952">
      </trkpt>
      <trkpt lat="51.5182153" lon="-116.6771182">
      </trkpt>
      <trkpt lat="51.518812" lon="-116.677199">
      </trkpt>
      <trkpt lat="51.518899" lon="-116.6772356">
      </trkpt>
      <trkpt lat="51.5189546" lon="-116.6772963">
      </trkpt>
      <trkpt lat="51.5190103" lon="-116.6773372">
      </trkpt>
      <trkpt lat="51.5191123" lon="-116.6773728">
      </trkpt>
      <trkpt lat="51.5192697" lon="-116.67734">
      </trkpt>
      <trkpt lat="51.5194173" lon="-116.6772775">
      </trkpt>
      <trkpt lat="51.5195671" lon="-116.6771518">
      </trkpt>
      <trkpt lat="51.5197341" lon="-116.6770712">
      </trkpt>
      <trkpt lat="51.5199796" lon="-116.6770213">
      </trkpt>
      <trkpt lat="51.5201724" lon="-116.6769966">
      </trkpt>
      <trkpt lat="51.5202964" lon="-116.6769506">
      </trkpt>
      <trkpt lat="51.520379" lon="-116.6768619">
      </trkpt>
      <trkpt lat="51.5204321" lon="-116.6767529">
      </trkpt>
      <trkpt lat="51.52054" lon="-116.676359">
      </trkpt>
      <trkpt lat="51.520557" lon="-116.676271">
      </trkpt>
      <trkpt lat="51.520673" lon="-116.675663">
      </trkpt>
      <trkpt lat="51.5207347" lon="-116.6751345">
      </trkpt>
      <trkpt lat="51.5207522" lon="-116.6748127">
      </trkpt>
      <trkpt lat="51.5207367" lon="-116.6745226">
      </trkpt>
      <trkpt lat="51.520683" lon="-116.674227">
      </trkpt>
      <trkpt lat="51.52065" lon="-116.674081">
      </trkpt>
      <trkpt lat="51.5205877" lon="-116.6738816">
      </trkpt>
      <trkpt lat="51.5205013" lon="-116.6737144">
      </trkpt>
      <trkpt lat="51.520372" lon="-116.67355">
      </trkpt>
      <trkpt lat="51.520305" lon="-116.67347">
      </trkpt>
      <trkpt lat="51.5201277" lon="-116.6732317">
      </trkpt>
      <trkpt lat="51.5200443" lon="-116.6730873">
      </trkpt>
      <trkpt lat="51.5199896" lon="-116.6729286">
      </trkpt>
      <trkpt lat="51.51994" lon="-116.6727079">
      </trkpt>
      <trkpt lat="51.519878" lon="-116.6724253">
      </trkpt>
      <trkpt lat="51.519873" lon="-116.672221">
      </trkpt>
      <trkpt lat="51.519892" lon="-116.6721207">
      </trkpt>
      <trkpt lat="51.519951" lon="-116.671915">
      </trkpt>
      <trkpt lat="51.5200966" lon="-116.6714343">
      </trkpt>
      <trkpt lat="51.5201515" lon="-116.6711758">
      </trkpt>
      <trkpt lat="51.5202129" lon="-116.6710412">
      </trkpt>
      <trkpt lat="51.52031" lon="-116.6709064">
      </trkpt>
      <trkpt lat="51.5204352" lon="-116.670809">
      </trkpt>
      <trkpt lat="51.5205658" lon="-116.6707695">
      </trkpt>
      <trkpt lat="51.521155" lon="-116.670716">
      </trkpt>
      <trkpt lat="51.5212527" lon="-116.6706844">
      </trkpt>
      <trkpt lat="51.521338" lon="-116.6706411">
      </trkpt>
      <trkpt lat="51.5215588" lon="-116.6704611">
      </trkpt>
      <trkpt lat="51.52168" lon="-116.6704122">
      </trkpt>
      <trkpt lat="51.5217977" lon="-116.6704056">
      </trkpt>
      <trkpt lat="51.5219268" lon="-116.6704439">
      </trkpt>
      <trkpt lat="51.5222457" lon="-116.6705209">
      </trkpt>
      <trkpt lat="51.5223664" lon="-116.670547">
      </trkpt>
      <trkpt lat="51.5225264" lon="-116.670546">
      </trkpt>
      <trkpt lat="51.5226996" lon="-116.6705412">
      </trkpt>
      <trkpt lat="51.5233659" lon="-116.6705597">
      </trkpt>
      <trkpt lat="51.5235352" lon="-116.6705932">
      </trkpt>
      <trkpt lat="51.5237626" lon="-116.6706746">
      </trkpt>
      <trkpt lat="51.5238867" lon="-116.6707214">
      </trkpt>
      <trkpt lat="51.5242551" lon="-116.6708104">
      </trkpt>
      <trkpt lat="51.524397" lon="-116.6708216">
      </trkpt>
      <trkpt lat="51.524585" lon="-116.6708351">
      </trkpt>
      <trkpt lat="51.5249522" lon="-116.6708438">
      </trkpt>
      <trkpt lat="51.5251306" lon="-116.6708258">
      </trkpt>
      <trkpt lat="51.5252637" lon="-116.6708144">
      </trkpt>
      <trkpt lat="51.5253594" lon="-116.6708517">
      </trkpt>
      <trkpt lat="51.52558" lon="-116.670967">
      </trkpt>
      <trkpt lat="51.5259394" lon="-116.6712021">
      </trkpt>
      <trkpt lat="51.5260432" lon="-116.6712278">
      </trkpt>
      <trkpt lat="51.5261143" lon="-116.671208">
      </trkpt>
      <trkpt lat="51.5262281" lon="-116.6711322">
      </trkpt>
      <trkpt lat="51.5265833" lon="-116.6708591">
      </trkpt>
      <trkpt lat="51.5266932" lon="-116.6707946">
      </trkpt>
      <trkpt lat="51.5268104" lon="-116.6707649">
      </trkpt>
      <trkpt lat="51.5269376" lon="-116.6707741">
      </trkpt>
      <trkpt lat="51.5270437" lon="-116.6708157">
      </trkpt>
      <trkpt lat="51.5273129" lon="-116.6708992">
      </trkpt>
      <trkpt lat="51.5274503" lon="-116.6708983">
      </trkpt>
      <trkpt lat="51.5275617" lon="-116.670876">
      </trkpt>
      <trkpt lat="51.5277282" lon="-116.6708048">
      </trkpt>
      <trkpt lat="51.5278392" lon="-116.6707293">
      </trkpt>
      <trkpt lat="51.5280028" lon="-116.6706138">
      </trkpt>
      <trkpt lat="51.5283938" lon="-116.6704075">
      </trkpt>
      <trkpt lat="51.5284932" lon="-116.6703406">
      </trkpt>
      <trkpt lat="51.5285776" lon="-116.6702631">
      </trkpt>
      <trkpt lat="51.5286648" lon="-116.6701581">
      </trkpt>
      <trkpt lat="51.5287799" lon="-116.6700737">
      </trkpt>
      <trkpt lat="51.5289923" lon="-116.6699301">
      </trkpt>
      <trkpt lat="51.5292146" lon="-116.6697926">
      </trkpt>
      <trkpt lat="51.5293564" lon="-116.6696898">
      </trkpt>
      <trkpt lat="51.5294655" lon="-116.6695642">
      </trkpt>
      <trkpt lat="51.5295572" lon="-116.6694179">
      </trkpt>
      <trkpt lat="51.529869" lon="-116.6689839">
      </trkpt>
      <trkpt lat="51.5299756" lon="-116.6688537">
      </trkpt>
      <trkpt lat="51.530092" lon="-116.6687819">
      </trkpt>
      <trkpt lat="51.5301917" lon="-116.6687387">
      </trkpt>
      <trkpt lat="51.5304528" lon="-116.6686973">
      </trkpt>
      <trkpt lat="51.5307408" lon="-116.6687157">
      </trkpt>
      <trkpt lat="51.5309976" lon="-116.6687502">
      </trkpt>
      <trkpt lat="51.5312444" lon="-116.6688012">
      </trkpt>
      <trkpt lat="51.5313864" lon="-116.6688132">
      </trkpt>
      <trkpt lat="51.5315196" lon="-116.6688139">
      </trkpt>
      <trkpt lat="51.5317627" lon="-116.6687929">
      </trkpt>
      <trkpt lat="51.53234" lon="-116.6687771">
      </trkpt>
      <trkpt lat="51.5326807" lon="-116.6687665">
      </trkpt>
      <trkpt lat="51.5335173" lon="-116.668742">
      </trkpt>
      <trkpt lat="51.533658" lon="-116.6688">
      </trkpt>
      <trkpt lat="51.5338812" lon="-116.6688844">
      </trkpt>
      <trkpt lat="51.5341085" lon="-116.6690353">
      </trkpt>
      <trkpt lat="51.5342243" lon="-116.6690232">
      </trkpt>
      <trkpt lat="51.5344029" lon="-116.6689502">
      </trkpt>
      <trkpt lat="51.5346209" lon="-116.6688042">
      </trkpt>
      <trkpt lat="51.5348207" lon="-116.668637">
      </trkpt>
      <trkpt lat="51.5349211" lon="-116.6685471">
      </trkpt>
      <trkpt lat="51.535031" lon="-116.6684268">
      </trkpt>
      <trkpt lat="51.5351226" lon="-116.6682905">
      </trkpt>
      <trkpt lat="51.5352964" lon="-116.6679275">
      </trkpt>
      <trkpt lat="51.5354267" lon="-116.6676932">
      </trkpt>
      <trkpt lat="51.5355701" lon="-116.6674608">
      </trkpt>
      <trkpt lat="51.5357316" lon="-116.6672267">
      </trkpt>
      <trkpt lat="51.5358337" lon="-116.6669939">
      </trkpt>
      <trkpt lat="51.5358787" lon="-116.6667917">
      </trkpt>
      <trkpt lat="51.5359347" lon="-116.6665025">
      </trkpt>
      <trkpt lat="51.535995" lon="-116.6662493">
      </trkpt>
      <trkpt lat="51.5360611" lon="-116.6660397">
      </trkpt>
      <trkpt lat="51.5361438" lon="-116.6657719">
      </trkpt>
      <trkpt lat="51.5362433" lon="-116.6655252">
      </trkpt>
      <trkpt lat="51.5362857" lon="-116.6653856">
      </trkpt>
      <trkpt lat="51.5363433" lon="-116.6651187">
      </trkpt>
      <trkpt lat="51.5363718" lon="-116.664884">
      </trkpt>
      <trkpt lat="51.5364131" lon="-116.664537">
      </trkpt>
      <trkpt lat="51.5364556" lon="-116.6643244">
      </trkpt>
      <trkpt lat="51.5365052" lon="-116.6641712">
      </trkpt>
      <trkpt lat="51.5365829" lon="-116.6640045">
      </trkpt>
      <trkpt lat="51.5366438" lon="-116.6639075">
      </trkpt>
      <trkpt lat="51.5368278" lon="-116.6637175">
      </trkpt>
      <trkpt lat="51.536935" lon="-116.6635969">
      </trkpt>
      <trkpt lat="51.5370447" lon="-116.6635408">
      </trkpt>
      <trkpt lat="51.5371367" lon="-116.6634909">
      </trkpt>
      <trkpt lat="51.5372846" lon="-116.6634659">
      </trkpt>
      <trkpt lat="51.5373967" lon="-116.6634515">
      </trkpt>
    </trkseg>
    <trkseg>
      <trkpt lat="51.5373967" lon="-116.6634515">
      </trkpt>
      <trkpt lat="51.5376856" lon="-116.6634455">
      </trkpt>
      <trkpt lat="51.5380159" lon="-116.6633624">
      </trkpt>
      <trkpt lat="51.5384963" lon="-116.6633984">
      </trkpt>
      <trkpt lat="51.538693" lon="-116.6633529">
      </trkpt>
      <trkpt lat="51.5388167" lon="-116.6633999">
      </trkpt>
      <trkpt lat="51.5389536" lon="-116.6633906">
      </trkpt>
      <trkpt lat="51.539138" lon="-116.6633199">
      </trkpt>
      <trkpt lat="51.539266" lon="-116.6633012">
      </trkpt>
      <trkpt lat="51.5394838" lon="-116.663242">
      </trkpt>
      <trkpt lat="51.5396485" lon="-116.6632317">
      </trkpt>
      <trkpt lat="51.539883" lon="-116.6633065">
      </trkpt>
      <trkpt lat="51.5401483" lon="-116.6633691">
      </trkpt>
      <trkpt lat="51.5403827" lon="-116.663398">
      </trkpt>
      <trkpt lat="51.5405517" lon="-116.6634026">
      </trkpt>
      <trkpt lat="51.5407768" lon="-116.6634466">
      </trkpt>
      <trkpt lat="51.5409237" lon="-116.6634906">
      </trkpt>
      <trkpt lat="51.541139" lon="-116.6635544">
      </trkpt>
      <trkpt lat="51.5414228" lon="-116.6636302">
      </trkpt>
      <trkpt lat="51.5416112" lon="-116.6636286">
      </trkpt>
      <trkpt lat="51.5417659" lon="-116.6636012">
      </trkpt>
      <trkpt lat="51.5419593" lon="-116.6635532">
      </trkpt>
      <trkpt lat="51.5421313" lon="-116.6634893">
      </trkpt>
      <trkpt lat="51.54242" lon="-116.6633739">
      </trkpt>
      <trkpt lat="51.5427707" lon="-116.6632534">
      </trkpt>
      <trkpt lat="51.5431567" lon="-116.663106">
      </trkpt>
      <trkpt lat="51.5433017" lon="-116.6630908">
      </trkpt>
      <trkpt lat="51.5434706" lon="-116.6631085">
      </trkpt>
      <trkpt lat="51.5436317" lon="-116.6631619">
      </trkpt>
      <trkpt lat="51.5438928" lon="-116.6632171">
      </trkpt>
      <trkpt lat="51.5439969" lon="-116.663225">
      </trkpt>
      <trkpt lat="51.5440847" lon="-116.6632046">
      </trkpt>
      <trkpt lat="51.5442049" lon="-116.6631183">
      </trkpt>
      <trkpt lat="51.544314" lon="-116.6630868">
      </trkpt>
      <trkpt lat="51.5444219" lon="-116.6630951">
      </trkpt>
      <trkpt lat="51.5445349" lon="-116.6631455">
      </trkpt>
      <trkpt lat="51.544851" lon="-116.6632877">
      </trkpt>
      <trkpt lat="51.5451546" lon="-116.6634121">
      </trkpt>
      <trkpt lat="51.545709" lon="-116.6636625">
      </trkpt>
      <trkpt lat="51.5458413" lon="-116.6636762">
      </trkpt>
      <trkpt lat="51.5459851" lon="-116.6636648">
      </trkpt>
      <trkpt lat="51.5461273" lon="-116.663626">
      </trkpt>
      <trkpt lat="51.5462323" lon="-116.6636366">
      </trkpt>
      <trkpt lat="51.5463334" lon="-116.6636762">
      </trkpt>
      <trkpt lat="51.5464199" lon="-116.6637379">
      </trkpt>
      <trkpt lat="51.5465219" lon="-116.663805">
      </trkpt>
      <trkpt lat="51.547183" lon="-116.6640813">
      </trkpt>
      <trkpt lat="51.5475353" lon="-116.6641934">
      </trkpt>
      <trkpt lat="51.5484176" lon="-116.6644713">
      </trkpt>
      <trkpt lat="51.5486527" lon="-116.664511">
      </trkpt>
      <trkpt lat="51.549438" lon="-116.6646968">
      </trkpt>
      <trkpt lat="51.549731" lon="-116.6647813">
      </trkpt>
      <trkpt lat="51.5499111" lon="-116.6647974">
      </trkpt>
      <trkpt lat="51.5500696" lon="-116.6647652">
      </trkpt>
      <trkpt lat="51.5501726" lon="-116.6647502">
      </trkpt>
      <trkpt lat="51.5502389" lon="-116.6647743">
      </trkpt>
      <trkpt lat="51.5504916" lon="-116.6649315">
      </trkpt>
      <trkpt lat="51.5507" lon="-116.664992">
      </trkpt>
      <trkpt lat="51.551011" lon="-116.6649976">
      </trkpt>
      <trkpt lat="51.551274" lon="-116.665019">
      </trkpt>
      <trkpt lat="51.5520893" lon="-116.6651249">
      </trkpt>
      <trkpt lat="51.5523246" lon="-116.6651429">
      </trkpt>
      <trkpt lat="51.5526463" lon="-116.6651284">
      </trkpt>
      <trkpt lat="51.5532586" lon="-116.6650306">
      </trkpt>
      <trkpt lat="51.553466" lon="-116.6649741">
      </trkpt>
      <trkpt lat="51.5537654" lon="-116.6650066">
      </trkpt>
      <trkpt lat="51.5541558" lon="-116.6650198">
      </trkpt>
      <trkpt lat="51.5543992" lon="-116.6650227">
      </trkpt>
      <trkpt lat="51.5546313" lon="-116.6649784">
      </trkpt>
      <trkpt lat="51.5548433" lon="-116.6649245">
      </trkpt>
      <trkpt lat="51.5550844" lon="-116.6647796">
      </trkpt>
      <trkpt lat="51.5552256" lon="-116.6647537">
      </trkpt>
      <trkpt lat="51.5555715" lon="-116.6646913">
      </trkpt>
      <trkpt lat="51.5557893" lon="-116.664627">
      </trkpt>
      <trkpt lat="51.555935" lon="-116.6645573">
      </trkpt>
      <trkpt lat="51.5560993" lon="-116.6644856">
      </trkpt>
      <trkpt lat="51.556262" lon="-116.6644251">
      </trkpt>
      <trkpt lat="51.5563663" lon="-116.6644318">
      </trkpt>
      <trkpt lat="51.5565316" lon="-116.6644572">
      </trkpt>
      <trkpt lat="51.5568639" lon="-116.6646259">
      </trkpt>
      <trkpt lat="51.5570179" lon="-116.6646721">
      </trkpt>
      <trkpt lat="51.5573036" lon="-116.6646749">
      </trkpt>
      <trkpt lat="51.557582" lon="-116.6646427">
      </trkpt>
      <trkpt lat="51.557734" lon="-116.6646395">
      </trkpt>
      <trkpt lat="51.5578807" lon="-116.6646917">
      </trkpt>
      <trkpt lat="51.5581497" lon="-116.6648283">
      </trkpt>
      <trkpt lat="51.5582506" lon="-116.664903">
      </trkpt>
      <trkpt lat="51.5584006" lon="-116.6650049">
      </trkpt>
      <trkpt lat="51.5584431" lon="-116.6650208">
      </trkpt>
      <trkpt lat="51.5585654" lon="-116.6650876">
      </trkpt>
      <trkpt lat="51.5586433" lon="-116.6652989">
      </trkpt>
      <trkpt lat="51.558728" lon="-116.6655842">
      </trkpt>
      <trkpt lat="51.5587885" lon="-116.6657201">
      </trkpt>
      <trkpt lat="51.5588912" lon="-116.6659638">
      </trkpt>
      <trkpt lat="51.558961" lon="-116.6662313">
      </trkpt>
      <trkpt lat="51.5590076" lon="-116.6666347">
      </trkpt>
      <trkpt lat="51.559239" lon="-116.6674844">
      </trkpt>
      <trkpt lat="51.5594416" lon="-116.6680357">
      </trkpt>
      <trkpt lat="51.5597275" lon="-116.6685244">
      </trkpt>
      <trkpt lat="51.5599491" lon="-116.6688287">
      </trkpt>
      <trkpt lat="51.5602507" lon="-116.6691748">
      </trkpt>
      <trkpt lat="51.560397" lon="-116.6693689">
      </trkpt>
      <trkpt lat="51.5605183" lon="-116.6695925">
      </trkpt>
      <trkpt lat="51.5605894" lon="-116.6698511">
      </trkpt>
      <trkpt lat="51.5606426" lon="-116.6703355">
      </trkpt>
      <trkpt lat="51.5607213" lon="-116.6704402">
      </trkpt>
      <trkpt lat="51.5608297" lon="-116.6704734">
      </trkpt>
      <trkpt lat="51.5609053" lon="-116.6704738">
      </trkpt>
      <trkpt lat="51.561038" lon="-116.670389">
      </trkpt>
      <trkpt lat="51.5611463" lon="-116.6704112">
      </trkpt>
      <trkpt lat="51.561238" lon="-116.670435">
      </trkpt>
      <trkpt lat="51.561383" lon="-116.670433">
      </trkpt>
      <trkpt lat="51.561833" lon="-116.670356">
      </trkpt>
      <trkpt lat="51.5620641" lon="-116.6703095">
      </trkpt>
      <trkpt lat="51.5623736" lon="-116.6701814">
      </trkpt>
      <trkpt lat="51.5625426" lon="-116.6700203">
      </trkpt>
      <trkpt lat="51.562734" lon="-116.6697936">
      </trkpt>
      <trkpt lat="51.5629357" lon="-116.6696113">
      </trkpt>
      <trkpt lat="51.5630871" lon="-116.6695115">
      </trkpt>
      <trkpt lat="51.563191" lon="-116.6694661">
      </trkpt>
      <trkpt lat="51.5632835" lon="-116.669485">
      </trkpt>
      <trkpt lat="51.5634365" lon="-116.6695328">
      </trkpt>
      <trkpt lat="51.5635487" lon="-116.6694866">
      </trkpt>
      <trkpt lat="51.563693" lon="-116.6693517">
      </trkpt>
      <trkpt lat="51.563798" lon="-116.6692347">
      </trkpt>
      <trkpt lat="51.563857" lon="-116.6691472">
      </trkpt>
      <trkpt lat="51.563916" lon="-116.669036">
      </trkpt>
      <trkpt lat="51.5640983" lon="-116.6687417">
      </trkpt>
      <trkpt lat="51.5642163" lon="-116.6685977">
      </trkpt>
      <trkpt lat="51.5643703" lon="-116.6684601">
      </trkpt>
      <trkpt lat="51.5645547" lon="-116.6683344">
      </trkpt>
      <trkpt lat="51.5648534" lon="-116.6681345">
      </trkpt>
      <trkpt lat="51.5649553" lon="-116.6680852">
      </trkpt>
      <trkpt lat="51.5650869" lon="-116.6680801">
      </trkpt>
      <trkpt lat="51.5651526" lon="-116.6680995">
      </trkpt>
      <trkpt lat="51.5652183" lon="-116.6681509">
      </trkpt>
      <trkpt lat="51.5652872" lon="-116.6681998">
      </trkpt>
      <trkpt lat="51.5654423" lon="-116.6681461">
      </trkpt>
      <trkpt lat="51.5655363" lon="-116.6680665">
      </trkpt>
      <trkpt lat="51.565672" lon="-116.6679571">
      </trkpt>
      <trkpt lat="51.565778" lon="-116.6678544">
      </trkpt>
      <trkpt lat="51.5658905" lon="-116.667752">
      </trkpt>
      <trkpt lat="51.5659838" lon="-116.6676673">
      </trkpt>
      <trkpt lat="51.5660714" lon="-116.6675737">
      </trkpt>
      <trkpt lat="51.5661417" lon="-116.6674981">
      </trkpt>
      <trkpt lat="51.566265" lon="-116.6673909">
      </trkpt>
      <trkpt lat="51.5664349" lon="-116.6673153">
      </trkpt>
      <trkpt lat="51.566606" lon="-116.6672833">
      </trkpt>
      <trkpt lat="51.5667546" lon="-116.667212">
      </trkpt>
      <trkpt lat="51.5670093" lon="-116.6670475">
      </trkpt>
      <trkpt lat="51.5672484" lon="-116.6669137">
      </trkpt>
      <trkpt lat="51.5673883" lon="-116.6668748">
      </trkpt>
      <trkpt lat="51.5674972" lon="-116.6668483">
      </trkpt>
      <trkpt lat="51.5676356" lon="-116.6669002">
      </trkpt>
      <trkpt lat="51.567769" lon="-116.6668707">
      </trkpt>
      <trkpt lat="51.5678833" lon="-116.666838">
      </trkpt>
      <trkpt lat="51.5679923" lon="-116.6668378">
      </trkpt>
      <trkpt lat="51.5681403" lon="-116.6668714">
      </trkpt>
      <trkpt lat="51.5682987" lon="-116.6668783">
      </trkpt>
      <trkpt lat="51.568415" lon="-116.666845">
      </trkpt>
      <trkpt lat="51.5685917" lon="-116.666789">
      </trkpt>
      <trkpt lat="51.5687907" lon="-116.6667258">
      </trkpt>
      <trkpt lat="51.569023" lon="-116.666631">
      </trkpt>
      <trkpt lat="51.569313" lon="-116.6665381">
      </trkpt>
      <trkpt lat="51.5694029" lon="-116.6665341">
      </trkpt>
      <trkpt lat="51.5694737" lon="-116.6664952">
      </trkpt>
      <trkpt lat="51.5696296" lon="-116.6664845">
      </trkpt>
      <trkpt lat="51.5697196" lon="-116.6664484">
      </trkpt>
      <trkpt lat="51.5698272" lon="-116.6663356">
      </trkpt>
      <trkpt lat="51.5698803" lon="-116.6661934">
      </trkpt>
      <trkpt lat="51.569934" lon="-116.6661131">
      </trkpt>
      <trkpt lat="51.5700447" lon="-116.66605">
      </trkpt>
      <trkpt lat="51.5700893" lon="-116.6658547">
      </trkpt>
      <trkpt lat="51.5701614" lon="-116.6657723">
      </trkpt>
      <trkpt lat="51.5702457" lon="-116.6657086">
      </trkpt>
      <trkpt lat="51.5703565" lon="-116.6656683">
      </trkpt>
      <trkpt lat="51.5706427" lon="-116.6655924">
      </trkpt>
      <trkpt lat="51.5707583" lon="-116.6655628">
      </trkpt>
      <trkpt lat="51.570834" lon="-116.665495">
      </trkpt>
      <trkpt lat="51.5709543" lon="-116.6653636">
      </trkpt>
      <trkpt lat="51.571072" lon="-116.6653265">
      </trkpt>
      <trkpt lat="51.571245" lon="-116.6651924">
      </trkpt>
      <trkpt lat="51.5712923" lon="-116.6651543">
      </trkpt>
      <trkpt lat="51.5713784" lon="-116.6652346">
      </trkpt>
      <trkpt lat="51.5715644" lon="-116.6650771">
      </trkpt>
      <trkpt lat="51.57169" lon="-116.6649265">
      </trkpt>
      <trkpt lat="51.5716833" lon="-116.6648042">
      </trkpt>
      <trkpt lat="51.5718543" lon="-116.6646058">
      </trkpt>
      <trkpt lat="51.571959" lon="-116.6646404">
      </trkpt>
      <trkpt lat="51.572116" lon="-116.6646441">
      </trkpt>
      <trkpt lat="51.5721617" lon="-116.6646643">
      </trkpt>
      <trkpt lat="51.572337" lon="-116.6645453">
      </trkpt>
      <trkpt lat="51.572417" lon="-116.664446">
      </trkpt>
      <trkpt lat="51.5726002" lon="-116.6645066">
      </trkpt>
      <trkpt lat="51.5728487" lon="-116.6645201">
      </trkpt>
      <trkpt lat="51.5730371" lon="-116.6645074">
      </trkpt>
      <trkpt lat="51.5733267" lon="-116.6645455">
      </trkpt>
      <trkpt lat="51.5734894" lon="-116.6646068">
      </trkpt>
      <trkpt lat="51.5736129" lon="-116.6647714">
      </trkpt>
      <trkpt lat="51.5739133" lon="-116.6649823">
      </trkpt>
      <trkpt lat="51.5740976" lon="-116.664963">
      </trkpt>
      <trkpt lat="51.574283" lon="-116.6650232">
      </trkpt>
      <trkpt lat="51.5744783" lon="-116.664987">
      </trkpt>
      <trkpt lat="51.5746687" lon="-116.6649926">
      </trkpt>
      <trkpt lat="51.5749507" lon="-116.6648683">
      </trkpt>
      <trkpt lat="51.5750747" lon="-116.6648561">
      </trkpt>
      <trkpt lat="51.5751134" lon="-116.66482">
      </trkpt>
      <trkpt lat="51.5752127" lon="-116.664706">
      </trkpt>
      <trkpt lat="51.5753757" lon="-116.6646207">
      </trkpt>
      <trkpt lat="51.5756504" lon="-116.6646735">
      </trkpt>
      <trkpt lat="51.5757118" lon="-116.6646542">
      </trkpt>
      <trkpt lat="51.5757533" lon="-116.6646179">
      </trkpt>
      <trkpt lat="51.5757808" lon="-116.6645822">
      </trkpt>
      <trkpt lat="51.5758217" lon="-116.6645422">
      </trkpt>
      <trkpt lat="51.5759473" lon="-116.6643708">
      </trkpt>
      <trkpt lat="51.5760321" lon="-116.6642675">
      </trkpt>
      <trkpt lat="51.576092" lon="-116.6641292">
      </trkpt>
      <trkpt lat="51.5762244" lon="-116.6640096">
      </trkpt>
      <trkpt lat="51.5762661" lon="-116.6640034">
      </trkpt>
      <trkpt lat="51.5763561" lon="-116.6638881">
      </trkpt>
      <trkpt lat="51.5764284" lon="-116.6637168">
      </trkpt>
      <trkpt lat="51.5766004" lon="-116.6635912">
      </trkpt>
      <trkpt lat="51.5767312" lon="-116.6635636">
      </trkpt>
      <trkpt lat="51.576877" lon="-116.6636187">
      </trkpt>
      <trkpt lat="51.5770412" lon="-116.6635823">
      </trkpt>
      <trkpt lat="51.5770795" lon="-116.6636172">
      </trkpt>
      <trkpt lat="51.5772157" lon="-116.6635333">
      </trkpt>
      <trkpt lat="51.5773247" lon="-116.6634973">
      </trkpt>
      <trkpt lat="51.5776296" lon="-116.6634268">
      </trkpt>
      <trkpt lat="51.5776496" lon="-116.6633691">
      </trkpt>
      <trkpt lat="51.5778292" lon="-116.6633527">
      </trkpt>
      <trkpt lat="51.5779168" lon="-116.663313">
      </trkpt>
      <trkpt lat="51.5779705" lon="-116.6632457">
      </trkpt>
      <trkpt lat="51.5780355" lon="-116.6632403">
      </trkpt>
      <trkpt lat="51.5782508" lon="-116.6632766">
      </trkpt>
      <trkpt lat="51.5783097" lon="-116.6632658">
      </trkpt>
      <trkpt lat="51.5784005" lon="-116.663239">
      </trkpt>
      <trkpt lat="51.5784746" lon="-116.6631719">
      </trkpt>
      <trkpt lat="51.5785335" lon="-116.6631652">
      </trkpt>
      <trkpt lat="51.5785727" lon="-116.6631781">
      </trkpt>
      <trkpt lat="51.5786244" lon="-116.6631697">
      </trkpt>
      <trkpt lat="51.5786801" lon="-116.6631673">
      </trkpt>
      <trkpt lat="51.5786961" lon="-116.6631385">
      </trkpt>
      <trkpt lat="51.578769" lon="-116.6631267">
      </trkpt>
      <trkpt lat="51.5788354" lon="-116.6631787">
      </trkpt>
      <trkpt lat="51.5789783" lon="-116.6630644">
      </trkpt>
      <trkpt lat="51.5791148" lon="-116.6630539">
      </trkpt>
      <trkpt lat="51.5792053" lon="-116.6629677">
      </trkpt>
      <trkpt lat="51.579361" lon="-116.6629336">
      </trkpt>
      <trkpt lat="51.5795643" lon="-116.6630027">
      </trkpt>
      <trkpt lat="51.5798023" lon="-116.6630696">
      </trkpt>
      <trkpt lat="51.5801043" lon="-116.6631289">
      </trkpt>
      <trkpt lat="51.580363" lon="-116.6631148">
      </trkpt>
      <trkpt lat="51.5805707" lon="-116.6629605">
      </trkpt>
      <trkpt lat="51.5807393" lon="-116.6628105">
      </trkpt>
      <trkpt lat="51.5807749" lon="-116.6629198">
      </trkpt>
      <trkpt lat="51.5808466" lon="-116.6629037">
      </trkpt>
      <trkpt lat="51.5809733" lon="-116.6630045">
      </trkpt>
      <trkpt lat="51.5810037" lon="-116.6627696">
      </trkpt>
      <trkpt lat="51.5810858" lon="-116.6625451">
      </trkpt>
      <trkpt lat="51.581225" lon="-116.6621862">
      </trkpt>
      <trkpt lat="51.5812803" lon="-116.6619624">
      </trkpt>
      <trkpt lat="51.581348" lon="-116.6616344">
      </trkpt>
      <trkpt lat="51.5813943" lon="-116.6612934">
      </trkpt>
      <trkpt lat="51.5814983" lon="-116.6610262">
      </trkpt>
      <trkpt lat="51.5817203" lon="-116.6604595">
      </trkpt>
      <trkpt lat="51.581834" lon="-116.6604556">
      </trkpt>
      <trkpt lat="51.5819787" lon="-116.6603844">
      </trkpt>
      <trkpt lat="51.5821363" lon="-116.660302">
      </trkpt>
      <trkpt lat="51.5822683" lon="-116.6602635">
      </trkpt>
      <trkpt lat="51.5825577" lon="-116.6602468">
      </trkpt>
      <trkpt lat="51.5827317" lon="-116.6602578">
      </trkpt>
      <trkpt lat="51.5828937" lon="-116.6603158">
      </trkpt>
      <trkpt lat="51.5829897" lon="-116.6603668">
      </trkpt>
      <trkpt lat="51.5830667" lon="-116.6604398">
      </trkpt>
      <trkpt lat="51.5832017" lon="-116.6605038">
      </trkpt>
      <trkpt lat="51.5834013" lon="-116.6605045">
      </trkpt>
      <trkpt lat="51.5835233" lon="-116.6605117">
      </trkpt>
      <trkpt lat="51.5835863" lon="-116.6605571">
      </trkpt>
      <trkpt lat="51.5836703" lon="-116.660635">
      </trkpt>
      <trkpt lat="51.583786" lon="-116.6606717">
      </trkpt>
      <trkpt lat="51.5839277" lon="-116.6606831">
      </trkpt>
      <trkpt lat="51.584048" lon="-116.6607021">
      </trkpt>
      <trkpt lat="51.5841787" lon="-116.6607584">
      </trkpt>
      <trkpt lat="51.5842737" lon="-116.660768">
      </trkpt>
      <trkpt lat="51.5844297" lon="-116.6607371">
      </trkpt>
      <trkpt lat="51.584771" lon="-116.660578">
      </trkpt>
      <trkpt lat="51.584979" lon="-116.660461">
      </trkpt>
      <trkpt lat="51.585303" lon="-116.660317">
      </trkpt>
      <trkpt lat="51.585462" lon="-116.660246">
      </trkpt>
      <trkpt lat="51.585677" lon="-116.660206">
      </trkpt>
      <trkpt lat="51.5858" lon="-116.6602259">
      </trkpt>
      <trkpt lat="51.585961" lon="-116.6600539">
      </trkpt>
      <trkpt lat="51.58617" lon="-116.6599601">
      </trkpt>
      <trkpt lat="51.5862048" lon="-116.6598916">
      </trkpt>
      <trkpt lat="51.586283" lon="-116.659876">
      </trkpt>
      <trkpt lat="51.586346" lon="-116.659887">
      </trkpt>
      <trkpt lat="51.586405" lon="-116.6599046">
      </trkpt>
      <trkpt lat="51.586508" lon="-116.6599997">
      </trkpt>
      <trkpt lat="51.5865848" lon="-116.6599587">
      </trkpt>
      <trkpt lat="51.5866983" lon="-116.6600023">
      </trkpt>
      <trkpt lat="51.5868548" lon="-116.6599399">
      </trkpt>
      <trkpt lat="51.5869747" lon="-116.6600018">
      </trkpt>
      <trkpt lat="51.5870431" lon="-116.6599292">
      </trkpt>
      <trkpt lat="51.5872331" lon="-116.6598728">
      </trkpt>
      <trkpt lat="51.5875007" lon="-116.659811">
      </trkpt>
      <trkpt lat="51.5875936" lon="-116.6598536">
      </trkpt>
      <trkpt lat="51.587644" lon="-116.6598257">
      </trkpt>
      <trkpt lat="51.5878383" lon="-116.6598647">
      </trkpt>
      <trkpt lat="51.5880044" lon="-116.65996">
      </trkpt>
      <trkpt lat="51.588165" lon="-116.660071">
      </trkpt>
      <trkpt lat="51.588333" lon="-116.6602363">
      </trkpt>
      <trkpt lat="51.588388" lon="-116.6604047">
      </trkpt>
      <trkpt lat="51.5885046" lon="-116.6603422">
      </trkpt>
      <trkpt lat="51.5887664" lon="-116.6604288">
      </trkpt>
      <trkpt lat="51.5891873" lon="-116.6605319">
      </trkpt>
      <trkpt lat="51.5893724" lon="-116.6605477">
      </trkpt>
      <trkpt lat="51.5895567" lon="-116.660511">
      </trkpt>
      <trkpt lat="51.589729" lon="-116.660462">
      </trkpt>
      <trkpt lat="51.590299" lon="-116.6602838">
      </trkpt>
      <trkpt lat="51.5903883" lon="-116.660239">
      </trkpt>
      <trkpt lat="51.5905802" lon="-116.6601075">
      </trkpt>
      <trkpt lat="51.5906577" lon="-116.6601357">
      </trkpt>
      <trkpt lat="51.5907235" lon="-116.660011">
      </trkpt>
      <trkpt lat="51.5908145" lon="-116.6600395">
      </trkpt>
      <trkpt lat="51.5908968" lon="-116.6599281">
      </trkpt>
      <trkpt lat="51.5909076" lon="-116.6598782">
      </trkpt>
      <trkpt lat="51.5909585" lon="-116.6598793">
      </trkpt>
      <trkpt lat="51.5910163" lon="-116.6598677">
      </trkpt>
      <trkpt lat="51.5910976" lon="-116.6598795">
      </trkpt>
      <trkpt lat="51.5912962" lon="-116.6597408">
      </trkpt>
      <trkpt lat="51.5914243" lon="-116.6596177">
      </trkpt>
      <trkpt lat="51.5915197" lon="-116.6595499">
      </trkpt>
      <trkpt lat="51.5916187" lon="-116.6595315">
      </trkpt>
      <trkpt lat="51.5916893" lon="-116.6594943">
      </trkpt>
      <trkpt lat="51.5917747" lon="-116.6594973">
      </trkpt>
      <trkpt lat="51.5918108" lon="-116.6594142">
      </trkpt>
      <trkpt lat="51.5918499" lon="-116.6594155">
      </trkpt>
      <trkpt lat="51.5919524" lon="-116.6593069">
      </trkpt>
      <trkpt lat="51.5920715" lon="-116.6593011">
      </trkpt>
      <trkpt lat="51.5922182" lon="-116.6591661">
      </trkpt>
      <trkpt lat="51.5922922" lon="-116.6591674">
      </trkpt>
      <trkpt lat="51.592559" lon="-116.659036">
      </trkpt>
      <trkpt lat="51.5926946" lon="-116.6590846">
      </trkpt>
      <trkpt lat="51.592964" lon="-116.658961">
      </trkpt>
      <trkpt lat="51.5930643" lon="-116.6589362">
      </trkpt>
      <trkpt lat="51.593228" lon="-116.658853">
      </trkpt>
      <trkpt lat="51.593301" lon="-116.658799">
      </trkpt>
      <trkpt lat="51.593488" lon="-116.6587231">
      </trkpt>
      <trkpt lat="51.5936187" lon="-116.6586927">
      </trkpt>
      <trkpt lat="51.593641" lon="-116.658742">
      </trkpt>
      <trkpt lat="51.5937304" lon="-116.6587275">
      </trkpt>
      <trkpt lat="51.593817" lon="-116.6587892">
      </trkpt>
      <trkpt lat="51.5939567" lon="-116.6587186">
      </trkpt>
      <trkpt lat="51.5939836" lon="-116.6588268">
      </trkpt>
      <trkpt lat="51.5940853" lon="-116.6588509">
      </trkpt>
      <trkpt lat="51.5941344" lon="-116.6587785">
      </trkpt>
      <trkpt lat="51.594267" lon="-116.6588512">
      </trkpt>
      <trkpt lat="51.5944382" lon="-116.65889">
      </trkpt>
      <trkpt lat="51.5945147" lon="-116.65881">
      </trkpt>
      <trkpt lat="51.5945547" lon="-116.6588434">
      </trkpt>
      <trkpt lat="51.5946314" lon="-116.6587586">
      </trkpt>
      <trkpt lat="51.5946737" lon="-116.6587814">
      </trkpt>
      <trkpt lat="51.594758" lon="-116.6587673">
      </trkpt>
      <trkpt lat="51.59483" lon="-116.6587127">
      </trkpt>
      <trkpt lat="51.5948617" lon="-116.6586483">
      </trkpt>
      <trkpt lat="51.5949772" lon="-116.6586812">
      </trkpt>
      <trkpt lat="51.5950419" lon="-116.6586917">
      </trkpt>
      <trkpt lat="51.5951204" lon="-116.6587705">
      </trkpt>
      <trkpt lat="51.5953375" lon="-116.6586833">
      </trkpt>
      <trkpt lat="51.5954216" lon="-116.6587383">
      </trkpt>
      <trkpt lat="51.5955404" lon="-116.6586479">
      </trkpt>
      <trkpt lat="51.595683" lon="-116.6586727">
      </trkpt>
      <trkpt lat="51.5958634" lon="-116.6587579">
      </trkpt>
      <trkpt lat="51.5959944" lon="-116.6587219">
      </trkpt>
      <trkpt lat="51.5960854" lon="-116.6588364">
      </trkpt>
      <trkpt lat="51.59624" lon="-116.6589517">
      </trkpt>
      <trkpt lat="51.5964234" lon="-116.6590985">
      </trkpt>
      <trkpt lat="51.5969253" lon="-116.6588956">
      </trkpt>
      <trkpt lat="51.5970078" lon="-116.6590601">
      </trkpt>
      <trkpt lat="51.597092" lon="-116.6590282">
      </trkpt>
      <trkpt lat="51.5972499" lon="-116.6592178">
      </trkpt>
      <trkpt lat="51.5973584" lon="-116.6593947">
      </trkpt>
      <trkpt lat="51.597604" lon="-116.6593562">
      </trkpt>
      <trkpt lat="51.5977367" lon="-116.6594427">
      </trkpt>
      <trkpt lat="51.5979076" lon="-116.6596287">
      </trkpt>
      <trkpt lat="51.5981407" lon="-116.6597346">
      </trkpt>
      <trkpt lat="51.5983936" lon="-116.6597294">
      </trkpt>
      <trkpt lat="51.5985686" lon="-116.6598517">
      </trkpt>
      <trkpt lat="51.5987619" lon="-116.6600561">
      </trkpt>
      <trkpt lat="51.5988566" lon="-116.6602204">
      </trkpt>
      <trkpt lat="51.5989672" lon="-116.6602188">
      </trkpt>
      <trkpt lat="51.5990231" lon="-116.6603348">
      </trkpt>
      <trkpt lat="51.5992137" lon="-116.6604132">
      </trkpt>
      <trkpt lat="51.5993005" lon="-116.6605731">
      </trkpt>
      <trkpt lat="51.5994191" lon="-116.6606472">
      </trkpt>
      <trkpt lat="51.5995231" lon="-116.6607383">
      </trkpt>
      <trkpt lat="51.5995834" lon="-116.6608035">
      </trkpt>
      <trkpt lat="51.5996672" lon="-116.6608977">
      </trkpt>
      <trkpt lat="51.5998212" lon="-116.6610589">
      </trkpt>
      <trkpt lat="51.5999392" lon="-116.6611664">
      </trkpt>
      <trkpt lat="51.6000734" lon="-116.661253">
      </trkpt>
      <trkpt lat="51.6002884" lon="-116.6612515">
      </trkpt>
      <trkpt lat="51.6003613" lon="-116.6613799">
      </trkpt>
      <trkpt lat="51.60044" lon="-116.6613856">
      </trkpt>
      <trkpt lat="51.6005204" lon="-116.6615597">
      </trkpt>
      <trkpt lat="51.6007683" lon="-116.6615196">
      </trkpt>
      <trkpt lat="51.6008931" lon="-116.6616887">
      </trkpt>
      <trkpt lat="51.6009498" lon="-116.6618711">
      </trkpt>
      <trkpt lat="51.6010486" lon="-116.6618794">
      </trkpt>
      <trkpt lat="51.6013416" lon="-116.6623143">
      </trkpt>
      <trkpt lat="51.60174" lon="-116.6625912">
      </trkpt>
      <trkpt lat="51.6019327" lon="-116.66265">
      </trkpt>
      <trkpt lat="51.6019511" lon="-116.6629988">
      </trkpt>
      <trkpt lat="51.6021284" lon="-116.6630841">
      </trkpt>
      <trkpt lat="51.602401" lon="-116.6634817">
      </trkpt>
      <trkpt lat="51.6026093" lon="-116.6639204">
      </trkpt>
      <trkpt lat="51.6028376" lon="-116.6643074">
      </trkpt>
      <trkpt lat="51.6030017" lon="-116.6644812">
      </trkpt>
      <trkpt lat="51.6030734" lon="-116.6645947">
      </trkpt>
      <trkpt lat="51.6032088" lon="-116.6646257">
      </trkpt>
      <trkpt lat="51.6033343" lon="-116.6648">
      </trkpt>
      <trkpt lat="51.6033641" lon="-116.6649765">
      </trkpt>
      <trkpt lat="51.6034387" lon="-116.6650683">
      </trkpt>
      <trkpt lat="51.6034258" lon="-116.6651694">
      </trkpt>
      <trkpt lat="51.6035853" lon="-116.6652399">
      </trkpt>
      <trkpt lat="51.6036541" lon="-116.6653391">
      </trkpt>
      <trkpt lat="51.6040347" lon="-116.6660334">
      </trkpt>
      <trkpt lat="51.6042967" lon="-116.6664362">
      </trkpt>
      <trkpt lat="51.6044987" lon="-116.6665765">
      </trkpt>
      <trkpt lat="51.6047224" lon="-116.6667621">
      </trkpt>
      <trkpt lat="51.6048827" lon="-116.6668862">
      </trkpt>
      <trkpt lat="51.605076" lon="-116.66707">
      </trkpt>
      <trkpt lat="51.60522" lon="-116.6672593">
      </trkpt>
      <trkpt lat="51.605345" lon="-116.667464">
      </trkpt>
      <trkpt lat="51.60559" lon="-116.667779">
      </trkpt>
      <trkpt lat="51.60579" lon="-116.667951">
      </trkpt>
      <trkpt lat="51.605945" lon="-116.668088">
      </trkpt>
      <trkpt lat="51.6061883" lon="-116.6682936">
      </trkpt>
      <trkpt lat="51.606323" lon="-116.668404">
      </trkpt>
      <trkpt lat="51.606489" lon="-116.6685304">
      </trkpt>
      <trkpt lat="51.6065539" lon="-116.6685546">
      </trkpt>
      <trkpt lat="51.6066443" lon="-116.6687359">
      </trkpt>
      <trkpt lat="51.606705" lon="-116.6688153">
      </trkpt>
      <trkpt lat="51.6068279" lon="-116.6689199">
      </trkpt>
      <trkpt lat="51.6068787" lon="-116.6690366">
      </trkpt>
      <trkpt lat="51.6069498" lon="-116.6690697">
      </trkpt>
      <trkpt lat="51.6070333" lon="-116.6692367">
      </trkpt>
      <trkpt lat="51.6072738" lon="-116.6695333">
      </trkpt>
      <trkpt lat="51.607361" lon="-116.6695637">
      </trkpt>
      <trkpt lat="51.6074111" lon="-116.6696342">
      </trkpt>
      <trkpt lat="51.6075546" lon="-116.6698651">
      </trkpt>
      <trkpt lat="51.6076389" lon="-116.6699875">
      </trkpt>
      <trkpt lat="51.6076664" lon="-116.6700273">
      </trkpt>
      <trkpt lat="51.6077384" lon="-116.6701318">
      </trkpt>
      <trkpt lat="51.6078878" lon="-116.6704798">
      </trkpt>
      <trkpt lat="51.6080392" lon="-116.6708568">
      </trkpt>
      <trkpt lat="51.6081556" lon="-116.6709729">
      </trkpt>
      <trkpt lat="51.6082398" lon="-116.6710121">
      </trkpt>
      <trkpt lat="51.60835" lon="-116.6711403">
      </trkpt>
      <trkpt lat="51.6084586" lon="-116.6712407">
      </trkpt>
      <trkpt lat="51.6085504" lon="-116.6712407">
      </trkpt>
      <trkpt lat="51.6086974" lon="-116.6714527">
      </trkpt>
      <trkpt lat="51.608702" lon="-116.6716006">
      </trkpt>
      <trkpt lat="51.6087708" lon="-116.6717632">
      </trkpt>
      <trkpt lat="51.6088489" lon="-116.6718372">
      </trkpt>
      <trkpt lat="51.6089622" lon="-116.6719037">
      </trkpt>
      <trkpt lat="51.6091198" lon="-116.6719185">
      </trkpt>
      <trkpt lat="51.6092867" lon="-116.6719161">
      </trkpt>
      <trkpt lat="51.6093197" lon="-116.6718742">
      </trkpt>
      <trkpt lat="51.6093586" lon="-116.6718249">
      </trkpt>
      <trkpt lat="51.6094535" lon="-116.6718051">
      </trkpt>
      <trkpt lat="51.6095668" lon="-116.6719358">
      </trkpt>
      <trkpt lat="51.6095994" lon="-116.6719952">
      </trkpt>
      <trkpt lat="51.6096357" lon="-116.6720615">
      </trkpt>
      <trkpt lat="51.6096862" lon="-116.6721305">
      </trkpt>
      <trkpt lat="51.6097123" lon="-116.6721464">
      </trkpt>
      <trkpt lat="51.6098071" lon="-116.6722044">
      </trkpt>
      <trkpt lat="51.6098699" lon="-116.6722932">
      </trkpt>
      <trkpt lat="51.6099449" lon="-116.672303">
      </trkpt>
      <trkpt lat="51.6100245" lon="-116.6723671">
      </trkpt>
      <trkpt lat="51.6100601" lon="-116.6724477">
      </trkpt>
      <trkpt lat="51.6101179" lon="-116.6725397">
      </trkpt>
      <trkpt lat="51.6102097" lon="-116.6725224">
      </trkpt>
      <trkpt lat="51.6102633" lon="-116.6726604">
      </trkpt>
      <trkpt lat="51.6102832" lon="-116.6728305">
      </trkpt>
      <trkpt lat="51.6103138" lon="-116.6728675">
      </trkpt>
      <trkpt lat="51.610401" lon="-116.6729612">
      </trkpt>
      <trkpt lat="51.6104776" lon="-116.6730745">
      </trkpt>
      <trkpt lat="51.6105266" lon="-116.6730918">
      </trkpt>
      <trkpt lat="51.6105587" lon="-116.6731928">
      </trkpt>
      <trkpt lat="51.6106046" lon="-116.6732397">
      </trkpt>
      <trkpt lat="51.6106934" lon="-116.6733087">
      </trkpt>
      <trkpt lat="51.6108082" lon="-116.6735231">
      </trkpt>
      <trkpt lat="51.6109123" lon="-116.6736242">
      </trkpt>
      <trkpt lat="51.6109352" lon="-116.6737696">
      </trkpt>
      <trkpt lat="51.6109888" lon="-116.6739422">
      </trkpt>
      <trkpt lat="51.6110102" lon="-116.6740136">
      </trkpt>
      <trkpt lat="51.6110317" lon="-116.6740851">
      </trkpt>
      <trkpt lat="51.6110332" lon="-116.6742626">
      </trkpt>
      <trkpt lat="51.61105" lon="-116.6744351">
      </trkpt>
      <trkpt lat="51.6110929" lon="-116.6745263">
      </trkpt>
      <trkpt lat="51.611099" lon="-116.6745682">
      </trkpt>
      <trkpt lat="51.6110225" lon="-116.6746496">
      </trkpt>
      <trkpt lat="51.6109444" lon="-116.6747063">
      </trkpt>
      <trkpt lat="51.6108664" lon="-116.6747654">
      </trkpt>
      <trkpt lat="51.6108067" lon="-116.6748714">
      </trkpt>
      <trkpt lat="51.6107761" lon="-116.6750193">
      </trkpt>
      <trkpt lat="51.6107516" lon="-116.6750957">
      </trkpt>
      <trkpt lat="51.6106949" lon="-116.6752313">
      </trkpt>
      <trkpt lat="51.6107011" lon="-116.6753447">
      </trkpt>
      <trkpt lat="51.6107194" lon="-116.6754999">
      </trkpt>
      <trkpt lat="51.6106949" lon="-116.6757045">
      </trkpt>
      <trkpt lat="51.6107332" lon="-116.6758154">
      </trkpt>
      <trkpt lat="51.6107623" lon="-116.6759683">
      </trkpt>
      <trkpt lat="51.6107575" lon="-116.6761359">
      </trkpt>
      <trkpt lat="51.6107656" lon="-116.6762822">
      </trkpt>
      <trkpt lat="51.6107777" lon="-116.6764351">
      </trkpt>
      <trkpt lat="51.6108323" lon="-116.6764351">
      </trkpt>
      <trkpt lat="51.6108969" lon="-116.6765001">
      </trkpt>
      <trkpt lat="51.6109555" lon="-116.6765749">
      </trkpt>
      <trkpt lat="51.6109979" lon="-116.6766335">
      </trkpt>
      <trkpt lat="51.6110383" lon="-116.6766985">
      </trkpt>
      <trkpt lat="51.6111029" lon="-116.6767148">
      </trkpt>
      <trkpt lat="51.6111534" lon="-116.6767798">
      </trkpt>
      <trkpt lat="51.6112564" lon="-116.6768904">
      </trkpt>
      <trkpt lat="51.6113614" lon="-116.676962">
      </trkpt>
      <trkpt lat="51.6113594" lon="-116.6770205">
      </trkpt>
      <trkpt lat="51.611321" lon="-116.6771083">
      </trkpt>
      <trkpt lat="51.6113029" lon="-116.6772482">
      </trkpt>
      <trkpt lat="51.6113311" lon="-116.6773783">
      </trkpt>
      <trkpt lat="51.6114119" lon="-116.6775214">
      </trkpt>
      <trkpt lat="51.6115028" lon="-116.6775929">
      </trkpt>
      <trkpt lat="51.6115715" lon="-116.6776222">
      </trkpt>
      <trkpt lat="51.6116543" lon="-116.677632">
      </trkpt>
      <trkpt lat="51.6116846" lon="-116.6776742">
      </trkpt>
      <trkpt lat="51.6117088" lon="-116.6777425">
      </trkpt>
      <trkpt lat="51.6117714" lon="-116.6777458">
      </trkpt>
      <trkpt lat="51.6118239" lon="-116.6776937">
      </trkpt>
      <trkpt lat="51.6118522" lon="-116.6776385">
      </trkpt>
      <trkpt lat="51.6119067" lon="-116.6776124">
      </trkpt>
      <trkpt lat="51.6119532" lon="-116.6775539">
      </trkpt>
      <trkpt lat="51.6119855" lon="-116.6774954">
      </trkpt>
      <trkpt lat="51.6120542" lon="-116.6775539">
      </trkpt>
      <trkpt lat="51.6120703" lon="-116.6776222">
      </trkpt>
      <trkpt lat="51.6121471" lon="-116.6776482">
      </trkpt>
      <trkpt lat="51.6121855" lon="-116.6776905">
      </trkpt>
      <trkpt lat="51.6122844" lon="-116.6777393">
      </trkpt>
      <trkpt lat="51.6123894" lon="-116.6777751">
      </trkpt>
      <trkpt lat="51.6124642" lon="-116.6777328">
      </trkpt>
      <trkpt lat="51.6125288" lon="-116.6777751">
      </trkpt>
      <trkpt lat="51.6126055" lon="-116.6777686">
      </trkpt>
      <trkpt lat="51.6126661" lon="-116.677749">
      </trkpt>
      <trkpt lat="51.6127207" lon="-116.6777978">
      </trkpt>
      <trkpt lat="51.6127927" lon="-116.6778554">
      </trkpt>
      <trkpt lat="51.6128771" lon="-116.6778866">
      </trkpt>
      <trkpt lat="51.6129756" lon="-116.6779743">
      </trkpt>
      <trkpt lat="51.613074" lon="-116.6781131">
      </trkpt>
      <trkpt lat="51.6131443" lon="-116.6782009">
      </trkpt>
      <trkpt lat="51.6132076" lon="-116.6783028">
      </trkpt>
      <trkpt lat="51.6132762" lon="-116.6783226">
      </trkpt>
      <trkpt lat="51.6133166" lon="-116.6783877">
      </trkpt>
      <trkpt lat="51.6133413" lon="-116.6784953">
      </trkpt>
      <trkpt lat="51.6133817" lon="-116.6786256">
      </trkpt>
      <trkpt lat="51.6134292" lon="-116.6788011">
      </trkpt>
      <trkpt lat="51.61351" lon="-116.6788917">
      </trkpt>
      <trkpt lat="51.6135716" lon="-116.6789795">
      </trkpt>
      <trkpt lat="51.6136243" lon="-116.6790786">
      </trkpt>
      <trkpt lat="51.6137017" lon="-116.6791097">
      </trkpt>
      <trkpt lat="51.6137861" lon="-116.6791663">
      </trkpt>
      <trkpt lat="51.6138845" lon="-116.6792456">
      </trkpt>
      <trkpt lat="51.6139883" lon="-116.6793107">
      </trkpt>
      <trkpt lat="51.6141025" lon="-116.6792768">
      </trkpt>
      <trkpt lat="51.6141676" lon="-116.679172">
      </trkpt>
      <trkpt lat="51.6142274" lon="-116.6790899">
      </trkpt>
      <trkpt lat="51.6142748" lon="-116.6791465">
      </trkpt>
      <trkpt lat="51.6143188" lon="-116.679189">
      </trkpt>
      <trkpt lat="51.6143698" lon="-116.679172">
      </trkpt>
      <trkpt lat="51.6144173" lon="-116.679206">
      </trkpt>
      <trkpt lat="51.6144788" lon="-116.6792796">
      </trkpt>
      <trkpt lat="51.614528" lon="-116.679373">
      </trkpt>
      <trkpt lat="51.6145685" lon="-116.6794636">
      </trkpt>
      <trkpt lat="51.614572" lon="-116.6795939">
      </trkpt>
      <trkpt lat="51.61463" lon="-116.6796845">
      </trkpt>
      <trkpt lat="51.6146687" lon="-116.6797609">
      </trkpt>
      <trkpt lat="51.6147179" lon="-116.6798657">
      </trkpt>
      <trkpt lat="51.6147882" lon="-116.6799252">
      </trkpt>
      <trkpt lat="51.6148779" lon="-116.6799506">
      </trkpt>
      <trkpt lat="51.6149869" lon="-116.6800129">
      </trkpt>
      <trkpt lat="51.6150572" lon="-116.6801517">
      </trkpt>
      <trkpt lat="51.6151187" lon="-116.6801488">
      </trkpt>
      <trkpt lat="51.615168" lon="-116.6802791">
      </trkpt>
      <trkpt lat="51.6152365" lon="-116.68033">
      </trkpt>
      <trkpt lat="51.6152893" lon="-116.680398">
      </trkpt>
      <trkpt lat="51.6153561" lon="-116.6804461">
      </trkpt>
      <trkpt lat="51.6153895" lon="-116.6805282">
      </trkpt>
      <trkpt lat="51.6154282" lon="-116.6805735">
      </trkpt>
      <trkpt lat="51.6154633" lon="-116.6806387">
      </trkpt>
      <trkpt lat="51.6155249" lon="-116.6807009">
      </trkpt>
      <trkpt lat="51.615552" lon="-116.6807312">
      </trkpt>
      <trkpt lat="51.6155926" lon="-116.6806782">
      </trkpt>
      <trkpt lat="51.6156392" lon="-116.6806868">
      </trkpt>
      <trkpt lat="51.6156849" lon="-116.6807092">
      </trkpt>
      <trkpt lat="51.6157423" lon="-116.6807659">
      </trkpt>
      <trkpt lat="51.6157614" lon="-116.680777">
      </trkpt>
      <trkpt lat="51.6157692" lon="-116.6807973">
      </trkpt>
      <trkpt lat="51.6157851" lon="-116.6808386">
      </trkpt>
      <trkpt lat="51.6158418" lon="-116.6808546">
      </trkpt>
      <trkpt lat="51.6158846" lon="-116.6809039">
      </trkpt>
      <trkpt lat="51.616007" lon="-116.6809594">
      </trkpt>
      <trkpt lat="51.616052" lon="-116.680957">
      </trkpt>
      <trkpt lat="51.6161259" lon="-116.6809754">
      </trkpt>
      <trkpt lat="51.616161" lon="-116.6809967">
      </trkpt>
      <trkpt lat="51.6162859" lon="-116.6809853">
      </trkpt>
      <trkpt lat="51.616314" lon="-116.6809655">
      </trkpt>
      <trkpt lat="51.6163483" lon="-116.6810221">
      </trkpt>
      <trkpt lat="51.6163623" lon="-116.681059">
      </trkpt>
      <trkpt lat="51.6164028" lon="-116.6810929">
      </trkpt>
      <trkpt lat="51.6164527" lon="-116.6811341">
      </trkpt>
      <trkpt lat="51.6164861" lon="-116.6811616">
      </trkpt>
      <trkpt lat="51.6165144" lon="-116.6811849">
      </trkpt>
      <trkpt lat="51.6165337" lon="-116.6812246">
      </trkpt>
      <trkpt lat="51.616561" lon="-116.6813095">
      </trkpt>
      <trkpt lat="51.6165795" lon="-116.6813251">
      </trkpt>
      <trkpt lat="51.6166612" lon="-116.6813152">
      </trkpt>
      <trkpt lat="51.6167289" lon="-116.6812911">
      </trkpt>
      <trkpt lat="51.6167757" lon="-116.6813339">
      </trkpt>
      <trkpt lat="51.6168829" lon="-116.6814448">
      </trkpt>
      <trkpt lat="51.6169441" lon="-116.6814276">
      </trkpt>
      <trkpt lat="51.6169793" lon="-116.6814301">
      </trkpt>
      <trkpt lat="51.6170252" lon="-116.6814646">
      </trkpt>
      <trkpt lat="51.6171032" lon="-116.6814695">
      </trkpt>
      <trkpt lat="51.6171645" lon="-116.6814695">
      </trkpt>
      <trkpt lat="51.6171951" lon="-116.6815237">
      </trkpt>
      <trkpt lat="51.617215" lon="-116.6815213">
      </trkpt>
      <trkpt lat="51.6172394" lon="-116.6814818">
      </trkpt>
      <trkpt lat="51.6173083" lon="-116.6814522">
      </trkpt>
      <trkpt lat="51.6173437" lon="-116.6814884">
      </trkpt>
      <trkpt lat="51.6173711" lon="-116.6815163">
      </trkpt>
      <trkpt lat="51.6173971" lon="-116.6815385">
      </trkpt>
      <trkpt lat="51.6174185" lon="-116.6815558">
      </trkpt>
      <trkpt lat="51.6174721" lon="-116.6815558">
      </trkpt>
      <trkpt lat="51.6174966" lon="-116.6815385">
      </trkpt>
      <trkpt lat="51.6175477" lon="-116.6814123">
      </trkpt>
      <trkpt lat="51.6175377" lon="-116.6813265">
      </trkpt>
      <trkpt lat="51.6176127" lon="-116.6811951">
      </trkpt>
      <trkpt lat="51.6176069" lon="-116.6809228">
      </trkpt>
      <trkpt lat="51.6176652" lon="-116.6806385">
      </trkpt>
      <trkpt lat="51.6177634" lon="-116.6803408">
      </trkpt>
      <trkpt lat="51.6179116" lon="-116.6800994">
      </trkpt>
      <trkpt lat="51.6180299" lon="-116.6801423">
      </trkpt>
      <trkpt lat="51.6180982" lon="-116.6803676">
      </trkpt>
      <trkpt lat="51.6182247" lon="-116.6805366">
      </trkpt>
      <trkpt lat="51.6184379" lon="-116.6805553">
      </trkpt>
      <trkpt lat="51.6185811" lon="-116.6805124">
      </trkpt>
      <trkpt lat="51.6187174" lon="-116.6805914">
      </trkpt>
    </trkseg>
  </trk>
</gpx>