<?xml version="1.0" encoding="UTF-8"?>
<gpx xmlns="http://www.topografix.com/GPX/1/1" xmlns:xsi="http://www.w3.org/2001/XMLSchema-instance" xsi:schemaLocation="http://www.topografix.com/GPX/1/1 http://www.topografix.com/GPX/1/1/gpx.xsd" version="1.1" creator="gpx.py -- https://github.com/tkrajina/gpxpy">
  <trk>
    <name>Slalok Mountain Up Track</name>
    <trkseg>
      <trkpt lat="50.342502" lon="-122.475183">
      </trkpt>
      <trkpt lat="50.3424404" lon="-122.4751224">
      </trkpt>
      <trkpt lat="50.3423681" lon="-122.4750871">
      </trkpt>
      <trkpt lat="50.3422996" lon="-122.4750812">
      </trkpt>
      <trkpt lat="50.3422601" lon="-122.4750474">
      </trkpt>
      <trkpt lat="50.3422028" lon="-122.4751004">
      </trkpt>
      <trkpt lat="50.3421399" lon="-122.4751504">
      </trkpt>
      <trkpt lat="50.3420817" lon="-122.4751607">
      </trkpt>
      <trkpt lat="50.3420122" lon="-122.4751739">
      </trkpt>
      <trkpt lat="50.3419887" lon="-122.4752505">
      </trkpt>
      <trkpt lat="50.341922" lon="-122.475221">
      </trkpt>
      <trkpt lat="50.3418506" lon="-122.4752814">
      </trkpt>
      <trkpt lat="50.3417924" lon="-122.4752313">
      </trkpt>
      <trkpt lat="50.3417238" lon="-122.4752402">
      </trkpt>
      <trkpt lat="50.3416806" lon="-122.4753196">
      </trkpt>
      <trkpt lat="50.341666" lon="-122.475376">
      </trkpt>
      <trkpt lat="50.34163" lon="-122.475422">
      </trkpt>
      <trkpt lat="50.341585" lon="-122.475426">
      </trkpt>
      <trkpt lat="50.341551" lon="-122.475398">
      </trkpt>
      <trkpt lat="50.341511" lon="-122.47536">
      </trkpt>
      <trkpt lat="50.341502" lon="-122.475334">
      </trkpt>
      <trkpt lat="50.341447" lon="-122.47527">
      </trkpt>
      <trkpt lat="50.341414" lon="-122.47521">
      </trkpt>
      <trkpt lat="50.341392" lon="-122.475191">
      </trkpt>
      <trkpt lat="50.341339" lon="-122.475088">
      </trkpt>
      <trkpt lat="50.341264" lon="-122.475045">
      </trkpt>
      <trkpt lat="50.341234" lon="-122.475012">
      </trkpt>
      <trkpt lat="50.341222" lon="-122.474994">
      </trkpt>
      <trkpt lat="50.341211" lon="-122.47495">
      </trkpt>
      <trkpt lat="50.341198" lon="-122.474937">
      </trkpt>
      <trkpt lat="50.341177" lon="-122.474952">
      </trkpt>
      <trkpt lat="50.34116" lon="-122.474946">
      </trkpt>
      <trkpt lat="50.341154" lon="-122.474921">
      </trkpt>
      <trkpt lat="50.341133" lon="-122.47489">
      </trkpt>
      <trkpt lat="50.341084" lon="-122.474908">
      </trkpt>
      <trkpt lat="50.341074" lon="-122.47488">
      </trkpt>
      <trkpt lat="50.341056" lon="-122.474871">
      </trkpt>
      <trkpt lat="50.341045" lon="-122.474851">
      </trkpt>
      <trkpt lat="50.341043" lon="-122.474826">
      </trkpt>
      <trkpt lat="50.341012" lon="-122.474826">
      </trkpt>
      <trkpt lat="50.340997" lon="-122.474815">
      </trkpt>
      <trkpt lat="50.340981" lon="-122.474805">
      </trkpt>
      <trkpt lat="50.340871" lon="-122.474704">
      </trkpt>
      <trkpt lat="50.340816" lon="-122.474678">
      </trkpt>
      <trkpt lat="50.340805" lon="-122.474661">
      </trkpt>
      <trkpt lat="50.340724" lon="-122.474625">
      </trkpt>
      <trkpt lat="50.340713" lon="-122.474611">
      </trkpt>
      <trkpt lat="50.340715" lon="-122.474588">
      </trkpt>
      <trkpt lat="50.340698" lon="-122.474563">
      </trkpt>
      <trkpt lat="50.340666" lon="-122.474544">
      </trkpt>
      <trkpt lat="50.340645" lon="-122.474535">
      </trkpt>
      <trkpt lat="50.340603" lon="-122.474498">
      </trkpt>
      <trkpt lat="50.340541" lon="-122.474484">
      </trkpt>
      <trkpt lat="50.340511" lon="-122.474455">
      </trkpt>
      <trkpt lat="50.340479" lon="-122.474457">
      </trkpt>
      <trkpt lat="50.340457" lon="-122.474428">
      </trkpt>
      <trkpt lat="50.340414" lon="-122.474424">
      </trkpt>
      <trkpt lat="50.34039" lon="-122.4744">
      </trkpt>
      <trkpt lat="50.340318" lon="-122.474411">
      </trkpt>
      <trkpt lat="50.340283" lon="-122.474389">
      </trkpt>
      <trkpt lat="50.340245" lon="-122.474417">
      </trkpt>
      <trkpt lat="50.3402235" lon="-122.4744081">
      </trkpt>
      <trkpt lat="50.340205" lon="-122.474394">
      </trkpt>
      <trkpt lat="50.340189" lon="-122.474374">
      </trkpt>
      <trkpt lat="50.34016" lon="-122.474367">
      </trkpt>
      <trkpt lat="50.340059" lon="-122.474302">
      </trkpt>
      <trkpt lat="50.34002" lon="-122.474298">
      </trkpt>
      <trkpt lat="50.339993" lon="-122.474272">
      </trkpt>
      <trkpt lat="50.339904" lon="-122.474223">
      </trkpt>
      <trkpt lat="50.339841" lon="-122.474245">
      </trkpt>
      <trkpt lat="50.339815" lon="-122.474199">
      </trkpt>
      <trkpt lat="50.339774" lon="-122.4742">
      </trkpt>
      <trkpt lat="50.339713" lon="-122.474133">
      </trkpt>
      <trkpt lat="50.339673" lon="-122.474111">
      </trkpt>
      <trkpt lat="50.339657" lon="-122.474033">
      </trkpt>
      <trkpt lat="50.339637" lon="-122.474046">
      </trkpt>
      <trkpt lat="50.33961" lon="-122.474023">
      </trkpt>
      <trkpt lat="50.3395618" lon="-122.4740542">
      </trkpt>
      <trkpt lat="50.339506" lon="-122.474101">
      </trkpt>
      <trkpt lat="50.339478" lon="-122.474078">
      </trkpt>
      <trkpt lat="50.339447" lon="-122.474073">
      </trkpt>
      <trkpt lat="50.33942" lon="-122.47403">
      </trkpt>
      <trkpt lat="50.339352" lon="-122.474035">
      </trkpt>
      <trkpt lat="50.339313" lon="-122.474066">
      </trkpt>
      <trkpt lat="50.339275" lon="-122.47405">
      </trkpt>
      <trkpt lat="50.339273" lon="-122.474025">
      </trkpt>
      <trkpt lat="50.339261" lon="-122.474014">
      </trkpt>
      <trkpt lat="50.339238" lon="-122.474031">
      </trkpt>
      <trkpt lat="50.339226" lon="-122.474013">
      </trkpt>
      <trkpt lat="50.339215" lon="-122.474043">
      </trkpt>
      <trkpt lat="50.339182" lon="-122.473958">
      </trkpt>
      <trkpt lat="50.339159" lon="-122.473939">
      </trkpt>
      <trkpt lat="50.339136" lon="-122.473871">
      </trkpt>
      <trkpt lat="50.339112" lon="-122.47385">
      </trkpt>
      <trkpt lat="50.339089" lon="-122.473839">
      </trkpt>
      <trkpt lat="50.339081" lon="-122.473857">
      </trkpt>
      <trkpt lat="50.339059" lon="-122.473841">
      </trkpt>
      <trkpt lat="50.339041" lon="-122.473857">
      </trkpt>
      <trkpt lat="50.339029" lon="-122.473851">
      </trkpt>
      <trkpt lat="50.339024" lon="-122.473831">
      </trkpt>
      <trkpt lat="50.338999" lon="-122.473842">
      </trkpt>
      <trkpt lat="50.338928" lon="-122.473809">
      </trkpt>
      <trkpt lat="50.33892" lon="-122.473827">
      </trkpt>
      <trkpt lat="50.338908" lon="-122.47383">
      </trkpt>
      <trkpt lat="50.338901" lon="-122.473792">
      </trkpt>
      <trkpt lat="50.338879" lon="-122.473803">
      </trkpt>
      <trkpt lat="50.338841" lon="-122.473798">
      </trkpt>
      <trkpt lat="50.338802" lon="-122.473682">
      </trkpt>
      <trkpt lat="50.338798" lon="-122.473638">
      </trkpt>
      <trkpt lat="50.338789" lon="-122.473628">
      </trkpt>
      <trkpt lat="50.3387733" lon="-122.4736347">
      </trkpt>
      <trkpt lat="50.338755" lon="-122.473635">
      </trkpt>
      <trkpt lat="50.33874" lon="-122.473588">
      </trkpt>
      <trkpt lat="50.338718" lon="-122.473568">
      </trkpt>
      <trkpt lat="50.338715" lon="-122.473526">
      </trkpt>
      <trkpt lat="50.338705" lon="-122.473511">
      </trkpt>
      <trkpt lat="50.338683" lon="-122.47352">
      </trkpt>
      <trkpt lat="50.338636" lon="-122.473479">
      </trkpt>
      <trkpt lat="50.338603" lon="-122.473471">
      </trkpt>
      <trkpt lat="50.338502" lon="-122.473384">
      </trkpt>
      <trkpt lat="50.338448" lon="-122.473365">
      </trkpt>
      <trkpt lat="50.338435" lon="-122.473348">
      </trkpt>
      <trkpt lat="50.338384" lon="-122.47336">
      </trkpt>
      <trkpt lat="50.338331" lon="-122.473329">
      </trkpt>
      <trkpt lat="50.338298" lon="-122.47332">
      </trkpt>
      <trkpt lat="50.338287" lon="-122.473331">
      </trkpt>
      <trkpt lat="50.338269" lon="-122.473307">
      </trkpt>
      <trkpt lat="50.33825" lon="-122.473304">
      </trkpt>
      <trkpt lat="50.338242" lon="-122.473292">
      </trkpt>
      <trkpt lat="50.338223" lon="-122.473306">
      </trkpt>
      <trkpt lat="50.338192" lon="-122.473293">
      </trkpt>
      <trkpt lat="50.338185" lon="-122.473367">
      </trkpt>
      <trkpt lat="50.338172" lon="-122.473382">
      </trkpt>
      <trkpt lat="50.338146" lon="-122.473376">
      </trkpt>
      <trkpt lat="50.338073" lon="-122.473389">
      </trkpt>
      <trkpt lat="50.338059" lon="-122.473379">
      </trkpt>
      <trkpt lat="50.338017" lon="-122.473405">
      </trkpt>
      <trkpt lat="50.3379438" lon="-122.4732164">
      </trkpt>
      <trkpt lat="50.338043" lon="-122.4729159">
      </trkpt>
      <trkpt lat="50.3380716" lon="-122.4725464">
      </trkpt>
      <trkpt lat="50.3380717" lon="-122.4720183">
      </trkpt>
      <trkpt lat="50.3380804" lon="-122.4719248">
      </trkpt>
      <trkpt lat="50.3381664" lon="-122.4715519">
      </trkpt>
      <trkpt lat="50.3381576" lon="-122.4708508">
      </trkpt>
      <trkpt lat="50.3382061" lon="-122.4704744">
      </trkpt>
      <trkpt lat="50.3382105" lon="-122.4698908">
      </trkpt>
      <trkpt lat="50.3382612" lon="-122.4695524">
      </trkpt>
      <trkpt lat="50.3382519" lon="-122.469058">
      </trkpt>
    </trkseg>
    <trkseg>
      <trkpt lat="50.3383052" lon="-122.4688645">
      </trkpt>
      <trkpt lat="50.3382428" lon="-122.4681253">
      </trkpt>
      <trkpt lat="50.3379153" lon="-122.4669525">
      </trkpt>
      <trkpt lat="50.3373851" lon="-122.4661706">
      </trkpt>
      <trkpt lat="50.3368549" lon="-122.4658286">
      </trkpt>
      <trkpt lat="50.3364962" lon="-122.4658774">
      </trkpt>
      <trkpt lat="50.3361998" lon="-122.4660973">
      </trkpt>
      <trkpt lat="50.3360224" lon="-122.4660882">
      </trkpt>
      <trkpt lat="50.3358879" lon="-122.4659263">
      </trkpt>
      <trkpt lat="50.3358567" lon="-122.4653888">
      </trkpt>
      <trkpt lat="50.3358879" lon="-122.4642648">
      </trkpt>
      <trkpt lat="50.3357632" lon="-122.4635073">
      </trkpt>
      <trkpt lat="50.3356345" lon="-122.4633119">
      </trkpt>
      <trkpt lat="50.3354707" lon="-122.4632997">
      </trkpt>
      <trkpt lat="50.3353226" lon="-122.463434">
      </trkpt>
      <trkpt lat="50.3350301" lon="-122.464106">
      </trkpt>
      <trkpt lat="50.3346714" lon="-122.465969">
      </trkpt>
      <trkpt lat="50.334379" lon="-122.4675145">
      </trkpt>
      <trkpt lat="50.3343049" lon="-122.468162">
      </trkpt>
      <trkpt lat="50.3341568" lon="-122.4686384">
      </trkpt>
      <trkpt lat="50.3339384" lon="-122.4688339">
      </trkpt>
      <trkpt lat="50.3336889" lon="-122.4688095">
      </trkpt>
      <trkpt lat="50.3328155" lon="-122.4684674">
      </trkpt>
      <trkpt lat="50.332098" lon="-122.4680276">
      </trkpt>
      <trkpt lat="50.3311778" lon="-122.4677344">
      </trkpt>
      <trkpt lat="50.3304135" lon="-122.467881">
      </trkpt>
      <trkpt lat="50.3292437" lon="-122.4681009">
      </trkpt>
      <trkpt lat="50.3286353" lon="-122.4685896">
      </trkpt>
      <trkpt lat="50.328339" lon="-122.4691027">
      </trkpt>
      <trkpt lat="50.3279178" lon="-122.4704954">
      </trkpt>
      <trkpt lat="50.3275592" lon="-122.4730882">
      </trkpt>
    </trkseg>
    <trkseg>
      <trkpt lat="50.3495498" lon="-122.4784261">
      </trkpt>
      <trkpt lat="50.3441062" lon="-122.4758953">
      </trkpt>
      <trkpt lat="50.343194" lon="-122.4755655">
      </trkpt>
      <trkpt lat="50.3426482" lon="-122.4752845">
      </trkpt>
      <trkpt lat="50.342502" lon="-122.475183">
      </trkpt>
    </trkseg>
  </trk>
</gpx>