<?xml version="1.0" encoding="UTF-8"?>
<gpx xmlns="http://www.topografix.com/GPX/1/1" xmlns:xsi="http://www.w3.org/2001/XMLSchema-instance" xsi:schemaLocation="http://www.topografix.com/GPX/1/1 http://www.topografix.com/GPX/1/1/gpx.xsd" version="1.1" creator="gpx.py -- https://github.com/tkrajina/gpxpy">
  <trk>
    <name>North Side Trail</name>
    <trkseg>
      <trkpt lat="48.7778658" lon="-123.9386999">
      </trkpt>
      <trkpt lat="48.7778298" lon="-123.9386194">
      </trkpt>
      <trkpt lat="48.7777218" lon="-123.9385212">
      </trkpt>
      <trkpt lat="48.7775128" lon="-123.9383415">
      </trkpt>
      <trkpt lat="48.7774364" lon="-123.9382353">
      </trkpt>
      <trkpt lat="48.7772149" lon="-123.9380125">
      </trkpt>
      <trkpt lat="48.7770693" lon="-123.9379162">
      </trkpt>
      <trkpt lat="48.7769826" lon="-123.9378198">
      </trkpt>
      <trkpt lat="48.776787" lon="-123.9377296">
      </trkpt>
      <trkpt lat="48.7767447" lon="-123.937647">
      </trkpt>
      <trkpt lat="48.7765874" lon="-123.9374282">
      </trkpt>
      <trkpt lat="48.7765511" lon="-123.9372508">
      </trkpt>
      <trkpt lat="48.7765169" lon="-123.9372202">
      </trkpt>
      <trkpt lat="48.7763909" lon="-123.9370106">
      </trkpt>
      <trkpt lat="48.7760542" lon="-123.9366955">
      </trkpt>
      <trkpt lat="48.7759466" lon="-123.9365913">
      </trkpt>
      <trkpt lat="48.7755953" lon="-123.93645">
      </trkpt>
      <trkpt lat="48.7754453" lon="-123.9363329">
      </trkpt>
      <trkpt lat="48.7753011" lon="-123.9362289">
      </trkpt>
      <trkpt lat="48.775221" lon="-123.9361536">
      </trkpt>
      <trkpt lat="48.775107" lon="-123.9360283">
      </trkpt>
      <trkpt lat="48.7750329" lon="-123.9357667">
      </trkpt>
      <trkpt lat="48.7749995" lon="-123.9356036">
      </trkpt>
      <trkpt lat="48.7749753" lon="-123.9355111">
      </trkpt>
      <trkpt lat="48.774932" lon="-123.9353789">
      </trkpt>
      <trkpt lat="48.7749189" lon="-123.9352545">
      </trkpt>
      <trkpt lat="48.77489" lon="-123.9350934">
      </trkpt>
      <trkpt lat="48.7748841" lon="-123.934975">
      </trkpt>
      <trkpt lat="48.7748841" lon="-123.9347354">
      </trkpt>
      <trkpt lat="48.7748933" lon="-123.9346429">
      </trkpt>
      <trkpt lat="48.7749089" lon="-123.9345447">
      </trkpt>
      <trkpt lat="48.7750565" lon="-123.9343172">
      </trkpt>
      <trkpt lat="48.7751037" lon="-123.9341442">
      </trkpt>
      <trkpt lat="48.7751181" lon="-123.9339194">
      </trkpt>
      <trkpt lat="48.7751706" lon="-123.9337941">
      </trkpt>
      <trkpt lat="48.7752165" lon="-123.9335693">
      </trkpt>
      <trkpt lat="48.7752741" lon="-123.9334758">
      </trkpt>
      <trkpt lat="48.7753882" lon="-123.933261">
      </trkpt>
      <trkpt lat="48.7756872" lon="-123.9326922">
      </trkpt>
      <trkpt lat="48.7757185" lon="-123.9324116">
      </trkpt>
      <trkpt lat="48.7757408" lon="-123.9321072">
      </trkpt>
      <trkpt lat="48.7757172" lon="-123.931791">
      </trkpt>
      <trkpt lat="48.7756412" lon="-123.9315602">
      </trkpt>
      <trkpt lat="48.7756255" lon="-123.9313971">
      </trkpt>
      <trkpt lat="48.7756766" lon="-123.93124">
      </trkpt>
      <trkpt lat="48.7757434" lon="-123.9311644">
      </trkpt>
      <trkpt lat="48.7758052" lon="-123.9310722">
      </trkpt>
      <trkpt lat="48.7758745" lon="-123.9309893">
      </trkpt>
      <trkpt lat="48.7759211" lon="-123.9308779">
      </trkpt>
      <trkpt lat="48.7760118" lon="-123.9306469">
      </trkpt>
      <trkpt lat="48.7760384" lon="-123.930504">
      </trkpt>
      <trkpt lat="48.7760462" lon="-123.9303787">
      </trkpt>
      <trkpt lat="48.7760554" lon="-123.9302295">
      </trkpt>
      <trkpt lat="48.7760554" lon="-123.9301141">
      </trkpt>
      <trkpt lat="48.776058" lon="-123.9300087">
      </trkpt>
      <trkpt lat="48.7760672" lon="-123.9298635">
      </trkpt>
      <trkpt lat="48.7761126" lon="-123.9296251">
      </trkpt>
      <trkpt lat="48.7761433" lon="-123.9294437">
      </trkpt>
      <trkpt lat="48.7761852" lon="-123.9293841">
      </trkpt>
      <trkpt lat="48.7762416" lon="-123.9293282">
      </trkpt>
    </trkseg>
    <trkseg>
      <trkpt lat="48.7778848" lon="-123.9387424">
      </trkpt>
      <trkpt lat="48.7778658" lon="-123.9386999">
      </trkpt>
    </trkseg>
    <trkseg>
      <trkpt lat="48.7787796" lon="-123.9399425">
      </trkpt>
      <trkpt lat="48.7786257" lon="-123.9399194">
      </trkpt>
      <trkpt lat="48.7785199" lon="-123.9398528">
      </trkpt>
      <trkpt lat="48.7783671" lon="-123.9398">
      </trkpt>
      <trkpt lat="48.7782529" lon="-123.9396718">
      </trkpt>
      <trkpt lat="48.7780989" lon="-123.9394837">
      </trkpt>
      <trkpt lat="48.7780241" lon="-123.9393064">
      </trkpt>
      <trkpt lat="48.7778897" lon="-123.9389432">
      </trkpt>
      <trkpt lat="48.777869" lon="-123.9388353">
      </trkpt>
      <trkpt lat="48.7778848" lon="-123.9387424">
      </trkpt>
    </trkseg>
    <trkseg>
      <trkpt lat="48.7787796" lon="-123.9399425">
      </trkpt>
      <trkpt lat="48.7789747" lon="-123.9406158">
      </trkpt>
    </trkseg>
    <trkseg>
      <trkpt lat="48.7787616" lon="-123.9420284">
      </trkpt>
      <trkpt lat="48.7787871" lon="-123.9419258">
      </trkpt>
      <trkpt lat="48.7788277" lon="-123.9417889">
      </trkpt>
      <trkpt lat="48.7788712" lon="-123.9416896">
      </trkpt>
      <trkpt lat="48.7789224" lon="-123.9415643">
      </trkpt>
      <trkpt lat="48.7789632" lon="-123.9414574">
      </trkpt>
      <trkpt lat="48.7789675" lon="-123.9412561">
      </trkpt>
      <trkpt lat="48.7789171" lon="-123.9411148">
      </trkpt>
      <trkpt lat="48.778897" lon="-123.940978">
      </trkpt>
      <trkpt lat="48.7789337" lon="-123.9407419">
      </trkpt>
      <trkpt lat="48.7789747" lon="-123.9406158">
      </trkpt>
    </trkseg>
    <trkseg>
      <trkpt lat="48.7787461" lon="-123.9421091">
      </trkpt>
      <trkpt lat="48.7787616" lon="-123.9420284">
      </trkpt>
    </trkseg>
    <trkseg>
      <trkpt lat="48.7814766" lon="-123.9493337">
      </trkpt>
      <trkpt lat="48.7813228" lon="-123.9490733">
      </trkpt>
      <trkpt lat="48.7812463" lon="-123.9489501">
      </trkpt>
      <trkpt lat="48.7811467" lon="-123.9488805">
      </trkpt>
      <trkpt lat="48.7811127" lon="-123.948795">
      </trkpt>
      <trkpt lat="48.7811166" lon="-123.9487035">
      </trkpt>
      <trkpt lat="48.7810707" lon="-123.9486139">
      </trkpt>
      <trkpt lat="48.7809737" lon="-123.9485423">
      </trkpt>
      <trkpt lat="48.7808741" lon="-123.948421">
      </trkpt>
      <trkpt lat="48.7807692" lon="-123.948242">
      </trkpt>
      <trkpt lat="48.7806814" lon="-123.948055">
      </trkpt>
      <trkpt lat="48.7805931" lon="-123.9478055">
      </trkpt>
      <trkpt lat="48.7805983" lon="-123.9476003">
      </trkpt>
      <trkpt lat="48.7803909" lon="-123.9471282">
      </trkpt>
      <trkpt lat="48.7803462" lon="-123.9469599">
      </trkpt>
      <trkpt lat="48.7802183" lon="-123.9467428">
      </trkpt>
      <trkpt lat="48.7800826" lon="-123.9464448">
      </trkpt>
      <trkpt lat="48.7799422" lon="-123.9462121">
      </trkpt>
      <trkpt lat="48.7799235" lon="-123.9460942">
      </trkpt>
      <trkpt lat="48.7798801" lon="-123.9460832">
      </trkpt>
      <trkpt lat="48.7798131" lon="-123.9461025">
      </trkpt>
      <trkpt lat="48.779795" lon="-123.9461299">
      </trkpt>
      <trkpt lat="48.7797625" lon="-123.9462123">
      </trkpt>
      <trkpt lat="48.779725" lon="-123.9462646">
      </trkpt>
      <trkpt lat="48.7796485" lon="-123.9462891">
      </trkpt>
      <trkpt lat="48.7796241" lon="-123.9462919">
      </trkpt>
      <trkpt lat="48.7795961" lon="-123.9463358">
      </trkpt>
      <trkpt lat="48.7795536" lon="-123.9463413">
      </trkpt>
      <trkpt lat="48.7795289" lon="-123.9462488">
      </trkpt>
      <trkpt lat="48.7794198" lon="-123.9461415">
      </trkpt>
      <trkpt lat="48.7792303" lon="-123.9461026">
      </trkpt>
      <trkpt lat="48.7790541" lon="-123.9462959">
      </trkpt>
      <trkpt lat="48.7789485" lon="-123.9463535">
      </trkpt>
      <trkpt lat="48.7788883" lon="-123.9464124">
      </trkpt>
      <trkpt lat="48.7787807" lon="-123.9465708">
      </trkpt>
      <trkpt lat="48.7785676" lon="-123.9466752">
      </trkpt>
      <trkpt lat="48.7782161" lon="-123.9468222">
      </trkpt>
      <trkpt lat="48.7780586" lon="-123.9468184">
      </trkpt>
      <trkpt lat="48.7779273" lon="-123.9469043">
      </trkpt>
      <trkpt lat="48.777838" lon="-123.9470112">
      </trkpt>
      <trkpt lat="48.7777081" lon="-123.9472106">
      </trkpt>
      <trkpt lat="48.7775373" lon="-123.9472791">
      </trkpt>
      <trkpt lat="48.7773251" lon="-123.9474944">
      </trkpt>
      <trkpt lat="48.777238" lon="-123.9475796">
      </trkpt>
      <trkpt lat="48.7771711" lon="-123.947691">
      </trkpt>
      <trkpt lat="48.7771331" lon="-123.9477666">
      </trkpt>
      <trkpt lat="48.7770544" lon="-123.9480013">
      </trkpt>
      <trkpt lat="48.7769906" lon="-123.9482029">
      </trkpt>
      <trkpt lat="48.776905" lon="-123.9482997">
      </trkpt>
      <trkpt lat="48.7768231" lon="-123.9484318">
      </trkpt>
      <trkpt lat="48.7767543" lon="-123.9485006">
      </trkpt>
      <trkpt lat="48.7766402" lon="-123.9485384">
      </trkpt>
      <trkpt lat="48.7765026" lon="-123.9485583">
      </trkpt>
      <trkpt lat="48.7762902" lon="-123.9483932">
      </trkpt>
      <trkpt lat="48.7761014" lon="-123.9483056">
      </trkpt>
      <trkpt lat="48.7759101" lon="-123.9481704">
      </trkpt>
      <trkpt lat="48.775782" lon="-123.9480621">
      </trkpt>
      <trkpt lat="48.7756712" lon="-123.9479388">
      </trkpt>
      <trkpt lat="48.7756099" lon="-123.9478899">
      </trkpt>
      <trkpt lat="48.7755457" lon="-123.9477932">
      </trkpt>
      <trkpt lat="48.7754906" lon="-123.9475517">
      </trkpt>
      <trkpt lat="48.7753175" lon="-123.9473449">
      </trkpt>
      <trkpt lat="48.7752213" lon="-123.9472379">
      </trkpt>
      <trkpt lat="48.7751486" lon="-123.9471076">
      </trkpt>
      <trkpt lat="48.7750828" lon="-123.9470959">
      </trkpt>
      <trkpt lat="48.7750316" lon="-123.9471405">
      </trkpt>
      <trkpt lat="48.7749747" lon="-123.9469781">
      </trkpt>
      <trkpt lat="48.7749071" lon="-123.9466759">
      </trkpt>
      <trkpt lat="48.7748376" lon="-123.9465801">
      </trkpt>
      <trkpt lat="48.7748296" lon="-123.9464058">
      </trkpt>
      <trkpt lat="48.7747988" lon="-123.9463412">
      </trkpt>
      <trkpt lat="48.7747208" lon="-123.9462729">
      </trkpt>
      <trkpt lat="48.7746614" lon="-123.9461145">
      </trkpt>
      <trkpt lat="48.7746395" lon="-123.9460122">
      </trkpt>
      <trkpt lat="48.774563" lon="-123.9459307">
      </trkpt>
      <trkpt lat="48.7744298" lon="-123.9456814">
      </trkpt>
      <trkpt lat="48.774418" lon="-123.9454559">
      </trkpt>
      <trkpt lat="48.7743947" lon="-123.9452682">
      </trkpt>
      <trkpt lat="48.7744681" lon="-123.9449956">
      </trkpt>
      <trkpt lat="48.7744829" lon="-123.9445806">
      </trkpt>
      <trkpt lat="48.7745231" lon="-123.9443074">
      </trkpt>
      <trkpt lat="48.7745729" lon="-123.9441323">
      </trkpt>
      <trkpt lat="48.7746597" lon="-123.9439203">
      </trkpt>
      <trkpt lat="48.7747832" lon="-123.9436498">
      </trkpt>
      <trkpt lat="48.7748413" lon="-123.9434589">
      </trkpt>
      <trkpt lat="48.7749649" lon="-123.9433556">
      </trkpt>
      <trkpt lat="48.7751088" lon="-123.9433265">
      </trkpt>
      <trkpt lat="48.7752417" lon="-123.9433599">
      </trkpt>
      <trkpt lat="48.7752996" lon="-123.9435124">
      </trkpt>
      <trkpt lat="48.775362" lon="-123.9436025">
      </trkpt>
      <trkpt lat="48.7753979" lon="-123.943626">
      </trkpt>
      <trkpt lat="48.7754714" lon="-123.9435499">
      </trkpt>
      <trkpt lat="48.7755561" lon="-123.9434777">
      </trkpt>
      <trkpt lat="48.7757168" lon="-123.9433522">
      </trkpt>
      <trkpt lat="48.7758344" lon="-123.9432781">
      </trkpt>
      <trkpt lat="48.775956" lon="-123.9431578">
      </trkpt>
      <trkpt lat="48.7760508" lon="-123.9431204">
      </trkpt>
      <trkpt lat="48.7761479" lon="-123.9430821">
      </trkpt>
      <trkpt lat="48.7762047" lon="-123.9430675">
      </trkpt>
      <trkpt lat="48.7764461" lon="-123.9431032">
      </trkpt>
      <trkpt lat="48.7765882" lon="-123.9430579">
      </trkpt>
      <trkpt lat="48.7767373" lon="-123.9430556">
      </trkpt>
      <trkpt lat="48.776794" lon="-123.9430625">
      </trkpt>
      <trkpt lat="48.7768687" lon="-123.9430497">
      </trkpt>
      <trkpt lat="48.7769089" lon="-123.9430405">
      </trkpt>
      <trkpt lat="48.7769891" lon="-123.9428897">
      </trkpt>
      <trkpt lat="48.7770355" lon="-123.9428232">
      </trkpt>
      <trkpt lat="48.7770443" lon="-123.9426946">
      </trkpt>
      <trkpt lat="48.7770453" lon="-123.9426211">
      </trkpt>
      <trkpt lat="48.77708" lon="-123.942559">
      </trkpt>
      <trkpt lat="48.7771202" lon="-123.9425344">
      </trkpt>
      <trkpt lat="48.7771851" lon="-123.9425548">
      </trkpt>
      <trkpt lat="48.7772625" lon="-123.9425784">
      </trkpt>
      <trkpt lat="48.7773425" lon="-123.9425238">
      </trkpt>
      <trkpt lat="48.7774262" lon="-123.9425192">
      </trkpt>
      <trkpt lat="48.7775919" lon="-123.9423945">
      </trkpt>
      <trkpt lat="48.7777548" lon="-123.9423776">
      </trkpt>
      <trkpt lat="48.7778645" lon="-123.9424157">
      </trkpt>
      <trkpt lat="48.7781582" lon="-123.9424853">
      </trkpt>
      <trkpt lat="48.7783075" lon="-123.9424926">
      </trkpt>
      <trkpt lat="48.7783893" lon="-123.9424227">
      </trkpt>
      <trkpt lat="48.7785301" lon="-123.9424496">
      </trkpt>
      <trkpt lat="48.7786033" lon="-123.9423885">
      </trkpt>
      <trkpt lat="48.7786326" lon="-123.9422878">
      </trkpt>
      <trkpt lat="48.7787316" lon="-123.9422432">
      </trkpt>
      <trkpt lat="48.7787461" lon="-123.9421091">
      </trkpt>
    </trkseg>
  </trk>
</gpx>