<?xml version="1.0" encoding="UTF-8"?>
<gpx xmlns="http://www.topografix.com/GPX/1/1" xmlns:xsi="http://www.w3.org/2001/XMLSchema-instance" xsi:schemaLocation="http://www.topografix.com/GPX/1/1 http://www.topografix.com/GPX/1/1/gpx.xsd" version="1.1" creator="gpx.py -- https://github.com/tkrajina/gpxpy">
  <trk>
    <name>Haystack Lake Trail</name>
    <trkseg>
      <trkpt lat="49.52164624" lon="-116.48254606">
      </trkpt>
      <trkpt lat="49.52146999" lon="-116.48248483">
      </trkpt>
      <trkpt lat="49.52138163" lon="-116.4824522">
      </trkpt>
      <trkpt lat="49.52105226" lon="-116.48245532">
      </trkpt>
      <trkpt lat="49.52090309" lon="-116.4824171">
      </trkpt>
      <trkpt lat="49.52063802" lon="-116.48234916">
      </trkpt>
      <trkpt lat="49.5204951" lon="-116.482366">
      </trkpt>
      <trkpt lat="49.52025144" lon="-116.4823947">
      </trkpt>
      <trkpt lat="49.51978367" lon="-116.48238582">
      </trkpt>
      <trkpt lat="49.51937011" lon="-116.48243164">
      </trkpt>
      <trkpt lat="49.51875892" lon="-116.48253479">
      </trkpt>
      <trkpt lat="49.51840858" lon="-116.48263519">
      </trkpt>
      <trkpt lat="49.51820319" lon="-116.48278123">
      </trkpt>
      <trkpt lat="49.51811268" lon="-116.48284557">
      </trkpt>
      <trkpt lat="49.51778931" lon="-116.48294567">
      </trkpt>
      <trkpt lat="49.51736671" lon="-116.48297776">
      </trkpt>
      <trkpt lat="49.51695235" lon="-116.48284398">
      </trkpt>
      <trkpt lat="49.51660938" lon="-116.48258511">
      </trkpt>
      <trkpt lat="49.51660039" lon="-116.48258519">
      </trkpt>
      <trkpt lat="49.51634779" lon="-116.48242208">
      </trkpt>
      <trkpt lat="49.51608751" lon="-116.48254916">
      </trkpt>
      <trkpt lat="49.51582674" lon="-116.48256574">
      </trkpt>
      <trkpt lat="49.51577277" lon="-116.4825663">
      </trkpt>
      <trkpt lat="49.51543011" lon="-116.4823765">
      </trkpt>
      <trkpt lat="49.5151418" lon="-116.48226903">
      </trkpt>
      <trkpt lat="49.51477254" lon="-116.4821624">
      </trkpt>
      <trkpt lat="49.51444848" lon="-116.48211057">
      </trkpt>
      <trkpt lat="49.51411582" lon="-116.48214171">
      </trkpt>
      <trkpt lat="49.51376447" lon="-116.48202108">
      </trkpt>
      <trkpt lat="49.51357358" lon="-116.48191864">
      </trkpt>
      <trkpt lat="49.51351202" lon="-116.48188561">
      </trkpt>
      <trkpt lat="49.51340377" lon="-116.48181768">
      </trkpt>
      <trkpt lat="49.51308915" lon="-116.48186245">
      </trkpt>
      <trkpt lat="49.51256827" lon="-116.48204752">
      </trkpt>
      <trkpt lat="49.51186776" lon="-116.48228977">
      </trkpt>
      <trkpt lat="49.51175816" lon="-116.48234717">
      </trkpt>
      <trkpt lat="49.51108703" lon="-116.48269862">
      </trkpt>
      <trkpt lat="49.51093969" lon="-116.48277233">
      </trkpt>
      <trkpt lat="49.51029725" lon="-116.48309372">
      </trkpt>
      <trkpt lat="49.50988493" lon="-116.48341578">
      </trkpt>
      <trkpt lat="49.50950808" lon="-116.48362695">
      </trkpt>
      <trkpt lat="49.5092475" lon="-116.48368495">
      </trkpt>
      <trkpt lat="49.50890551" lon="-116.48364711">
      </trkpt>
      <trkpt lat="49.50861757" lon="-116.48362251">
      </trkpt>
      <trkpt lat="49.50836517" lon="-116.48350085">
      </trkpt>
      <trkpt lat="49.50814814" lon="-116.48324068">
      </trkpt>
      <trkpt lat="49.50795895" lon="-116.48317361">
      </trkpt>
      <trkpt lat="49.50788705" lon="-116.48318819">
      </trkpt>
      <trkpt lat="49.50767136" lon="-116.48323189">
      </trkpt>
      <trkpt lat="49.50760841" lon="-116.48323256">
      </trkpt>
      <trkpt lat="49.50737449" lon="-116.48322121">
      </trkpt>
      <trkpt lat="49.50718597" lon="-116.48330607">
      </trkpt>
      <trkpt lat="49.50715011" lon="-116.48333409">
      </trkpt>
      <trkpt lat="49.50688128" lon="-116.48355792">
      </trkpt>
      <trkpt lat="49.50660275" lon="-116.48362991">
      </trkpt>
      <trkpt lat="49.50632386" lon="-116.48361903">
      </trkpt>
      <trkpt lat="49.50605402" lon="-116.48362187">
      </trkpt>
      <trkpt lat="49.50567694" lon="-116.48377777">
      </trkpt>
      <trkpt lat="49.50535346" lon="-116.48385024">
      </trkpt>
      <trkpt lat="49.5050302" lon="-116.48397796">
      </trkpt>
      <trkpt lat="49.50468896" lon="-116.48410585">
      </trkpt>
      <trkpt lat="49.50432999" lon="-116.48428918">
      </trkpt>
      <trkpt lat="49.50396239" lon="-116.48455547">
      </trkpt>
      <trkpt lat="49.5036846" lon="-116.48479319">
      </trkpt>
      <trkpt lat="49.50336998" lon="-116.48483793">
      </trkpt>
      <trkpt lat="49.50312824" lon="-116.48508907">
      </trkpt>
      <trkpt lat="49.50276118" lon="-116.48547965">
      </trkpt>
      <trkpt lat="49.50245629" lon="-116.48569001">
      </trkpt>
      <trkpt lat="49.50216958" lon="-116.48594163">
      </trkpt>
      <trkpt lat="49.50200022" lon="-116.48628869">
      </trkpt>
      <trkpt lat="49.5018754" lon="-116.4865386">
      </trkpt>
      <trkpt lat="49.5015891" lon="-116.48688687">
      </trkpt>
      <trkpt lat="49.50141986" lon="-116.48726155">
      </trkpt>
      <trkpt lat="49.50116992" lon="-116.48769231">
      </trkpt>
      <trkpt lat="49.50102704" lon="-116.48792858">
      </trkpt>
      <trkpt lat="49.50077226" lon="-116.48818007">
      </trkpt>
      <trkpt lat="49.50075836" lon="-116.48819379">
      </trkpt>
      <trkpt lat="49.5004863" lon="-116.48841859">
      </trkpt>
      <trkpt lat="49.50045365" lon="-116.48844557">
      </trkpt>
      <trkpt lat="49.50000109" lon="-116.48884695">
      </trkpt>
      <trkpt lat="49.49999671" lon="-116.48885084">
      </trkpt>
      <trkpt lat="49.49970062" lon="-116.48901967">
      </trkpt>
      <trkpt lat="49.49957494" lon="-116.4890762">
      </trkpt>
      <trkpt lat="49.49941347" lon="-116.48917456">
      </trkpt>
      <trkpt lat="49.49933277" lon="-116.48923065">
      </trkpt>
      <trkpt lat="49.4991984" lon="-116.48935634">
      </trkpt>
      <trkpt lat="49.49910949" lon="-116.48959205">
      </trkpt>
      <trkpt lat="49.49906513" lon="-116.48973061">
      </trkpt>
      <trkpt lat="49.49894929" lon="-116.48998041">
      </trkpt>
      <trkpt lat="49.49888687" lon="-116.49010535">
      </trkpt>
      <trkpt lat="49.49869021" lon="-116.49038361">
      </trkpt>
      <trkpt lat="49.49853859" lon="-116.49067519">
      </trkpt>
      <trkpt lat="49.4984047" lon="-116.49091137">
      </trkpt>
      <trkpt lat="49.49819011" lon="-116.4912036">
      </trkpt>
      <trkpt lat="49.49803836" lon="-116.49146758">
      </trkpt>
      <trkpt lat="49.49795789" lon="-116.49157888">
      </trkpt>
      <trkpt lat="49.49773449" lon="-116.49191265">
      </trkpt>
      <trkpt lat="49.4976187" lon="-116.49217624">
      </trkpt>
      <trkpt lat="49.49752919" lon="-116.49227383">
      </trkpt>
      <trkpt lat="49.49737678" lon="-116.49238589">
      </trkpt>
      <trkpt lat="49.49723383" lon="-116.49260833">
      </trkpt>
      <trkpt lat="49.49701898" lon="-116.49284533">
      </trkpt>
      <trkpt lat="49.49683083" lon="-116.49301298">
      </trkpt>
      <trkpt lat="49.49673225" lon="-116.49309687">
      </trkpt>
      <trkpt lat="49.4965898" lon="-116.49342977">
      </trkpt>
      <trkpt lat="49.49657211" lon="-116.493499">
      </trkpt>
      <trkpt lat="49.49654567" lon="-116.49362356">
      </trkpt>
      <trkpt lat="49.496547" lon="-116.49392736">
      </trkpt>
      <trkpt lat="49.49654735" lon="-116.49401022">
      </trkpt>
      <trkpt lat="49.49652116" lon="-116.49419001">
      </trkpt>
      <trkpt lat="49.49645899" lon="-116.49437019">
      </trkpt>
      <trkpt lat="49.49636976" lon="-116.49453682">
      </trkpt>
      <trkpt lat="49.49614635" lon="-116.49487055">
      </trkpt>
      <trkpt lat="49.49607481" lon="-116.49496796">
      </trkpt>
      <trkpt lat="49.49598512" lon="-116.49502412">
      </trkpt>
      <trkpt lat="49.49588647" lon="-116.49509418">
      </trkpt>
      <trkpt lat="49.49568038" lon="-116.49527583">
      </trkpt>
      <trkpt lat="49.49560867" lon="-116.49533181">
      </trkpt>
      <trkpt lat="49.49540276" lon="-116.49555487">
      </trkpt>
      <trkpt lat="49.4953401" lon="-116.49562456">
      </trkpt>
      <trkpt lat="49.49514282" lon="-116.49576468">
      </trkpt>
      <trkpt lat="49.49493667" lon="-116.49593252">
      </trkpt>
      <trkpt lat="49.49483827" lon="-116.49605781">
      </trkpt>
      <trkpt lat="49.49475799" lon="-116.49621052">
      </trkpt>
      <trkpt lat="49.49467818" lon="-116.49647374">
      </trkpt>
      <trkpt lat="49.49459843" lon="-116.49675073">
      </trkpt>
      <trkpt lat="49.49456287" lon="-116.49684777">
      </trkpt>
      <trkpt lat="49.49449139" lon="-116.49695898">
      </trkpt>
      <trkpt lat="49.49433927" lon="-116.49714005">
      </trkpt>
      <trkpt lat="49.49425004" lon="-116.49730667">
      </trkpt>
      <trkpt lat="49.49413395" lon="-116.49750119">
      </trkpt>
      <trkpt lat="49.49402746" lon="-116.49783371">
      </trkpt>
      <trkpt lat="49.49384884" lon="-116.49812552">
      </trkpt>
      <trkpt lat="49.49367007" lon="-116.49838972">
      </trkpt>
      <trkpt lat="49.49349996" lon="-116.49857097">
      </trkpt>
      <trkpt lat="49.49342824" lon="-116.49862694">
      </trkpt>
      <trkpt lat="49.49321268" lon="-116.49869819">
      </trkpt>
      <trkpt lat="49.49300628" lon="-116.49881077">
      </trkpt>
      <trkpt lat="49.49279983" lon="-116.49890954">
      </trkpt>
      <trkpt lat="49.49263913" lon="-116.49918735">
      </trkpt>
      <trkpt lat="49.4925942" lon="-116.49920162">
      </trkpt>
      <trkpt lat="49.49250456" lon="-116.49927158">
      </trkpt>
      <trkpt lat="49.49232556" lon="-116.49948054">
      </trkpt>
      <trkpt lat="49.49217331" lon="-116.49963398">
      </trkpt>
      <trkpt lat="49.49216438" lon="-116.49964788">
      </trkpt>
      <trkpt lat="49.49199396" lon="-116.49976009">
      </trkpt>
      <trkpt lat="49.49176958" lon="-116.49987282">
      </trkpt>
      <trkpt lat="49.491662" lon="-116.49995678">
      </trkpt>
      <trkpt lat="49.49158135" lon="-116.50002665">
      </trkpt>
      <trkpt lat="49.49138413" lon="-116.50018055">
      </trkpt>
      <trkpt lat="49.4911869" lon="-116.50033444">
      </trkpt>
      <trkpt lat="49.49099888" lon="-116.50054433">
      </trkpt>
      <trkpt lat="49.49090941" lon="-116.50065513">
      </trkpt>
      <trkpt lat="49.49072135" lon="-116.50087848">
      </trkpt>
      <trkpt lat="49.49058744" lon="-116.50104539">
      </trkpt>
      <trkpt lat="49.49041712" lon="-116.50119895">
      </trkpt>
      <trkpt lat="49.49031835" lon="-116.50129595">
      </trkpt>
      <trkpt lat="49.49022017" lon="-116.50136665">
      </trkpt>
      <trkpt lat="49.49003172" lon="-116.50152049">
      </trkpt>
      <trkpt lat="49.48985267" lon="-116.50174196">
      </trkpt>
      <trkpt lat="49.48966493" lon="-116.502007">
      </trkpt>
      <trkpt lat="49.4894418" lon="-116.50234031">
      </trkpt>
      <trkpt lat="49.48936985" lon="-116.50243871">
      </trkpt>
      <trkpt lat="49.48928005" lon="-116.50250768">
      </trkpt>
      <trkpt lat="49.48910991" lon="-116.50260552">
      </trkpt>
      <trkpt lat="49.48893881" lon="-116.50260794">
      </trkpt>
      <trkpt lat="49.48879477" lon="-116.50259599">
      </trkpt>
      <trkpt lat="49.48861449" lon="-116.5025271">
      </trkpt>
      <trkpt lat="49.48838919" lon="-116.50237886">
      </trkpt>
      <trkpt lat="49.48826306" lon="-116.50232493">
      </trkpt>
      <trkpt lat="49.48766605" lon="-116.50307144">
      </trkpt>
      <trkpt lat="49.48759525" lon="-116.50336348">
      </trkpt>
      <trkpt lat="49.48752218" lon="-116.50355744">
      </trkpt>
      <trkpt lat="49.48739275" lon="-116.50407761">
      </trkpt>
      <trkpt lat="49.48727591" lon="-116.50454785">
      </trkpt>
      <trkpt lat="49.48716883" lon="-116.50504558">
      </trkpt>
      <trkpt lat="49.48706246" lon="-116.50576793">
      </trkpt>
      <trkpt lat="49.48701586" lon="-116.50631118">
      </trkpt>
      <trkpt lat="49.48703472" lon="-116.50692063">
      </trkpt>
      <trkpt lat="49.4870727" lon="-116.50717791">
      </trkpt>
      <trkpt lat="49.48721258" lon="-116.50749234">
      </trkpt>
      <trkpt lat="49.48734467" lon="-116.50767392">
      </trkpt>
      <trkpt lat="49.48762103" lon="-116.50796611">
      </trkpt>
      <trkpt lat="49.48782568" lon="-116.50812212">
      </trkpt>
      <trkpt lat="49.4880615" lon="-116.50824134">
      </trkpt>
      <trkpt lat="49.48836007" lon="-116.50831447">
      </trkpt>
      <trkpt lat="49.48863493" lon="-116.50834712">
      </trkpt>
      <trkpt lat="49.48865285" lon="-116.508332">
      </trkpt>
      <trkpt lat="49.48903393" lon="-116.50841423">
      </trkpt>
      <trkpt lat="49.4892879" lon="-116.50853235">
      </trkpt>
      <trkpt lat="49.48955655" lon="-116.50869155">
      </trkpt>
      <trkpt lat="49.48976565" lon="-116.50884039">
      </trkpt>
      <trkpt lat="49.48996651" lon="-116.50903185">
      </trkpt>
      <trkpt lat="49.49017072" lon="-116.50936348">
      </trkpt>
      <trkpt lat="49.49028708" lon="-116.50965119">
      </trkpt>
      <trkpt lat="49.49036009" lon="-116.50984335">
      </trkpt>
      <trkpt lat="49.49044047" lon="-116.51015437">
      </trkpt>
      <trkpt lat="49.4905535" lon="-116.51068803">
      </trkpt>
      <trkpt lat="49.49061712" lon="-116.51125974">
      </trkpt>
      <trkpt lat="49.49065566" lon="-116.51193115">
      </trkpt>
      <trkpt lat="49.49064314" lon="-116.51237412">
      </trkpt>
      <trkpt lat="49.49065914" lon="-116.51247145">
      </trkpt>
      <trkpt lat="49.49068791" lon="-116.51311551">
      </trkpt>
      <trkpt lat="49.49072156" lon="-116.51357664">
      </trkpt>
      <trkpt lat="49.49071234" lon="-116.51396326">
      </trkpt>
      <trkpt lat="49.49062831" lon="-116.51447376">
      </trkpt>
      <trkpt lat="49.49056991" lon="-116.51470881">
      </trkpt>
      <trkpt lat="49.49054306" lon="-116.51492801">
      </trkpt>
      <trkpt lat="49.49039308" lon="-116.51535123">
      </trkpt>
      <trkpt lat="49.49019715" lon="-116.51576306">
      </trkpt>
      <trkpt lat="49.49005183" lon="-116.51619297">
      </trkpt>
      <trkpt lat="49.48986295" lon="-116.51670968">
      </trkpt>
      <trkpt lat="49.48965594" lon="-116.51703791">
      </trkpt>
      <trkpt lat="49.48960761" lon="-116.51711805">
      </trkpt>
      <trkpt lat="49.48927894" lon="-116.51790984">
      </trkpt>
      <trkpt lat="49.48880554" lon="-116.51876645">
      </trkpt>
      <trkpt lat="49.48853407" lon="-116.51926706">
      </trkpt>
      <trkpt lat="49.48840688" lon="-116.51949222">
      </trkpt>
      <trkpt lat="49.48829142" lon="-116.51963493">
      </trkpt>
    </trkseg>
  </trk>
</gpx>