<?xml version="1.0" encoding="UTF-8"?>
<gpx xmlns="http://www.topografix.com/GPX/1/1" xmlns:xsi="http://www.w3.org/2001/XMLSchema-instance" xsi:schemaLocation="http://www.topografix.com/GPX/1/1 http://www.topografix.com/GPX/1/1/gpx.xsd" version="1.1" creator="gpx.py -- https://github.com/tkrajina/gpxpy">
  <trk>
    <name>Natural Arch Trail</name>
    <trkseg>
      <trkpt lat="53.18246805" lon="-119.90173829">
      </trkpt>
      <trkpt lat="53.18240917" lon="-119.90132354">
      </trkpt>
      <trkpt lat="53.18243701" lon="-119.90103278">
      </trkpt>
      <trkpt lat="53.18251858" lon="-119.90039975">
      </trkpt>
      <trkpt lat="53.18258772" lon="-119.90007914">
      </trkpt>
      <trkpt lat="53.18272407" lon="-119.89967713">
      </trkpt>
      <trkpt lat="53.18284853" lon="-119.89929874">
      </trkpt>
      <trkpt lat="53.18295669" lon="-119.89899637">
      </trkpt>
      <trkpt lat="53.18305541" lon="-119.89869537">
      </trkpt>
      <trkpt lat="53.18319729" lon="-119.89830847">
      </trkpt>
      <trkpt lat="53.18337324" lon="-119.89802817">
      </trkpt>
      <trkpt lat="53.18348759" lon="-119.89766117">
      </trkpt>
      <trkpt lat="53.18362246" lon="-119.89732309">
      </trkpt>
      <trkpt lat="53.18383085" lon="-119.89711772">
      </trkpt>
      <trkpt lat="53.18398088" lon="-119.89688894">
      </trkpt>
      <trkpt lat="53.18420082" lon="-119.89653853">
      </trkpt>
      <trkpt lat="53.18431856" lon="-119.89632008">
      </trkpt>
      <trkpt lat="53.18441717" lon="-119.89619478">
      </trkpt>
      <trkpt lat="53.18453537" lon="-119.89602036">
      </trkpt>
      <trkpt lat="53.1846617" lon="-119.89578927">
      </trkpt>
      <trkpt lat="53.18476919" lon="-119.89551462">
      </trkpt>
      <trkpt lat="53.18489911" lon="-119.89524599">
      </trkpt>
      <trkpt lat="53.18502686" lon="-119.89504243">
      </trkpt>
      <trkpt lat="53.18521073" lon="-119.89474748">
      </trkpt>
      <trkpt lat="53.18535136" lon="-119.89457908">
      </trkpt>
      <trkpt lat="53.18545905" lon="-119.89441543">
      </trkpt>
      <trkpt lat="53.18556172" lon="-119.89426178">
      </trkpt>
      <trkpt lat="53.18571191" lon="-119.89406422">
      </trkpt>
      <trkpt lat="53.18584752" lon="-119.8939058">
      </trkpt>
      <trkpt lat="53.18601417" lon="-119.89370586">
      </trkpt>
      <trkpt lat="53.1861672" lon="-119.89356342">
      </trkpt>
      <trkpt lat="53.18635771" lon="-119.89339703">
      </trkpt>
      <trkpt lat="53.18645368" lon="-119.89332763">
      </trkpt>
      <trkpt lat="53.186584" lon="-119.89328102">
      </trkpt>
      <trkpt lat="53.18669644" lon="-119.89320922">
      </trkpt>
      <trkpt lat="53.18681531" lon="-119.893155">
      </trkpt>
      <trkpt lat="53.1869022" lon="-119.89312391">
      </trkpt>
      <trkpt lat="53.18704019" lon="-119.89301142">
      </trkpt>
      <trkpt lat="53.18723022" lon="-119.89283584">
      </trkpt>
      <trkpt lat="53.18742575" lon="-119.89265948">
      </trkpt>
      <trkpt lat="53.18757708" lon="-119.89259131">
      </trkpt>
      <trkpt lat="53.18775967" lon="-119.89259266">
      </trkpt>
      <trkpt lat="53.18788783" lon="-119.89261113">
      </trkpt>
      <trkpt lat="53.18815038" lon="-119.89255462">
      </trkpt>
      <trkpt lat="53.18825876" lon="-119.89251118">
      </trkpt>
      <trkpt lat="53.18840318" lon="-119.89241624">
      </trkpt>
      <trkpt lat="53.18853974" lon="-119.89227617">
      </trkpt>
      <trkpt lat="53.18863286" lon="-119.89215163">
      </trkpt>
      <trkpt lat="53.18871716" lon="-119.8919636">
      </trkpt>
      <trkpt lat="53.18881245" lon="-119.89177397">
      </trkpt>
      <trkpt lat="53.18905859" lon="-119.89150698">
      </trkpt>
      <trkpt lat="53.18917366" lon="-119.89137927">
      </trkpt>
      <trkpt lat="53.1893477" lon="-119.89121525">
      </trkpt>
      <trkpt lat="53.1894907" lon="-119.89109276">
      </trkpt>
      <trkpt lat="53.18964135" lon="-119.89090436">
      </trkpt>
      <trkpt lat="53.18980753" lon="-119.89069521">
      </trkpt>
      <trkpt lat="53.18992355" lon="-119.89058586">
      </trkpt>
      <trkpt lat="53.19009352" lon="-119.8904502">
      </trkpt>
      <trkpt lat="53.19025942" lon="-119.89034289">
      </trkpt>
      <trkpt lat="53.19042174" lon="-119.89027311">
      </trkpt>
      <trkpt lat="53.19060554" lon="-119.89019097">
      </trkpt>
      <trkpt lat="53.19077694" lon="-119.89008285">
      </trkpt>
      <trkpt lat="53.19099678" lon="-119.88994922">
      </trkpt>
      <trkpt lat="53.19114385" lon="-119.88979836">
      </trkpt>
      <trkpt lat="53.19125085" lon="-119.88951447">
      </trkpt>
      <trkpt lat="53.19131007" lon="-119.88937632">
      </trkpt>
      <trkpt lat="53.191376" lon="-119.88915391">
      </trkpt>
      <trkpt lat="53.19140968" lon="-119.88905648">
      </trkpt>
      <trkpt lat="53.19144003" lon="-119.88889475">
      </trkpt>
      <trkpt lat="53.19147566" lon="-119.88862118">
      </trkpt>
      <trkpt lat="53.19152512" lon="-119.88840115">
      </trkpt>
      <trkpt lat="53.1915901" lon="-119.88816037">
      </trkpt>
      <trkpt lat="53.19168204" lon="-119.88790641">
      </trkpt>
      <trkpt lat="53.19174676" lon="-119.88776746">
      </trkpt>
      <trkpt lat="53.1918148" lon="-119.88769281">
      </trkpt>
      <trkpt lat="53.19191747" lon="-119.88753912">
      </trkpt>
      <trkpt lat="53.19197357" lon="-119.88744769">
      </trkpt>
      <trkpt lat="53.19204975" lon="-119.88731634">
      </trkpt>
      <trkpt lat="53.19213737" lon="-119.88719259">
      </trkpt>
      <trkpt lat="53.19228451" lon="-119.88705095">
      </trkpt>
      <trkpt lat="53.19300768" lon="-119.88502602">
      </trkpt>
      <trkpt lat="53.19335744" lon="-119.88323665">
      </trkpt>
      <trkpt lat="53.19431172" lon="-119.88105824">
      </trkpt>
      <trkpt lat="53.19494209" lon="-119.88002753">
      </trkpt>
      <trkpt lat="53.19547012" lon="-119.8789956">
      </trkpt>
      <trkpt lat="53.19594717" lon="-119.87673561">
      </trkpt>
      <trkpt lat="53.19629497" lon="-119.87534242">
      </trkpt>
      <trkpt lat="53.19664195" lon="-119.87411925">
      </trkpt>
      <trkpt lat="53.19716532" lon="-119.87167078">
      </trkpt>
      <trkpt lat="53.19752381" lon="-119.87039104">
      </trkpt>
      <trkpt lat="53.19805304" lon="-119.86909453">
      </trkpt>
      <trkpt lat="53.19897334" lon="-119.86683973">
      </trkpt>
      <trkpt lat="53.19947927" lon="-119.86563731">
      </trkpt>
      <trkpt lat="53.20006559" lon="-119.86449162">
      </trkpt>
      <trkpt lat="53.20000066" lon="-119.86098711">
      </trkpt>
      <trkpt lat="53.20012026" lon="-119.86098696">
      </trkpt>
      <trkpt lat="53.20027014" lon="-119.86077469">
      </trkpt>
      <trkpt lat="53.20039789" lon="-119.86039863">
      </trkpt>
      <trkpt lat="53.20050686" lon="-119.8599265">
      </trkpt>
      <trkpt lat="53.2004413" lon="-119.85956357">
      </trkpt>
      <trkpt lat="53.20039762" lon="-119.85938211">
      </trkpt>
      <trkpt lat="53.20048469" lon="-119.85887368">
      </trkpt>
      <trkpt lat="53.20057691" lon="-119.85850313">
      </trkpt>
      <trkpt lat="53.20063908" lon="-119.8581661">
      </trkpt>
      <trkpt lat="53.20069667" lon="-119.8578541">
      </trkpt>
      <trkpt lat="53.20082404" lon="-119.8576043">
      </trkpt>
      <trkpt lat="53.20072854" lon="-119.85742132">
      </trkpt>
      <trkpt lat="53.20068486" lon="-119.85713096">
      </trkpt>
      <trkpt lat="53.20072845" lon="-119.85694935">
      </trkpt>
      <trkpt lat="53.20090279" lon="-119.85658611">
      </trkpt>
      <trkpt lat="53.20136081" lon="-119.85644047">
      </trkpt>
      <trkpt lat="53.20156445" lon="-119.8562808">
      </trkpt>
      <trkpt lat="53.20176699" lon="-119.8564304">
      </trkpt>
      <trkpt lat="53.20250913" lon="-119.85590551">
      </trkpt>
      <trkpt lat="53.20272658" lon="-119.85583049">
      </trkpt>
      <trkpt lat="53.2029664" lon="-119.85551818">
      </trkpt>
      <trkpt lat="53.20314906" lon="-119.85505932">
      </trkpt>
      <trkpt lat="53.20335994" lon="-119.8550186">
      </trkpt>
      <trkpt lat="53.20349489" lon="-119.85493122">
      </trkpt>
      <trkpt lat="53.2038248" lon="-119.85489341">
      </trkpt>
      <trkpt lat="53.20404215" lon="-119.85470598">
      </trkpt>
      <trkpt lat="53.20402137" lon="-119.85440497">
      </trkpt>
      <trkpt lat="53.20413042" lon="-119.85425962">
      </trkpt>
      <trkpt lat="53.20445756" lon="-119.85429562">
      </trkpt>
      <trkpt lat="53.204763" lon="-119.8543679">
      </trkpt>
      <trkpt lat="53.20500289" lon="-119.85407724">
      </trkpt>
      <trkpt lat="53.20533095" lon="-119.85395586">
      </trkpt>
      <trkpt lat="53.20548265" lon="-119.85378629">
      </trkpt>
      <trkpt lat="53.20582562" lon="-119.85349365">
      </trkpt>
      <trkpt lat="53.2061143" lon="-119.85333109">
      </trkpt>
      <trkpt lat="53.20627909" lon="-119.85304378">
      </trkpt>
      <trkpt lat="53.20648914" lon="-119.85315603">
      </trkpt>
      <trkpt lat="53.20668213" lon="-119.85313162">
      </trkpt>
      <trkpt lat="53.20687906" lon="-119.85329281">
      </trkpt>
      <trkpt lat="53.2072916" lon="-119.85351713">
      </trkpt>
      <trkpt lat="53.20776861" lon="-119.85356624">
      </trkpt>
      <trkpt lat="53.20820484" lon="-119.85360223">
      </trkpt>
      <trkpt lat="53.20843289" lon="-119.85357843">
      </trkpt>
      <trkpt lat="53.2086192" lon="-119.85334756">
      </trkpt>
      <trkpt lat="53.20877191" lon="-119.85327482">
      </trkpt>
      <trkpt lat="53.2090266" lon="-119.85321595">
      </trkpt>
      <trkpt lat="53.2091208" lon="-119.85294771">
      </trkpt>
      <trkpt lat="53.2093039" lon="-119.85280376">
      </trkpt>
      <trkpt lat="53.2096637" lon="-119.85245378">
      </trkpt>
      <trkpt lat="53.21003785" lon="-119.85234734">
      </trkpt>
      <trkpt lat="53.21032027" lon="-119.85229289">
      </trkpt>
      <trkpt lat="53.21051774" lon="-119.85226575">
      </trkpt>
      <trkpt lat="53.21073873" lon="-119.85180994">
      </trkpt>
      <trkpt lat="53.21086625" lon="-119.85195954">
      </trkpt>
      <trkpt lat="53.21112048" lon="-119.85196564">
      </trkpt>
      <trkpt lat="53.21132299" lon="-119.85220262">
      </trkpt>
      <trkpt lat="53.21167908" lon="-119.85196504">
      </trkpt>
      <trkpt lat="53.21181028" lon="-119.8518589">
      </trkpt>
      <trkpt lat="53.21214018" lon="-119.85181483">
      </trkpt>
      <trkpt lat="53.21230505" lon="-119.85174621">
      </trkpt>
      <trkpt lat="53.21252247" lon="-119.851596">
      </trkpt>
      <trkpt lat="53.21284745" lon="-119.85129603">
      </trkpt>
      <trkpt lat="53.21324281" lon="-119.85109154">
      </trkpt>
      <trkpt lat="53.21377337" lon="-119.85096436">
      </trkpt>
      <trkpt lat="53.2142861" lon="-119.85067676">
      </trkpt>
      <trkpt lat="53.21453727" lon="-119.85053919">
      </trkpt>
      <trkpt lat="53.21489792" lon="-119.85053874">
      </trkpt>
      <trkpt lat="53.21522974" lon="-119.85058114">
      </trkpt>
      <trkpt lat="53.21535112" lon="-119.85060706">
      </trkpt>
      <trkpt lat="53.21566244" lon="-119.85080653">
      </trkpt>
      <trkpt lat="53.21599984" lon="-119.85078732">
      </trkpt>
      <trkpt lat="53.21618538" lon="-119.85077481">
      </trkpt>
      <trkpt lat="53.21639902" lon="-119.85054362">
      </trkpt>
      <trkpt lat="53.21662355" lon="-119.85033104">
      </trkpt>
      <trkpt lat="53.21677724" lon="-119.85031229">
      </trkpt>
      <trkpt lat="53.21691216" lon="-119.85022475">
      </trkpt>
      <trkpt lat="53.21714089" lon="-119.8502307">
      </trkpt>
      <trkpt lat="53.21751645" lon="-119.84995575">
      </trkpt>
      <trkpt lat="53.21776377" lon="-119.84973693">
      </trkpt>
      <trkpt lat="53.21817612" lon="-119.84943682">
      </trkpt>
      <trkpt lat="53.21831487" lon="-119.84953029">
      </trkpt>
      <trkpt lat="53.21848541" lon="-119.84952404">
      </trkpt>
      <trkpt lat="53.21889014" lon="-119.84913655">
      </trkpt>
      <trkpt lat="53.21927245" lon="-119.84883019">
      </trkpt>
      <trkpt lat="53.21937744" lon="-119.84883629">
      </trkpt>
      <trkpt lat="53.21953871" lon="-119.84897353">
      </trkpt>
    </trkseg>
  </trk>
</gpx>