<?xml version="1.0" encoding="UTF-8"?>
<gpx xmlns="http://www.topografix.com/GPX/1/1" xmlns:xsi="http://www.w3.org/2001/XMLSchema-instance" xsi:schemaLocation="http://www.topografix.com/GPX/1/1 http://www.topografix.com/GPX/1/1/gpx.xsd" version="1.1" creator="gpx.py -- https://github.com/tkrajina/gpxpy">
  <trk>
    <name>Onin Lake</name>
    <trkseg>
      <trkpt lat="54.31036246" lon="-128.54624954">
      </trkpt>
      <trkpt lat="54.31041122" lon="-128.54629532">
      </trkpt>
      <trkpt lat="54.31044677" lon="-128.54632237">
      </trkpt>
      <trkpt lat="54.31048528" lon="-128.54637242">
      </trkpt>
      <trkpt lat="54.31051483" lon="-128.54640857">
      </trkpt>
      <trkpt lat="54.31056102" lon="-128.54643282">
      </trkpt>
      <trkpt lat="54.31060175" lon="-128.54644709">
      </trkpt>
      <trkpt lat="54.31064397" lon="-128.54648283">
      </trkpt>
      <trkpt lat="54.31067544" lon="-128.54651564">
      </trkpt>
      <trkpt lat="54.31071585" lon="-128.54654258">
      </trkpt>
      <trkpt lat="54.31075899" lon="-128.5465342">
      </trkpt>
      <trkpt lat="54.31080453" lon="-128.54651679">
      </trkpt>
      <trkpt lat="54.31084468" lon="-128.54652191">
      </trkpt>
      <trkpt lat="54.31088144" lon="-128.54651635">
      </trkpt>
      <trkpt lat="54.31091695" lon="-128.5464813">
      </trkpt>
      <trkpt lat="54.31095694" lon="-128.54647325">
      </trkpt>
      <trkpt lat="54.3110062" lon="-128.54648379">
      </trkpt>
      <trkpt lat="54.31104707" lon="-128.54647712">
      </trkpt>
      <trkpt lat="54.31108149" lon="-128.54644988">
      </trkpt>
      <trkpt lat="54.31111074" lon="-128.54639956">
      </trkpt>
      <trkpt lat="54.31116331" lon="-128.54636084">
      </trkpt>
      <trkpt lat="54.31120667" lon="-128.54633395">
      </trkpt>
      <trkpt lat="54.31124725" lon="-128.54632728">
      </trkpt>
      <trkpt lat="54.31128947" lon="-128.54632229">
      </trkpt>
      <trkpt lat="54.31132599" lon="-128.54634803">
      </trkpt>
      <trkpt lat="54.31136289" lon="-128.54635398">
      </trkpt>
      <trkpt lat="54.31140131" lon="-128.54634256">
      </trkpt>
      <trkpt lat="54.31144322" lon="-128.5463363">
      </trkpt>
      <trkpt lat="54.31147972" lon="-128.54635512">
      </trkpt>
      <trkpt lat="54.31151531" lon="-128.54639378">
      </trkpt>
      <trkpt lat="54.31155095" lon="-128.54645409">
      </trkpt>
      <trkpt lat="54.31157334" lon="-128.54650709">
      </trkpt>
      <trkpt lat="54.31160406" lon="-128.54656342">
      </trkpt>
      <trkpt lat="54.31163067" lon="-128.5466296">
      </trkpt>
      <trkpt lat="54.31167108" lon="-128.54665646">
      </trkpt>
      <trkpt lat="54.31170902" lon="-128.54666334">
      </trkpt>
      <trkpt lat="54.31175233" lon="-128.54662216">
      </trkpt>
      <trkpt lat="54.3117539" lon="-128.54655994">
      </trkpt>
      <trkpt lat="54.31176117" lon="-128.54649883">
      </trkpt>
      <trkpt lat="54.31176399" lon="-128.54642292">
      </trkpt>
      <trkpt lat="54.31176815" lon="-128.5463569">
      </trkpt>
      <trkpt lat="54.31178495" lon="-128.54629921">
      </trkpt>
      <trkpt lat="54.31181632" lon="-128.54624">
      </trkpt>
      <trkpt lat="54.31184927" lon="-128.54619141">
      </trkpt>
      <trkpt lat="54.31188935" lon="-128.54620139">
      </trkpt>
      <trkpt lat="54.31192615" lon="-128.54620807">
      </trkpt>
      <trkpt lat="54.31197188" lon="-128.54618761">
      </trkpt>
      <trkpt lat="54.31201285" lon="-128.54616663">
      </trkpt>
      <trkpt lat="54.31205913" lon="-128.54615841">
      </trkpt>
      <trkpt lat="54.31209543" lon="-128.546172">
      </trkpt>
      <trkpt lat="54.31213612" lon="-128.54620614">
      </trkpt>
      <trkpt lat="54.31217205" lon="-128.54618501">
      </trkpt>
      <trkpt lat="54.31220634" lon="-128.54613656">
      </trkpt>
      <trkpt lat="54.3122368" lon="-128.54609247">
      </trkpt>
      <trkpt lat="54.31227708" lon="-128.54609161">
      </trkpt>
      <trkpt lat="54.31232779" lon="-128.5461043">
      </trkpt>
      <trkpt lat="54.3123758" lon="-128.54609025">
      </trkpt>
      <trkpt lat="54.31241463" lon="-128.5460536">
      </trkpt>
      <trkpt lat="54.31245381" lon="-128.54601968">
      </trkpt>
      <trkpt lat="54.31248191" lon="-128.54598124">
      </trkpt>
      <trkpt lat="54.31251665" lon="-128.54595548">
      </trkpt>
      <trkpt lat="54.31255397" lon="-128.54591485">
      </trkpt>
      <trkpt lat="54.31259727" lon="-128.54589486">
      </trkpt>
      <trkpt lat="54.31263461" lon="-128.5458918">
      </trkpt>
      <trkpt lat="54.31266736" lon="-128.54595164">
      </trkpt>
      <trkpt lat="54.31269494" lon="-128.54599158">
      </trkpt>
      <trkpt lat="54.31273143" lon="-128.54601647">
      </trkpt>
      <trkpt lat="54.3127682" lon="-128.54603329">
      </trkpt>
      <trkpt lat="54.31280932" lon="-128.546065">
      </trkpt>
      <trkpt lat="54.31284567" lon="-128.54609418">
      </trkpt>
      <trkpt lat="54.31288616" lon="-128.54610074">
      </trkpt>
      <trkpt lat="54.31292672" lon="-128.54611759">
      </trkpt>
      <trkpt lat="54.31297462" lon="-128.54614242">
      </trkpt>
      <trkpt lat="54.31301272" lon="-128.54618419">
      </trkpt>
      <trkpt lat="54.31304863" lon="-128.54619362">
      </trkpt>
      <trkpt lat="54.31308744" lon="-128.54617431">
      </trkpt>
      <trkpt lat="54.31313534" lon="-128.54617032">
      </trkpt>
      <trkpt lat="54.31317215" lon="-128.54620832">
      </trkpt>
      <trkpt lat="54.31322043" lon="-128.54621842">
      </trkpt>
      <trkpt lat="54.31326724" lon="-128.54623314">
      </trkpt>
      <trkpt lat="54.31331032" lon="-128.5462364">
      </trkpt>
      <trkpt lat="54.31335538" lon="-128.54626167">
      </trkpt>
      <trkpt lat="54.31340283" lon="-128.54628183">
      </trkpt>
      <trkpt lat="54.3134452" lon="-128.54629125">
      </trkpt>
      <trkpt lat="54.31349155" lon="-128.54629356">
      </trkpt>
      <trkpt lat="54.31353015" lon="-128.5462791">
      </trkpt>
      <trkpt lat="54.31356885" lon="-128.5462627">
      </trkpt>
      <trkpt lat="54.31358616" lon="-128.5461991">
      </trkpt>
      <trkpt lat="54.31358046" lon="-128.54613404">
      </trkpt>
      <trkpt lat="54.31356625" lon="-128.54605726">
      </trkpt>
      <trkpt lat="54.31354633" lon="-128.54600038">
      </trkpt>
      <trkpt lat="54.31353214" lon="-128.54592899">
      </trkpt>
      <trkpt lat="54.31352077" lon="-128.54586684">
      </trkpt>
      <trkpt lat="54.3134996" lon="-128.54579341">
      </trkpt>
      <trkpt lat="54.31347805" lon="-128.54573884">
      </trkpt>
      <trkpt lat="54.31344359" lon="-128.54570037">
      </trkpt>
      <trkpt lat="54.31341406" lon="-128.54565106">
      </trkpt>
      <trkpt lat="54.31339914" lon="-128.5455875">
      </trkpt>
      <trkpt lat="54.31343639" lon="-128.54560482">
      </trkpt>
      <trkpt lat="54.31347244" lon="-128.54562074">
      </trkpt>
      <trkpt lat="54.31351698" lon="-128.54563836">
      </trkpt>
      <trkpt lat="54.31355632" lon="-128.5456252">
      </trkpt>
      <trkpt lat="54.31358578" lon="-128.54558756">
      </trkpt>
      <trkpt lat="54.31361324" lon="-128.5455291">
      </trkpt>
      <trkpt lat="54.31365565" lon="-128.54546407">
      </trkpt>
      <trkpt lat="54.31368664" lon="-128.54540893">
      </trkpt>
      <trkpt lat="54.31368029" lon="-128.54534777">
      </trkpt>
      <trkpt lat="54.31365878" lon="-128.54529752">
      </trkpt>
      <trkpt lat="54.31362179" lon="-128.54526633">
      </trkpt>
      <trkpt lat="54.31358108" lon="-128.54525517">
      </trkpt>
      <trkpt lat="54.31354637" lon="-128.54521569">
      </trkpt>
      <trkpt lat="54.31358985" lon="-128.54524016">
      </trkpt>
      <trkpt lat="54.31362659" lon="-128.54524065">
      </trkpt>
      <trkpt lat="54.31366715" lon="-128.54523825">
      </trkpt>
      <trkpt lat="54.3137064" lon="-128.54522705">
      </trkpt>
      <trkpt lat="54.313748" lon="-128.54520127">
      </trkpt>
      <trkpt lat="54.31378775" lon="-128.54517966">
      </trkpt>
      <trkpt lat="54.31382601" lon="-128.54516598">
      </trkpt>
      <trkpt lat="54.31386322" lon="-128.5451572">
      </trkpt>
      <trkpt lat="54.31390124" lon="-128.54517356">
      </trkpt>
      <trkpt lat="54.31393189" lon="-128.54512728">
      </trkpt>
      <trkpt lat="54.31391066" lon="-128.54507532">
      </trkpt>
      <trkpt lat="54.31391018" lon="-128.54499626">
      </trkpt>
      <trkpt lat="54.31391029" lon="-128.54492626">
      </trkpt>
      <trkpt lat="54.31392802" lon="-128.54484218">
      </trkpt>
      <trkpt lat="54.31392689" lon="-128.54478004">
      </trkpt>
      <trkpt lat="54.31395414" lon="-128.54471836">
      </trkpt>
      <trkpt lat="54.3139944" lon="-128.54471038">
      </trkpt>
      <trkpt lat="54.31403175" lon="-128.54470941">
      </trkpt>
      <trkpt lat="54.31406855" lon="-128.5447175">
      </trkpt>
      <trkpt lat="54.3141055" lon="-128.54476577">
      </trkpt>
      <trkpt lat="54.31412771" lon="-128.54481531">
      </trkpt>
      <trkpt lat="54.31413917" lon="-128.54488313">
      </trkpt>
      <trkpt lat="54.31416648" lon="-128.5449232">
      </trkpt>
    </trkseg>
  </trk>
</gpx>