<?xml version="1.0" encoding="UTF-8"?>
<gpx xmlns="http://www.topografix.com/GPX/1/1" xmlns:xsi="http://www.w3.org/2001/XMLSchema-instance" xsi:schemaLocation="http://www.topografix.com/GPX/1/1 http://www.topografix.com/GPX/1/1/gpx.xsd" version="1.1" creator="gpx.py -- https://github.com/tkrajina/gpxpy">
  <trk>
    <name>Unnamed ski tour</name>
    <trkseg>
      <trkpt lat="51.6965964" lon="-116.9982362">
      </trkpt>
      <trkpt lat="51.695943" lon="-116.9974852">
      </trkpt>
      <trkpt lat="51.6956736" lon="-116.9971606">
      </trkpt>
      <trkpt lat="51.6954575" lon="-116.9968253">
      </trkpt>
      <trkpt lat="51.6953893" lon="-116.9966885">
      </trkpt>
      <trkpt lat="51.6953578" lon="-116.9963238">
      </trkpt>
      <trkpt lat="51.6953029" lon="-116.9954092">
      </trkpt>
      <trkpt lat="51.6950119" lon="-116.9945348">
      </trkpt>
      <trkpt lat="51.6949255" lon="-116.9937837">
      </trkpt>
      <trkpt lat="51.6947891" lon="-116.9933331">
      </trkpt>
      <trkpt lat="51.69444" lon="-116.9925928">
      </trkpt>
      <trkpt lat="51.6942538" lon="-116.9918847">
      </trkpt>
      <trkpt lat="51.6939612" lon="-116.9912732">
      </trkpt>
      <trkpt lat="51.6935489" lon="-116.9905114">
      </trkpt>
      <trkpt lat="51.6930501" lon="-116.9893849">
      </trkpt>
      <trkpt lat="51.6925912" lon="-116.9884837">
      </trkpt>
      <trkpt lat="51.6920791" lon="-116.9874752">
      </trkpt>
    </trkseg>
    <trkseg>
      <trkpt lat="51.6965964" lon="-116.9982362">
      </trkpt>
      <trkpt lat="51.6967243" lon="-116.998381">
      </trkpt>
      <trkpt lat="51.6970585" lon="-116.9989148">
      </trkpt>
      <trkpt lat="51.6973627" lon="-116.9993359">
      </trkpt>
      <trkpt lat="51.6975888" lon="-116.9997758">
      </trkpt>
      <trkpt lat="51.6977684" lon="-117.0001674">
      </trkpt>
      <trkpt lat="51.6978947" lon="-117.000382">
      </trkpt>
      <trkpt lat="51.6979379" lon="-117.0005697">
      </trkpt>
      <trkpt lat="51.6979429" lon="-117.0006797">
      </trkpt>
      <trkpt lat="51.6979363" lon="-117.0007923">
      </trkpt>
      <trkpt lat="51.697918" lon="-117.0008862">
      </trkpt>
      <trkpt lat="51.697898" lon="-117.0009506">
      </trkpt>
      <trkpt lat="51.6979013" lon="-117.0010123">
      </trkpt>
      <trkpt lat="51.6979279" lon="-117.001082">
      </trkpt>
      <trkpt lat="51.6980327" lon="-117.0011276">
      </trkpt>
      <trkpt lat="51.6980743" lon="-117.0011598">
      </trkpt>
      <trkpt lat="51.6983004" lon="-117.0013583">
      </trkpt>
      <trkpt lat="51.6985896" lon="-117.0015943">
      </trkpt>
      <trkpt lat="51.6987326" lon="-117.0016694">
      </trkpt>
      <trkpt lat="51.6988257" lon="-117.0017928">
      </trkpt>
    </trkseg>
  </trk>
</gpx>