<?xml version="1.0" encoding="UTF-8"?>
<gpx xmlns="http://www.topografix.com/GPX/1/1" xmlns:xsi="http://www.w3.org/2001/XMLSchema-instance" xsi:schemaLocation="http://www.topografix.com/GPX/1/1 http://www.topografix.com/GPX/1/1/gpx.xsd" version="1.1" creator="gpx.py -- https://github.com/tkrajina/gpxpy">
  <trk>
    <name>Orange Trail</name>
    <trkseg>
      <trkpt lat="48.8211379" lon="-123.604179">
      </trkpt>
      <trkpt lat="48.8211489" lon="-123.6044581">
      </trkpt>
      <trkpt lat="48.8211757" lon="-123.60457">
      </trkpt>
      <trkpt lat="48.8213163" lon="-123.6045598">
      </trkpt>
      <trkpt lat="48.8213967" lon="-123.6045802">
      </trkpt>
      <trkpt lat="48.821477" lon="-123.6045496">
      </trkpt>
      <trkpt lat="48.8215909" lon="-123.6045293">
      </trkpt>
      <trkpt lat="48.8216779" lon="-123.6045903">
      </trkpt>
      <trkpt lat="48.8217583" lon="-123.6049057">
      </trkpt>
      <trkpt lat="48.8217717" lon="-123.6050379">
      </trkpt>
      <trkpt lat="48.8218186" lon="-123.6051905">
      </trkpt>
      <trkpt lat="48.8218119" lon="-123.605343">
      </trkpt>
      <trkpt lat="48.8217315" lon="-123.6054549">
      </trkpt>
      <trkpt lat="48.8216579" lon="-123.6056685">
      </trkpt>
      <trkpt lat="48.8216579" lon="-123.6058109">
      </trkpt>
      <trkpt lat="48.8216712" lon="-123.6059432">
      </trkpt>
      <trkpt lat="48.8216712" lon="-123.6060245">
      </trkpt>
      <trkpt lat="48.8216846" lon="-123.6062178">
      </trkpt>
      <trkpt lat="48.8217583" lon="-123.6063297">
      </trkpt>
      <trkpt lat="48.8219123" lon="-123.6063093">
      </trkpt>
      <trkpt lat="48.821986" lon="-123.60635">
      </trkpt>
      <trkpt lat="48.8221668" lon="-123.6064212">
      </trkpt>
      <trkpt lat="48.822207" lon="-123.6066246">
      </trkpt>
      <trkpt lat="48.8223276" lon="-123.6067162">
      </trkpt>
      <trkpt lat="48.8224749" lon="-123.6067162">
      </trkpt>
      <trkpt lat="48.822582" lon="-123.6066552">
      </trkpt>
      <trkpt lat="48.8227628" lon="-123.606706">
      </trkpt>
      <trkpt lat="48.82287" lon="-123.6068383">
      </trkpt>
      <trkpt lat="48.8230173" lon="-123.6069298">
      </trkpt>
      <trkpt lat="48.823024" lon="-123.6070824">
      </trkpt>
      <trkpt lat="48.8231379" lon="-123.6071434">
      </trkpt>
      <trkpt lat="48.8233723" lon="-123.6069298">
      </trkpt>
      <trkpt lat="48.8235933" lon="-123.6068484">
      </trkpt>
      <trkpt lat="48.8237808" lon="-123.6067467">
      </trkpt>
      <trkpt lat="48.8240085" lon="-123.6066246">
      </trkpt>
      <trkpt lat="48.8242629" lon="-123.6064924">
      </trkpt>
      <trkpt lat="48.8244973" lon="-123.6061466">
      </trkpt>
      <trkpt lat="48.8246045" lon="-123.6058516">
      </trkpt>
      <trkpt lat="48.8247049" lon="-123.6057397">
      </trkpt>
      <trkpt lat="48.8247652" lon="-123.6054549">
      </trkpt>
      <trkpt lat="48.824812" lon="-123.6052515">
      </trkpt>
      <trkpt lat="48.8249728" lon="-123.6050989">
      </trkpt>
      <trkpt lat="48.8250665" lon="-123.6050175">
      </trkpt>
      <trkpt lat="48.8251188" lon="-123.6051242">
      </trkpt>
    </trkseg>
    <trkseg>
      <trkpt lat="48.8250129" lon="-123.606055">
      </trkpt>
      <trkpt lat="48.8250104" lon="-123.6056705">
      </trkpt>
      <trkpt lat="48.8250346" lon="-123.6053843">
      </trkpt>
      <trkpt lat="48.8251188" lon="-123.6051242">
      </trkpt>
    </trkseg>
    <trkseg>
      <trkpt lat="48.8250129" lon="-123.606055">
      </trkpt>
      <trkpt lat="48.8250732" lon="-123.6061669">
      </trkpt>
      <trkpt lat="48.8251603" lon="-123.6061262">
      </trkpt>
      <trkpt lat="48.8252875" lon="-123.6060245">
      </trkpt>
      <trkpt lat="48.8253344" lon="-123.6059126">
      </trkpt>
      <trkpt lat="48.8253946" lon="-123.6056889">
      </trkpt>
      <trkpt lat="48.8255554" lon="-123.6054854">
      </trkpt>
      <trkpt lat="48.8256357" lon="-123.6055566">
      </trkpt>
      <trkpt lat="48.825696" lon="-123.605638">
      </trkpt>
      <trkpt lat="48.825763" lon="-123.6057092">
      </trkpt>
      <trkpt lat="48.8258165" lon="-123.6057906">
      </trkpt>
      <trkpt lat="48.8258835" lon="-123.6058516">
      </trkpt>
      <trkpt lat="48.8258835" lon="-123.6059737">
      </trkpt>
      <trkpt lat="48.8259505" lon="-123.6061161">
      </trkpt>
      <trkpt lat="48.8259638" lon="-123.6062483">
      </trkpt>
      <trkpt lat="48.8260844" lon="-123.6066043">
      </trkpt>
      <trkpt lat="48.8260442" lon="-123.6070112">
      </trkpt>
      <trkpt lat="48.8259772" lon="-123.6070417">
      </trkpt>
      <trkpt lat="48.8260911" lon="-123.6073468">
      </trkpt>
      <trkpt lat="48.8260777" lon="-123.6074994">
      </trkpt>
      <trkpt lat="48.8261447" lon="-123.607713">
      </trkpt>
      <trkpt lat="48.8261447" lon="-123.6078758">
      </trkpt>
      <trkpt lat="48.8262183" lon="-123.6081097">
      </trkpt>
      <trkpt lat="48.826292" lon="-123.6082724">
      </trkpt>
      <trkpt lat="48.8264996" lon="-123.6088014">
      </trkpt>
      <trkpt lat="48.8265732" lon="-123.6088827">
      </trkpt>
      <trkpt lat="48.8266871" lon="-123.6089438">
      </trkpt>
      <trkpt lat="48.826754" lon="-123.6091981">
      </trkpt>
      <trkpt lat="48.8268746" lon="-123.6092489">
      </trkpt>
      <trkpt lat="48.8269616" lon="-123.6093303">
      </trkpt>
      <trkpt lat="48.8270487" lon="-123.6094015">
      </trkpt>
      <trkpt lat="48.8271491" lon="-123.6093913">
      </trkpt>
      <trkpt lat="48.827196" lon="-123.6095947">
      </trkpt>
      <trkpt lat="48.8273031" lon="-123.6097677">
      </trkpt>
      <trkpt lat="48.8273299" lon="-123.6096659">
      </trkpt>
      <trkpt lat="48.8273835" lon="-123.6097677">
      </trkpt>
      <trkpt lat="48.827437" lon="-123.6097778">
      </trkpt>
      <trkpt lat="48.8275777" lon="-123.6100321">
      </trkpt>
      <trkpt lat="48.8276915" lon="-123.6099202">
      </trkpt>
      <trkpt lat="48.8277384" lon="-123.609727">
      </trkpt>
      <trkpt lat="48.8278857" lon="-123.6096965">
      </trkpt>
      <trkpt lat="48.8279593" lon="-123.6096049">
      </trkpt>
      <trkpt lat="48.8280397" lon="-123.6096456">
      </trkpt>
      <trkpt lat="48.8282138" lon="-123.6098694">
      </trkpt>
      <trkpt lat="48.8283812" lon="-123.6101338">
      </trkpt>
      <trkpt lat="48.8283745" lon="-123.6102254">
      </trkpt>
      <trkpt lat="48.8284482" lon="-123.6102966">
      </trkpt>
      <trkpt lat="48.8286424" lon="-123.6103373">
      </trkpt>
      <trkpt lat="48.8287897" lon="-123.6102864">
      </trkpt>
      <trkpt lat="48.8289035" lon="-123.6102152">
      </trkpt>
      <trkpt lat="48.8290642" lon="-123.6101949">
      </trkpt>
      <trkpt lat="48.8291513" lon="-123.6103068">
      </trkpt>
      <trkpt lat="48.8292852" lon="-123.6102152">
      </trkpt>
      <trkpt lat="48.8293187" lon="-123.6100118">
      </trkpt>
      <trkpt lat="48.8293053" lon="-123.6096863">
      </trkpt>
      <trkpt lat="48.829312" lon="-123.6091981">
      </trkpt>
      <trkpt lat="48.8292718" lon="-123.6090251">
      </trkpt>
      <trkpt lat="48.8291446" lon="-123.6086284">
      </trkpt>
      <trkpt lat="48.8291713" lon="-123.6083131">
      </trkpt>
      <trkpt lat="48.8291646" lon="-123.607947">
      </trkpt>
      <trkpt lat="48.8291245" lon="-123.6075706">
      </trkpt>
      <trkpt lat="48.8292048" lon="-123.6074485">
      </trkpt>
      <trkpt lat="48.829332" lon="-123.607418">
      </trkpt>
      <trkpt lat="48.8294727" lon="-123.6070824">
      </trkpt>
      <trkpt lat="48.8296334" lon="-123.6067569">
      </trkpt>
      <trkpt lat="48.8298008" lon="-123.6064721">
      </trkpt>
      <trkpt lat="48.8299481" lon="-123.6062076">
      </trkpt>
      <trkpt lat="48.8300552" lon="-123.6058516">
      </trkpt>
      <trkpt lat="48.8299949" lon="-123.605699">
      </trkpt>
      <trkpt lat="48.8300016" lon="-123.6054549">
      </trkpt>
      <trkpt lat="48.8301423" lon="-123.6053125">
      </trkpt>
      <trkpt lat="48.8301356" lon="-123.6050481">
      </trkpt>
      <trkpt lat="48.8301222" lon="-123.6048039">
      </trkpt>
      <trkpt lat="48.8300686" lon="-123.6044886">
      </trkpt>
      <trkpt lat="48.8300954" lon="-123.604275">
      </trkpt>
      <trkpt lat="48.8300954" lon="-123.6040614">
      </trkpt>
      <trkpt lat="48.8300351" lon="-123.603624">
      </trkpt>
      <trkpt lat="48.8299749" lon="-123.6035121">
      </trkpt>
      <trkpt lat="48.8299816" lon="-123.6032375">
      </trkpt>
      <trkpt lat="48.8300217" lon="-123.603146">
      </trkpt>
      <trkpt lat="48.8299615" lon="-123.6029425">
      </trkpt>
      <trkpt lat="48.8299414" lon="-123.6025662">
      </trkpt>
      <trkpt lat="48.829928" lon="-123.6021898">
      </trkpt>
      <trkpt lat="48.8298744" lon="-123.601783">
      </trkpt>
      <trkpt lat="48.8299548" lon="-123.6016202">
      </trkpt>
      <trkpt lat="48.8300485" lon="-123.6014575">
      </trkpt>
      <trkpt lat="48.8300083" lon="-123.6013761">
      </trkpt>
      <trkpt lat="48.8300217" lon="-123.6011422">
      </trkpt>
      <trkpt lat="48.8301289" lon="-123.6010405">
      </trkpt>
      <trkpt lat="48.8301757" lon="-123.6009387">
      </trkpt>
      <trkpt lat="48.8301423" lon="-123.6008675">
      </trkpt>
      <trkpt lat="48.8302159" lon="-123.6005522">
      </trkpt>
      <trkpt lat="48.8302963" lon="-123.6005319">
      </trkpt>
      <trkpt lat="48.8303565" lon="-123.6005827">
      </trkpt>
      <trkpt lat="48.8304436" lon="-123.6006743">
      </trkpt>
      <trkpt lat="48.8305172" lon="-123.6006234">
      </trkpt>
      <trkpt lat="48.8305574" lon="-123.6005014">
      </trkpt>
      <trkpt lat="48.8306846" lon="-123.6003081">
      </trkpt>
      <trkpt lat="48.8307248" lon="-123.5999826">
      </trkpt>
      <trkpt lat="48.8307851" lon="-123.5996978">
      </trkpt>
      <trkpt lat="48.8308788" lon="-123.599474">
      </trkpt>
      <trkpt lat="48.8308855" lon="-123.5991689">
      </trkpt>
      <trkpt lat="48.830915" lon="-123.5990858">
      </trkpt>
      <trkpt lat="48.8309324" lon="-123.5990367">
      </trkpt>
      <trkpt lat="48.8310998" lon="-123.5988739">
      </trkpt>
      <trkpt lat="48.8312538" lon="-123.5987925">
      </trkpt>
      <trkpt lat="48.8313006" lon="-123.5986603">
      </trkpt>
      <trkpt lat="48.8314278" lon="-123.5986298">
      </trkpt>
      <trkpt lat="48.8315551" lon="-123.5986908">
      </trkpt>
      <trkpt lat="48.831689" lon="-123.5989248">
      </trkpt>
      <trkpt lat="48.8317961" lon="-123.5990773">
      </trkpt>
      <trkpt lat="48.8318515" lon="-123.5990773">
      </trkpt>
      <trkpt lat="48.8320773" lon="-123.5990773">
      </trkpt>
      <trkpt lat="48.8321537" lon="-123.5991848">
      </trkpt>
      <trkpt lat="48.8323786" lon="-123.5993316">
      </trkpt>
      <trkpt lat="48.8325192" lon="-123.5996978">
      </trkpt>
      <trkpt lat="48.8325996" lon="-123.5997894">
      </trkpt>
      <trkpt lat="48.8326598" lon="-123.5999419">
      </trkpt>
      <trkpt lat="48.8329745" lon="-123.6001657">
      </trkpt>
      <trkpt lat="48.833075" lon="-123.6001148">
      </trkpt>
      <trkpt lat="48.8331687" lon="-123.6001352">
      </trkpt>
      <trkpt lat="48.8332357" lon="-123.6002471">
      </trkpt>
      <trkpt lat="48.8335369" lon="-123.6008065">
      </trkpt>
      <trkpt lat="48.8338516" lon="-123.6011523">
      </trkpt>
      <trkpt lat="48.8338516" lon="-123.6012337">
      </trkpt>
      <trkpt lat="48.833932" lon="-123.6013354">
      </trkpt>
      <trkpt lat="48.83424" lon="-123.6016711">
      </trkpt>
      <trkpt lat="48.8344944" lon="-123.6016914">
      </trkpt>
      <trkpt lat="48.8346618" lon="-123.6018949">
      </trkpt>
      <trkpt lat="48.8348894" lon="-123.6022305">
      </trkpt>
      <trkpt lat="48.8351037" lon="-123.6026069">
      </trkpt>
      <trkpt lat="48.8353581" lon="-123.6028103">
      </trkpt>
      <trkpt lat="48.8355522" lon="-123.60279">
      </trkpt>
      <trkpt lat="48.835733" lon="-123.6028815">
      </trkpt>
      <trkpt lat="48.8359673" lon="-123.6031053">
      </trkpt>
      <trkpt lat="48.8361347" lon="-123.6033901">
      </trkpt>
      <trkpt lat="48.8363088" lon="-123.6037664">
      </trkpt>
      <trkpt lat="48.8362887" lon="-123.6039699">
      </trkpt>
      <trkpt lat="48.8362418" lon="-123.604509">
      </trkpt>
      <trkpt lat="48.836282" lon="-123.6047938">
      </trkpt>
      <trkpt lat="48.8364695" lon="-123.6049667">
      </trkpt>
      <trkpt lat="48.8366184" lon="-123.6052021">
      </trkpt>
    </trkseg>
  </trk>
</gpx>