<?xml version="1.0" encoding="UTF-8"?>
<gpx xmlns="http://www.topografix.com/GPX/1/1" xmlns:xsi="http://www.w3.org/2001/XMLSchema-instance" xsi:schemaLocation="http://www.topografix.com/GPX/1/1 http://www.topografix.com/GPX/1/1/gpx.xsd" version="1.1" creator="gpx.py -- https://github.com/tkrajina/gpxpy">
  <trk>
    <name>Duncan Totem Tour Path</name>
    <trkseg>
      <trkpt lat="48.7775455" lon="-123.7064943">
      </trkpt>
      <trkpt lat="48.7775155" lon="-123.7067381">
      </trkpt>
    </trkseg>
    <trkseg>
      <trkpt lat="48.7775155" lon="-123.7067381">
      </trkpt>
      <trkpt lat="48.7778046" lon="-123.7068772">
      </trkpt>
    </trkseg>
    <trkseg>
      <trkpt lat="48.7778046" lon="-123.7068772">
      </trkpt>
      <trkpt lat="48.7777948" lon="-123.7069356">
      </trkpt>
      <trkpt lat="48.7777848" lon="-123.7069949">
      </trkpt>
    </trkseg>
    <trkseg>
      <trkpt lat="48.7777848" lon="-123.7069949">
      </trkpt>
      <trkpt lat="48.7777769" lon="-123.7070423">
      </trkpt>
      <trkpt lat="48.7777685" lon="-123.7070904">
      </trkpt>
      <trkpt lat="48.7777651" lon="-123.7073694">
      </trkpt>
      <trkpt lat="48.777757" lon="-123.707564">
      </trkpt>
      <trkpt lat="48.7777552" lon="-123.7076741">
      </trkpt>
      <trkpt lat="48.7777542" lon="-123.7078226">
      </trkpt>
      <trkpt lat="48.7777572" lon="-123.7080447">
      </trkpt>
      <trkpt lat="48.7777528" lon="-123.708241">
      </trkpt>
      <trkpt lat="48.7777301" lon="-123.7091065">
      </trkpt>
    </trkseg>
    <trkseg>
      <trkpt lat="48.7777301" lon="-123.7091065">
      </trkpt>
      <trkpt lat="48.7777304" lon="-123.7096354">
      </trkpt>
      <trkpt lat="48.7777292" lon="-123.7099288">
      </trkpt>
      <trkpt lat="48.7776288" lon="-123.7099281">
      </trkpt>
    </trkseg>
    <trkseg>
      <trkpt lat="48.7776288" lon="-123.7099281">
      </trkpt>
      <trkpt lat="48.7776001" lon="-123.7098252">
      </trkpt>
      <trkpt lat="48.7775731" lon="-123.7097273">
      </trkpt>
    </trkseg>
    <trkseg>
      <trkpt lat="48.7775731" lon="-123.7097273">
      </trkpt>
      <trkpt lat="48.777519" lon="-123.7097655">
      </trkpt>
      <trkpt lat="48.7774789" lon="-123.7097934">
      </trkpt>
    </trkseg>
    <trkseg>
      <trkpt lat="48.7774789" lon="-123.7097934">
      </trkpt>
      <trkpt lat="48.7775017" lon="-123.7098861">
      </trkpt>
      <trkpt lat="48.7775616" lon="-123.710107">
      </trkpt>
      <trkpt lat="48.7775591" lon="-123.7102074">
      </trkpt>
      <trkpt lat="48.7775655" lon="-123.7103944">
      </trkpt>
      <trkpt lat="48.7775472" lon="-123.7104659">
      </trkpt>
      <trkpt lat="48.777564" lon="-123.710618">
      </trkpt>
    </trkseg>
    <trkseg>
      <trkpt lat="48.7773486" lon="-123.7106272">
      </trkpt>
      <trkpt lat="48.7774522" lon="-123.71062">
      </trkpt>
      <trkpt lat="48.777564" lon="-123.710618">
      </trkpt>
      <trkpt lat="48.7776255" lon="-123.7106527">
      </trkpt>
      <trkpt lat="48.7777234" lon="-123.7106278">
      </trkpt>
      <trkpt lat="48.7778567" lon="-123.7109669">
      </trkpt>
      <trkpt lat="48.7778855" lon="-123.7110262">
      </trkpt>
      <trkpt lat="48.7779265" lon="-123.7111107">
      </trkpt>
      <trkpt lat="48.7779491" lon="-123.7111167">
      </trkpt>
      <trkpt lat="48.7780694" lon="-123.711351">
      </trkpt>
      <trkpt lat="48.7783265" lon="-123.711926">
      </trkpt>
      <trkpt lat="48.7784084" lon="-123.7120284">
      </trkpt>
      <trkpt lat="48.7785406" lon="-123.7123068">
      </trkpt>
      <trkpt lat="48.7785696" lon="-123.7123948">
      </trkpt>
    </trkseg>
    <trkseg>
      <trkpt lat="48.7785696" lon="-123.7123948">
      </trkpt>
      <trkpt lat="48.7786" lon="-123.7123755">
      </trkpt>
      <trkpt lat="48.7786354" lon="-123.7123486">
      </trkpt>
    </trkseg>
    <trkseg>
      <trkpt lat="48.7786354" lon="-123.7123486">
      </trkpt>
      <trkpt lat="48.7785204" lon="-123.7121042">
      </trkpt>
      <trkpt lat="48.7785209" lon="-123.711883">
      </trkpt>
      <trkpt lat="48.7785224" lon="-123.7115996">
      </trkpt>
      <trkpt lat="48.7785174" lon="-123.7111979">
      </trkpt>
      <trkpt lat="48.7785212" lon="-123.7107652">
      </trkpt>
      <trkpt lat="48.7785248" lon="-123.7106192">
      </trkpt>
    </trkseg>
    <trkseg>
      <trkpt lat="48.7785248" lon="-123.7106192">
      </trkpt>
      <trkpt lat="48.7784623" lon="-123.7106172">
      </trkpt>
      <trkpt lat="48.7784124" lon="-123.710613">
      </trkpt>
    </trkseg>
    <trkseg>
      <trkpt lat="48.7784124" lon="-123.710613">
      </trkpt>
      <trkpt lat="48.778402" lon="-123.7105865">
      </trkpt>
      <trkpt lat="48.7784036" lon="-123.7105148">
      </trkpt>
    </trkseg>
    <trkseg>
      <trkpt lat="48.7784036" lon="-123.7105148">
      </trkpt>
      <trkpt lat="48.778403" lon="-123.7104739">
      </trkpt>
      <trkpt lat="48.7784028" lon="-123.7104246">
      </trkpt>
    </trkseg>
    <trkseg>
      <trkpt lat="48.7784028" lon="-123.7104246">
      </trkpt>
      <trkpt lat="48.7784131" lon="-123.7103975">
      </trkpt>
      <trkpt lat="48.7784221" lon="-123.7100364">
      </trkpt>
      <trkpt lat="48.7784259" lon="-123.7094494">
      </trkpt>
      <trkpt lat="48.7784267" lon="-123.7094159">
      </trkpt>
      <trkpt lat="48.7784331" lon="-123.7083741">
      </trkpt>
      <trkpt lat="48.7784334" lon="-123.7082658">
      </trkpt>
      <trkpt lat="48.7784353" lon="-123.7076905">
      </trkpt>
      <trkpt lat="48.7784502" lon="-123.7074846">
      </trkpt>
      <trkpt lat="48.7784552" lon="-123.7074699">
      </trkpt>
      <trkpt lat="48.7784596" lon="-123.7072797">
      </trkpt>
    </trkseg>
    <trkseg>
      <trkpt lat="48.7784596" lon="-123.7072797">
      </trkpt>
      <trkpt lat="48.7785067" lon="-123.707294">
      </trkpt>
      <trkpt lat="48.778576" lon="-123.7073135">
      </trkpt>
    </trkseg>
    <trkseg>
      <trkpt lat="48.778576" lon="-123.7073135">
      </trkpt>
      <trkpt lat="48.7785899" lon="-123.7072038">
      </trkpt>
      <trkpt lat="48.7786018" lon="-123.7071192">
      </trkpt>
    </trkseg>
    <trkseg>
      <trkpt lat="48.7786018" lon="-123.7071192">
      </trkpt>
      <trkpt lat="48.7783018" lon="-123.7069971">
      </trkpt>
      <trkpt lat="48.7782908" lon="-123.7069742">
      </trkpt>
    </trkseg>
    <trkseg>
      <trkpt lat="48.7782908" lon="-123.7069742">
      </trkpt>
      <trkpt lat="48.7782592" lon="-123.7069567">
      </trkpt>
      <trkpt lat="48.7782411" lon="-123.7069483">
      </trkpt>
    </trkseg>
    <trkseg>
      <trkpt lat="48.7782411" lon="-123.7069483">
      </trkpt>
      <trkpt lat="48.7782342" lon="-123.7069685">
      </trkpt>
      <trkpt lat="48.7782231" lon="-123.706987">
      </trkpt>
      <trkpt lat="48.7782027" lon="-123.7069943">
      </trkpt>
      <trkpt lat="48.7781826" lon="-123.7069899">
      </trkpt>
      <trkpt lat="48.778119" lon="-123.706972">
      </trkpt>
      <trkpt lat="48.7778046" lon="-123.7068772">
      </trkpt>
    </trkseg>
  </trk>
</gpx>