<?xml version="1.0" encoding="UTF-8"?>
<gpx xmlns="http://www.topografix.com/GPX/1/1" xmlns:xsi="http://www.w3.org/2001/XMLSchema-instance" xsi:schemaLocation="http://www.topografix.com/GPX/1/1 http://www.topografix.com/GPX/1/1/gpx.xsd" version="1.1" creator="gpx.py -- https://github.com/tkrajina/gpxpy">
  <trk>
    <name>Blue Trail</name>
    <trkseg>
      <trkpt lat="48.826087" lon="-123.5895872">
      </trkpt>
      <trkpt lat="48.826251" lon="-123.589499">
      </trkpt>
      <trkpt lat="48.826505" lon="-123.58914">
      </trkpt>
      <trkpt lat="48.826596" lon="-123.588891">
      </trkpt>
      <trkpt lat="48.826686" lon="-123.588784">
      </trkpt>
      <trkpt lat="48.826789" lon="-123.588738">
      </trkpt>
      <trkpt lat="48.826973" lon="-123.588745">
      </trkpt>
      <trkpt lat="48.827075" lon="-123.588771">
      </trkpt>
      <trkpt lat="48.827384" lon="-123.588957">
      </trkpt>
      <trkpt lat="48.827516" lon="-123.589085">
      </trkpt>
      <trkpt lat="48.827584" lon="-123.589205">
      </trkpt>
      <trkpt lat="48.827663" lon="-123.589408">
      </trkpt>
      <trkpt lat="48.827805" lon="-123.589574">
      </trkpt>
      <trkpt lat="48.827834" lon="-123.589637">
      </trkpt>
      <trkpt lat="48.82792" lon="-123.590033">
      </trkpt>
      <trkpt lat="48.827993" lon="-123.590154">
      </trkpt>
      <trkpt lat="48.828059" lon="-123.590192">
      </trkpt>
      <trkpt lat="48.828174" lon="-123.590197">
      </trkpt>
      <trkpt lat="48.8285943" lon="-123.5901488">
      </trkpt>
      <trkpt lat="48.828776" lon="-123.590128">
      </trkpt>
      <trkpt lat="48.828876" lon="-123.590183">
      </trkpt>
      <trkpt lat="48.828928" lon="-123.590176">
      </trkpt>
      <trkpt lat="48.829184" lon="-123.589977">
      </trkpt>
      <trkpt lat="48.829393" lon="-123.589928">
      </trkpt>
      <trkpt lat="48.829471" lon="-123.589929">
      </trkpt>
      <trkpt lat="48.829702" lon="-123.590017">
      </trkpt>
      <trkpt lat="48.829948" lon="-123.590056">
      </trkpt>
      <trkpt lat="48.830259" lon="-123.589992">
      </trkpt>
      <trkpt lat="48.830651" lon="-123.590032">
      </trkpt>
      <trkpt lat="48.831067" lon="-123.590162">
      </trkpt>
      <trkpt lat="48.831596" lon="-123.590286">
      </trkpt>
      <trkpt lat="48.832061" lon="-123.59046">
      </trkpt>
      <trkpt lat="48.832353" lon="-123.590604">
      </trkpt>
      <trkpt lat="48.832498" lon="-123.59075">
      </trkpt>
      <trkpt lat="48.832608" lon="-123.590831">
      </trkpt>
      <trkpt lat="48.832803" lon="-123.590888">
      </trkpt>
      <trkpt lat="48.832996" lon="-123.591067">
      </trkpt>
      <trkpt lat="48.83306" lon="-123.59115">
      </trkpt>
      <trkpt lat="48.83318" lon="-123.591393">
      </trkpt>
      <trkpt lat="48.833238" lon="-123.591464">
      </trkpt>
      <trkpt lat="48.833478" lon="-123.591587">
      </trkpt>
      <trkpt lat="48.834033" lon="-123.591757">
      </trkpt>
      <trkpt lat="48.834183" lon="-123.591843">
      </trkpt>
      <trkpt lat="48.8343478" lon="-123.5919528">
      </trkpt>
      <trkpt lat="48.8347641" lon="-123.5920785">
      </trkpt>
      <trkpt lat="48.8349557" lon="-123.5922223">
      </trkpt>
      <trkpt lat="48.8351237" lon="-123.5923768">
      </trkpt>
    </trkseg>
    <trkseg>
      <trkpt lat="48.8351237" lon="-123.5923768">
      </trkpt>
      <trkpt lat="48.8355613" lon="-123.5924954">
      </trkpt>
      <trkpt lat="48.8357481" lon="-123.5927541">
      </trkpt>
      <trkpt lat="48.8360462" lon="-123.5929913">
      </trkpt>
      <trkpt lat="48.8363749" lon="-123.5932033">
      </trkpt>
      <trkpt lat="48.8366257" lon="-123.593383">
      </trkpt>
      <trkpt lat="48.8371298" lon="-123.5932649">
      </trkpt>
    </trkseg>
    <trkseg>
      <trkpt lat="48.8371298" lon="-123.5932649">
      </trkpt>
      <trkpt lat="48.8375499" lon="-123.5933823">
      </trkpt>
      <trkpt lat="48.8378312" lon="-123.5934186">
      </trkpt>
      <trkpt lat="48.8380342" lon="-123.5933432">
      </trkpt>
      <trkpt lat="48.8381934" lon="-123.5932058">
      </trkpt>
      <trkpt lat="48.83832" lon="-123.5930863">
      </trkpt>
      <trkpt lat="48.8385233" lon="-123.5927933">
      </trkpt>
      <trkpt lat="48.8386761" lon="-123.5926351">
      </trkpt>
      <trkpt lat="48.8388154" lon="-123.5924917">
      </trkpt>
      <trkpt lat="48.8388866" lon="-123.5925056">
      </trkpt>
      <trkpt lat="48.8390073" lon="-123.5925482">
      </trkpt>
      <trkpt lat="48.8391706" lon="-123.5926943">
      </trkpt>
      <trkpt lat="48.8393335" lon="-123.5928536">
      </trkpt>
      <trkpt lat="48.8395143" lon="-123.5928831">
      </trkpt>
      <trkpt lat="48.8397071" lon="-123.5928491">
      </trkpt>
    </trkseg>
    <trkseg>
      <trkpt lat="48.8397071" lon="-123.5928491">
      </trkpt>
      <trkpt lat="48.8398483" lon="-123.592894">
      </trkpt>
      <trkpt lat="48.8399027" lon="-123.5930486">
      </trkpt>
      <trkpt lat="48.8399831" lon="-123.5934151">
      </trkpt>
      <trkpt lat="48.8399831" lon="-123.593796">
      </trkpt>
      <trkpt lat="48.8398648" lon="-123.5941194">
      </trkpt>
      <trkpt lat="48.8399783" lon="-123.59468">
      </trkpt>
      <trkpt lat="48.8399027" lon="-123.59491">
      </trkpt>
      <trkpt lat="48.8399736" lon="-123.5952191">
      </trkpt>
      <trkpt lat="48.8400588" lon="-123.5956431">
      </trkpt>
      <trkpt lat="48.8403051" lon="-123.5960225">
      </trkpt>
      <trkpt lat="48.8403664" lon="-123.5961806">
      </trkpt>
      <trkpt lat="48.8406203" lon="-123.5962798">
      </trkpt>
      <trkpt lat="48.8408928" lon="-123.5961194">
      </trkpt>
      <trkpt lat="48.8410258" lon="-123.5960902">
      </trkpt>
      <trkpt lat="48.841194" lon="-123.5962109">
      </trkpt>
      <trkpt lat="48.8413161" lon="-123.5964437">
      </trkpt>
      <trkpt lat="48.841498" lon="-123.5965499">
      </trkpt>
      <trkpt lat="48.8416047" lon="-123.5965099">
      </trkpt>
    </trkseg>
    <trkseg>
      <trkpt lat="48.8416047" lon="-123.5965099">
      </trkpt>
      <trkpt lat="48.8416676" lon="-123.596906">
      </trkpt>
      <trkpt lat="48.8418141" lon="-123.5970915">
      </trkpt>
      <trkpt lat="48.8419883" lon="-123.5971751">
      </trkpt>
      <trkpt lat="48.8420909" lon="-123.5974056">
      </trkpt>
      <trkpt lat="48.8423286" lon="-123.5975376">
      </trkpt>
      <trkpt lat="48.8425243" lon="-123.5974886">
      </trkpt>
      <trkpt lat="48.8426299" lon="-123.5975465">
      </trkpt>
      <trkpt lat="48.8427904" lon="-123.5975127">
      </trkpt>
      <trkpt lat="48.8428106" lon="-123.5975531">
      </trkpt>
      <trkpt lat="48.8428238" lon="-123.597745">
      </trkpt>
      <trkpt lat="48.8428925" lon="-123.5980953">
      </trkpt>
      <trkpt lat="48.8430291" lon="-123.5984831">
      </trkpt>
      <trkpt lat="48.843185" lon="-123.5988533">
      </trkpt>
      <trkpt lat="48.8433314" lon="-123.5989372">
      </trkpt>
      <trkpt lat="48.8435356" lon="-123.5990764">
      </trkpt>
      <trkpt lat="48.843575" lon="-123.5993123">
      </trkpt>
      <trkpt lat="48.843653" lon="-123.5994206">
      </trkpt>
      <trkpt lat="48.843721" lon="-123.5995313">
      </trkpt>
      <trkpt lat="48.8438517" lon="-123.5997891">
      </trkpt>
      <trkpt lat="48.8438386" lon="-123.6001173">
      </trkpt>
      <trkpt lat="48.8440079" lon="-123.6004479">
      </trkpt>
      <trkpt lat="48.8442667" lon="-123.6007376">
      </trkpt>
      <trkpt lat="48.8444341" lon="-123.6013949">
      </trkpt>
      <trkpt lat="48.8445301" lon="-123.6016278">
      </trkpt>
      <trkpt lat="48.8445655" lon="-123.6019339">
      </trkpt>
      <trkpt lat="48.8447344" lon="-123.6025458">
      </trkpt>
      <trkpt lat="48.8447531" lon="-123.6030632">
      </trkpt>
      <trkpt lat="48.8448556" lon="-123.6033625">
      </trkpt>
      <trkpt lat="48.8450146" lon="-123.6033826">
      </trkpt>
      <trkpt lat="48.8451963" lon="-123.6036297">
      </trkpt>
      <trkpt lat="48.8453209" lon="-123.6040445">
      </trkpt>
      <trkpt lat="48.8454449" lon="-123.6044486">
      </trkpt>
      <trkpt lat="48.8457173" lon="-123.6048298">
      </trkpt>
      <trkpt lat="48.8459258" lon="-123.6050861">
      </trkpt>
      <trkpt lat="48.8463978" lon="-123.6052935">
      </trkpt>
      <trkpt lat="48.8464684" lon="-123.6053791">
      </trkpt>
      <trkpt lat="48.8464567" lon="-123.6055441">
      </trkpt>
      <trkpt lat="48.8465584" lon="-123.6057651">
      </trkpt>
      <trkpt lat="48.8466467" lon="-123.605869">
      </trkpt>
      <trkpt lat="48.846763" lon="-123.6062035">
      </trkpt>
      <trkpt lat="48.8470545" lon="-123.6067148">
      </trkpt>
      <trkpt lat="48.8469398" lon="-123.6068483">
      </trkpt>
      <trkpt lat="48.84704" lon="-123.607361">
      </trkpt>
      <trkpt lat="48.8470746" lon="-123.6077125">
      </trkpt>
      <trkpt lat="48.8470842" lon="-123.6079331">
      </trkpt>
      <trkpt lat="48.8471833" lon="-123.6084068">
      </trkpt>
      <trkpt lat="48.8473412" lon="-123.608783">
      </trkpt>
      <trkpt lat="48.8474425" lon="-123.6088811">
      </trkpt>
      <trkpt lat="48.8474989" lon="-123.6091636">
      </trkpt>
      <trkpt lat="48.8476237" lon="-123.609238">
      </trkpt>
      <trkpt lat="48.8477698" lon="-123.6092821">
      </trkpt>
      <trkpt lat="48.8479199" lon="-123.6095698">
      </trkpt>
      <trkpt lat="48.8479685" lon="-123.6100611">
      </trkpt>
      <trkpt lat="48.8479515" lon="-123.6104558">
      </trkpt>
      <trkpt lat="48.8482355" lon="-123.6110358">
      </trkpt>
      <trkpt lat="48.8483112" lon="-123.6113183">
      </trkpt>
      <trkpt lat="48.8482668" lon="-123.6115143">
      </trkpt>
      <trkpt lat="48.8483908" lon="-123.6119531">
      </trkpt>
      <trkpt lat="48.8483893" lon="-123.6121657">
      </trkpt>
      <trkpt lat="48.8484321" lon="-123.6124618">
      </trkpt>
      <trkpt lat="48.848389" lon="-123.6128689">
      </trkpt>
      <trkpt lat="48.8485392" lon="-123.6130773">
      </trkpt>
      <trkpt lat="48.8486674" lon="-123.6131619">
      </trkpt>
      <trkpt lat="48.8488003" lon="-123.6134425">
      </trkpt>
      <trkpt lat="48.848823" lon="-123.6138016">
      </trkpt>
      <trkpt lat="48.8490506" lon="-123.6141267">
      </trkpt>
      <trkpt lat="48.8491231" lon="-123.6143405">
      </trkpt>
      <trkpt lat="48.8490535" lon="-123.6149042">
      </trkpt>
      <trkpt lat="48.8492216" lon="-123.6154062">
      </trkpt>
      <trkpt lat="48.849401" lon="-123.6158788">
      </trkpt>
      <trkpt lat="48.849607" lon="-123.6164107">
      </trkpt>
      <trkpt lat="48.8496057" lon="-123.6166712">
      </trkpt>
      <trkpt lat="48.8499768" lon="-123.6173992">
      </trkpt>
    </trkseg>
    <trkseg>
      <trkpt lat="48.8499768" lon="-123.6173992">
      </trkpt>
      <trkpt lat="48.8500449" lon="-123.6175662">
      </trkpt>
      <trkpt lat="48.8500715" lon="-123.6176937">
      </trkpt>
    </trkseg>
    <trkseg>
      <trkpt lat="48.8500715" lon="-123.6176937">
      </trkpt>
      <trkpt lat="48.850107" lon="-123.6179585">
      </trkpt>
    </trkseg>
    <trkseg>
      <trkpt lat="48.850107" lon="-123.6179585">
      </trkpt>
      <trkpt lat="48.850166" lon="-123.6180003">
      </trkpt>
      <trkpt lat="48.85015" lon="-123.6180792">
      </trkpt>
      <trkpt lat="48.8502274" lon="-123.6181372">
      </trkpt>
      <trkpt lat="48.8503305" lon="-123.6182633">
      </trkpt>
      <trkpt lat="48.8503404" lon="-123.6184118">
      </trkpt>
      <trkpt lat="48.8504135" lon="-123.6186007">
      </trkpt>
      <trkpt lat="48.8503936" lon="-123.6188346">
      </trkpt>
      <trkpt lat="48.8504517" lon="-123.6190995">
      </trkpt>
      <trkpt lat="48.8504121" lon="-123.6194115">
      </trkpt>
      <trkpt lat="48.8504455" lon="-123.6198455">
      </trkpt>
      <trkpt lat="48.8504321" lon="-123.6199928">
      </trkpt>
    </trkseg>
    <trkseg>
      <trkpt lat="48.8504321" lon="-123.6199928">
      </trkpt>
      <trkpt lat="48.8503633" lon="-123.6200827">
      </trkpt>
    </trkseg>
    <trkseg>
      <trkpt lat="48.8503633" lon="-123.6200827">
      </trkpt>
      <trkpt lat="48.85039" lon="-123.6202279">
      </trkpt>
      <trkpt lat="48.8504712" lon="-123.6202947">
      </trkpt>
      <trkpt lat="48.8506278" lon="-123.620305">
      </trkpt>
      <trkpt lat="48.850724" lon="-123.6203767">
      </trkpt>
      <trkpt lat="48.8508173" lon="-123.6205113">
      </trkpt>
      <trkpt lat="48.8509426" lon="-123.6207275">
      </trkpt>
      <trkpt lat="48.8511343" lon="-123.6208348">
      </trkpt>
      <trkpt lat="48.8513606" lon="-123.620802">
      </trkpt>
      <trkpt lat="48.8514777" lon="-123.6208816">
      </trkpt>
      <trkpt lat="48.8515537" lon="-123.6210795">
      </trkpt>
      <trkpt lat="48.8514969" lon="-123.621352">
      </trkpt>
      <trkpt lat="48.8515184" lon="-123.6215586">
      </trkpt>
      <trkpt lat="48.8516683" lon="-123.6221745">
      </trkpt>
    </trkseg>
    <trkseg>
      <trkpt lat="48.8516683" lon="-123.6221745">
      </trkpt>
      <trkpt lat="48.8516483" lon="-123.6228749">
      </trkpt>
      <trkpt lat="48.8517026" lon="-123.6234906">
      </trkpt>
      <trkpt lat="48.8517667" lon="-123.623768">
      </trkpt>
    </trkseg>
    <trkseg>
      <trkpt lat="48.8517667" lon="-123.623768">
      </trkpt>
      <trkpt lat="48.8519135" lon="-123.6240619">
      </trkpt>
    </trkseg>
    <trkseg>
      <trkpt lat="48.8519135" lon="-123.6240619">
      </trkpt>
      <trkpt lat="48.8519023" lon="-123.6250589">
      </trkpt>
      <trkpt lat="48.8519475" lon="-123.6260394">
      </trkpt>
      <trkpt lat="48.8519232" lon="-123.6271896">
      </trkpt>
    </trkseg>
    <trkseg>
      <trkpt lat="48.8519232" lon="-123.6271896">
      </trkpt>
      <trkpt lat="48.8518088" lon="-123.6275493">
      </trkpt>
      <trkpt lat="48.8515877" lon="-123.6279103">
      </trkpt>
      <trkpt lat="48.8513748" lon="-123.6282289">
      </trkpt>
      <trkpt lat="48.8512443" lon="-123.6286867">
      </trkpt>
      <trkpt lat="48.8511715" lon="-123.6293761">
      </trkpt>
    </trkseg>
    <trkseg>
      <trkpt lat="48.8511715" lon="-123.6293761">
      </trkpt>
      <trkpt lat="48.8511217" lon="-123.6298485">
      </trkpt>
      <trkpt lat="48.8511103" lon="-123.6303222">
      </trkpt>
      <trkpt lat="48.8511862" lon="-123.6307065">
      </trkpt>
      <trkpt lat="48.8512941" lon="-123.6310282">
      </trkpt>
      <trkpt lat="48.8513733" lon="-123.6313585">
      </trkpt>
      <trkpt lat="48.8514038" lon="-123.6317023">
      </trkpt>
      <trkpt lat="48.8514917" lon="-123.6319366">
      </trkpt>
    </trkseg>
  </trk>
</gpx>