<?xml version="1.0" encoding="UTF-8"?>
<gpx xmlns="http://www.topografix.com/GPX/1/1" xmlns:xsi="http://www.w3.org/2001/XMLSchema-instance" xsi:schemaLocation="http://www.topografix.com/GPX/1/1 http://www.topografix.com/GPX/1/1/gpx.xsd" version="1.1" creator="gpx.py -- https://github.com/tkrajina/gpxpy">
  <trk>
    <name>Tennant Lake Trail</name>
    <trkseg>
      <trkpt lat="49.5680387" lon="-125.6215705">
      </trkpt>
      <trkpt lat="49.5675986" lon="-125.6216642">
      </trkpt>
      <trkpt lat="49.5673655" lon="-125.6219485">
      </trkpt>
      <trkpt lat="49.5673072" lon="-125.6219769">
      </trkpt>
      <trkpt lat="49.5672646" lon="-125.6214389">
      </trkpt>
      <trkpt lat="49.5671677" lon="-125.621077">
      </trkpt>
      <trkpt lat="49.5670559" lon="-125.6211492">
      </trkpt>
      <trkpt lat="49.566922" lon="-125.6216669">
      </trkpt>
      <trkpt lat="49.5668267" lon="-125.6217561">
      </trkpt>
      <trkpt lat="49.5667254" lon="-125.6217071">
      </trkpt>
      <trkpt lat="49.5665994" lon="-125.6212632">
      </trkpt>
      <trkpt lat="49.5664818" lon="-125.6212431">
      </trkpt>
      <trkpt lat="49.5662726" lon="-125.6215809">
      </trkpt>
      <trkpt lat="49.5659742" lon="-125.6218985">
      </trkpt>
      <trkpt lat="49.5658321" lon="-125.6222381">
      </trkpt>
      <trkpt lat="49.5657599" lon="-125.6225306">
      </trkpt>
      <trkpt lat="49.565825" lon="-125.6229611">
      </trkpt>
      <trkpt lat="49.565706" lon="-125.6231019">
      </trkpt>
      <trkpt lat="49.5654155" lon="-125.6232923">
      </trkpt>
      <trkpt lat="49.5652495" lon="-125.6233335">
      </trkpt>
      <trkpt lat="49.5652015" lon="-125.6231341">
      </trkpt>
      <trkpt lat="49.5653869" lon="-125.6223866">
      </trkpt>
      <trkpt lat="49.5653285" lon="-125.6223536">
      </trkpt>
      <trkpt lat="49.5649057" lon="-125.6228524">
      </trkpt>
      <trkpt lat="49.5645887" lon="-125.6235307">
      </trkpt>
      <trkpt lat="49.5632459" lon="-125.6253163">
      </trkpt>
      <trkpt lat="49.5627973" lon="-125.6261677">
      </trkpt>
      <trkpt lat="49.5627396" lon="-125.6264935">
      </trkpt>
      <trkpt lat="49.5626538" lon="-125.6265773">
      </trkpt>
      <trkpt lat="49.5625365" lon="-125.6265021">
      </trkpt>
      <trkpt lat="49.5624501" lon="-125.6263021">
      </trkpt>
      <trkpt lat="49.5623507" lon="-125.6261597">
      </trkpt>
      <trkpt lat="49.5621517" lon="-125.6262036">
      </trkpt>
      <trkpt lat="49.56183" lon="-125.626629">
      </trkpt>
      <trkpt lat="49.5615829" lon="-125.6267846">
      </trkpt>
      <trkpt lat="49.5611943" lon="-125.6273197">
      </trkpt>
      <trkpt lat="49.5610262" lon="-125.6274014">
      </trkpt>
      <trkpt lat="49.5607236" lon="-125.6272442">
      </trkpt>
      <trkpt lat="49.5602333" lon="-125.6266198">
      </trkpt>
      <trkpt lat="49.5596119" lon="-125.6255012">
      </trkpt>
      <trkpt lat="49.5592385" lon="-125.6243523">
      </trkpt>
      <trkpt lat="49.558933" lon="-125.6236512">
      </trkpt>
      <trkpt lat="49.5586399" lon="-125.6233351">
      </trkpt>
      <trkpt lat="49.5573264" lon="-125.623051">
      </trkpt>
      <trkpt lat="49.5569967" lon="-125.6230187">
      </trkpt>
      <trkpt lat="49.5566912" lon="-125.6231696">
      </trkpt>
      <trkpt lat="49.5564686" lon="-125.623531">
      </trkpt>
      <trkpt lat="49.5561972" lon="-125.6237608">
      </trkpt>
      <trkpt lat="49.5559911" lon="-125.6242208">
      </trkpt>
      <trkpt lat="49.5558962" lon="-125.6245054">
      </trkpt>
      <trkpt lat="49.5557439" lon="-125.6249165">
      </trkpt>
      <trkpt lat="49.5555177" lon="-125.6253952">
      </trkpt>
      <trkpt lat="49.5551871" lon="-125.6258619">
      </trkpt>
      <trkpt lat="49.5550236" lon="-125.6262267">
      </trkpt>
      <trkpt lat="49.554693" lon="-125.6272405">
      </trkpt>
      <trkpt lat="49.5539592" lon="-125.6286978">
      </trkpt>
      <trkpt lat="49.5534958" lon="-125.6295526">
      </trkpt>
      <trkpt lat="49.5532389" lon="-125.6299074">
      </trkpt>
      <trkpt lat="49.5530676" lon="-125.6304442">
      </trkpt>
      <trkpt lat="49.5530633" lon="-125.6309468">
      </trkpt>
      <trkpt lat="49.5530678" lon="-125.6318647">
      </trkpt>
      <trkpt lat="49.5530207" lon="-125.6327323">
      </trkpt>
      <trkpt lat="49.5529912" lon="-125.6333453">
      </trkpt>
      <trkpt lat="49.5527859" lon="-125.6344611">
      </trkpt>
      <trkpt lat="49.5526941" lon="-125.6358109">
      </trkpt>
      <trkpt lat="49.5526397" lon="-125.6360436">
      </trkpt>
      <trkpt lat="49.5525771" lon="-125.6362099">
      </trkpt>
      <trkpt lat="49.5525632" lon="-125.6364942">
      </trkpt>
      <trkpt lat="49.5524535" lon="-125.6370118">
      </trkpt>
      <trkpt lat="49.5522795" lon="-125.6376448">
      </trkpt>
      <trkpt lat="49.552264" lon="-125.6383391">
      </trkpt>
      <trkpt lat="49.5522641" lon="-125.6385926">
      </trkpt>
    </trkseg>
  </trk>
</gpx>