<?xml version="1.0" encoding="UTF-8"?>
<gpx xmlns="http://www.topografix.com/GPX/1/1" xmlns:xsi="http://www.w3.org/2001/XMLSchema-instance" xsi:schemaLocation="http://www.topografix.com/GPX/1/1 http://www.topografix.com/GPX/1/1/gpx.xsd" version="1.1" creator="gpx.py -- https://github.com/tkrajina/gpxpy">
  <trk>
    <name>Upper Myra Falls Trail</name>
    <trkseg>
      <trkpt lat="49.5692144" lon="-125.620417">
      </trkpt>
      <trkpt lat="49.5694993" lon="-125.6207517">
      </trkpt>
      <trkpt lat="49.5697801" lon="-125.6209322">
      </trkpt>
      <trkpt lat="49.5700025" lon="-125.6211126">
      </trkpt>
      <trkpt lat="49.5702482" lon="-125.6215096">
      </trkpt>
      <trkpt lat="49.5703886" lon="-125.6218163">
      </trkpt>
      <trkpt lat="49.5707865" lon="-125.6221411">
      </trkpt>
      <trkpt lat="49.5711329" lon="-125.6223215">
      </trkpt>
      <trkpt lat="49.5714171" lon="-125.6224639">
      </trkpt>
      <trkpt lat="49.571481" lon="-125.6226283">
      </trkpt>
      <trkpt lat="49.5714952" lon="-125.6227707">
      </trkpt>
      <trkpt lat="49.5714739" lon="-125.6228473">
      </trkpt>
      <trkpt lat="49.5714227" lon="-125.6228383">
      </trkpt>
      <trkpt lat="49.571345" lon="-125.6226987">
      </trkpt>
      <trkpt lat="49.571276" lon="-125.6226521">
      </trkpt>
      <trkpt lat="49.571138" lon="-125.6227785">
      </trkpt>
      <trkpt lat="49.5711423" lon="-125.6228383">
      </trkpt>
      <trkpt lat="49.5711596" lon="-125.6229181">
      </trkpt>
      <trkpt lat="49.5713364" lon="-125.6232507">
      </trkpt>
      <trkpt lat="49.5714744" lon="-125.6236696">
      </trkpt>
      <trkpt lat="49.5715348" lon="-125.6240021">
      </trkpt>
      <trkpt lat="49.5715175" lon="-125.6242881">
      </trkpt>
      <trkpt lat="49.5714528" lon="-125.6245142">
      </trkpt>
      <trkpt lat="49.5713537" lon="-125.6247337">
      </trkpt>
      <trkpt lat="49.57101" lon="-125.6252886">
      </trkpt>
      <trkpt lat="49.5707542" lon="-125.6258842">
      </trkpt>
      <trkpt lat="49.5705676" lon="-125.6261822">
      </trkpt>
      <trkpt lat="49.5705831" lon="-125.6265479">
      </trkpt>
      <trkpt lat="49.5704911" lon="-125.6269948">
      </trkpt>
      <trkpt lat="49.570435" lon="-125.6275135">
      </trkpt>
      <trkpt lat="49.5704695" lon="-125.6278061">
      </trkpt>
      <trkpt lat="49.5705644" lon="-125.6281253">
      </trkpt>
      <trkpt lat="49.5704825" lon="-125.628265">
      </trkpt>
      <trkpt lat="49.5703141" lon="-125.62861">
      </trkpt>
      <trkpt lat="49.570169" lon="-125.6291121">
      </trkpt>
      <trkpt lat="49.5700876" lon="-125.6293936">
      </trkpt>
      <trkpt lat="49.5701029" lon="-125.6296616">
      </trkpt>
      <trkpt lat="49.5700573" lon="-125.6298684">
      </trkpt>
      <trkpt lat="49.5699729" lon="-125.6300938">
      </trkpt>
      <trkpt lat="49.5698209" lon="-125.63043">
      </trkpt>
      <trkpt lat="49.5698183" lon="-125.6307256">
      </trkpt>
      <trkpt lat="49.5698001" lon="-125.6308344">
      </trkpt>
      <trkpt lat="49.5696889" lon="-125.6315037">
      </trkpt>
      <trkpt lat="49.5695336" lon="-125.6326476">
      </trkpt>
      <trkpt lat="49.5695423" lon="-125.6329202">
      </trkpt>
      <trkpt lat="49.5693999" lon="-125.6331064">
      </trkpt>
      <trkpt lat="49.5693223" lon="-125.6333791">
      </trkpt>
      <trkpt lat="49.5692317" lon="-125.6338779">
      </trkpt>
      <trkpt lat="49.5692231" lon="-125.6341572">
      </trkpt>
      <trkpt lat="49.5691972" lon="-125.6343035">
      </trkpt>
      <trkpt lat="49.5690635" lon="-125.6345828">
      </trkpt>
      <trkpt lat="49.569042" lon="-125.6355537">
      </trkpt>
      <trkpt lat="49.5691843" lon="-125.6360658">
      </trkpt>
      <trkpt lat="49.5690506" lon="-125.6363983">
      </trkpt>
      <trkpt lat="49.5690032" lon="-125.6368971">
      </trkpt>
      <trkpt lat="49.5688393" lon="-125.637469">
      </trkpt>
      <trkpt lat="49.568795" lon="-125.6376515">
      </trkpt>
      <trkpt lat="49.5688616" lon="-125.6378458">
      </trkpt>
      <trkpt lat="49.5688256" lon="-125.6379075">
      </trkpt>
      <trkpt lat="49.568759" lon="-125.6379575">
      </trkpt>
    </trkseg>
    <trkseg>
      <trkpt lat="49.568759" lon="-125.6379575">
      </trkpt>
      <trkpt lat="49.5687364" lon="-125.6380893">
      </trkpt>
    </trkseg>
    <trkseg>
      <trkpt lat="49.5687364" lon="-125.6380893">
      </trkpt>
      <trkpt lat="49.5687861" lon="-125.6381893">
      </trkpt>
      <trkpt lat="49.5689295" lon="-125.6383334">
      </trkpt>
      <trkpt lat="49.5689385" lon="-125.6386927">
      </trkpt>
      <trkpt lat="49.5689042" lon="-125.6387654">
      </trkpt>
      <trkpt lat="49.5687456" lon="-125.6387346">
      </trkpt>
      <trkpt lat="49.5686398" lon="-125.6387986">
      </trkpt>
      <trkpt lat="49.5686145" lon="-125.6394158">
      </trkpt>
      <trkpt lat="49.5686522" lon="-125.6398034">
      </trkpt>
      <trkpt lat="49.5686284" lon="-125.6400759">
      </trkpt>
      <trkpt lat="49.5686599" lon="-125.6403363">
      </trkpt>
      <trkpt lat="49.5687505" lon="-125.640741">
      </trkpt>
      <trkpt lat="49.5687303" lon="-125.6409834">
      </trkpt>
      <trkpt lat="49.568735" lon="-125.6415888">
      </trkpt>
      <trkpt lat="49.568835" lon="-125.6424501">
      </trkpt>
      <trkpt lat="49.5688236" lon="-125.6430047">
      </trkpt>
      <trkpt lat="49.5687806" lon="-125.6432843">
      </trkpt>
      <trkpt lat="49.5687126" lon="-125.6435813">
      </trkpt>
      <trkpt lat="49.5686644" lon="-125.6438886">
      </trkpt>
      <trkpt lat="49.5686688" lon="-125.6442404">
      </trkpt>
      <trkpt lat="49.5686407" lon="-125.6445183">
      </trkpt>
      <trkpt lat="49.5686983" lon="-125.6448945">
      </trkpt>
      <trkpt lat="49.5687271" lon="-125.6453895">
      </trkpt>
      <trkpt lat="49.5685985" lon="-125.6459166">
      </trkpt>
      <trkpt lat="49.5685797" lon="-125.6464234">
      </trkpt>
      <trkpt lat="49.568497" lon="-125.6473946">
      </trkpt>
      <trkpt lat="49.5684843" lon="-125.647596">
      </trkpt>
    </trkseg>
    <trkseg>
      <trkpt lat="49.5684843" lon="-125.647596">
      </trkpt>
      <trkpt lat="49.5684842" lon="-125.6477947">
      </trkpt>
    </trkseg>
    <trkseg>
      <trkpt lat="49.5684842" lon="-125.6477947">
      </trkpt>
      <trkpt lat="49.5684828" lon="-125.6483724">
      </trkpt>
      <trkpt lat="49.5684276" lon="-125.64863">
      </trkpt>
      <trkpt lat="49.5684468" lon="-125.648881">
      </trkpt>
      <trkpt lat="49.5685211" lon="-125.6493814">
      </trkpt>
      <trkpt lat="49.5686943" lon="-125.6498615">
      </trkpt>
    </trkseg>
  </trk>
</gpx>