<?xml version="1.0" encoding="UTF-8"?>
<gpx xmlns="http://www.topografix.com/GPX/1/1" xmlns:xsi="http://www.w3.org/2001/XMLSchema-instance" xsi:schemaLocation="http://www.topografix.com/GPX/1/1 http://www.topografix.com/GPX/1/1/gpx.xsd" version="1.1" creator="gpx.py -- https://github.com/tkrajina/gpxpy">
  <trk>
    <name>Love Lake Trail</name>
    <trkseg>
      <trkpt lat="49.4544862" lon="-125.5208501">
      </trkpt>
      <trkpt lat="49.4545762" lon="-125.5207545">
      </trkpt>
      <trkpt lat="49.4546589" lon="-125.5204432">
      </trkpt>
      <trkpt lat="49.4548621" lon="-125.5202503">
      </trkpt>
      <trkpt lat="49.4552079" lon="-125.5200974">
      </trkpt>
      <trkpt lat="49.4553112" lon="-125.5200811">
      </trkpt>
      <trkpt lat="49.4554398" lon="-125.5199531">
      </trkpt>
      <trkpt lat="49.4556991" lon="-125.5201103">
      </trkpt>
      <trkpt lat="49.4557674" lon="-125.520306">
      </trkpt>
      <trkpt lat="49.4560676" lon="-125.5205331">
      </trkpt>
      <trkpt lat="49.4560896" lon="-125.5204528">
      </trkpt>
      <trkpt lat="49.4560601" lon="-125.5202568">
      </trkpt>
      <trkpt lat="49.4560152" lon="-125.5200986">
      </trkpt>
      <trkpt lat="49.4559976" lon="-125.5197575">
      </trkpt>
      <trkpt lat="49.4558431" lon="-125.5191524">
      </trkpt>
      <trkpt lat="49.4558537" lon="-125.518811">
      </trkpt>
      <trkpt lat="49.4558678" lon="-125.5186079">
      </trkpt>
      <trkpt lat="49.4558888" lon="-125.5184211">
      </trkpt>
      <trkpt lat="49.4559281" lon="-125.5181923">
      </trkpt>
      <trkpt lat="49.4559878" lon="-125.5181938">
      </trkpt>
      <trkpt lat="49.4560599" lon="-125.518306">
      </trkpt>
      <trkpt lat="49.4561114" lon="-125.5185412">
      </trkpt>
      <trkpt lat="49.4561892" lon="-125.5188006">
      </trkpt>
      <trkpt lat="49.4562887" lon="-125.5188538">
      </trkpt>
      <trkpt lat="49.4563316" lon="-125.5188685">
      </trkpt>
      <trkpt lat="49.4563708" lon="-125.5188671">
      </trkpt>
      <trkpt lat="49.456388" lon="-125.5188342">
      </trkpt>
      <trkpt lat="49.4563924" lon="-125.5187873">
      </trkpt>
      <trkpt lat="49.4563482" lon="-125.518658">
      </trkpt>
      <trkpt lat="49.456334" lon="-125.5185029">
      </trkpt>
      <trkpt lat="49.4563803" lon="-125.5183809">
      </trkpt>
      <trkpt lat="49.4563681" lon="-125.5182197">
      </trkpt>
      <trkpt lat="49.4563498" lon="-125.517992">
      </trkpt>
      <trkpt lat="49.4563673" lon="-125.5176962">
      </trkpt>
      <trkpt lat="49.4563542" lon="-125.5174301">
      </trkpt>
      <trkpt lat="49.4562402" lon="-125.5169914">
      </trkpt>
      <trkpt lat="49.4562015" lon="-125.516788">
      </trkpt>
      <trkpt lat="49.4562244" lon="-125.5166982">
      </trkpt>
      <trkpt lat="49.4562983" lon="-125.5166803">
      </trkpt>
      <trkpt lat="49.4563814" lon="-125.5167393">
      </trkpt>
      <trkpt lat="49.4566235" lon="-125.5170448">
      </trkpt>
      <trkpt lat="49.4567521" lon="-125.517167">
      </trkpt>
      <trkpt lat="49.456798" lon="-125.5170595">
      </trkpt>
      <trkpt lat="49.4568783" lon="-125.5171381">
      </trkpt>
      <trkpt lat="49.4569106" lon="-125.517013">
      </trkpt>
      <trkpt lat="49.4569066" lon="-125.5168453">
      </trkpt>
      <trkpt lat="49.4568375" lon="-125.5166695">
      </trkpt>
      <trkpt lat="49.4568082" lon="-125.5161707">
      </trkpt>
      <trkpt lat="49.4567738" lon="-125.5160215">
      </trkpt>
      <trkpt lat="49.4567712" lon="-125.5158921">
      </trkpt>
      <trkpt lat="49.4568065" lon="-125.5159069">
      </trkpt>
      <trkpt lat="49.4568305" lon="-125.5159963">
      </trkpt>
      <trkpt lat="49.456886" lon="-125.516043">
      </trkpt>
      <trkpt lat="49.4569296" lon="-125.5161198">
      </trkpt>
      <trkpt lat="49.4569939" lon="-125.5162272">
      </trkpt>
      <trkpt lat="49.4570652" lon="-125.516488">
      </trkpt>
      <trkpt lat="49.4571586" lon="-125.5166454">
      </trkpt>
      <trkpt lat="49.457209" lon="-125.5166354">
      </trkpt>
      <trkpt lat="49.4572019" lon="-125.5165143">
      </trkpt>
      <trkpt lat="49.4572167" lon="-125.5164992">
      </trkpt>
      <trkpt lat="49.4572362" lon="-125.5165125">
      </trkpt>
      <trkpt lat="49.4573245" lon="-125.5166513">
      </trkpt>
      <trkpt lat="49.4573517" lon="-125.5166094">
      </trkpt>
      <trkpt lat="49.4573386" lon="-125.5163268">
      </trkpt>
      <trkpt lat="49.4573916" lon="-125.5163425">
      </trkpt>
      <trkpt lat="49.4575286" lon="-125.5165328">
      </trkpt>
      <trkpt lat="49.4576078" lon="-125.5163899">
      </trkpt>
      <trkpt lat="49.4576494" lon="-125.5164005">
      </trkpt>
      <trkpt lat="49.4576589" lon="-125.515974">
      </trkpt>
      <trkpt lat="49.4579631" lon="-125.5163932">
      </trkpt>
      <trkpt lat="49.4580089" lon="-125.5163262">
      </trkpt>
      <trkpt lat="49.4579836" lon="-125.5159827">
      </trkpt>
      <trkpt lat="49.4580564" lon="-125.515917">
      </trkpt>
      <trkpt lat="49.4580492" lon="-125.5157772">
      </trkpt>
      <trkpt lat="49.4579573" lon="-125.5155552">
      </trkpt>
      <trkpt lat="49.4579881" lon="-125.5154208">
      </trkpt>
      <trkpt lat="49.4580329" lon="-125.5154003">
      </trkpt>
      <trkpt lat="49.4581814" lon="-125.5155723">
      </trkpt>
      <trkpt lat="49.4582204" lon="-125.5155591">
      </trkpt>
      <trkpt lat="49.4582313" lon="-125.5155152">
      </trkpt>
      <trkpt lat="49.4582248" lon="-125.5154472">
      </trkpt>
      <trkpt lat="49.4582051" lon="-125.5153741">
      </trkpt>
      <trkpt lat="49.4581348" lon="-125.5149591">
      </trkpt>
      <trkpt lat="49.4580416" lon="-125.5145365">
      </trkpt>
      <trkpt lat="49.4580402" lon="-125.514419">
      </trkpt>
      <trkpt lat="49.4580743" lon="-125.5143288">
      </trkpt>
      <trkpt lat="49.458118" lon="-125.5143297">
      </trkpt>
      <trkpt lat="49.4581745" lon="-125.5143628">
      </trkpt>
      <trkpt lat="49.4583056" lon="-125.5145074">
      </trkpt>
      <trkpt lat="49.4583723" lon="-125.5148037">
      </trkpt>
      <trkpt lat="49.4585078" lon="-125.5148086">
      </trkpt>
      <trkpt lat="49.4586581" lon="-125.5147801">
      </trkpt>
      <trkpt lat="49.4586998" lon="-125.5146927">
      </trkpt>
      <trkpt lat="49.4586374" lon="-125.5145645">
      </trkpt>
      <trkpt lat="49.4586707" lon="-125.5144676">
      </trkpt>
      <trkpt lat="49.4586736" lon="-125.5143966">
      </trkpt>
      <trkpt lat="49.4587156" lon="-125.5142649">
      </trkpt>
      <trkpt lat="49.4587872" lon="-125.5142651">
      </trkpt>
      <trkpt lat="49.4588674" lon="-125.5143295">
      </trkpt>
      <trkpt lat="49.4590837" lon="-125.5145399">
      </trkpt>
      <trkpt lat="49.4591998" lon="-125.5148028">
      </trkpt>
      <trkpt lat="49.4593353" lon="-125.5149883">
      </trkpt>
      <trkpt lat="49.4594707" lon="-125.5152325">
      </trkpt>
      <trkpt lat="49.4596965" lon="-125.5154147">
      </trkpt>
      <trkpt lat="49.4598016" lon="-125.515563">
      </trkpt>
      <trkpt lat="49.4598417" lon="-125.5157544">
      </trkpt>
      <trkpt lat="49.4602742" lon="-125.5164264">
      </trkpt>
      <trkpt lat="49.4604147" lon="-125.516653">
      </trkpt>
      <trkpt lat="49.4604903" lon="-125.5170549">
      </trkpt>
      <trkpt lat="49.460461" lon="-125.5172706">
      </trkpt>
      <trkpt lat="49.4604308" lon="-125.5174399">
      </trkpt>
      <trkpt lat="49.4604279" lon="-125.517742">
      </trkpt>
      <trkpt lat="49.4605079" lon="-125.5178606">
      </trkpt>
      <trkpt lat="49.4605595" lon="-125.5181821">
      </trkpt>
      <trkpt lat="49.460631" lon="-125.5186248">
      </trkpt>
      <trkpt lat="49.4606227" lon="-125.5188786">
      </trkpt>
      <trkpt lat="49.4606553" lon="-125.5190742">
      </trkpt>
      <trkpt lat="49.4607122" lon="-125.5192097">
      </trkpt>
      <trkpt lat="49.460698" lon="-125.519399">
      </trkpt>
      <trkpt lat="49.4606476" lon="-125.5196735">
      </trkpt>
      <trkpt lat="49.4606945" lon="-125.519784">
      </trkpt>
      <trkpt lat="49.4606944" lon="-125.5198362">
      </trkpt>
      <trkpt lat="49.4606682" lon="-125.5198809">
      </trkpt>
      <trkpt lat="49.4606286" lon="-125.5199799">
      </trkpt>
      <trkpt lat="49.4605897" lon="-125.5201107">
      </trkpt>
      <trkpt lat="49.4606891" lon="-125.5205666">
      </trkpt>
      <trkpt lat="49.4608491" lon="-125.5209885">
      </trkpt>
      <trkpt lat="49.4609269" lon="-125.5212944">
      </trkpt>
      <trkpt lat="49.4609287" lon="-125.5214574">
      </trkpt>
      <trkpt lat="49.4608835" lon="-125.5216306">
      </trkpt>
      <trkpt lat="49.4609053" lon="-125.5218132">
      </trkpt>
      <trkpt lat="49.4610158" lon="-125.5219722">
      </trkpt>
      <trkpt lat="49.4610912" lon="-125.5220459">
      </trkpt>
      <trkpt lat="49.4611733" lon="-125.5221518">
      </trkpt>
      <trkpt lat="49.4612017" lon="-125.5223042">
      </trkpt>
      <trkpt lat="49.4613319" lon="-125.5225258">
      </trkpt>
      <trkpt lat="49.4613808" lon="-125.5227296">
      </trkpt>
      <trkpt lat="49.4614493" lon="-125.5228873">
      </trkpt>
      <trkpt lat="49.4614783" lon="-125.5229333">
      </trkpt>
      <trkpt lat="49.4614894" lon="-125.5229955">
      </trkpt>
      <trkpt lat="49.4615371" lon="-125.5230741">
      </trkpt>
      <trkpt lat="49.4615527" lon="-125.523162">
      </trkpt>
      <trkpt lat="49.4615849" lon="-125.5231773">
      </trkpt>
      <trkpt lat="49.4616126" lon="-125.5231191">
      </trkpt>
      <trkpt lat="49.4616147" lon="-125.5230023">
      </trkpt>
      <trkpt lat="49.4616599" lon="-125.5228637">
      </trkpt>
      <trkpt lat="49.4616237" lon="-125.5226682">
      </trkpt>
      <trkpt lat="49.4616405" lon="-125.5224643">
      </trkpt>
      <trkpt lat="49.4616535" lon="-125.5224303">
      </trkpt>
      <trkpt lat="49.4616738" lon="-125.5224172">
      </trkpt>
      <trkpt lat="49.4616968" lon="-125.5224522">
      </trkpt>
      <trkpt lat="49.4617107" lon="-125.5224936">
      </trkpt>
      <trkpt lat="49.4617352" lon="-125.5225153">
      </trkpt>
      <trkpt lat="49.4617667" lon="-125.5224953">
      </trkpt>
      <trkpt lat="49.4617919" lon="-125.5224477">
      </trkpt>
      <trkpt lat="49.4618329" lon="-125.5221896">
      </trkpt>
      <trkpt lat="49.4619289" lon="-125.522152">
      </trkpt>
      <trkpt lat="49.4619893" lon="-125.5220218">
      </trkpt>
      <trkpt lat="49.4620677" lon="-125.5219816">
      </trkpt>
      <trkpt lat="49.4621055" lon="-125.5218582">
      </trkpt>
      <trkpt lat="49.4621559" lon="-125.5218594">
      </trkpt>
      <trkpt lat="49.4622452" lon="-125.5215871">
      </trkpt>
      <trkpt lat="49.4622193" lon="-125.5214341">
      </trkpt>
      <trkpt lat="49.462081" lon="-125.5213277">
      </trkpt>
      <trkpt lat="49.461964" lon="-125.5213564">
      </trkpt>
      <trkpt lat="49.4618791" lon="-125.5212998">
      </trkpt>
      <trkpt lat="49.4618541" lon="-125.5211946">
      </trkpt>
      <trkpt lat="49.4618473" lon="-125.5211233">
      </trkpt>
      <trkpt lat="49.461852" lon="-125.5210673">
      </trkpt>
      <trkpt lat="49.4618737" lon="-125.5210401">
      </trkpt>
      <trkpt lat="49.4619318" lon="-125.5210346">
      </trkpt>
      <trkpt lat="49.4619643" lon="-125.5209952">
      </trkpt>
      <trkpt lat="49.4620446" lon="-125.5209846">
      </trkpt>
      <trkpt lat="49.4620865" lon="-125.5210089">
      </trkpt>
      <trkpt lat="49.462167" lon="-125.5210043">
      </trkpt>
      <trkpt lat="49.4622141" lon="-125.5209764">
      </trkpt>
      <trkpt lat="49.4622943" lon="-125.5208918">
      </trkpt>
      <trkpt lat="49.4623922" lon="-125.5206959">
      </trkpt>
      <trkpt lat="49.4624421" lon="-125.5205762">
      </trkpt>
      <trkpt lat="49.462473" lon="-125.5203613">
      </trkpt>
      <trkpt lat="49.4624693" lon="-125.5201883">
      </trkpt>
      <trkpt lat="49.4624466" lon="-125.5201206">
      </trkpt>
      <trkpt lat="49.4624052" lon="-125.5200508">
      </trkpt>
      <trkpt lat="49.4623895" lon="-125.5200296">
      </trkpt>
      <trkpt lat="49.4623868" lon="-125.520008">
      </trkpt>
      <trkpt lat="49.4623919" lon="-125.5199933">
      </trkpt>
      <trkpt lat="49.4623987" lon="-125.519988">
      </trkpt>
      <trkpt lat="49.4624546" lon="-125.5199139">
      </trkpt>
      <trkpt lat="49.462482" lon="-125.5198645">
      </trkpt>
      <trkpt lat="49.4624881" lon="-125.5197802">
      </trkpt>
      <trkpt lat="49.462475" lon="-125.5197143">
      </trkpt>
      <trkpt lat="49.4624639" lon="-125.5196321">
      </trkpt>
      <trkpt lat="49.4624916" lon="-125.5195521">
      </trkpt>
      <trkpt lat="49.4626729" lon="-125.5193168">
      </trkpt>
      <trkpt lat="49.4627901" lon="-125.5191379">
      </trkpt>
      <trkpt lat="49.462927" lon="-125.518853">
      </trkpt>
      <trkpt lat="49.4629613" lon="-125.5187109">
      </trkpt>
      <trkpt lat="49.4630362" lon="-125.5184082">
      </trkpt>
      <trkpt lat="49.4631659" lon="-125.5180757">
      </trkpt>
      <trkpt lat="49.4631764" lon="-125.5179836">
      </trkpt>
      <trkpt lat="49.4631271" lon="-125.5178197">
      </trkpt>
      <trkpt lat="49.4630949" lon="-125.5176075">
      </trkpt>
      <trkpt lat="49.4631099" lon="-125.5174903">
      </trkpt>
      <trkpt lat="49.463143" lon="-125.5173879">
      </trkpt>
      <trkpt lat="49.4632303" lon="-125.5172815">
      </trkpt>
      <trkpt lat="49.4633595" lon="-125.5172261">
      </trkpt>
      <trkpt lat="49.4634207" lon="-125.51717">
      </trkpt>
      <trkpt lat="49.4634885" lon="-125.5170529">
      </trkpt>
      <trkpt lat="49.463512" lon="-125.5169371">
      </trkpt>
      <trkpt lat="49.4635386" lon="-125.5167848">
      </trkpt>
      <trkpt lat="49.4635577" lon="-125.516482">
      </trkpt>
      <trkpt lat="49.4635688" lon="-125.5163439">
      </trkpt>
      <trkpt lat="49.4636157" lon="-125.5162013">
      </trkpt>
      <trkpt lat="49.4638085" lon="-125.5156562">
      </trkpt>
      <trkpt lat="49.4639201" lon="-125.5155487">
      </trkpt>
      <trkpt lat="49.4640289" lon="-125.5151482">
      </trkpt>
      <trkpt lat="49.4641643" lon="-125.5146508">
      </trkpt>
      <trkpt lat="49.46417" lon="-125.5143155">
      </trkpt>
    </trkseg>
  </trk>
</gpx>