<?xml version="1.0" encoding="UTF-8"?>
<gpx xmlns="http://www.topografix.com/GPX/1/1" xmlns:xsi="http://www.w3.org/2001/XMLSchema-instance" xsi:schemaLocation="http://www.topografix.com/GPX/1/1 http://www.topografix.com/GPX/1/1/gpx.xsd" version="1.1" creator="gpx.py -- https://github.com/tkrajina/gpxpy">
  <trk>
    <name>Proserpine Trail</name>
    <trkseg>
      <trkpt lat="53.00916794" lon="-121.52162739">
      </trkpt>
      <trkpt lat="53.00916" lon="-121.52171851">
      </trkpt>
      <trkpt lat="53.00914533" lon="-121.52185783">
      </trkpt>
      <trkpt lat="53.00914595" lon="-121.52202406">
      </trkpt>
      <trkpt lat="53.00914462" lon="-121.52221425">
      </trkpt>
      <trkpt lat="53.00914664" lon="-121.52234231">
      </trkpt>
      <trkpt lat="53.00915735" lon="-121.52247421">
      </trkpt>
      <trkpt lat="53.00913517" lon="-121.52249081">
      </trkpt>
      <trkpt lat="53.0090515" lon="-121.52239036">
      </trkpt>
      <trkpt lat="53.00899642" lon="-121.52229165">
      </trkpt>
      <trkpt lat="53.00893426" lon="-121.52223169">
      </trkpt>
      <trkpt lat="53.00885753" lon="-121.52216377">
      </trkpt>
      <trkpt lat="53.00876232" lon="-121.52205979">
      </trkpt>
      <trkpt lat="53.00867987" lon="-121.52191645">
      </trkpt>
      <trkpt lat="53.00862673" lon="-121.52179379">
      </trkpt>
      <trkpt lat="53.00852713" lon="-121.52179954">
      </trkpt>
      <trkpt lat="53.00839292" lon="-121.5217947">
      </trkpt>
      <trkpt lat="53.00824856" lon="-121.52174818">
      </trkpt>
      <trkpt lat="53.00810636" lon="-121.52175843">
      </trkpt>
      <trkpt lat="53.007929" lon="-121.52174389">
      </trkpt>
      <trkpt lat="53.00787697" lon="-121.52172562">
      </trkpt>
      <trkpt lat="53.0078276" lon="-121.52170233">
      </trkpt>
      <trkpt lat="53.00777928" lon="-121.52163141">
      </trkpt>
      <trkpt lat="53.00774267" lon="-121.52156876">
      </trkpt>
      <trkpt lat="53.00770039" lon="-121.52150671">
      </trkpt>
      <trkpt lat="53.00766451" lon="-121.52146298">
      </trkpt>
      <trkpt lat="53.00762934" lon="-121.52143819">
      </trkpt>
      <trkpt lat="53.00757393" lon="-121.52140603">
      </trkpt>
      <trkpt lat="53.00752047" lon="-121.52134992">
      </trkpt>
      <trkpt lat="53.00747872" lon="-121.52130205">
      </trkpt>
      <trkpt lat="53.00741782" lon="-121.52127523">
      </trkpt>
      <trkpt lat="53.00732814" lon="-121.52124193">
      </trkpt>
      <trkpt lat="53.00725853" lon="-121.52121127">
      </trkpt>
      <trkpt lat="53.00716638" lon="-121.52118775">
      </trkpt>
      <trkpt lat="53.00710443" lon="-121.52120853">
      </trkpt>
      <trkpt lat="53.00701886" lon="-121.52120806">
      </trkpt>
      <trkpt lat="53.00695282" lon="-121.52119603">
      </trkpt>
      <trkpt lat="53.00688731" lon="-121.5211982">
      </trkpt>
      <trkpt lat="53.00682816" lon="-121.52114267">
      </trkpt>
      <trkpt lat="53.006766" lon="-121.52108272">
      </trkpt>
      <trkpt lat="53.00670793" lon="-121.5210556">
      </trkpt>
      <trkpt lat="53.0065909" lon="-121.52097768">
      </trkpt>
      <trkpt lat="53.00650867" lon="-121.5209151">
      </trkpt>
      <trkpt lat="53.00644912" lon="-121.5207741">
      </trkpt>
      <trkpt lat="53.00637753" lon="-121.5206914">
      </trkpt>
      <trkpt lat="53.00632655" lon="-121.52062551">
      </trkpt>
      <trkpt lat="53.00627714" lon="-121.52052621">
      </trkpt>
      <trkpt lat="53.00622543" lon="-121.52044139">
      </trkpt>
      <trkpt lat="53.00615795" lon="-121.52039151">
      </trkpt>
      <trkpt lat="53.00600061" lon="-121.5203036">
      </trkpt>
      <trkpt lat="53.00593028" lon="-121.52025401">
      </trkpt>
      <trkpt lat="53.00585499" lon="-121.52022395">
      </trkpt>
      <trkpt lat="53.00572235" lon="-121.5201857">
      </trkpt>
      <trkpt lat="53.00563958" lon="-121.52010893">
      </trkpt>
      <trkpt lat="53.00556799" lon="-121.52002621">
      </trkpt>
      <trkpt lat="53.00552959" lon="-121.51991625">
      </trkpt>
      <trkpt lat="53.00550556" lon="-121.51980952">
      </trkpt>
      <trkpt lat="53.0054833" lon="-121.51967409">
      </trkpt>
      <trkpt lat="53.00548394" lon="-121.51954101">
      </trkpt>
      <trkpt lat="53.00549897" lon="-121.51941116">
      </trkpt>
      <trkpt lat="53.00553621" lon="-121.51934071">
      </trkpt>
      <trkpt lat="53.00556169" lon="-121.519186">
      </trkpt>
      <trkpt lat="53.00555377" lon="-121.5189778">
      </trkpt>
      <trkpt lat="53.00555937" lon="-121.51882519">
      </trkpt>
      <trkpt lat="53.00556142" lon="-121.51865394">
      </trkpt>
      <trkpt lat="53.00556769" lon="-121.51844425">
      </trkpt>
      <trkpt lat="53.00559814" lon="-121.51827">
      </trkpt>
      <trkpt lat="53.0056417" lon="-121.51806587">
      </trkpt>
      <trkpt lat="53.00569609" lon="-121.51784634">
      </trkpt>
      <trkpt lat="53.00576449" lon="-121.51762057">
      </trkpt>
      <trkpt lat="53.0058613" lon="-121.51739181">
      </trkpt>
      <trkpt lat="53.00590847" lon="-121.51728231">
      </trkpt>
      <trkpt lat="53.00595883" lon="-121.51718198">
      </trkpt>
      <trkpt lat="53.00602005" lon="-121.51714226">
      </trkpt>
      <trkpt lat="53.00606992" lon="-121.51710373">
      </trkpt>
      <trkpt lat="53.00607466" lon="-121.51700347">
      </trkpt>
      <trkpt lat="53.00604441" lon="-121.51688313">
      </trkpt>
      <trkpt lat="53.00604451" lon="-121.51673585">
      </trkpt>
      <trkpt lat="53.00604691" lon="-121.51657407">
      </trkpt>
      <trkpt lat="53.006042" lon="-121.51637029">
      </trkpt>
      <trkpt lat="53.00603836" lon="-121.51619965">
      </trkpt>
      <trkpt lat="53.00603278" lon="-121.51605297">
      </trkpt>
      <trkpt lat="53.00600483" lon="-121.51591814">
      </trkpt>
      <trkpt lat="53.00600438" lon="-121.51575666">
      </trkpt>
      <trkpt lat="53.00601922" lon="-121.51562207">
      </trkpt>
      <trkpt lat="53.00605015" lon="-121.51538602">
      </trkpt>
      <trkpt lat="53.00606071" lon="-121.51521387">
      </trkpt>
      <trkpt lat="53.00605666" lon="-121.51495776">
      </trkpt>
      <trkpt lat="53.00604891" lon="-121.51475428">
      </trkpt>
      <trkpt lat="53.00604383" lon="-121.51454578">
      </trkpt>
      <trkpt lat="53.00603076" lon="-121.51435239">
      </trkpt>
      <trkpt lat="53.00600065" lon="-121.51416078">
      </trkpt>
      <trkpt lat="53.00595421" lon="-121.51398991">
      </trkpt>
      <trkpt lat="53.00588879" lon="-121.5138448">
      </trkpt>
      <trkpt lat="53.00586301" lon="-121.51376676">
      </trkpt>
      <trkpt lat="53.00585652" lon="-121.51359641">
      </trkpt>
      <trkpt lat="53.00583993" lon="-121.5134604">
      </trkpt>
      <trkpt lat="53.00583581" lon="-121.51344284">
      </trkpt>
      <trkpt lat="53.00578886" lon="-121.51324251">
      </trkpt>
      <trkpt lat="53.00572123" lon="-121.51296461">
      </trkpt>
      <trkpt lat="53.00566023" lon="-121.51278577">
      </trkpt>
      <trkpt lat="53.00560261" lon="-121.51262083">
      </trkpt>
      <trkpt lat="53.0055615" lon="-121.51243991">
      </trkpt>
      <trkpt lat="53.00550691" lon="-121.51227939">
      </trkpt>
      <trkpt lat="53.0054386" lon="-121.51205858">
      </trkpt>
      <trkpt lat="53.00536764" lon="-121.51184281">
      </trkpt>
      <trkpt lat="53.00532332" lon="-121.5116527">
      </trkpt>
      <trkpt lat="53.00532287" lon="-121.51149122">
      </trkpt>
      <trkpt lat="53.00537143" lon="-121.51134357">
      </trkpt>
      <trkpt lat="53.00539992" lon="-121.51119329">
      </trkpt>
      <trkpt lat="53.0054483" lon="-121.51104089">
      </trkpt>
      <trkpt lat="53.00549438" lon="-121.51090299">
      </trkpt>
      <trkpt lat="53.00556159" lon="-121.51079612">
      </trkpt>
      <trkpt lat="53.0056212" lon="-121.5107138">
      </trkpt>
      <trkpt lat="53.00569874" lon="-121.51065333">
      </trkpt>
      <trkpt lat="53.00580645" lon="-121.51056118">
      </trkpt>
      <trkpt lat="53.00588787" lon="-121.51045279">
      </trkpt>
      <trkpt lat="53.00598791" lon="-121.51030919">
      </trkpt>
      <trkpt lat="53.00607624" lon="-121.51015732">
      </trkpt>
      <trkpt lat="53.00615441" lon="-121.50996377">
      </trkpt>
      <trkpt lat="53.00621712" lon="-121.5097386">
      </trkpt>
      <trkpt lat="53.00627082" lon="-121.50957613">
      </trkpt>
      <trkpt lat="53.00631864" lon="-121.50940954">
      </trkpt>
      <trkpt lat="53.0063869" lon="-121.50925503">
      </trkpt>
      <trkpt lat="53.00648338" lon="-121.50909279">
      </trkpt>
      <trkpt lat="53.0065208" lon="-121.50902708">
      </trkpt>
      <trkpt lat="53.00654952" lon="-121.50895752">
      </trkpt>
      <trkpt lat="53.00658604" lon="-121.50886814">
      </trkpt>
      <trkpt lat="53.00661331" lon="-121.50876074">
      </trkpt>
      <trkpt lat="53.00663635" lon="-121.50869179">
      </trkpt>
      <trkpt lat="53.00669473" lon="-121.50865234">
      </trkpt>
      <trkpt lat="53.00679198" lon="-121.50858504">
      </trkpt>
      <trkpt lat="53.00685248" lon="-121.50852638">
      </trkpt>
      <trkpt lat="53.0069183" lon="-121.50845765">
      </trkpt>
      <trkpt lat="53.00700382" lon="-121.50838208">
      </trkpt>
      <trkpt lat="53.00712538" lon="-121.50827895">
      </trkpt>
      <trkpt lat="53.0072187" lon="-121.50818356">
      </trkpt>
      <trkpt lat="53.00733299" lon="-121.50811445">
      </trkpt>
      <trkpt lat="53.00744214" lon="-121.50806013">
      </trkpt>
      <trkpt lat="53.00756814" lon="-121.50799928">
      </trkpt>
      <trkpt lat="53.00766666" lon="-121.5079651">
      </trkpt>
      <trkpt lat="53.00777084" lon="-121.50793031">
      </trkpt>
      <trkpt lat="53.00786223" lon="-121.50785888">
      </trkpt>
      <trkpt lat="53.00795502" lon="-121.50774928">
      </trkpt>
      <trkpt lat="53.00805988" lon="-121.50765742">
      </trkpt>
      <trkpt lat="53.00815748" lon="-121.50759957">
      </trkpt>
      <trkpt lat="53.00823922" lon="-121.50742462">
      </trkpt>
      <trkpt lat="53.00828082" lon="-121.50724444">
      </trkpt>
      <trkpt lat="53.00832063" lon="-121.50701691">
      </trkpt>
      <trkpt lat="53.00837449" lon="-121.50685917">
      </trkpt>
      <trkpt lat="53.00842837" lon="-121.50670143">
      </trkpt>
      <trkpt lat="53.00845343" lon="-121.50646122">
      </trkpt>
      <trkpt lat="53.00846464" lon="-121.50623198">
      </trkpt>
      <trkpt lat="53.00848014" lon="-121.50604029">
      </trkpt>
      <trkpt lat="53.00852526" lon="-121.50580272">
      </trkpt>
      <trkpt lat="53.00855383" lon="-121.50550512">
      </trkpt>
      <trkpt lat="53.0085471" lon="-121.50525401">
      </trkpt>
      <trkpt lat="53.00854037" lon="-121.50500291">
      </trkpt>
      <trkpt lat="53.00849991" lon="-121.50476489">
      </trkpt>
      <trkpt lat="53.0084655" lon="-121.50453572">
      </trkpt>
      <trkpt lat="53.00844656" lon="-121.50433818">
      </trkpt>
      <trkpt lat="53.00842183" lon="-121.50398922">
      </trkpt>
      <trkpt lat="53.00839111" lon="-121.5037074">
      </trkpt>
      <trkpt lat="53.00832842" lon="-121.50340997">
      </trkpt>
      <trkpt lat="53.00830095" lon="-121.50321334">
      </trkpt>
      <trkpt lat="53.00829548" lon="-121.50299536">
      </trkpt>
      <trkpt lat="53.00828897" lon="-121.50282501">
      </trkpt>
      <trkpt lat="53.00829009" lon="-121.50263011">
      </trkpt>
      <trkpt lat="53.00830752" lon="-121.50241445">
      </trkpt>
      <trkpt lat="53.0083351" lon="-121.50224049">
      </trkpt>
      <trkpt lat="53.00836813" lon="-121.50198518">
      </trkpt>
      <trkpt lat="53.00842176" lon="-121.50174668">
      </trkpt>
      <trkpt lat="53.00846397" lon="-121.50143337">
      </trkpt>
      <trkpt lat="53.00851507" lon="-121.50112864">
      </trkpt>
      <trkpt lat="53.00856757" lon="-121.50078573">
      </trkpt>
      <trkpt lat="53.00858337" lon="-121.5005275">
      </trkpt>
      <trkpt lat="53.00862642" lon="-121.50038515">
      </trkpt>
      <trkpt lat="53.00867441" lon="-121.50022327">
      </trkpt>
      <trkpt lat="53.0086905" lon="-121.50012179">
      </trkpt>
      <trkpt lat="53.00868508" lon="-121.49997983">
      </trkpt>
      <trkpt lat="53.00868092" lon="-121.49987099">
      </trkpt>
      <trkpt lat="53.00867622" lon="-121.49974796">
      </trkpt>
      <trkpt lat="53.00867435" lon="-121.49962462">
      </trkpt>
      <trkpt lat="53.00867764" lon="-121.4994865">
      </trkpt>
      <trkpt lat="53.00867898" lon="-121.49937233">
      </trkpt>
      <trkpt lat="53.0086947" lon="-121.49926138">
      </trkpt>
      <trkpt lat="53.00869882" lon="-121.49907089">
      </trkpt>
      <trkpt lat="53.00869727" lon="-121.49888101">
      </trkpt>
      <trkpt lat="53.0087259" lon="-121.49843612">
      </trkpt>
      <trkpt lat="53.00871946" lon="-121.49811846">
      </trkpt>
      <trkpt lat="53.00871109" lon="-121.49782478">
      </trkpt>
      <trkpt lat="53.00871225" lon="-121.49770587">
      </trkpt>
      <trkpt lat="53.00872543" lon="-121.49752868">
      </trkpt>
      <trkpt lat="53.00875495" lon="-121.49733074">
      </trkpt>
      <trkpt lat="53.00879617" lon="-121.49714108">
      </trkpt>
      <trkpt lat="53.00884164" lon="-121.49691294">
      </trkpt>
      <trkpt lat="53.00885767" lon="-121.49673545">
      </trkpt>
      <trkpt lat="53.00890954" lon="-121.49652563">
      </trkpt>
      <trkpt lat="53.00896068" lon="-121.49629691">
      </trkpt>
      <trkpt lat="53.00901949" lon="-121.49611962">
      </trkpt>
      <trkpt lat="53.00908882" lon="-121.49599347">
      </trkpt>
      <trkpt lat="53.00921489" lon="-121.4957853">
      </trkpt>
      <trkpt lat="53.00932893" lon="-121.49563539">
      </trkpt>
      <trkpt lat="53.00944709" lon="-121.49551832">
      </trkpt>
      <trkpt lat="53.00959721" lon="-121.49541686">
      </trkpt>
      <trkpt lat="53.00972406" lon="-121.49530363">
      </trkpt>
      <trkpt lat="53.00985146" lon="-121.49520458">
      </trkpt>
      <trkpt lat="53.01002967" lon="-121.49516665">
      </trkpt>
      <trkpt lat="53.01013138" lon="-121.4951416">
      </trkpt>
      <trkpt lat="53.01023218" lon="-121.49509288">
      </trkpt>
      <trkpt lat="53.01037613" lon="-121.49505385">
      </trkpt>
      <trkpt lat="53.01056976" lon="-121.49497152">
      </trkpt>
      <trkpt lat="53.01069165" lon="-121.49487781">
      </trkpt>
      <trkpt lat="53.01081995" lon="-121.49480241">
      </trkpt>
      <trkpt lat="53.01092783" lon="-121.49471493">
      </trkpt>
      <trkpt lat="53.01101685" lon="-121.49458194">
      </trkpt>
      <trkpt lat="53.011097" lon="-121.49444039">
      </trkpt>
      <trkpt lat="53.01117696" lon="-121.49429411">
      </trkpt>
      <trkpt lat="53.01127662" lon="-121.49414099">
      </trkpt>
      <trkpt lat="53.01138855" lon="-121.49401031">
      </trkpt>
      <trkpt lat="53.0115441" lon="-121.49382748">
      </trkpt>
      <trkpt lat="53.01166703" lon="-121.49368614">
      </trkpt>
      <trkpt lat="53.01178748" lon="-121.49355455">
      </trkpt>
      <trkpt lat="53.01186708" lon="-121.4933988">
      </trkpt>
      <trkpt lat="53.01191101" lon="-121.4932801">
      </trkpt>
      <trkpt lat="53.01197556" lon="-121.49317821">
      </trkpt>
      <trkpt lat="53.01206035" lon="-121.49308368">
      </trkpt>
      <trkpt lat="53.01218787" lon="-121.49291332">
      </trkpt>
      <trkpt lat="53.0123007" lon="-121.4928063">
      </trkpt>
      <trkpt lat="53.01238162" lon="-121.49275969">
      </trkpt>
      <trkpt lat="53.01250267" lon="-121.49271833">
      </trkpt>
      <trkpt lat="53.01265459" lon="-121.49266417">
      </trkpt>
      <trkpt lat="53.01275854" lon="-121.49254859">
      </trkpt>
      <trkpt lat="53.01284635" lon="-121.49245849">
      </trkpt>
      <trkpt lat="53.01298178" lon="-121.49242034">
      </trkpt>
      <trkpt lat="53.01308137" lon="-121.49241452">
      </trkpt>
      <trkpt lat="53.01325481" lon="-121.49240084">
      </trkpt>
      <trkpt lat="53.01335441" lon="-121.49239502">
      </trkpt>
      <trkpt lat="53.01342414" lon="-121.49235434">
      </trkpt>
      <trkpt lat="53.01349667" lon="-121.49223735">
      </trkpt>
      <trkpt lat="53.01360503" lon="-121.49208803">
      </trkpt>
      <trkpt lat="53.01367985" lon="-121.49195653">
      </trkpt>
      <trkpt lat="53.01374487" lon="-121.49179282">
      </trkpt>
      <trkpt lat="53.01380773" lon="-121.49157231">
      </trkpt>
      <trkpt lat="53.01386635" lon="-121.49139027">
      </trkpt>
      <trkpt lat="53.013899" lon="-121.49112544">
      </trkpt>
      <trkpt lat="53.01391785" lon="-121.49094763">
      </trkpt>
      <trkpt lat="53.01394578" lon="-121.4907831">
      </trkpt>
      <trkpt lat="53.01397624" lon="-121.49068482">
      </trkpt>
      <trkpt lat="53.01401377" lon="-121.49054778">
      </trkpt>
      <trkpt lat="53.01404689" lon="-121.49044447">
      </trkpt>
      <trkpt lat="53.01409511" lon="-121.49036331">
      </trkpt>
      <trkpt lat="53.0141726" lon="-121.49022679">
      </trkpt>
      <trkpt lat="53.0142714" lon="-121.49012599">
      </trkpt>
      <trkpt lat="53.01432585" lon="-121.49005844">
      </trkpt>
      <trkpt lat="53.01442115" lon="-121.49001504">
      </trkpt>
      <trkpt lat="53.01453495" lon="-121.4900077">
      </trkpt>
      <trkpt lat="53.01462335" lon="-121.49000781">
      </trkpt>
      <trkpt lat="53.01478139" lon="-121.49003853">
      </trkpt>
      <trkpt lat="53.01484919" lon="-121.49002181">
      </trkpt>
      <trkpt lat="53.01491639" lon="-121.48991487">
      </trkpt>
      <trkpt lat="53.01494111" lon="-121.48974118">
      </trkpt>
      <trkpt lat="53.01494661" lon="-121.4895125">
      </trkpt>
      <trkpt lat="53.01496299" lon="-121.48934443">
      </trkpt>
      <trkpt lat="53.01500107" lon="-121.48922159">
      </trkpt>
      <trkpt lat="53.01501182" lon="-121.48913015">
      </trkpt>
      <trkpt lat="53.01503763" lon="-121.48898485">
      </trkpt>
      <trkpt lat="53.015078" lon="-121.48884751">
      </trkpt>
      <trkpt lat="53.01512351" lon="-121.48869536">
      </trkpt>
      <trkpt lat="53.01514829" lon="-121.48859769">
      </trkpt>
      <trkpt lat="53.01519826" lon="-121.48848783">
      </trkpt>
      <trkpt lat="53.01526594" lon="-121.48831907">
      </trkpt>
      <trkpt lat="53.01533611" lon="-121.48814054">
      </trkpt>
      <trkpt lat="53.0154047" lon="-121.48799543">
      </trkpt>
      <trkpt lat="53.0154829" lon="-121.48787782">
      </trkpt>
      <trkpt lat="53.01554448" lon="-121.4878475">
      </trkpt>
      <trkpt lat="53.01563289" lon="-121.48784761">
      </trkpt>
      <trkpt lat="53.01575055" lon="-121.48779233">
      </trkpt>
      <trkpt lat="53.01583195" lon="-121.48768387">
      </trkpt>
      <trkpt lat="53.01592919" lon="-121.48761651">
      </trkpt>
      <trkpt lat="53.01604522" lon="-121.48751863">
      </trkpt>
      <trkpt lat="53.01613568" lon="-121.48742347">
      </trkpt>
      <trkpt lat="53.01622294" lon="-121.48731915">
      </trkpt>
      <trkpt lat="53.01632991" lon="-121.48720798">
      </trkpt>
      <trkpt lat="53.01643862" lon="-121.48706811">
      </trkpt>
      <trkpt lat="53.01654522" lon="-121.48694748">
      </trkpt>
      <trkpt lat="53.01666693" lon="-121.48684899">
      </trkpt>
      <trkpt lat="53.01679154" lon="-121.48682623">
      </trkpt>
      <trkpt lat="53.01690497" lon="-121.4868094">
      </trkpt>
      <trkpt lat="53.01698945" lon="-121.48678141">
      </trkpt>
      <trkpt lat="53.01708264" lon="-121.48675725">
      </trkpt>
      <trkpt lat="53.01717407" lon="-121.48676177">
      </trkpt>
      <trkpt lat="53.01725625" lon="-121.48674828">
      </trkpt>
      <trkpt lat="53.01732763" lon="-121.48675019">
      </trkpt>
      <trkpt lat="53.01741555" lon="-121.48681211">
      </trkpt>
      <trkpt lat="53.0174671" lon="-121.48689217">
      </trkpt>
      <trkpt lat="53.01752113" lon="-121.48696246">
      </trkpt>
      <trkpt lat="53.01755437" lon="-121.48701121">
      </trkpt>
      <trkpt lat="53.0176261" lon="-121.48702258">
      </trkpt>
      <trkpt lat="53.01768146" lon="-121.48697868">
      </trkpt>
      <trkpt lat="53.01771941" lon="-121.48692712">
      </trkpt>
      <trkpt lat="53.01774279" lon="-121.4868676">
      </trkpt>
      <trkpt lat="53.01777965" lon="-121.48678765">
      </trkpt>
      <trkpt lat="53.0178735" lon="-121.48670637">
      </trkpt>
      <trkpt lat="53.0179459" lon="-121.48666065">
      </trkpt>
      <trkpt lat="53.01803709" lon="-121.48658442">
      </trkpt>
      <trkpt lat="53.01810876" lon="-121.48651976">
      </trkpt>
      <trkpt lat="53.0181875" lon="-121.48641634">
      </trkpt>
      <trkpt lat="53.01826715" lon="-121.48633659">
      </trkpt>
      <trkpt lat="53.01835478" lon="-121.48624172">
      </trkpt>
      <trkpt lat="53.01843865" lon="-121.48612349">
      </trkpt>
      <trkpt lat="53.01852199" lon="-121.48599106">
      </trkpt>
      <trkpt lat="53.01859752" lon="-121.48587847">
      </trkpt>
      <trkpt lat="53.01864593" lon="-121.48580204">
      </trkpt>
      <trkpt lat="53.01868956" lon="-121.48574988">
      </trkpt>
      <trkpt lat="53.01875923" lon="-121.48563315">
      </trkpt>
      <trkpt lat="53.01883973" lon="-121.48550102">
      </trkpt>
      <trkpt lat="53.01890619" lon="-121.48537513">
      </trkpt>
      <trkpt lat="53.0189688" lon="-121.48529719">
      </trkpt>
      <trkpt lat="53.01906211" lon="-121.48520172">
      </trkpt>
      <trkpt lat="53.01919463" lon="-121.48508781">
      </trkpt>
      <trkpt lat="53.01931899" lon="-121.48498428">
      </trkpt>
      <trkpt lat="53.01944687" lon="-121.48482334">
      </trkpt>
      <trkpt lat="53.01957081" lon="-121.48463431">
      </trkpt>
      <trkpt lat="53.01968901" lon="-121.48436984">
      </trkpt>
      <trkpt lat="53.0197516" lon="-121.48406853">
      </trkpt>
      <trkpt lat="53.01986164" lon="-121.48381444">
      </trkpt>
      <trkpt lat="53.01996588" lon="-121.48363225">
      </trkpt>
      <trkpt lat="53.02010366" lon="-121.48343223">
      </trkpt>
      <trkpt lat="53.02025231" lon="-121.48329284">
      </trkpt>
      <trkpt lat="53.0203522" lon="-121.48322042">
      </trkpt>
      <trkpt lat="53.02046382" lon="-121.48315625">
      </trkpt>
      <trkpt lat="53.02056757" lon="-121.48303591">
      </trkpt>
      <trkpt lat="53.02064383" lon="-121.48294224">
      </trkpt>
      <trkpt lat="53.02071641" lon="-121.48290123">
      </trkpt>
      <trkpt lat="53.02081527" lon="-121.48287646">
      </trkpt>
      <trkpt lat="53.02094563" lon="-121.48292911">
      </trkpt>
      <trkpt lat="53.02106425" lon="-121.48297351">
      </trkpt>
      <trkpt lat="53.02120433" lon="-121.48298235">
      </trkpt>
      <trkpt lat="53.02140835" lon="-121.48302242">
      </trkpt>
      <trkpt lat="53.02154257" lon="-121.48302714">
      </trkpt>
      <trkpt lat="53.021674" lon="-121.4831082">
      </trkpt>
      <trkpt lat="53.02179832" lon="-121.483152">
      </trkpt>
      <trkpt lat="53.02190982" lon="-121.48315914">
      </trkpt>
      <trkpt lat="53.02203762" lon="-121.48314553">
      </trkpt>
      <trkpt lat="53.02212" lon="-121.48313676">
      </trkpt>
      <trkpt lat="53.0223092" lon="-121.48308809">
      </trkpt>
      <trkpt lat="53.02244765" lon="-121.48305434">
      </trkpt>
      <trkpt lat="53.02261256" lon="-121.48304152">
      </trkpt>
      <trkpt lat="53.02274188" lon="-121.48291845">
      </trkpt>
      <trkpt lat="53.02283536" lon="-121.48282769">
      </trkpt>
      <trkpt lat="53.02295991" lon="-121.48272887">
      </trkpt>
      <trkpt lat="53.02308077" lon="-121.48268274">
      </trkpt>
      <trkpt lat="53.02322417" lon="-121.48262944">
      </trkpt>
      <trkpt lat="53.02330363" lon="-121.48254494">
      </trkpt>
      <trkpt lat="53.02340575" lon="-121.48238197">
      </trkpt>
      <trkpt lat="53.02349827" lon="-121.4821915">
      </trkpt>
      <trkpt lat="53.02358636" lon="-121.48203477">
      </trkpt>
      <trkpt lat="53.0236848" lon="-121.48192448">
      </trkpt>
      <trkpt lat="53.02378331" lon="-121.48189022">
      </trkpt>
      <trkpt lat="53.02386302" lon="-121.48188649">
      </trkpt>
      <trkpt lat="53.02396333" lon="-121.48189956">
      </trkpt>
      <trkpt lat="53.02403265" lon="-121.48199674">
      </trkpt>
      <trkpt lat="53.02420024" lon="-121.48220229">
      </trkpt>
      <trkpt lat="53.02431863" lon="-121.48238931">
      </trkpt>
      <trkpt lat="53.02451909" lon="-121.48263413">
      </trkpt>
      <trkpt lat="53.02467616" lon="-121.48278851">
      </trkpt>
      <trkpt lat="53.02489764" lon="-121.48291226">
      </trkpt>
      <trkpt lat="53.02507169" lon="-121.48298879">
      </trkpt>
      <trkpt lat="53.02524711" lon="-121.48302715">
      </trkpt>
      <trkpt lat="53.02534955" lon="-121.483021">
      </trkpt>
      <trkpt lat="53.02547899" lon="-121.48304999">
      </trkpt>
      <trkpt lat="53.02558892" lon="-121.48309057">
      </trkpt>
      <trkpt lat="53.02571625" lon="-121.4831388">
      </trkpt>
      <trkpt lat="53.02578997" lon="-121.48320225">
      </trkpt>
      <trkpt lat="53.02595393" lon="-121.48331312">
      </trkpt>
      <trkpt lat="53.02605412" lon="-121.48339752">
      </trkpt>
      <trkpt lat="53.02617722" lon="-121.48348423">
      </trkpt>
      <trkpt lat="53.02628836" lon="-121.4834819">
      </trkpt>
      <trkpt lat="53.02637955" lon="-121.48340565">
      </trkpt>
      <trkpt lat="53.02645932" lon="-121.48325456">
      </trkpt>
      <trkpt lat="53.02654754" lon="-121.48302651">
      </trkpt>
      <trkpt lat="53.02661823" lon="-121.48286212">
      </trkpt>
      <trkpt lat="53.02668427" lon="-121.4826507">
      </trkpt>
      <trkpt lat="53.02676168" lon="-121.48243806">
      </trkpt>
      <trkpt lat="53.02684935" lon="-121.48219582">
      </trkpt>
      <trkpt lat="53.02692966" lon="-121.48205892">
      </trkpt>
      <trkpt lat="53.02700465" lon="-121.4819321">
      </trkpt>
      <trkpt lat="53.02710749" lon="-121.48178806">
      </trkpt>
      <trkpt lat="53.02721687" lon="-121.48181443">
      </trkpt>
      <trkpt lat="53.02738017" lon="-121.48198241">
      </trkpt>
      <trkpt lat="53.02753814" lon="-121.48216048">
      </trkpt>
      <trkpt lat="53.02769877" lon="-121.4823335">
      </trkpt>
      <trkpt lat="53.02777837" lon="-121.48240108">
      </trkpt>
      <trkpt lat="53.0278256" lon="-121.48243978">
      </trkpt>
      <trkpt lat="53.02799369" lon="-121.4825873">
      </trkpt>
      <trkpt lat="53.02818272" lon="-121.4827573">
      </trkpt>
      <trkpt lat="53.02837393" lon="-121.48298412">
      </trkpt>
      <trkpt lat="53.0285168" lon="-121.48314003">
      </trkpt>
      <trkpt lat="53.02868831" lon="-121.48337369">
      </trkpt>
      <trkpt lat="53.02891331" lon="-121.48366346">
      </trkpt>
      <trkpt lat="53.02917505" lon="-121.48394458">
      </trkpt>
      <trkpt lat="53.02934033" lon="-121.48416466">
      </trkpt>
      <trkpt lat="53.02949957" lon="-121.48437588">
      </trkpt>
      <trkpt lat="53.02959397" lon="-121.48453219">
      </trkpt>
      <trkpt lat="53.02973755" lon="-121.48470707">
      </trkpt>
      <trkpt lat="53.02991457" lon="-121.48493541">
      </trkpt>
      <trkpt lat="53.03009193" lon="-121.48517323">
      </trkpt>
      <trkpt lat="53.03028175" lon="-121.48543824">
      </trkpt>
      <trkpt lat="53.0305723" lon="-121.48580186">
      </trkpt>
      <trkpt lat="53.03077983" lon="-121.48600795">
      </trkpt>
      <trkpt lat="53.03102168" lon="-121.48629121">
      </trkpt>
      <trkpt lat="53.0312376" lon="-121.48656771">
      </trkpt>
      <trkpt lat="53.03140626" lon="-121.48680172">
      </trkpt>
      <trkpt lat="53.03148253" lon="-121.48693146">
      </trkpt>
      <trkpt lat="53.0316547" lon="-121.48710805">
      </trkpt>
      <trkpt lat="53.03181478" lon="-121.4872669">
      </trkpt>
      <trkpt lat="53.03194235" lon="-121.48739594">
      </trkpt>
      <trkpt lat="53.03207366" lon="-121.48754836">
      </trkpt>
      <trkpt lat="53.03217374" lon="-121.48770409">
      </trkpt>
      <trkpt lat="53.03227236" lon="-121.48782196">
      </trkpt>
      <trkpt lat="53.03244193" lon="-121.4878562">
      </trkpt>
      <trkpt lat="53.03261645" lon="-121.48787092">
      </trkpt>
      <trkpt lat="53.03280427" lon="-121.48786045">
      </trkpt>
      <trkpt lat="53.03294635" lon="-121.48792139">
      </trkpt>
      <trkpt lat="53.03303681" lon="-121.48804964">
      </trkpt>
      <trkpt lat="53.03313265" lon="-121.48824386">
      </trkpt>
      <trkpt lat="53.03326935" lon="-121.48846227">
      </trkpt>
      <trkpt lat="53.03339764" lon="-121.48861026">
      </trkpt>
      <trkpt lat="53.03348992" lon="-121.48878584">
      </trkpt>
      <trkpt lat="53.03361827" lon="-121.48900989">
      </trkpt>
      <trkpt lat="53.03374626" lon="-121.48922447">
      </trkpt>
      <trkpt lat="53.03385158" lon="-121.48951752">
      </trkpt>
      <trkpt lat="53.03401782" lon="-121.48983739">
      </trkpt>
      <trkpt lat="53.03417138" lon="-121.49004925">
      </trkpt>
      <trkpt lat="53.03434112" lon="-121.49031169">
      </trkpt>
      <trkpt lat="53.03454621" lon="-121.49060365">
      </trkpt>
      <trkpt lat="53.03477349" lon="-121.490879">
      </trkpt>
      <trkpt lat="53.03492225" lon="-121.49111515">
      </trkpt>
      <trkpt lat="53.03508565" lon="-121.49143533">
      </trkpt>
      <trkpt lat="53.03522838" lon="-121.49166262">
      </trkpt>
      <trkpt lat="53.03535033" lon="-121.49181789">
      </trkpt>
      <trkpt lat="53.03549045" lon="-121.49195329">
      </trkpt>
      <trkpt lat="53.03558164" lon="-121.49210049">
      </trkpt>
      <trkpt lat="53.0356796" lon="-121.49227549">
      </trkpt>
      <trkpt lat="53.03579441" lon="-121.49244394">
      </trkpt>
      <trkpt lat="53.0359653" lon="-121.49258742">
      </trkpt>
      <trkpt lat="53.03617904" lon="-121.49280718">
      </trkpt>
      <trkpt lat="53.03631378" lon="-121.49304959">
      </trkpt>
      <trkpt lat="53.03647862" lon="-121.49340766">
      </trkpt>
      <trkpt lat="53.03660605" lon="-121.49383152">
      </trkpt>
      <trkpt lat="53.03669474" lon="-121.49421195">
      </trkpt>
      <trkpt lat="53.03678995" lon="-121.4945394">
      </trkpt>
      <trkpt lat="53.03681348" lon="-121.49479203">
      </trkpt>
      <trkpt lat="53.03677137" lon="-121.49509764">
      </trkpt>
      <trkpt lat="53.03671068" lon="-121.49537508">
      </trkpt>
      <trkpt lat="53.03664593" lon="-121.49569574">
      </trkpt>
      <trkpt lat="53.03664665" lon="-121.49593814">
      </trkpt>
      <trkpt lat="53.03664741" lon="-121.4962566">
      </trkpt>
      <trkpt lat="53.03665754" lon="-121.49652176">
      </trkpt>
      <trkpt lat="53.03670162" lon="-121.49685465">
      </trkpt>
      <trkpt lat="53.0367758" lon="-121.49730319">
      </trkpt>
      <trkpt lat="53.03684526" lon="-121.49762862">
      </trkpt>
      <trkpt lat="53.03692519" lon="-121.49792916">
      </trkpt>
      <trkpt lat="53.03705642" lon="-121.49822901">
      </trkpt>
      <trkpt lat="53.03716275" lon="-121.49847446">
      </trkpt>
      <trkpt lat="53.03727991" lon="-121.49870451">
      </trkpt>
      <trkpt lat="53.03742009" lon="-121.49886555">
      </trkpt>
      <trkpt lat="53.03759144" lon="-121.49917066">
      </trkpt>
      <trkpt lat="53.03781965" lon="-121.49954581">
      </trkpt>
      <trkpt lat="53.03796864" lon="-121.49986281">
      </trkpt>
      <trkpt lat="53.03819945" lon="-121.50015686">
      </trkpt>
      <trkpt lat="53.03840398" lon="-121.5004347">
      </trkpt>
      <trkpt lat="53.03864313" lon="-121.50072312">
      </trkpt>
      <trkpt lat="53.0388809" lon="-121.50104973">
      </trkpt>
      <trkpt lat="53.0391456" lon="-121.50133545">
      </trkpt>
      <trkpt lat="53.03940779" lon="-121.50155487">
      </trkpt>
      <trkpt lat="53.03965094" lon="-121.50172401">
      </trkpt>
      <trkpt lat="53.03979409" lon="-121.50181343">
      </trkpt>
      <trkpt lat="53.03998485" lon="-121.50195485">
      </trkpt>
      <trkpt lat="53.04028094" lon="-121.50216594">
      </trkpt>
      <trkpt lat="53.0405143" lon="-121.50230284">
      </trkpt>
      <trkpt lat="53.04086133" lon="-121.50250377">
      </trkpt>
      <trkpt lat="53.04112382" lon="-121.50265661">
      </trkpt>
      <trkpt lat="53.04137459" lon="-121.50280119">
      </trkpt>
      <trkpt lat="53.04150619" lon="-121.50288709">
      </trkpt>
      <trkpt lat="53.04170547" lon="-121.50302762">
      </trkpt>
      <trkpt lat="53.04185823" lon="-121.50314456">
      </trkpt>
      <trkpt lat="53.04209691" lon="-121.5032714">
      </trkpt>
      <trkpt lat="53.04229614" lon="-121.50333586">
      </trkpt>
      <trkpt lat="53.04250952" lon="-121.50332274">
      </trkpt>
      <trkpt lat="53.04269497" lon="-121.50347425">
      </trkpt>
      <trkpt lat="53.04284777" lon="-121.50366727">
      </trkpt>
      <trkpt lat="53.04303006" lon="-121.50388569">
      </trkpt>
      <trkpt lat="53.04316456" lon="-121.50404735">
      </trkpt>
      <trkpt lat="53.04336298" lon="-121.5042403">
      </trkpt>
      <trkpt lat="53.04359324" lon="-121.50452021">
      </trkpt>
      <trkpt lat="53.04384973" lon="-121.50474028">
      </trkpt>
      <trkpt lat="53.04412436" lon="-121.50498696">
      </trkpt>
      <trkpt lat="53.04447498" lon="-121.50528264">
      </trkpt>
      <trkpt lat="53.04483212" lon="-121.50554419">
      </trkpt>
      <trkpt lat="53.04507349" lon="-121.50564717">
      </trkpt>
      <trkpt lat="53.0452312" lon="-121.50574457">
      </trkpt>
      <trkpt lat="53.04549121" lon="-121.50590722">
      </trkpt>
      <trkpt lat="53.04570027" lon="-121.50608004">
      </trkpt>
      <trkpt lat="53.04590059" lon="-121.50617293">
      </trkpt>
      <trkpt lat="53.04610694" lon="-121.5062747">
      </trkpt>
      <trkpt lat="53.04627606" lon="-121.50644699">
      </trkpt>
      <trkpt lat="53.04645532" lon="-121.506661">
      </trkpt>
      <trkpt lat="53.04667525" lon="-121.50689448">
      </trkpt>
      <trkpt lat="53.04685644" lon="-121.50708451">
      </trkpt>
      <trkpt lat="53.04703548" lon="-121.50721771">
      </trkpt>
      <trkpt lat="53.04725946" lon="-121.50740798">
      </trkpt>
      <trkpt lat="53.04747064" lon="-121.50756155">
      </trkpt>
      <trkpt lat="53.04774814" lon="-121.50788405">
      </trkpt>
      <trkpt lat="53.04795043" lon="-121.50802907">
      </trkpt>
      <trkpt lat="53.04820029" lon="-121.50815001">
      </trkpt>
      <trkpt lat="53.04837184" lon="-121.50823646">
      </trkpt>
      <trkpt lat="53.04866543" lon="-121.50815779">
      </trkpt>
      <trkpt lat="53.04880153" lon="-121.50806254">
      </trkpt>
      <trkpt lat="53.04903578" lon="-121.50792358">
      </trkpt>
      <trkpt lat="53.04923167" lon="-121.50775064">
      </trkpt>
      <trkpt lat="53.04941551" lon="-121.50763604">
      </trkpt>
      <trkpt lat="53.04966982" lon="-121.5074997">
      </trkpt>
      <trkpt lat="53.04988776" lon="-121.50738149">
      </trkpt>
      <trkpt lat="53.05008103" lon="-121.50728968">
      </trkpt>
      <trkpt lat="53.05028783" lon="-121.50725349">
      </trkpt>
      <trkpt lat="53.05049111" lon="-121.50727476">
      </trkpt>
      <trkpt lat="53.05060066" lon="-121.50730594">
      </trkpt>
      <trkpt lat="53.05075941" lon="-121.5073557">
      </trkpt>
      <trkpt lat="53.05094835" lon="-121.50744982">
      </trkpt>
      <trkpt lat="53.05108916" lon="-121.5074777">
      </trkpt>
      <trkpt lat="53.05129348" lon="-121.50745129">
      </trkpt>
      <trkpt lat="53.05141677" lon="-121.50731933">
      </trkpt>
      <trkpt lat="53.05155351" lon="-121.50709081">
      </trkpt>
      <trkpt lat="53.05170462" lon="-121.50686553">
      </trkpt>
      <trkpt lat="53.05183386" lon="-121.50659026">
      </trkpt>
      <trkpt lat="53.05195008" lon="-121.50619746">
      </trkpt>
      <trkpt lat="53.05206155" lon="-121.50590503">
      </trkpt>
      <trkpt lat="53.05212547" lon="-121.50563668">
      </trkpt>
      <trkpt lat="53.05217351" lon="-121.50525111">
      </trkpt>
      <trkpt lat="53.05222413" lon="-121.50500794">
      </trkpt>
      <trkpt lat="53.0522632" lon="-121.50476123">
      </trkpt>
      <trkpt lat="53.05231268" lon="-121.50441354">
      </trkpt>
      <trkpt lat="53.05235607" lon="-121.5039809">
      </trkpt>
      <trkpt lat="53.05241559" lon="-121.50352275">
      </trkpt>
      <trkpt lat="53.05249275" lon="-121.5031531">
      </trkpt>
      <trkpt lat="53.05258442" lon="-121.50271533">
      </trkpt>
      <trkpt lat="53.05262502" lon="-121.50235907">
      </trkpt>
      <trkpt lat="53.05261087" lon="-121.5019135">
      </trkpt>
      <trkpt lat="53.05261287" lon="-121.50144244">
      </trkpt>
      <trkpt lat="53.05260003" lon="-121.50110611">
      </trkpt>
      <trkpt lat="53.05259001" lon="-121.50046986">
      </trkpt>
      <trkpt lat="53.05255181" lon="-121.49991744">
      </trkpt>
      <trkpt lat="53.05250157" lon="-121.49964692">
      </trkpt>
      <trkpt lat="53.05248764" lon="-121.49928219">
      </trkpt>
      <trkpt lat="53.05246362" lon="-121.49895181">
      </trkpt>
      <trkpt lat="53.05245115" lon="-121.49862496">
      </trkpt>
      <trkpt lat="53.05242302" lon="-121.49826173">
      </trkpt>
      <trkpt lat="53.05239459" lon="-121.49796511">
      </trkpt>
      <trkpt lat="53.05235975" lon="-121.49765016">
      </trkpt>
      <trkpt lat="53.05228478" lon="-121.49732995">
      </trkpt>
      <trkpt lat="53.05221113" lon="-121.49711899">
      </trkpt>
      <trkpt lat="53.05215308" lon="-121.49686833">
      </trkpt>
      <trkpt lat="53.05210434" lon="-121.49648826">
      </trkpt>
      <trkpt lat="53.05207621" lon="-121.49612504">
      </trkpt>
      <trkpt lat="53.05201918" lon="-121.49582671">
      </trkpt>
      <trkpt lat="53.05191696" lon="-121.4953905">
      </trkpt>
      <trkpt lat="53.05184315" lon="-121.49495128">
      </trkpt>
      <trkpt lat="53.05183611" lon="-121.49454301">
      </trkpt>
      <trkpt lat="53.05188803" lon="-121.49418554">
      </trkpt>
      <trkpt lat="53.05195332" lon="-121.49387896">
      </trkpt>
      <trkpt lat="53.05196095" lon="-121.49363084">
      </trkpt>
      <trkpt lat="53.05192754" lon="-121.49335377">
      </trkpt>
      <trkpt lat="53.05188133" lon="-121.49304004">
      </trkpt>
      <trkpt lat="53.05184598" lon="-121.49278697">
      </trkpt>
      <trkpt lat="53.05181941" lon="-121.49261381">
      </trkpt>
      <trkpt lat="53.05178691" lon="-121.49236044">
      </trkpt>
      <trkpt lat="53.05175314" lon="-121.49207392">
      </trkpt>
      <trkpt lat="53.05169086" lon="-121.49177521">
      </trkpt>
      <trkpt lat="53.05161531" lon="-121.49152737">
      </trkpt>
      <trkpt lat="53.05151713" lon="-121.49127147">
      </trkpt>
      <trkpt lat="53.05124484" lon="-121.49063934">
      </trkpt>
      <trkpt lat="53.05110628" lon="-121.49029739">
      </trkpt>
      <trkpt lat="53.05096277" lon="-121.48997498">
      </trkpt>
      <trkpt lat="53.050854" lon="-121.4895918">
      </trkpt>
      <trkpt lat="53.05084331" lon="-121.48931234">
      </trkpt>
      <trkpt lat="53.05090483" lon="-121.48920591">
      </trkpt>
      <trkpt lat="53.05106926" lon="-121.489255">
      </trkpt>
      <trkpt lat="53.05123942" lon="-121.48937957">
      </trkpt>
      <trkpt lat="53.05145226" lon="-121.4895757">
      </trkpt>
      <trkpt lat="53.05168232" lon="-121.48977477">
      </trkpt>
      <trkpt lat="53.05185435" lon="-121.4900228">
      </trkpt>
      <trkpt lat="53.05207788" lon="-121.49027487">
      </trkpt>
      <trkpt lat="53.05221234" lon="-121.49036045">
      </trkpt>
      <trkpt lat="53.05237404" lon="-121.49033849">
      </trkpt>
      <trkpt lat="53.0524537" lon="-121.49025868">
      </trkpt>
      <trkpt lat="53.05255389" lon="-121.4901196">
      </trkpt>
      <trkpt lat="53.05265964" lon="-121.49005127">
      </trkpt>
      <trkpt lat="53.05276262" lon="-121.49005934">
      </trkpt>
      <trkpt lat="53.05286783" lon="-121.49020034">
      </trkpt>
      <trkpt lat="53.05296988" lon="-121.49040827">
      </trkpt>
      <trkpt lat="53.05304711" lon="-121.49063786">
      </trkpt>
      <trkpt lat="53.0531447" lon="-121.49080347">
      </trkpt>
      <trkpt lat="53.05329015" lon="-121.49087836">
      </trkpt>
      <trkpt lat="53.0534434" lon="-121.49093341">
      </trkpt>
      <trkpt lat="53.05356408" lon="-121.49110606">
      </trkpt>
      <trkpt lat="53.05367224" lon="-121.49139895">
      </trkpt>
      <trkpt lat="53.05381828" lon="-121.49178771">
      </trkpt>
      <trkpt lat="53.05400959" lon="-121.49216689">
      </trkpt>
      <trkpt lat="53.05409763" lon="-121.49238107">
      </trkpt>
      <trkpt lat="53.05421461" lon="-121.49260644">
      </trkpt>
      <trkpt lat="53.05428508" lon="-121.49258469">
      </trkpt>
      <trkpt lat="53.05437482" lon="-121.49247051">
      </trkpt>
      <trkpt lat="53.05445235" lon="-121.49240993">
      </trkpt>
      <trkpt lat="53.05455556" lon="-121.49249885">
      </trkpt>
      <trkpt lat="53.054672" lon="-121.49271001">
      </trkpt>
      <trkpt lat="53.05477321" lon="-121.49297037">
      </trkpt>
      <trkpt lat="53.05482898" lon="-121.49323556">
      </trkpt>
      <trkpt lat="53.054941" lon="-121.49348049">
      </trkpt>
      <trkpt lat="53.05512772" lon="-121.49366516">
      </trkpt>
      <trkpt lat="53.05531789" lon="-121.4937163">
      </trkpt>
      <trkpt lat="53.055526" lon="-121.4937893">
      </trkpt>
      <trkpt lat="53.0556972" lon="-121.49386623">
      </trkpt>
      <trkpt lat="53.05578379" lon="-121.49404252">
      </trkpt>
      <trkpt lat="53.05592844" lon="-121.49424594">
      </trkpt>
      <trkpt lat="53.05604592" lon="-121.49440945">
      </trkpt>
      <trkpt lat="53.05617371" lon="-121.49461942">
      </trkpt>
      <trkpt lat="53.05627057" lon="-121.49476609">
      </trkpt>
      <trkpt lat="53.0563971" lon="-121.49494291">
      </trkpt>
      <trkpt lat="53.05654237" lon="-121.49501308">
      </trkpt>
      <trkpt lat="53.05672389" lon="-121.49513649">
      </trkpt>
      <trkpt lat="53.05690028" lon="-121.49530529">
      </trkpt>
      <trkpt lat="53.05707896" lon="-121.49539841">
      </trkpt>
      <trkpt lat="53.05721408" lon="-121.49542687">
      </trkpt>
      <trkpt lat="53.05727619" lon="-121.49563431">
      </trkpt>
      <trkpt lat="53.05732657" lon="-121.4958335">
      </trkpt>
      <trkpt lat="53.05745773" lon="-121.49628095">
      </trkpt>
      <trkpt lat="53.05756823" lon="-121.49663548">
      </trkpt>
      <trkpt lat="53.05767831" lon="-121.49690443">
      </trkpt>
      <trkpt lat="53.05776356" lon="-121.49719504">
      </trkpt>
      <trkpt lat="53.05788909" lon="-121.49771922">
      </trkpt>
      <trkpt lat="53.05801022" lon="-121.49805359">
      </trkpt>
      <trkpt lat="53.05812923" lon="-121.49840722">
      </trkpt>
      <trkpt lat="53.05819967" lon="-121.49860904">
      </trkpt>
      <trkpt lat="53.05825029" lon="-121.49888907">
      </trkpt>
      <trkpt lat="53.05829171" lon="-121.49922715">
      </trkpt>
      <trkpt lat="53.05838389" lon="-121.49955034">
      </trkpt>
      <trkpt lat="53.05850092" lon="-121.49985186">
      </trkpt>
      <trkpt lat="53.05857903" lon="-121.50010518">
      </trkpt>
      <trkpt lat="53.05866305" lon="-121.50043876">
      </trkpt>
      <trkpt lat="53.05875383" lon="-121.50080015">
      </trkpt>
      <trkpt lat="53.05885157" lon="-121.5011941">
      </trkpt>
      <trkpt lat="53.05895154" lon="-121.50149744">
      </trkpt>
      <trkpt lat="53.05905707" lon="-121.50187155">
      </trkpt>
      <trkpt lat="53.05919234" lon="-121.50212832">
      </trkpt>
      <trkpt lat="53.05941751" lon="-121.50249925">
      </trkpt>
      <trkpt lat="53.05958353" lon="-121.50281462">
      </trkpt>
      <trkpt lat="53.05974478" lon="-121.50315427">
      </trkpt>
      <trkpt lat="53.05989592" lon="-121.5035283">
      </trkpt>
      <trkpt lat="53.06001167" lon="-121.50379668">
      </trkpt>
      <trkpt lat="53.06012354" lon="-121.50411305">
      </trkpt>
      <trkpt lat="53.06030065" lon="-121.50456995">
      </trkpt>
      <trkpt lat="53.06043971" lon="-121.50492625">
      </trkpt>
      <trkpt lat="53.06058517" lon="-121.50530089">
      </trkpt>
      <trkpt lat="53.06063438" lon="-121.50561915">
      </trkpt>
      <trkpt lat="53.06073046" lon="-121.50597049">
      </trkpt>
      <trkpt lat="53.06090347" lon="-121.50639454">
      </trkpt>
      <trkpt lat="53.06114753" lon="-121.50688719">
      </trkpt>
      <trkpt lat="53.06133189" lon="-121.50731004">
      </trkpt>
      <trkpt lat="53.06151782" lon="-121.50769945">
      </trkpt>
      <trkpt lat="53.0616263" lon="-121.50800192">
      </trkpt>
      <trkpt lat="53.06180475" lon="-121.50834455">
      </trkpt>
      <trkpt lat="53.06194884" lon="-121.50853382">
      </trkpt>
      <trkpt lat="53.06205993" lon="-121.50875516">
      </trkpt>
      <trkpt lat="53.06212788" lon="-121.50896678">
      </trkpt>
      <trkpt lat="53.06223283" lon="-121.5091606">
      </trkpt>
      <trkpt lat="53.06234168" lon="-121.50933897">
      </trkpt>
      <trkpt lat="53.06242274" lon="-121.50952066">
      </trkpt>
      <trkpt lat="53.06260858" lon="-121.50975786">
      </trkpt>
      <trkpt lat="53.06282336" lon="-121.51000627">
      </trkpt>
      <trkpt lat="53.06307668" lon="-121.51029341">
      </trkpt>
      <trkpt lat="53.06334683" lon="-121.51049789">
      </trkpt>
      <trkpt lat="53.0635557" lon="-121.51066605">
      </trkpt>
      <trkpt lat="53.06376665" lon="-121.51073885">
      </trkpt>
      <trkpt lat="53.06398967" lon="-121.5108294">
      </trkpt>
      <trkpt lat="53.06418376" lon="-121.51090875">
      </trkpt>
      <trkpt lat="53.06444885" lon="-121.51098059">
      </trkpt>
      <trkpt lat="53.06476975" lon="-121.51117018">
      </trkpt>
      <trkpt lat="53.06505815" lon="-121.51132993">
      </trkpt>
      <trkpt lat="53.06538365" lon="-121.51149052">
      </trkpt>
      <trkpt lat="53.06557931" lon="-121.5115364">
      </trkpt>
      <trkpt lat="53.06575336" lon="-121.51165118">
      </trkpt>
      <trkpt lat="53.06596204" lon="-121.51179558">
      </trkpt>
      <trkpt lat="53.06614237" lon="-121.51203815">
      </trkpt>
      <trkpt lat="53.06627526" lon="-121.51234521">
      </trkpt>
      <trkpt lat="53.06639348" lon="-121.51264195">
      </trkpt>
      <trkpt lat="53.06652411" lon="-121.51288977">
      </trkpt>
      <trkpt lat="53.06673511" lon="-121.51307599">
      </trkpt>
      <trkpt lat="53.06696575" lon="-121.51334852">
      </trkpt>
      <trkpt lat="53.06713677" lon="-121.51362775">
      </trkpt>
      <trkpt lat="53.06725179" lon="-121.51374642">
      </trkpt>
      <trkpt lat="53.06742576" lon="-121.51372801">
      </trkpt>
      <trkpt lat="53.06756197" lon="-121.51365411">
      </trkpt>
      <trkpt lat="53.06766994" lon="-121.513494">
      </trkpt>
      <trkpt lat="53.06776773" lon="-121.51334686">
      </trkpt>
      <trkpt lat="53.06783625" lon="-121.51327418">
      </trkpt>
      <trkpt lat="53.06801371" lon="-121.51316023">
      </trkpt>
      <trkpt lat="53.0682074" lon="-121.5130981">
      </trkpt>
      <trkpt lat="53.06831921" lon="-121.51303868">
      </trkpt>
      <trkpt lat="53.06843597" lon="-121.51310957">
      </trkpt>
      <trkpt lat="53.06854215" lon="-121.51327676">
      </trkpt>
      <trkpt lat="53.06866527" lon="-121.51360866">
      </trkpt>
      <trkpt lat="53.06877414" lon="-121.51384692">
      </trkpt>
      <trkpt lat="53.06883679" lon="-121.51411448">
      </trkpt>
      <trkpt lat="53.06886517" lon="-121.51425247">
      </trkpt>
    </trkseg>
    <trkseg>
      <trkpt lat="53.00583581" lon="-121.51344284">
      </trkpt>
      <trkpt lat="53.005735" lon="-121.51375101">
      </trkpt>
      <trkpt lat="53.005627" lon="-121.514205">
      </trkpt>
      <trkpt lat="53.005539" lon="-121.514761">
      </trkpt>
      <trkpt lat="53.005514" lon="-121.514937">
      </trkpt>
      <trkpt lat="53.005395" lon="-121.515694">
      </trkpt>
      <trkpt lat="53.005263" lon="-121.516145">
      </trkpt>
      <trkpt lat="53.005144" lon="-121.51651401">
      </trkpt>
      <trkpt lat="53.005014" lon="-121.516851">
      </trkpt>
      <trkpt lat="53.004444" lon="-121.51810501">
      </trkpt>
      <trkpt lat="53.004119" lon="-121.518944">
      </trkpt>
      <trkpt lat="53.003904" lon="-121.519685">
      </trkpt>
      <trkpt lat="53.003735" lon="-121.520287">
      </trkpt>
      <trkpt lat="53.003234" lon="-121.521757">
      </trkpt>
      <trkpt lat="53.00324251" lon="-121.52192417">
      </trkpt>
      <trkpt lat="53.00323199" lon="-121.52195096">
      </trkpt>
      <trkpt lat="53.00321913" lon="-121.52198372">
      </trkpt>
      <trkpt lat="53.00318478" lon="-121.52204893">
      </trkpt>
      <trkpt lat="53.00314572" lon="-121.52210386">
      </trkpt>
      <trkpt lat="53.00312747" lon="-121.52212782">
      </trkpt>
      <trkpt lat="53.0030912" lon="-121.52215753">
      </trkpt>
      <trkpt lat="53.00304751" lon="-121.52219925">
      </trkpt>
      <trkpt lat="53.00301049" lon="-121.52224731">
      </trkpt>
      <trkpt lat="53.00297301" lon="-121.52229563">
      </trkpt>
      <trkpt lat="53.00294679" lon="-121.52232588">
      </trkpt>
      <trkpt lat="53.00290954" lon="-121.5223621">
      </trkpt>
      <trkpt lat="53.00287969" lon="-121.52240446">
      </trkpt>
      <trkpt lat="53.00284622" lon="-121.52244073">
      </trkpt>
      <trkpt lat="53.00280559" lon="-121.52246468">
      </trkpt>
      <trkpt lat="53.00274138" lon="-121.52251385">
      </trkpt>
      <trkpt lat="53.00269032" lon="-121.52256745">
      </trkpt>
      <trkpt lat="53.00264641" lon="-121.52261541">
      </trkpt>
      <trkpt lat="53.00261347" lon="-121.52266352">
      </trkpt>
      <trkpt lat="53.00259475" lon="-121.5227121">
      </trkpt>
      <trkpt lat="53.00254176" lon="-121.52275">
      </trkpt>
      <trkpt lat="53.00250151" lon="-121.52278687">
      </trkpt>
      <trkpt lat="53.00247575" lon="-121.52280622">
      </trkpt>
      <trkpt lat="53.0024418" lon="-121.52286373">
      </trkpt>
      <trkpt lat="53.00241002" lon="-121.52290338">
      </trkpt>
      <trkpt lat="53.00235517" lon="-121.52293778">
      </trkpt>
      <trkpt lat="53.00231479" lon="-121.52296766">
      </trkpt>
      <trkpt lat="53.00226076" lon="-121.52300515">
      </trkpt>
      <trkpt lat="53.0022206" lon="-121.52305656">
      </trkpt>
      <trkpt lat="53.0021748" lon="-121.52313311">
      </trkpt>
      <trkpt lat="53.00215158" lon="-121.5231763">
      </trkpt>
      <trkpt lat="53.00210087" lon="-121.52324905">
      </trkpt>
      <trkpt lat="53.00207676" lon="-121.52327931">
      </trkpt>
      <trkpt lat="53.00201744" lon="-121.52333668">
      </trkpt>
      <trkpt lat="53.00195813" lon="-121.52339403">
      </trkpt>
      <trkpt lat="53.00189869" lon="-121.52344324">
      </trkpt>
      <trkpt lat="53.00187405" lon="-121.52346993">
      </trkpt>
      <trkpt lat="53.00183444" lon="-121.52353356">
      </trkpt>
      <trkpt lat="53.00181869" lon="-121.52357969">
      </trkpt>
      <trkpt lat="53.00179739" lon="-121.52362217">
      </trkpt>
      <trkpt lat="53.00175723" lon="-121.52369065">
      </trkpt>
      <trkpt lat="53.0017385" lon="-121.52372485">
      </trkpt>
      <trkpt lat="53.00169287" lon="-121.52377593">
      </trkpt>
      <trkpt lat="53.00164994" lon="-121.52384412">
      </trkpt>
      <trkpt lat="53.00164467" lon="-121.52389125">
      </trkpt>
      <trkpt lat="53.00162334" lon="-121.52393298">
      </trkpt>
      <trkpt lat="53.00157778" lon="-121.52398665">
      </trkpt>
      <trkpt lat="53.00152658" lon="-121.52402787">
      </trkpt>
      <trkpt lat="53.00147256" lon="-121.52406461">
      </trkpt>
      <trkpt lat="53.00144548" lon="-121.52409812">
      </trkpt>
      <trkpt lat="53.00139394" lon="-121.52414801">
      </trkpt>
      <trkpt lat="53.00134223" lon="-121.52419804">
      </trkpt>
      <trkpt lat="53.00131498" lon="-121.5242186">
      </trkpt>
      <trkpt lat="53.00126575" lon="-121.52426555">
      </trkpt>
      <trkpt lat="53.00124374" lon="-121.52430528">
      </trkpt>
      <trkpt lat="53.00121881" lon="-121.52436228">
      </trkpt>
      <trkpt lat="53.00119013" lon="-121.52441542">
      </trkpt>
      <trkpt lat="53.00116083" lon="-121.5245052">
      </trkpt>
      <trkpt lat="53.00113335" lon="-121.52453673">
      </trkpt>
      <trkpt lat="53.00109487" lon="-121.52459157">
      </trkpt>
      <trkpt lat="53.00107006" lon="-121.52463168">
      </trkpt>
      <trkpt lat="53.00104494" lon="-121.52471166">
      </trkpt>
      <trkpt lat="53.00099266" lon="-121.52478396">
      </trkpt>
      <trkpt lat="53.00097608" lon="-121.52483415">
      </trkpt>
      <trkpt lat="53.00097288" lon="-121.52493415">
      </trkpt>
      <trkpt lat="53.00096993" lon="-121.52498415">
      </trkpt>
      <trkpt lat="53.00094499" lon="-121.52507521">
      </trkpt>
      <trkpt lat="53.00093095" lon="-121.5251336">
      </trkpt>
      <trkpt lat="53.00092474" lon="-121.52521839">
      </trkpt>
      <trkpt lat="53.00092678" lon="-121.52529162">
      </trkpt>
      <trkpt lat="53.00092917" lon="-121.52534944">
      </trkpt>
      <trkpt lat="53.00092853" lon="-121.52542049">
      </trkpt>
      <trkpt lat="53.0009168" lon="-121.52547802">
      </trkpt>
      <trkpt lat="53.00089963" lon="-121.52552212">
      </trkpt>
      <trkpt lat="53.00087736" lon="-121.52556751">
      </trkpt>
      <trkpt lat="53.00087955" lon="-121.52562166">
      </trkpt>
      <trkpt lat="53.00085706" lon="-121.52571295">
      </trkpt>
      <trkpt lat="53.00084815" lon="-121.5257717">
      </trkpt>
      <trkpt lat="53.00084227" lon="-121.5258596">
      </trkpt>
      <trkpt lat="53.00083552" lon="-121.52589382">
      </trkpt>
      <trkpt lat="53.00082109" lon="-121.52594838">
      </trkpt>
      <trkpt lat="53.00081149" lon="-121.52604406">
      </trkpt>
      <trkpt lat="53.00080501" lon="-121.52611265">
      </trkpt>
      <trkpt lat="53.0007621" lon="-121.52621795">
      </trkpt>
      <trkpt lat="53.00074466" lon="-121.52626379">
      </trkpt>
      <trkpt lat="53.000729" lon="-121.52636062">
      </trkpt>
      <trkpt lat="53.0007341" lon="-121.52646284">
      </trkpt>
      <trkpt lat="53.00075731" lon="-121.52657037">
      </trkpt>
      <trkpt lat="53.00077919" lon="-121.52661736">
      </trkpt>
      <trkpt lat="53.00080281" lon="-121.52669308">
      </trkpt>
      <trkpt lat="53.00083905" lon="-121.52680755">
      </trkpt>
      <trkpt lat="53.00086807" lon="-121.5268866">
      </trkpt>
      <trkpt lat="53.00089236" lon="-121.52693609">
      </trkpt>
      <trkpt lat="53.00091201" lon="-121.52695585">
      </trkpt>
      <trkpt lat="53.00096865" lon="-121.52701918">
      </trkpt>
      <trkpt lat="53.0009852" lon="-121.52705411">
      </trkpt>
      <trkpt lat="53.00100457" lon="-121.52709906">
      </trkpt>
      <trkpt lat="53.00102415" lon="-121.52717209">
      </trkpt>
      <trkpt lat="53.00104379" lon="-121.52721712">
      </trkpt>
      <trkpt lat="53.00106849" lon="-121.52728566">
      </trkpt>
      <trkpt lat="53.001089" lon="-121.52735984">
      </trkpt>
      <trkpt lat="53.0011042" lon="-121.52744439">
      </trkpt>
      <trkpt lat="53.00111685" lon="-121.52750559">
      </trkpt>
      <trkpt lat="53.00113374" lon="-121.52758245">
      </trkpt>
      <trkpt lat="53.00114618" lon="-121.52762854">
      </trkpt>
      <trkpt lat="53.00117104" lon="-121.52769354">
      </trkpt>
      <trkpt lat="53.00121323" lon="-121.52776097">
      </trkpt>
      <trkpt lat="53.0012623" lon="-121.52784207">
      </trkpt>
      <trkpt lat="53.00128313" lon="-121.52789079">
      </trkpt>
      <trkpt lat="53.00129328" lon="-121.52793005">
      </trkpt>
      <trkpt lat="53.00130101" lon="-121.52795994">
      </trkpt>
      <trkpt lat="53.00130098" lon="-121.52804838">
      </trkpt>
      <trkpt lat="53.00130096" lon="-121.52807745">
      </trkpt>
      <trkpt lat="53.00128887" lon="-121.52813108">
      </trkpt>
      <trkpt lat="53.00127975" lon="-121.52819607">
      </trkpt>
      <trkpt lat="53.00127063" lon="-121.52826862">
      </trkpt>
      <trkpt lat="53.00124002" lon="-121.52836947">
      </trkpt>
      <trkpt lat="53.00118763" lon="-121.52846835">
      </trkpt>
      <trkpt lat="53.00117205" lon="-121.52851266">
      </trkpt>
      <trkpt lat="53.0011471" lon="-121.52856821">
      </trkpt>
      <trkpt lat="53.00110006" lon="-121.52866438">
      </trkpt>
      <trkpt lat="53.00108079" lon="-121.52873844">
      </trkpt>
      <trkpt lat="53.00106462" lon="-121.52880148">
      </trkpt>
      <trkpt lat="53.00104775" lon="-121.52892248">
      </trkpt>
      <trkpt lat="53.00104524" lon="-121.52903907">
      </trkpt>
      <trkpt lat="53.00103961" lon="-121.52914941">
      </trkpt>
      <trkpt lat="53.00103696" lon="-121.52929038">
      </trkpt>
      <trkpt lat="53.00104198" lon="-121.52943543">
      </trkpt>
      <trkpt lat="53.00105028" lon="-121.52955788">
      </trkpt>
      <trkpt lat="53.00105965" lon="-121.52970161">
      </trkpt>
      <trkpt lat="53.00106733" lon="-121.52980592">
      </trkpt>
      <trkpt lat="53.00106612" lon="-121.5299167">
      </trkpt>
      <trkpt lat="53.00106803" lon="-121.53005995">
      </trkpt>
      <trkpt lat="53.00107038" lon="-121.53015683">
      </trkpt>
      <trkpt lat="53.0010815" lon="-121.53027821">
      </trkpt>
      <trkpt lat="53.00108859" lon="-121.53033031">
      </trkpt>
      <trkpt lat="53.00110801" lon="-121.53039135">
      </trkpt>
      <trkpt lat="53.00111848" lon="-121.53049613">
      </trkpt>
      <trkpt lat="53.00113219" lon="-121.53062113">
      </trkpt>
      <trkpt lat="53.001308" lon="-121.531005">
      </trkpt>
      <trkpt lat="53.001422" lon="-121.53114101">
      </trkpt>
      <trkpt lat="53.001535" lon="-121.53127801">
      </trkpt>
      <trkpt lat="53.001695" lon="-121.53137">
      </trkpt>
      <trkpt lat="53.001843" lon="-121.531323">
      </trkpt>
      <trkpt lat="53.00200921" lon="-121.53129114">
      </trkpt>
      <trkpt lat="53.00203617" lon="-121.53127053">
      </trkpt>
      <trkpt lat="53.00210271" lon="-121.53123304">
      </trkpt>
      <trkpt lat="53.00217983" lon="-121.53119878">
      </trkpt>
      <trkpt lat="53.00225192" lon="-121.53116942">
      </trkpt>
      <trkpt lat="53.00231408" lon="-121.53115417">
      </trkpt>
      <trkpt lat="53.00239285" lon="-121.53116329">
      </trkpt>
      <trkpt lat="53.0024529" lon="-121.53116132">
      </trkpt>
      <trkpt lat="53.00249993" lon="-121.53116073">
      </trkpt>
      <trkpt lat="53.00253394" lon="-121.5311615">
      </trkpt>
      <trkpt lat="53.00257462" lon="-121.53113109">
      </trkpt>
      <trkpt lat="53.00262765" lon="-121.53108197">
      </trkpt>
      <trkpt lat="53.00266311" lon="-121.53105211">
      </trkpt>
      <trkpt lat="53.00270998" lon="-121.53104718">
      </trkpt>
      <trkpt lat="53.00277263" lon="-121.53104493">
      </trkpt>
      <trkpt lat="53.00281657" lon="-121.5310316">
      </trkpt>
      <trkpt lat="53.00286911" lon="-121.53096945">
      </trkpt>
      <trkpt lat="53.003002" lon="-121.530927">
      </trkpt>
      <trkpt lat="53.003283" lon="-121.53078101">
      </trkpt>
      <trkpt lat="53.003405" lon="-121.530623">
      </trkpt>
      <trkpt lat="53.003695" lon="-121.530353">
      </trkpt>
      <trkpt lat="53.003928" lon="-121.530227">
      </trkpt>
      <trkpt lat="53.003998" lon="-121.53026301">
      </trkpt>
      <trkpt lat="53.004184" lon="-121.530384">
      </trkpt>
      <trkpt lat="53.004337" lon="-121.530335">
      </trkpt>
      <trkpt lat="53.004507" lon="-121.53043001">
      </trkpt>
      <trkpt lat="53.004648" lon="-121.53072">
      </trkpt>
      <trkpt lat="53.004686" lon="-121.530789">
      </trkpt>
      <trkpt lat="53.004869" lon="-121.531032">
      </trkpt>
      <trkpt lat="53.00502" lon="-121.531138">
      </trkpt>
      <trkpt lat="53.00507" lon="-121.53115999">
      </trkpt>
      <trkpt lat="53.005218" lon="-121.5312">
      </trkpt>
      <trkpt lat="53.005357" lon="-121.531233">
      </trkpt>
      <trkpt lat="53.005451" lon="-121.53124499">
      </trkpt>
      <trkpt lat="53.005669" lon="-121.53118001">
      </trkpt>
      <trkpt lat="53.005701" lon="-121.53116">
      </trkpt>
      <trkpt lat="53.005775" lon="-121.531105">
      </trkpt>
      <trkpt lat="53.005884" lon="-121.531042">
      </trkpt>
      <trkpt lat="53.005889" lon="-121.53101599">
      </trkpt>
      <trkpt lat="53.005893" lon="-121.53100401">
      </trkpt>
      <trkpt lat="53.005889" lon="-121.531001">
      </trkpt>
      <trkpt lat="53.00588472" lon="-121.53097675">
      </trkpt>
      <trkpt lat="53.006017" lon="-121.53093">
      </trkpt>
      <trkpt lat="53.006202" lon="-121.53094301">
      </trkpt>
      <trkpt lat="53.006354" lon="-121.531005">
      </trkpt>
      <trkpt lat="53.006578" lon="-121.531132">
      </trkpt>
      <trkpt lat="53.00679" lon="-121.53113901">
      </trkpt>
      <trkpt lat="53.006985" lon="-121.53122999">
      </trkpt>
      <trkpt lat="53.007077" lon="-121.531306">
      </trkpt>
      <trkpt lat="53.007283" lon="-121.53139499">
      </trkpt>
      <trkpt lat="53.007336" lon="-121.531403">
      </trkpt>
      <trkpt lat="53.007807" lon="-121.531288">
      </trkpt>
      <trkpt lat="53.007926" lon="-121.53128301">
      </trkpt>
      <trkpt lat="53.008191" lon="-121.531459">
      </trkpt>
      <trkpt lat="53.008304" lon="-121.53174801">
      </trkpt>
      <trkpt lat="53.008383" lon="-121.531936">
      </trkpt>
      <trkpt lat="53.008514" lon="-121.53213501">
      </trkpt>
      <trkpt lat="53.00866" lon="-121.532168">
      </trkpt>
      <trkpt lat="53.008956" lon="-121.532247">
      </trkpt>
      <trkpt lat="53.00914" lon="-121.532442">
      </trkpt>
      <trkpt lat="53.009333" lon="-121.532631">
      </trkpt>
      <trkpt lat="53.009568" lon="-121.532766">
      </trkpt>
      <trkpt lat="53.009621" lon="-121.532796">
      </trkpt>
      <trkpt lat="53.009781" lon="-121.533082">
      </trkpt>
      <trkpt lat="53.00986135" lon="-121.53323611">
      </trkpt>
      <trkpt lat="53.00985631" lon="-121.5334901">
      </trkpt>
      <trkpt lat="53.0098745" lon="-121.53387293">
      </trkpt>
      <trkpt lat="53.00993372" lon="-121.53417816">
      </trkpt>
      <trkpt lat="53.00994926" lon="-121.53424981">
      </trkpt>
      <trkpt lat="53.00996082" lon="-121.53431272">
      </trkpt>
      <trkpt lat="53.00999383" lon="-121.53441001">
      </trkpt>
      <trkpt lat="53.01003928" lon="-121.53449684">
      </trkpt>
      <trkpt lat="53.01010448" lon="-121.53462128">
      </trkpt>
      <trkpt lat="53.01013987" lon="-121.53468474">
      </trkpt>
      <trkpt lat="53.01016465" lon="-121.53470961">
      </trkpt>
      <trkpt lat="53.01019294" lon="-121.53473107">
      </trkpt>
      <trkpt lat="53.01024145" lon="-121.53475344">
      </trkpt>
      <trkpt lat="53.01030458" lon="-121.53482313">
      </trkpt>
      <trkpt lat="53.01033072" lon="-121.53488452">
      </trkpt>
      <trkpt lat="53.0104167" lon="-121.53502509">
      </trkpt>
      <trkpt lat="53.01052264" lon="-121.53516052">
      </trkpt>
      <trkpt lat="53.01061236" lon="-121.5352549">
      </trkpt>
      <trkpt lat="53.01074954" lon="-121.53534429">
      </trkpt>
      <trkpt lat="53.01084347" lon="-121.53540464">
      </trkpt>
      <trkpt lat="53.01093018" lon="-121.53541995">
      </trkpt>
      <trkpt lat="53.01105104" lon="-121.53546525">
      </trkpt>
      <trkpt lat="53.01116221" lon="-121.53554517">
      </trkpt>
      <trkpt lat="53.01123469" lon="-121.53561999">
      </trkpt>
      <trkpt lat="53.01131652" lon="-121.53569994">
      </trkpt>
      <trkpt lat="53.01140167" lon="-121.53577037">
      </trkpt>
      <trkpt lat="53.0114673" lon="-121.53580927">
      </trkpt>
      <trkpt lat="53.01155197" lon="-121.53586754">
      </trkpt>
      <trkpt lat="53.01168241" lon="-121.53592406">
      </trkpt>
      <trkpt lat="53.01186249" lon="-121.53598451">
      </trkpt>
      <trkpt lat="53.01199076" lon="-121.53603209">
      </trkpt>
      <trkpt lat="53.01212554" lon="-121.53610647">
      </trkpt>
      <trkpt lat="53.01227298" lon="-121.53617647">
      </trkpt>
      <trkpt lat="53.01238151" lon="-121.53623528">
      </trkpt>
      <trkpt lat="53.01247107" lon="-121.53622891">
      </trkpt>
      <trkpt lat="53.01253554" lon="-121.5362374">
      </trkpt>
      <trkpt lat="53.01262569" lon="-121.53624625">
      </trkpt>
      <trkpt lat="53.01268505" lon="-121.53631329">
      </trkpt>
      <trkpt lat="53.01279701" lon="-121.5364145">
      </trkpt>
      <trkpt lat="53.01284919" lon="-121.53648535">
      </trkpt>
      <trkpt lat="53.01294861" lon="-121.536594">
      </trkpt>
      <trkpt lat="53.0130721" lon="-121.53670926">
      </trkpt>
      <trkpt lat="53.0131179" lon="-121.53680522">
      </trkpt>
      <trkpt lat="53.0131766" lon="-121.53695174">
      </trkpt>
      <trkpt lat="53.01327045" lon="-121.53710677">
      </trkpt>
      <trkpt lat="53.01331967" lon="-121.53724511">
      </trkpt>
      <trkpt lat="53.01340655" lon="-121.53736119">
      </trkpt>
      <trkpt lat="53.01349523" lon="-121.5374282">
      </trkpt>
      <trkpt lat="53.01357603" lon="-121.53748078">
      </trkpt>
      <trkpt lat="53.01364667" lon="-121.53750695">
      </trkpt>
      <trkpt lat="53.01373921" lon="-121.53753082">
      </trkpt>
      <trkpt lat="53.01380552" lon="-121.53758797">
      </trkpt>
      <trkpt lat="53.01386727" lon="-121.53762118">
      </trkpt>
      <trkpt lat="53.01397076" lon="-121.53764388">
      </trkpt>
      <trkpt lat="53.01405977" lon="-121.53767117">
      </trkpt>
      <trkpt lat="53.01413509" lon="-121.53772432">
      </trkpt>
      <trkpt lat="53.01426029" lon="-121.5377875">
      </trkpt>
      <trkpt lat="53.01436939" lon="-121.53786154">
      </trkpt>
      <trkpt lat="53.01447039" lon="-121.53791504">
      </trkpt>
      <trkpt lat="53.01461518" lon="-121.5379151">
      </trkpt>
      <trkpt lat="53.01465899" lon="-121.53791049">
      </trkpt>
      <trkpt lat="53.01472813" lon="-121.5378971">
      </trkpt>
      <trkpt lat="53.01478861" lon="-121.53789686">
      </trkpt>
      <trkpt lat="53.01487076" lon="-121.53788822">
      </trkpt>
      <trkpt lat="53.01491674" lon="-121.53789254">
      </trkpt>
      <trkpt lat="53.01497185" lon="-121.53789591">
      </trkpt>
      <trkpt lat="53.01502218" lon="-121.53791809">
      </trkpt>
      <trkpt lat="53.01508334" lon="-121.5379361">
      </trkpt>
      <trkpt lat="53.01514952" lon="-121.53794135">
      </trkpt>
      <trkpt lat="53.01521068" lon="-121.53795936">
      </trkpt>
      <trkpt lat="53.01531601" lon="-121.53798187">
      </trkpt>
      <trkpt lat="53.01538847" lon="-121.53800784">
      </trkpt>
      <trkpt lat="53.01546264" lon="-121.53803058">
      </trkpt>
      <trkpt lat="53.01553841" lon="-121.53804705">
      </trkpt>
      <trkpt lat="53.01559696" lon="-121.53809281">
      </trkpt>
      <trkpt lat="53.01564992" lon="-121.5381361">
      </trkpt>
      <trkpt lat="53.01568303" lon="-121.53818759">
      </trkpt>
      <trkpt lat="53.01570187" lon="-121.53824974">
      </trkpt>
      <trkpt lat="53.01573523" lon="-121.53835618">
      </trkpt>
      <trkpt lat="53.01576094" lon="-121.53845426">
      </trkpt>
      <trkpt lat="53.01576599" lon="-121.53853923">
      </trkpt>
      <trkpt lat="53.01577275" lon="-121.53866117">
      </trkpt>
    </trkseg>
  </trk>
</gpx>