<?xml version="1.0" encoding="UTF-8"?>
<gpx xmlns="http://www.topografix.com/GPX/1/1" xmlns:xsi="http://www.w3.org/2001/XMLSchema-instance" xsi:schemaLocation="http://www.topografix.com/GPX/1/1 http://www.topografix.com/GPX/1/1/gpx.xsd" version="1.1" creator="gpx.py -- https://github.com/tkrajina/gpxpy">
  <trk>
    <name>GDT eng</name>
    <trkseg>
      <trkpt lat="51.1954625" lon="-116.3060234">
      </trkpt>
      <trkpt lat="51.1956899" lon="-116.3056858">
      </trkpt>
      <trkpt lat="51.1960037" lon="-116.3050692">
      </trkpt>
      <trkpt lat="51.1963533" lon="-116.3045592">
      </trkpt>
      <trkpt lat="51.1969046" lon="-116.3044577">
      </trkpt>
      <trkpt lat="51.1973483" lon="-116.3041251">
      </trkpt>
      <trkpt lat="51.1974687" lon="-116.3039342">
      </trkpt>
      <trkpt lat="51.1981215" lon="-116.3032453">
      </trkpt>
      <trkpt lat="51.1983068" lon="-116.3025899">
      </trkpt>
    </trkseg>
    <trkseg>
      <trkpt lat="51.1497995" lon="-116.258798">
      </trkpt>
      <trkpt lat="51.1500317" lon="-116.258621">
      </trkpt>
      <trkpt lat="51.150348" lon="-116.2585191">
      </trkpt>
      <trkpt lat="51.1505179" lon="-116.2583455">
      </trkpt>
      <trkpt lat="51.1506744" lon="-116.2580738">
      </trkpt>
      <trkpt lat="51.1509638" lon="-116.2578324">
      </trkpt>
      <trkpt lat="51.1510984" lon="-116.25787">
      </trkpt>
      <trkpt lat="51.1514046" lon="-116.2581221">
      </trkpt>
      <trkpt lat="51.1518959" lon="-116.2583635">
      </trkpt>
      <trkpt lat="51.1523266" lon="-116.2583957">
      </trkpt>
      <trkpt lat="51.1530601" lon="-116.2589965">
      </trkpt>
      <trkpt lat="51.1534976" lon="-116.2589965">
      </trkpt>
      <trkpt lat="51.1540628" lon="-116.2590823">
      </trkpt>
      <trkpt lat="51.1545541" lon="-116.2592915">
      </trkpt>
      <trkpt lat="51.1549747" lon="-116.2594954">
      </trkpt>
      <trkpt lat="51.1555366" lon="-116.2597153">
      </trkpt>
      <trkpt lat="51.1558562" lon="-116.2598065">
      </trkpt>
      <trkpt lat="51.1561052" lon="-116.2598226">
      </trkpt>
      <trkpt lat="51.1565022" lon="-116.2600157">
      </trkpt>
      <trkpt lat="51.1572794" lon="-116.2604503">
      </trkpt>
      <trkpt lat="51.1575485" lon="-116.2605576">
      </trkpt>
      <trkpt lat="51.1580734" lon="-116.2604824">
      </trkpt>
      <trkpt lat="51.1585982" lon="-116.260343">
      </trkpt>
      <trkpt lat="51.158753" lon="-116.2604503">
      </trkpt>
      <trkpt lat="51.1589179" lon="-116.2604932">
      </trkpt>
      <trkpt lat="51.1592509" lon="-116.2603698">
      </trkpt>
      <trkpt lat="51.159547" lon="-116.2602303">
      </trkpt>
      <trkpt lat="51.1596109" lon="-116.2601016">
      </trkpt>
      <trkpt lat="51.1596614" lon="-116.2601284">
      </trkpt>
      <trkpt lat="51.1600886" lon="-116.2601445">
      </trkpt>
      <trkpt lat="51.1601997" lon="-116.2601981">
      </trkpt>
      <trkpt lat="51.1603679" lon="-116.2602196">
      </trkpt>
      <trkpt lat="51.1606572" lon="-116.260284">
      </trkpt>
      <trkpt lat="51.1607279" lon="-116.2601606">
      </trkpt>
      <trkpt lat="51.1608052" lon="-116.260005">
      </trkpt>
      <trkpt lat="51.1609062" lon="-116.2599406">
      </trkpt>
      <trkpt lat="51.1610239" lon="-116.2599836">
      </trkpt>
      <trkpt lat="51.1611652" lon="-116.2601659">
      </trkpt>
      <trkpt lat="51.1616597" lon="-116.2604556">
      </trkpt>
      <trkpt lat="51.1623494" lon="-116.260917">
      </trkpt>
      <trkpt lat="51.1629011" lon="-116.2614534">
      </trkpt>
      <trkpt lat="51.1635941" lon="-116.2620006">
      </trkpt>
      <trkpt lat="51.1639036" lon="-116.2625853">
      </trkpt>
      <trkpt lat="51.1641727" lon="-116.2629018">
      </trkpt>
      <trkpt lat="51.1645326" lon="-116.2630359">
      </trkpt>
      <trkpt lat="51.1651684" lon="-116.2630735">
      </trkpt>
      <trkpt lat="51.1652391" lon="-116.2633631">
      </trkpt>
      <trkpt lat="51.1657369" lon="-116.2646131">
      </trkpt>
      <trkpt lat="51.1658614" lon="-116.2647364">
      </trkpt>
      <trkpt lat="51.1659085" lon="-116.2651817">
      </trkpt>
      <trkpt lat="51.1660363" lon="-116.265584">
      </trkpt>
      <trkpt lat="51.1665341" lon="-116.2662546">
      </trkpt>
      <trkpt lat="51.1668268" lon="-116.2663619">
      </trkpt>
      <trkpt lat="51.1674424" lon="-116.2666193">
      </trkpt>
      <trkpt lat="51.168327" lon="-116.2670324">
      </trkpt>
      <trkpt lat="51.1685558" lon="-116.2670592">
      </trkpt>
      <trkpt lat="51.1686903" lon="-116.2672953">
      </trkpt>
      <trkpt lat="51.1689089" lon="-116.2674133">
      </trkpt>
      <trkpt lat="51.1697633" lon="-116.2678317">
      </trkpt>
      <trkpt lat="51.1701903" lon="-116.2679692">
      </trkpt>
      <trkpt lat="51.1702664" lon="-116.268081">
      </trkpt>
      <trkpt lat="51.1702006" lon="-116.268395">
      </trkpt>
      <trkpt lat="51.1702241" lon="-116.2685827">
      </trkpt>
      <trkpt lat="51.1707118" lon="-116.2687758">
      </trkpt>
      <trkpt lat="51.1710852" lon="-116.2691192">
      </trkpt>
      <trkpt lat="51.1715359" lon="-116.2692104">
      </trkpt>
      <trkpt lat="51.1720471" lon="-116.2696824">
      </trkpt>
      <trkpt lat="51.1724776" lon="-116.2701599">
      </trkpt>
      <trkpt lat="51.1722859" lon="-116.2705568">
      </trkpt>
      <trkpt lat="51.172481" lon="-116.2708465">
      </trkpt>
      <trkpt lat="51.1723767" lon="-116.2709216">
      </trkpt>
      <trkpt lat="51.1724877" lon="-116.2711415">
      </trkpt>
      <trkpt lat="51.1728341" lon="-116.2716726">
      </trkpt>
      <trkpt lat="51.1728005" lon="-116.2719033">
      </trkpt>
      <trkpt lat="51.1724036" lon="-116.2723271">
      </trkpt>
      <trkpt lat="51.1724003" lon="-116.2726007">
      </trkpt>
      <trkpt lat="51.1725314" lon="-116.2726597">
      </trkpt>
      <trkpt lat="51.1726256" lon="-116.2730137">
      </trkpt>
      <trkpt lat="51.1727938" lon="-116.2732927">
      </trkpt>
      <trkpt lat="51.1730292" lon="-116.2735394">
      </trkpt>
      <trkpt lat="51.1731099" lon="-116.2737862">
      </trkpt>
      <trkpt lat="51.1734093" lon="-116.2742261">
      </trkpt>
      <trkpt lat="51.1735505" lon="-116.2747089">
      </trkpt>
      <trkpt lat="51.1736279" lon="-116.2752346">
      </trkpt>
      <trkpt lat="51.173722" lon="-116.2750468">
      </trkpt>
      <trkpt lat="51.1738263" lon="-116.2750629">
      </trkpt>
      <trkpt lat="51.1738667" lon="-116.2753204">
      </trkpt>
      <trkpt lat="51.1741727" lon="-116.2754224">
      </trkpt>
      <trkpt lat="51.174499" lon="-116.2751273">
      </trkpt>
      <trkpt lat="51.1748084" lon="-116.2752185">
      </trkpt>
      <trkpt lat="51.1755146" lon="-116.2757496">
      </trkpt>
      <trkpt lat="51.1762108" lon="-116.2766347">
      </trkpt>
      <trkpt lat="51.1767119" lon="-116.2779168">
      </trkpt>
      <trkpt lat="51.1770717" lon="-116.278641">
      </trkpt>
      <trkpt lat="51.1776031" lon="-116.2791292">
      </trkpt>
      <trkpt lat="51.1781832" lon="-116.2794108">
      </trkpt>
      <trkpt lat="51.1789163" lon="-116.2800331">
      </trkpt>
      <trkpt lat="51.1796372" lon="-116.2804275">
      </trkpt>
      <trkpt lat="51.1800948" lon="-116.2807477">
      </trkpt>
      <trkpt lat="51.1806381" lon="-116.2812669">
      </trkpt>
      <trkpt lat="51.181009" lon="-116.281639">
      </trkpt>
      <trkpt lat="51.1817344" lon="-116.2819321">
      </trkpt>
      <trkpt lat="51.1833552" lon="-116.2828762">
      </trkpt>
      <trkpt lat="51.1841016" lon="-116.2831337">
      </trkpt>
      <trkpt lat="51.1851104" lon="-116.2837345">
      </trkpt>
      <trkpt lat="51.186025" lon="-116.2847001">
      </trkpt>
      <trkpt lat="51.186953" lon="-116.2854297">
      </trkpt>
      <trkpt lat="51.1869799" lon="-116.2862451">
      </trkpt>
      <trkpt lat="51.1866369" lon="-116.2868995">
      </trkpt>
      <trkpt lat="51.1856417" lon="-116.2879188">
      </trkpt>
      <trkpt lat="51.1861864" lon="-116.2885732">
      </trkpt>
      <trkpt lat="51.1873968" lon="-116.2896676">
      </trkpt>
      <trkpt lat="51.1883581" lon="-116.2900079">
      </trkpt>
      <trkpt lat="51.1891048" lon="-116.2907083">
      </trkpt>
      <trkpt lat="51.1894489" lon="-116.2919938">
      </trkpt>
      <trkpt lat="51.1893922" lon="-116.2924085">
      </trkpt>
      <trkpt lat="51.1893689" lon="-116.292924">
      </trkpt>
      <trkpt lat="51.1894305" lon="-116.2931198">
      </trkpt>
      <trkpt lat="51.1896121" lon="-116.2936572">
      </trkpt>
      <trkpt lat="51.1896226" lon="-116.2940342">
      </trkpt>
      <trkpt lat="51.1896581" lon="-116.2946684">
      </trkpt>
      <trkpt lat="51.1897168" lon="-116.2952165">
      </trkpt>
      <trkpt lat="51.1899421" lon="-116.2959789">
      </trkpt>
      <trkpt lat="51.189905" lon="-116.2961478">
      </trkpt>
      <trkpt lat="51.1893578" lon="-116.2960389">
      </trkpt>
      <trkpt lat="51.1892972" lon="-116.2961102">
      </trkpt>
      <trkpt lat="51.1892534" lon="-116.2962003">
      </trkpt>
      <trkpt lat="51.1890782" lon="-116.2963767">
      </trkpt>
      <trkpt lat="51.18905" lon="-116.2965193">
      </trkpt>
      <trkpt lat="51.1890687" lon="-116.296697">
      </trkpt>
      <trkpt lat="51.1890594" lon="-116.2969152">
      </trkpt>
      <trkpt lat="51.1891464" lon="-116.2972673">
      </trkpt>
      <trkpt lat="51.189089" lon="-116.2974956">
      </trkpt>
      <trkpt lat="51.1890619" lon="-116.2976882">
      </trkpt>
      <trkpt lat="51.1890104" lon="-116.2978422">
      </trkpt>
      <trkpt lat="51.1890121" lon="-116.2979395">
      </trkpt>
      <trkpt lat="51.1890934" lon="-116.297955">
      </trkpt>
      <trkpt lat="51.189197" lon="-116.2979067">
      </trkpt>
      <trkpt lat="51.1893133" lon="-116.2979288">
      </trkpt>
      <trkpt lat="51.1893527" lon="-116.2979802">
      </trkpt>
      <trkpt lat="51.1893655" lon="-116.2980748">
      </trkpt>
      <trkpt lat="51.1893058" lon="-116.2982154">
      </trkpt>
      <trkpt lat="51.1892839" lon="-116.2983047">
      </trkpt>
      <trkpt lat="51.1893275" lon="-116.2984869">
      </trkpt>
      <trkpt lat="51.1893314" lon="-116.2986843">
      </trkpt>
      <trkpt lat="51.1893818" lon="-116.2987927">
      </trkpt>
      <trkpt lat="51.1895365" lon="-116.2989516">
      </trkpt>
      <trkpt lat="51.1896043" lon="-116.2992369">
      </trkpt>
      <trkpt lat="51.189692" lon="-116.2994329">
      </trkpt>
      <trkpt lat="51.1896887" lon="-116.2995714">
      </trkpt>
      <trkpt lat="51.1897199" lon="-116.2997196">
      </trkpt>
      <trkpt lat="51.1897992" lon="-116.2998728">
      </trkpt>
      <trkpt lat="51.1898837" lon="-116.2999331">
      </trkpt>
      <trkpt lat="51.1899117" lon="-116.3000423">
      </trkpt>
      <trkpt lat="51.1898594" lon="-116.3003231">
      </trkpt>
      <trkpt lat="51.1899314" lon="-116.3005575">
      </trkpt>
      <trkpt lat="51.1898781" lon="-116.3008685">
      </trkpt>
      <trkpt lat="51.1899419" lon="-116.3010298">
      </trkpt>
      <trkpt lat="51.1901312" lon="-116.301094">
      </trkpt>
      <trkpt lat="51.1902547" lon="-116.3011049">
      </trkpt>
      <trkpt lat="51.1903725" lon="-116.3012157">
      </trkpt>
      <trkpt lat="51.1904564" lon="-116.3014159">
      </trkpt>
      <trkpt lat="51.190337" lon="-116.301757">
      </trkpt>
      <trkpt lat="51.1903036" lon="-116.3022308">
      </trkpt>
      <trkpt lat="51.1902204" lon="-116.3025981">
      </trkpt>
      <trkpt lat="51.190231" lon="-116.3028131">
      </trkpt>
      <trkpt lat="51.1902163" lon="-116.3029474">
      </trkpt>
      <trkpt lat="51.1901577" lon="-116.3031574">
      </trkpt>
      <trkpt lat="51.1900661" lon="-116.30326">
      </trkpt>
      <trkpt lat="51.1899503" lon="-116.3032408">
      </trkpt>
      <trkpt lat="51.1898243" lon="-116.3033039">
      </trkpt>
      <trkpt lat="51.1898082" lon="-116.3038573">
      </trkpt>
      <trkpt lat="51.189745" lon="-116.3043042">
      </trkpt>
      <trkpt lat="51.18964" lon="-116.3046152">
      </trkpt>
      <trkpt lat="51.1894146" lon="-116.3049773">
      </trkpt>
      <trkpt lat="51.1891802" lon="-116.3050031">
      </trkpt>
      <trkpt lat="51.1890878" lon="-116.304998">
      </trkpt>
      <trkpt lat="51.1890595" lon="-116.3050244">
      </trkpt>
      <trkpt lat="51.1890836" lon="-116.3050728">
      </trkpt>
      <trkpt lat="51.1891308" lon="-116.3050843">
      </trkpt>
      <trkpt lat="51.1891557" lon="-116.3051689">
      </trkpt>
      <trkpt lat="51.1892432" lon="-116.3053889">
      </trkpt>
      <trkpt lat="51.1893959" lon="-116.3055244">
      </trkpt>
      <trkpt lat="51.1896857" lon="-116.3055243">
      </trkpt>
      <trkpt lat="51.1897595" lon="-116.3054857">
      </trkpt>
      <trkpt lat="51.1898074" lon="-116.3054844">
      </trkpt>
      <trkpt lat="51.189831" lon="-116.3055462">
      </trkpt>
      <trkpt lat="51.189828" lon="-116.3056602">
      </trkpt>
      <trkpt lat="51.189804" lon="-116.3058216">
      </trkpt>
      <trkpt lat="51.1898356" lon="-116.3059392">
      </trkpt>
      <trkpt lat="51.1898481" lon="-116.3060186">
      </trkpt>
      <trkpt lat="51.1898243" lon="-116.3060827">
      </trkpt>
      <trkpt lat="51.1897527" lon="-116.3061276">
      </trkpt>
      <trkpt lat="51.1897102" lon="-116.3061598">
      </trkpt>
      <trkpt lat="51.1896792" lon="-116.3062414">
      </trkpt>
      <trkpt lat="51.1896651" lon="-116.3064343">
      </trkpt>
      <trkpt lat="51.1896531" lon="-116.3066073">
      </trkpt>
      <trkpt lat="51.1896642" lon="-116.3067002">
      </trkpt>
      <trkpt lat="51.1897153" lon="-116.3067516">
      </trkpt>
      <trkpt lat="51.1897956" lon="-116.3067238">
      </trkpt>
      <trkpt lat="51.1898563" lon="-116.3066521">
      </trkpt>
      <trkpt lat="51.1899394" lon="-116.3064871">
      </trkpt>
      <trkpt lat="51.1900587" lon="-116.3063796">
      </trkpt>
      <trkpt lat="51.1901523" lon="-116.3062969">
      </trkpt>
      <trkpt lat="51.1902094" lon="-116.3063049">
      </trkpt>
      <trkpt lat="51.190199" lon="-116.3064148">
      </trkpt>
      <trkpt lat="51.1902176" lon="-116.3064877">
      </trkpt>
      <trkpt lat="51.1902594" lon="-116.3064496">
      </trkpt>
      <trkpt lat="51.1903031" lon="-116.3063962">
      </trkpt>
      <trkpt lat="51.1903578" lon="-116.3062141">
      </trkpt>
      <trkpt lat="51.1904114" lon="-116.3061631">
      </trkpt>
      <trkpt lat="51.190465" lon="-116.306069">
      </trkpt>
      <trkpt lat="51.1905034" lon="-116.306072">
      </trkpt>
      <trkpt lat="51.1905208" lon="-116.3061125">
      </trkpt>
      <trkpt lat="51.1904466" lon="-116.3063993">
      </trkpt>
      <trkpt lat="51.1904473" lon="-116.3065683">
      </trkpt>
      <trkpt lat="51.19054" lon="-116.3066129">
      </trkpt>
      <trkpt lat="51.1905505" lon="-116.3067586">
      </trkpt>
      <trkpt lat="51.190385" lon="-116.307473">
      </trkpt>
      <trkpt lat="51.1903922" lon="-116.307528">
      </trkpt>
      <trkpt lat="51.1904228" lon="-116.3075525">
      </trkpt>
      <trkpt lat="51.1905359" lon="-116.3074544">
      </trkpt>
      <trkpt lat="51.1906931" lon="-116.3072739">
      </trkpt>
      <trkpt lat="51.1908637" lon="-116.3070217">
      </trkpt>
      <trkpt lat="51.190906" lon="-116.3069994">
      </trkpt>
      <trkpt lat="51.1909271" lon="-116.3070161">
      </trkpt>
      <trkpt lat="51.1908819" lon="-116.307483">
      </trkpt>
      <trkpt lat="51.1908045" lon="-116.307691">
      </trkpt>
      <trkpt lat="51.1907619" lon="-116.3077556">
      </trkpt>
      <trkpt lat="51.190754" lon="-116.3078202">
      </trkpt>
      <trkpt lat="51.1907885" lon="-116.3078528">
      </trkpt>
      <trkpt lat="51.1908404" lon="-116.3078576">
      </trkpt>
      <trkpt lat="51.1910163" lon="-116.3077034">
      </trkpt>
      <trkpt lat="51.1911764" lon="-116.3074847">
      </trkpt>
      <trkpt lat="51.1912433" lon="-116.3075112">
      </trkpt>
      <trkpt lat="51.1912956" lon="-116.3075983">
      </trkpt>
      <trkpt lat="51.1913083" lon="-116.3077085">
      </trkpt>
      <trkpt lat="51.1913471" lon="-116.3077831">
      </trkpt>
      <trkpt lat="51.1914112" lon="-116.3077993">
      </trkpt>
      <trkpt lat="51.191562" lon="-116.3075523">
      </trkpt>
      <trkpt lat="51.1916424" lon="-116.3073785">
      </trkpt>
      <trkpt lat="51.1917009" lon="-116.3072931">
      </trkpt>
      <trkpt lat="51.1917945" lon="-116.3072843">
      </trkpt>
      <trkpt lat="51.191878" lon="-116.3074268">
      </trkpt>
      <trkpt lat="51.1919725" lon="-116.3075323">
      </trkpt>
      <trkpt lat="51.1921118" lon="-116.3076395">
      </trkpt>
      <trkpt lat="51.1921405" lon="-116.3077664">
      </trkpt>
      <trkpt lat="51.1921382" lon="-116.3079008">
      </trkpt>
      <trkpt lat="51.1920869" lon="-116.3080727">
      </trkpt>
      <trkpt lat="51.1920778" lon="-116.3081658">
      </trkpt>
      <trkpt lat="51.1921182" lon="-116.3082016">
      </trkpt>
      <trkpt lat="51.1921777" lon="-116.3081963">
      </trkpt>
      <trkpt lat="51.1922647" lon="-116.3080611">
      </trkpt>
      <trkpt lat="51.1923233" lon="-116.3078777">
      </trkpt>
      <trkpt lat="51.1923284" lon="-116.3076138">
      </trkpt>
      <trkpt lat="51.1923604" lon="-116.3074902">
      </trkpt>
      <trkpt lat="51.1924399" lon="-116.3074345">
      </trkpt>
      <trkpt lat="51.1924904" lon="-116.3075122">
      </trkpt>
      <trkpt lat="51.1925139" lon="-116.307687">
      </trkpt>
      <trkpt lat="51.1926315" lon="-116.3077451">
      </trkpt>
      <trkpt lat="51.1927752" lon="-116.3076872">
      </trkpt>
      <trkpt lat="51.1929577" lon="-116.3075525">
      </trkpt>
      <trkpt lat="51.1931594" lon="-116.3077242">
      </trkpt>
      <trkpt lat="51.1933439" lon="-116.30799">
      </trkpt>
      <trkpt lat="51.1934827" lon="-116.3081245">
      </trkpt>
      <trkpt lat="51.1935897" lon="-116.3082821">
      </trkpt>
      <trkpt lat="51.1940671" lon="-116.3081104">
      </trkpt>
      <trkpt lat="51.1944705" lon="-116.307692">
      </trkpt>
      <trkpt lat="51.1948" lon="-116.3069195">
      </trkpt>
      <trkpt lat="51.1950084" lon="-116.3067157">
      </trkpt>
      <trkpt lat="51.195358" lon="-116.3063878">
      </trkpt>
      <trkpt lat="51.1954625" lon="-116.3060234">
      </trkpt>
    </trkseg>
    <trkseg>
      <trkpt lat="51.1453153" lon="-116.2592936">
      </trkpt>
      <trkpt lat="51.145502" lon="-116.2594691">
      </trkpt>
      <trkpt lat="51.1460154" lon="-116.2595946">
      </trkpt>
      <trkpt lat="51.1463853" lon="-116.2596553">
      </trkpt>
      <trkpt lat="51.1467071" lon="-116.2595868">
      </trkpt>
      <trkpt lat="51.1469641" lon="-116.2595444">
      </trkpt>
      <trkpt lat="51.1473648" lon="-116.2593653">
      </trkpt>
      <trkpt lat="51.147809" lon="-116.2593833">
      </trkpt>
      <trkpt lat="51.1486032" lon="-116.2592395">
      </trkpt>
      <trkpt lat="51.1492641" lon="-116.2590577">
      </trkpt>
      <trkpt lat="51.1494244" lon="-116.2590361">
      </trkpt>
      <trkpt lat="51.1495758" lon="-116.2589724">
      </trkpt>
      <trkpt lat="51.1497995" lon="-116.258798">
      </trkpt>
    </trkseg>
    <trkseg>
      <trkpt lat="51.1420285" lon="-116.2339862">
      </trkpt>
      <trkpt lat="51.1420049" lon="-116.234132">
      </trkpt>
      <trkpt lat="51.14194" lon="-116.2342669">
      </trkpt>
      <trkpt lat="51.1418264" lon="-116.2343474">
      </trkpt>
      <trkpt lat="51.1417374" lon="-116.2343599">
      </trkpt>
      <trkpt lat="51.1416089" lon="-116.2344064">
      </trkpt>
      <trkpt lat="51.1414988" lon="-116.2345649">
      </trkpt>
      <trkpt lat="51.1413824" lon="-116.2345636">
      </trkpt>
      <trkpt lat="51.1410757" lon="-116.2345574">
      </trkpt>
      <trkpt lat="51.1409648" lon="-116.2346447">
      </trkpt>
      <trkpt lat="51.1408763" lon="-116.2346662">
      </trkpt>
      <trkpt lat="51.1407973" lon="-116.2348172">
      </trkpt>
      <trkpt lat="51.1407452" lon="-116.2349792">
      </trkpt>
      <trkpt lat="51.1406228" lon="-116.235028">
      </trkpt>
      <trkpt lat="51.1405209" lon="-116.2350802">
      </trkpt>
      <trkpt lat="51.1404999" lon="-116.2353113">
      </trkpt>
      <trkpt lat="51.1404261" lon="-116.2355443">
      </trkpt>
      <trkpt lat="51.1404241" lon="-116.2356935">
      </trkpt>
      <trkpt lat="51.1403564" lon="-116.235855">
      </trkpt>
      <trkpt lat="51.1401626" lon="-116.2358702">
      </trkpt>
      <trkpt lat="51.1401033" lon="-116.2361434">
      </trkpt>
      <trkpt lat="51.1397653" lon="-116.2358146">
      </trkpt>
      <trkpt lat="51.1395429" lon="-116.2358732">
      </trkpt>
      <trkpt lat="51.1391855" lon="-116.2364388">
      </trkpt>
      <trkpt lat="51.1390739" lon="-116.2368333">
      </trkpt>
      <trkpt lat="51.1389189" lon="-116.2371286">
      </trkpt>
      <trkpt lat="51.1383715" lon="-116.2372163">
      </trkpt>
      <trkpt lat="51.1382637" lon="-116.2372426">
      </trkpt>
      <trkpt lat="51.1381677" lon="-116.2372901">
      </trkpt>
      <trkpt lat="51.1380849" lon="-116.2374051">
      </trkpt>
      <trkpt lat="51.1379881" lon="-116.2376423">
      </trkpt>
      <trkpt lat="51.1379819" lon="-116.2378267">
      </trkpt>
      <trkpt lat="51.138062" lon="-116.2380297">
      </trkpt>
      <trkpt lat="51.1381975" lon="-116.2382509">
      </trkpt>
      <trkpt lat="51.1383506" lon="-116.2384565">
      </trkpt>
      <trkpt lat="51.1383951" lon="-116.2385465">
      </trkpt>
      <trkpt lat="51.1383749" lon="-116.2386585">
      </trkpt>
      <trkpt lat="51.1382775" lon="-116.2387828">
      </trkpt>
      <trkpt lat="51.138125" lon="-116.2388422">
      </trkpt>
      <trkpt lat="51.1379063" lon="-116.2388811">
      </trkpt>
      <trkpt lat="51.1377923" lon="-116.238855">
      </trkpt>
      <trkpt lat="51.137696" lon="-116.2388594">
      </trkpt>
      <trkpt lat="51.1375277" lon="-116.2389231">
      </trkpt>
      <trkpt lat="51.1374559" lon="-116.2390784">
      </trkpt>
      <trkpt lat="51.1374144" lon="-116.2392809">
      </trkpt>
      <trkpt lat="51.1374568" lon="-116.2396466">
      </trkpt>
      <trkpt lat="51.137451" lon="-116.2397786">
      </trkpt>
      <trkpt lat="51.1374997" lon="-116.2399109">
      </trkpt>
      <trkpt lat="51.1375437" lon="-116.2399492">
      </trkpt>
      <trkpt lat="51.1375591" lon="-116.2399761">
      </trkpt>
      <trkpt lat="51.137561" lon="-116.2400154">
      </trkpt>
      <trkpt lat="51.1375471" lon="-116.2400926">
      </trkpt>
      <trkpt lat="51.1375051" lon="-116.2402006">
      </trkpt>
      <trkpt lat="51.1373429" lon="-116.2404852">
      </trkpt>
      <trkpt lat="51.1372101" lon="-116.240653">
      </trkpt>
      <trkpt lat="51.1370401" lon="-116.2407795">
      </trkpt>
      <trkpt lat="51.1370388" lon="-116.2408296">
      </trkpt>
      <trkpt lat="51.1370566" lon="-116.2408664">
      </trkpt>
      <trkpt lat="51.1374776" lon="-116.2410849">
      </trkpt>
      <trkpt lat="51.1375111" lon="-116.2411464">
      </trkpt>
      <trkpt lat="51.1374615" lon="-116.2411744">
      </trkpt>
      <trkpt lat="51.1373469" lon="-116.2412082">
      </trkpt>
      <trkpt lat="51.1371256" lon="-116.2412726">
      </trkpt>
      <trkpt lat="51.136794" lon="-116.241415">
      </trkpt>
      <trkpt lat="51.1367705" lon="-116.2414363">
      </trkpt>
      <trkpt lat="51.1367547" lon="-116.2414738">
      </trkpt>
      <trkpt lat="51.1368069" lon="-116.2414817">
      </trkpt>
      <trkpt lat="51.1368821" lon="-116.2414936">
      </trkpt>
      <trkpt lat="51.1369274" lon="-116.241546">
      </trkpt>
      <trkpt lat="51.1369034" lon="-116.2417037">
      </trkpt>
      <trkpt lat="51.1369368" lon="-116.2420141">
      </trkpt>
      <trkpt lat="51.1369767" lon="-116.2420603">
      </trkpt>
      <trkpt lat="51.1370465" lon="-116.2420652">
      </trkpt>
      <trkpt lat="51.1370658" lon="-116.242117">
      </trkpt>
      <trkpt lat="51.1370506" lon="-116.2422381">
      </trkpt>
      <trkpt lat="51.1370624" lon="-116.2425481">
      </trkpt>
      <trkpt lat="51.1370547" lon="-116.2426153">
      </trkpt>
      <trkpt lat="51.13707" lon="-116.2426773">
      </trkpt>
      <trkpt lat="51.1371043" lon="-116.2429546">
      </trkpt>
      <trkpt lat="51.1371405" lon="-116.2430057">
      </trkpt>
      <trkpt lat="51.1372002" lon="-116.2430236">
      </trkpt>
      <trkpt lat="51.1372596" lon="-116.2430077">
      </trkpt>
      <trkpt lat="51.1373493" lon="-116.2428969">
      </trkpt>
      <trkpt lat="51.1375234" lon="-116.2426529">
      </trkpt>
      <trkpt lat="51.1375766" lon="-116.2426123">
      </trkpt>
      <trkpt lat="51.1376059" lon="-116.2426245">
      </trkpt>
      <trkpt lat="51.1376177" lon="-116.2426826">
      </trkpt>
      <trkpt lat="51.1376159" lon="-116.2427592">
      </trkpt>
      <trkpt lat="51.1375972" lon="-116.2431869">
      </trkpt>
      <trkpt lat="51.1376123" lon="-116.2434599">
      </trkpt>
      <trkpt lat="51.1376933" lon="-116.2438209">
      </trkpt>
      <trkpt lat="51.1377122" lon="-116.2438945">
      </trkpt>
      <trkpt lat="51.1377215" lon="-116.2439834">
      </trkpt>
      <trkpt lat="51.1377167" lon="-116.2441067">
      </trkpt>
      <trkpt lat="51.1376845" lon="-116.2442185">
      </trkpt>
      <trkpt lat="51.1376455" lon="-116.2442994">
      </trkpt>
      <trkpt lat="51.1376214" lon="-116.2443809">
      </trkpt>
      <trkpt lat="51.1376351" lon="-116.2444508">
      </trkpt>
      <trkpt lat="51.1377082" lon="-116.2445043">
      </trkpt>
      <trkpt lat="51.1377852" lon="-116.2444988">
      </trkpt>
      <trkpt lat="51.1378689" lon="-116.2444505">
      </trkpt>
      <trkpt lat="51.1379426" lon="-116.2443654">
      </trkpt>
      <trkpt lat="51.1379834" lon="-116.2442974">
      </trkpt>
      <trkpt lat="51.1380204" lon="-116.2442632">
      </trkpt>
      <trkpt lat="51.138044" lon="-116.2442661">
      </trkpt>
      <trkpt lat="51.1380682" lon="-116.2443028">
      </trkpt>
      <trkpt lat="51.1380888" lon="-116.2443904">
      </trkpt>
      <trkpt lat="51.1380957" lon="-116.2444708">
      </trkpt>
      <trkpt lat="51.1380961" lon="-116.2445454">
      </trkpt>
      <trkpt lat="51.1380881" lon="-116.2446457">
      </trkpt>
      <trkpt lat="51.138057" lon="-116.2447713">
      </trkpt>
      <trkpt lat="51.1380607" lon="-116.2450126">
      </trkpt>
      <trkpt lat="51.1380207" lon="-116.2452541">
      </trkpt>
      <trkpt lat="51.1380398" lon="-116.2454296">
      </trkpt>
      <trkpt lat="51.1380294" lon="-116.2455385">
      </trkpt>
      <trkpt lat="51.1379213" lon="-116.2456238">
      </trkpt>
      <trkpt lat="51.1379077" lon="-116.2459744">
      </trkpt>
      <trkpt lat="51.1378372" lon="-116.2464174">
      </trkpt>
      <trkpt lat="51.1378146" lon="-116.2467109">
      </trkpt>
      <trkpt lat="51.137901" lon="-116.2467683">
      </trkpt>
      <trkpt lat="51.1384145" lon="-116.2464398">
      </trkpt>
      <trkpt lat="51.1384775" lon="-116.246539">
      </trkpt>
      <trkpt lat="51.1384704" lon="-116.2469154">
      </trkpt>
      <trkpt lat="51.1385203" lon="-116.2471975">
      </trkpt>
      <trkpt lat="51.1386169" lon="-116.2474263">
      </trkpt>
      <trkpt lat="51.1388132" lon="-116.2477678">
      </trkpt>
      <trkpt lat="51.13918" lon="-116.2480558">
      </trkpt>
      <trkpt lat="51.139794" lon="-116.2484164">
      </trkpt>
      <trkpt lat="51.1400127" lon="-116.2484868">
      </trkpt>
      <trkpt lat="51.1402192" lon="-116.2485258">
      </trkpt>
      <trkpt lat="51.1404386" lon="-116.2486117">
      </trkpt>
      <trkpt lat="51.1405764" lon="-116.2487071">
      </trkpt>
      <trkpt lat="51.1406976" lon="-116.2488937">
      </trkpt>
      <trkpt lat="51.1407173" lon="-116.2490343">
      </trkpt>
      <trkpt lat="51.1407194" lon="-116.2492404">
      </trkpt>
      <trkpt lat="51.1408908" lon="-116.2497146">
      </trkpt>
      <trkpt lat="51.141159" lon="-116.2504805">
      </trkpt>
      <trkpt lat="51.141889" lon="-116.2515354">
      </trkpt>
      <trkpt lat="51.1419953" lon="-116.2518381">
      </trkpt>
      <trkpt lat="51.1421206" lon="-116.25211">
      </trkpt>
      <trkpt lat="51.1422453" lon="-116.252534">
      </trkpt>
      <trkpt lat="51.1423202" lon="-116.2526629">
      </trkpt>
      <trkpt lat="51.1425137" lon="-116.252814">
      </trkpt>
      <trkpt lat="51.1430436" lon="-116.2534209">
      </trkpt>
      <trkpt lat="51.1431623" lon="-116.253651">
      </trkpt>
      <trkpt lat="51.1433753" lon="-116.2538898">
      </trkpt>
      <trkpt lat="51.1435795" lon="-116.2542292">
      </trkpt>
      <trkpt lat="51.1437433" lon="-116.2545942">
      </trkpt>
      <trkpt lat="51.1439094" lon="-116.2548537">
      </trkpt>
      <trkpt lat="51.144162" lon="-116.2549777">
      </trkpt>
      <trkpt lat="51.1443777" lon="-116.2551723">
      </trkpt>
      <trkpt lat="51.1447577" lon="-116.2557383">
      </trkpt>
      <trkpt lat="51.144931" lon="-116.2562408">
      </trkpt>
      <trkpt lat="51.1449932" lon="-116.256751">
      </trkpt>
      <trkpt lat="51.1449011" lon="-116.2570082">
      </trkpt>
      <trkpt lat="51.1447892" lon="-116.2574266">
      </trkpt>
      <trkpt lat="51.1447135" lon="-116.2576143">
      </trkpt>
      <trkpt lat="51.144714" lon="-116.2578479">
      </trkpt>
      <trkpt lat="51.1448208" lon="-116.2580415">
      </trkpt>
      <trkpt lat="51.1450057" lon="-116.2584534">
      </trkpt>
      <trkpt lat="51.1450141" lon="-116.2586958">
      </trkpt>
      <trkpt lat="51.1451325" lon="-116.2589233">
      </trkpt>
      <trkpt lat="51.1453153" lon="-116.2592936">
      </trkpt>
    </trkseg>
    <trkseg>
      <trkpt lat="51.1419489" lon="-116.2337713">
      </trkpt>
      <trkpt lat="51.1420285" lon="-116.2339862">
      </trkpt>
    </trkseg>
    <trkseg>
      <trkpt lat="51.1416437" lon="-116.233486">
      </trkpt>
      <trkpt lat="51.1419489" lon="-116.2337713">
      </trkpt>
    </trkseg>
    <trkseg>
      <trkpt lat="51.1132041" lon="-116.1823096">
      </trkpt>
      <trkpt lat="51.1132592" lon="-116.1824528">
      </trkpt>
      <trkpt lat="51.1132967" lon="-116.1825772">
      </trkpt>
      <trkpt lat="51.1132022" lon="-116.1827751">
      </trkpt>
      <trkpt lat="51.1131167" lon="-116.1830227">
      </trkpt>
      <trkpt lat="51.1130038" lon="-116.1833368">
      </trkpt>
      <trkpt lat="51.1129954" lon="-116.183538">
      </trkpt>
      <trkpt lat="51.1129114" lon="-116.1837377">
      </trkpt>
      <trkpt lat="51.112897" lon="-116.1840984">
      </trkpt>
      <trkpt lat="51.112766" lon="-116.1841739">
      </trkpt>
      <trkpt lat="51.112719" lon="-116.1842561">
      </trkpt>
      <trkpt lat="51.1127014" lon="-116.1844454">
      </trkpt>
      <trkpt lat="51.1126517" lon="-116.1845566">
      </trkpt>
      <trkpt lat="51.1126064" lon="-116.1847873">
      </trkpt>
      <trkpt lat="51.1125263" lon="-116.1848961">
      </trkpt>
      <trkpt lat="51.1124683" lon="-116.1850539">
      </trkpt>
      <trkpt lat="51.1124373" lon="-116.1853677">
      </trkpt>
      <trkpt lat="51.1123131" lon="-116.1860592">
      </trkpt>
      <trkpt lat="51.1123324" lon="-116.186443">
      </trkpt>
      <trkpt lat="51.1123918" lon="-116.1866672">
      </trkpt>
      <trkpt lat="51.1123964" lon="-116.1871624">
      </trkpt>
      <trkpt lat="51.1123035" lon="-116.1876029">
      </trkpt>
      <trkpt lat="51.1122958" lon="-116.1877825">
      </trkpt>
      <trkpt lat="51.1124585" lon="-116.1882225">
      </trkpt>
      <trkpt lat="51.1124754" lon="-116.1884163">
      </trkpt>
      <trkpt lat="51.1125683" lon="-116.1885966">
      </trkpt>
      <trkpt lat="51.112569" lon="-116.1888111">
      </trkpt>
      <trkpt lat="51.1123669" lon="-116.1895605">
      </trkpt>
      <trkpt lat="51.1123804" lon="-116.1901232">
      </trkpt>
      <trkpt lat="51.1123316" lon="-116.1904725">
      </trkpt>
      <trkpt lat="51.1123539" lon="-116.1907388">
      </trkpt>
      <trkpt lat="51.1126161" lon="-116.191227">
      </trkpt>
      <trkpt lat="51.112889" lon="-116.1916072">
      </trkpt>
      <trkpt lat="51.1129886" lon="-116.1921231">
      </trkpt>
      <trkpt lat="51.1130895" lon="-116.192361">
      </trkpt>
      <trkpt lat="51.113036" lon="-116.1924901">
      </trkpt>
      <trkpt lat="51.1130145" lon="-116.1927089">
      </trkpt>
      <trkpt lat="51.1131413" lon="-116.1930049">
      </trkpt>
      <trkpt lat="51.1132018" lon="-116.1932598">
      </trkpt>
      <trkpt lat="51.1131949" lon="-116.1939947">
      </trkpt>
      <trkpt lat="51.1132413" lon="-116.19463">
      </trkpt>
      <trkpt lat="51.1133274" lon="-116.195097">
      </trkpt>
      <trkpt lat="51.1135043" lon="-116.1956182">
      </trkpt>
      <trkpt lat="51.1135846" lon="-116.1959493">
      </trkpt>
      <trkpt lat="51.1135947" lon="-116.1961331">
      </trkpt>
      <trkpt lat="51.1135805" lon="-116.1963758">
      </trkpt>
      <trkpt lat="51.1136888" lon="-116.1966158">
      </trkpt>
      <trkpt lat="51.1136749" lon="-116.1968347">
      </trkpt>
      <trkpt lat="51.1137653" lon="-116.197059">
      </trkpt>
      <trkpt lat="51.1137814" lon="-116.1972225">
      </trkpt>
      <trkpt lat="51.1137144" lon="-116.1974474">
      </trkpt>
      <trkpt lat="51.1136767" lon="-116.1977569">
      </trkpt>
      <trkpt lat="51.1136131" lon="-116.1979861">
      </trkpt>
      <trkpt lat="51.113529" lon="-116.1984491">
      </trkpt>
      <trkpt lat="51.1135449" lon="-116.198714">
      </trkpt>
      <trkpt lat="51.1135627" lon="-116.1991794">
      </trkpt>
      <trkpt lat="51.1135228" lon="-116.1994794">
      </trkpt>
      <trkpt lat="51.113533" lon="-116.1997466">
      </trkpt>
      <trkpt lat="51.1136302" lon="-116.2000682">
      </trkpt>
      <trkpt lat="51.1136383" lon="-116.2002783">
      </trkpt>
      <trkpt lat="51.1136368" lon="-116.2009548">
      </trkpt>
      <trkpt lat="51.1136865" lon="-116.2011993">
      </trkpt>
      <trkpt lat="51.1136803" lon="-116.2014102">
      </trkpt>
      <trkpt lat="51.1137231" lon="-116.2016161">
      </trkpt>
      <trkpt lat="51.1138366" lon="-116.2018466">
      </trkpt>
      <trkpt lat="51.1138685" lon="-116.2021289">
      </trkpt>
      <trkpt lat="51.1137282" lon="-116.2025083">
      </trkpt>
      <trkpt lat="51.1137142" lon="-116.2026035">
      </trkpt>
      <trkpt lat="51.11358" lon="-116.2029054">
      </trkpt>
      <trkpt lat="51.1135717" lon="-116.2029992">
      </trkpt>
      <trkpt lat="51.1135174" lon="-116.2031463">
      </trkpt>
      <trkpt lat="51.1134548" lon="-116.2032531">
      </trkpt>
      <trkpt lat="51.1132295" lon="-116.2038953">
      </trkpt>
      <trkpt lat="51.1131917" lon="-116.2041869">
      </trkpt>
      <trkpt lat="51.1131103" lon="-116.2043755">
      </trkpt>
      <trkpt lat="51.1131348" lon="-116.2044538">
      </trkpt>
      <trkpt lat="51.1131677" lon="-116.2046385">
      </trkpt>
      <trkpt lat="51.1131512" lon="-116.204895">
      </trkpt>
      <trkpt lat="51.1131994" lon="-116.2050591">
      </trkpt>
      <trkpt lat="51.1132545" lon="-116.205214">
      </trkpt>
      <trkpt lat="51.1132526" lon="-116.205285">
      </trkpt>
      <trkpt lat="51.113075" lon="-116.2053156">
      </trkpt>
      <trkpt lat="51.1129143" lon="-116.2053195">
      </trkpt>
      <trkpt lat="51.1128301" lon="-116.2053546">
      </trkpt>
      <trkpt lat="51.1127871" lon="-116.2057252">
      </trkpt>
      <trkpt lat="51.1128125" lon="-116.2059763">
      </trkpt>
      <trkpt lat="51.1127946" lon="-116.2060803">
      </trkpt>
      <trkpt lat="51.112721" lon="-116.2062108">
      </trkpt>
      <trkpt lat="51.1127415" lon="-116.206493">
      </trkpt>
      <trkpt lat="51.112784" lon="-116.2066957">
      </trkpt>
      <trkpt lat="51.1128121" lon="-116.206775">
      </trkpt>
      <trkpt lat="51.1128199" lon="-116.2068598">
      </trkpt>
      <trkpt lat="51.1127797" lon="-116.206868">
      </trkpt>
      <trkpt lat="51.1125926" lon="-116.2066921">
      </trkpt>
      <trkpt lat="51.1125421" lon="-116.206609">
      </trkpt>
      <trkpt lat="51.1125047" lon="-116.2065917">
      </trkpt>
      <trkpt lat="51.1124704" lon="-116.20656">
      </trkpt>
      <trkpt lat="51.1124556" lon="-116.2065433">
      </trkpt>
      <trkpt lat="51.1124402" lon="-116.2065287">
      </trkpt>
      <trkpt lat="51.1124228" lon="-116.2065202">
      </trkpt>
      <trkpt lat="51.1123989" lon="-116.2065272">
      </trkpt>
      <trkpt lat="51.1123889" lon="-116.2065605">
      </trkpt>
      <trkpt lat="51.1123943" lon="-116.2066364">
      </trkpt>
      <trkpt lat="51.1124639" lon="-116.206944">
      </trkpt>
      <trkpt lat="51.1124825" lon="-116.2071257">
      </trkpt>
      <trkpt lat="51.1125837" lon="-116.2074192">
      </trkpt>
      <trkpt lat="51.1126922" lon="-116.2077163">
      </trkpt>
      <trkpt lat="51.1127342" lon="-116.2080051">
      </trkpt>
      <trkpt lat="51.1127617" lon="-116.2084829">
      </trkpt>
      <trkpt lat="51.1127756" lon="-116.2086903">
      </trkpt>
      <trkpt lat="51.1128074" lon="-116.2088538">
      </trkpt>
      <trkpt lat="51.1128384" lon="-116.2090243">
      </trkpt>
      <trkpt lat="51.1128997" lon="-116.20905">
      </trkpt>
      <trkpt lat="51.1130075" lon="-116.2090548">
      </trkpt>
      <trkpt lat="51.1130807" lon="-116.2090335">
      </trkpt>
      <trkpt lat="51.1131547" lon="-116.2090499">
      </trkpt>
      <trkpt lat="51.1132896" lon="-116.2091889">
      </trkpt>
      <trkpt lat="51.1133776" lon="-116.2092346">
      </trkpt>
      <trkpt lat="51.1134697" lon="-116.2093636">
      </trkpt>
      <trkpt lat="51.1135793" lon="-116.2094749">
      </trkpt>
      <trkpt lat="51.113643" lon="-116.2095966">
      </trkpt>
      <trkpt lat="51.1136919" lon="-116.2096464">
      </trkpt>
      <trkpt lat="51.1138" lon="-116.2097129">
      </trkpt>
      <trkpt lat="51.1139818" lon="-116.2100359">
      </trkpt>
      <trkpt lat="51.1141707" lon="-116.2102997">
      </trkpt>
      <trkpt lat="51.1143158" lon="-116.2105022">
      </trkpt>
      <trkpt lat="51.114434" lon="-116.2107378">
      </trkpt>
      <trkpt lat="51.1145326" lon="-116.2108653">
      </trkpt>
      <trkpt lat="51.1147175" lon="-116.2110162">
      </trkpt>
      <trkpt lat="51.1147851" lon="-116.2111205">
      </trkpt>
      <trkpt lat="51.1149633" lon="-116.2112691">
      </trkpt>
      <trkpt lat="51.1151381" lon="-116.2115071">
      </trkpt>
      <trkpt lat="51.1154145" lon="-116.2120477">
      </trkpt>
      <trkpt lat="51.1155095" lon="-116.2122009">
      </trkpt>
      <trkpt lat="51.1155205" lon="-116.2122847">
      </trkpt>
      <trkpt lat="51.1156518" lon="-116.2125724">
      </trkpt>
      <trkpt lat="51.1157159" lon="-116.2127548">
      </trkpt>
      <trkpt lat="51.1157247" lon="-116.2128741">
      </trkpt>
      <trkpt lat="51.1156813" lon="-116.2129403">
      </trkpt>
      <trkpt lat="51.1155016" lon="-116.2129483">
      </trkpt>
      <trkpt lat="51.115152" lon="-116.2129279">
      </trkpt>
      <trkpt lat="51.1150624" lon="-116.2129922">
      </trkpt>
      <trkpt lat="51.1149604" lon="-116.2129675">
      </trkpt>
      <trkpt lat="51.1148186" lon="-116.2130266">
      </trkpt>
      <trkpt lat="51.1147458" lon="-116.2130991">
      </trkpt>
      <trkpt lat="51.1147867" lon="-116.2132481">
      </trkpt>
      <trkpt lat="51.1147307" lon="-116.21332">
      </trkpt>
      <trkpt lat="51.1146943" lon="-116.2134052">
      </trkpt>
      <trkpt lat="51.1147307" lon="-116.2135138">
      </trkpt>
      <trkpt lat="51.1146685" lon="-116.2135907">
      </trkpt>
      <trkpt lat="51.1146956" lon="-116.213656">
      </trkpt>
      <trkpt lat="51.1146405" lon="-116.2137037">
      </trkpt>
      <trkpt lat="51.1144299" lon="-116.2137414">
      </trkpt>
      <trkpt lat="51.1141278" lon="-116.2137579">
      </trkpt>
      <trkpt lat="51.1140291" lon="-116.2138022">
      </trkpt>
      <trkpt lat="51.113966" lon="-116.2139078">
      </trkpt>
      <trkpt lat="51.1141357" lon="-116.2140601">
      </trkpt>
      <trkpt lat="51.114211" lon="-116.2142204">
      </trkpt>
      <trkpt lat="51.114313" lon="-116.2142777">
      </trkpt>
      <trkpt lat="51.1143572" lon="-116.2143788">
      </trkpt>
      <trkpt lat="51.1146603" lon="-116.2147244">
      </trkpt>
      <trkpt lat="51.1148412" lon="-116.2150207">
      </trkpt>
      <trkpt lat="51.1149671" lon="-116.2150713">
      </trkpt>
      <trkpt lat="51.11522" lon="-116.2153581">
      </trkpt>
      <trkpt lat="51.1154682" lon="-116.2156053">
      </trkpt>
      <trkpt lat="51.1157477" lon="-116.2159707">
      </trkpt>
      <trkpt lat="51.1157656" lon="-116.2160188">
      </trkpt>
      <trkpt lat="51.1157435" lon="-116.2160628">
      </trkpt>
      <trkpt lat="51.1154481" lon="-116.2160985">
      </trkpt>
      <trkpt lat="51.1154274" lon="-116.2161413">
      </trkpt>
      <trkpt lat="51.1154272" lon="-116.2161882">
      </trkpt>
      <trkpt lat="51.1156847" lon="-116.2165559">
      </trkpt>
      <trkpt lat="51.1157211" lon="-116.2167919">
      </trkpt>
      <trkpt lat="51.1158172" lon="-116.2168789">
      </trkpt>
      <trkpt lat="51.1159177" lon="-116.2168909">
      </trkpt>
      <trkpt lat="51.1161024" lon="-116.2170342">
      </trkpt>
      <trkpt lat="51.1163269" lon="-116.2171215">
      </trkpt>
      <trkpt lat="51.116462" lon="-116.2170924">
      </trkpt>
      <trkpt lat="51.1165386" lon="-116.2171001">
      </trkpt>
      <trkpt lat="51.1166323" lon="-116.2172091">
      </trkpt>
      <trkpt lat="51.1166783" lon="-116.2174191">
      </trkpt>
      <trkpt lat="51.1168028" lon="-116.2175382">
      </trkpt>
      <trkpt lat="51.1168815" lon="-116.2175545">
      </trkpt>
      <trkpt lat="51.1170633" lon="-116.217521">
      </trkpt>
      <trkpt lat="51.1172012" lon="-116.2175913">
      </trkpt>
      <trkpt lat="51.1174257" lon="-116.2177943">
      </trkpt>
      <trkpt lat="51.1175129" lon="-116.2178131">
      </trkpt>
      <trkpt lat="51.1175955" lon="-116.2179175">
      </trkpt>
      <trkpt lat="51.1182703" lon="-116.2196083">
      </trkpt>
      <trkpt lat="51.1185296" lon="-116.2200635">
      </trkpt>
      <trkpt lat="51.118898" lon="-116.2205149">
      </trkpt>
      <trkpt lat="51.1191424" lon="-116.2208689">
      </trkpt>
      <trkpt lat="51.1207499" lon="-116.2228231">
      </trkpt>
      <trkpt lat="51.1207795" lon="-116.2228594">
      </trkpt>
      <trkpt lat="51.1210927" lon="-116.223396">
      </trkpt>
      <trkpt lat="51.1213875" lon="-116.224023">
      </trkpt>
      <trkpt lat="51.1217238" lon="-116.2241392">
      </trkpt>
      <trkpt lat="51.1217776" lon="-116.2241876">
      </trkpt>
      <trkpt lat="51.121846" lon="-116.2242568">
      </trkpt>
      <trkpt lat="51.1218798" lon="-116.2244559">
      </trkpt>
      <trkpt lat="51.1223978" lon="-116.2250003">
      </trkpt>
      <trkpt lat="51.1225041" lon="-116.2250093">
      </trkpt>
      <trkpt lat="51.1225047" lon="-116.2248318">
      </trkpt>
      <trkpt lat="51.122573" lon="-116.2248234">
      </trkpt>
      <trkpt lat="51.1228741" lon="-116.2254096">
      </trkpt>
      <trkpt lat="51.1230019" lon="-116.2255975">
      </trkpt>
      <trkpt lat="51.1231371" lon="-116.2258911">
      </trkpt>
      <trkpt lat="51.1232579" lon="-116.2259101">
      </trkpt>
      <trkpt lat="51.123309" lon="-116.2259661">
      </trkpt>
      <trkpt lat="51.123309" lon="-116.2261817">
      </trkpt>
      <trkpt lat="51.1233541" lon="-116.226383">
      </trkpt>
      <trkpt lat="51.1235744" lon="-116.2265928">
      </trkpt>
      <trkpt lat="51.1236347" lon="-116.2267176">
      </trkpt>
      <trkpt lat="51.1237649" lon="-116.2268768">
      </trkpt>
      <trkpt lat="51.123801" lon="-116.2270876">
      </trkpt>
      <trkpt lat="51.123992" lon="-116.2277247">
      </trkpt>
      <trkpt lat="51.1241333" lon="-116.2279663">
      </trkpt>
      <trkpt lat="51.12444" lon="-116.2290914">
      </trkpt>
      <trkpt lat="51.1248125" lon="-116.2301601">
      </trkpt>
      <trkpt lat="51.1259708" lon="-116.2323345">
      </trkpt>
      <trkpt lat="51.1265228" lon="-116.2328637">
      </trkpt>
      <trkpt lat="51.1272794" lon="-116.2332986">
      </trkpt>
      <trkpt lat="51.1273877" lon="-116.233609">
      </trkpt>
      <trkpt lat="51.1282466" lon="-116.2346662">
      </trkpt>
      <trkpt lat="51.1304146" lon="-116.2364901">
      </trkpt>
      <trkpt lat="51.1309323" lon="-116.2365127">
      </trkpt>
      <trkpt lat="51.1313026" lon="-116.2364515">
      </trkpt>
      <trkpt lat="51.1314556" lon="-116.2364248">
      </trkpt>
      <trkpt lat="51.1316579" lon="-116.2363563">
      </trkpt>
      <trkpt lat="51.1320158" lon="-116.2363715">
      </trkpt>
      <trkpt lat="51.1322262" lon="-116.2363835">
      </trkpt>
      <trkpt lat="51.13233" lon="-116.2364522">
      </trkpt>
      <trkpt lat="51.1325253" lon="-116.2366169">
      </trkpt>
      <trkpt lat="51.1326926" lon="-116.2367417">
      </trkpt>
      <trkpt lat="51.1327962" lon="-116.2367341">
      </trkpt>
      <trkpt lat="51.1328286" lon="-116.2368079">
      </trkpt>
      <trkpt lat="51.1330098" lon="-116.236928">
      </trkpt>
      <trkpt lat="51.133184" lon="-116.2369538">
      </trkpt>
      <trkpt lat="51.1333046" lon="-116.2370364">
      </trkpt>
      <trkpt lat="51.1334227" lon="-116.2369845">
      </trkpt>
      <trkpt lat="51.1336463" lon="-116.2369622">
      </trkpt>
      <trkpt lat="51.1338488" lon="-116.2369628">
      </trkpt>
      <trkpt lat="51.1340006" lon="-116.2367988">
      </trkpt>
      <trkpt lat="51.1341887" lon="-116.2367122">
      </trkpt>
      <trkpt lat="51.1342637" lon="-116.2365572">
      </trkpt>
      <trkpt lat="51.1343349" lon="-116.2365939">
      </trkpt>
      <trkpt lat="51.1345437" lon="-116.2363421">
      </trkpt>
      <trkpt lat="51.1346008" lon="-116.2363361">
      </trkpt>
      <trkpt lat="51.134574" lon="-116.2367414">
      </trkpt>
      <trkpt lat="51.1346535" lon="-116.2367554">
      </trkpt>
      <trkpt lat="51.1348037" lon="-116.2365936">
      </trkpt>
      <trkpt lat="51.1348896" lon="-116.2365712">
      </trkpt>
      <trkpt lat="51.1348963" lon="-116.2366442">
      </trkpt>
      <trkpt lat="51.1349314" lon="-116.2367046">
      </trkpt>
      <trkpt lat="51.1349831" lon="-116.2366797">
      </trkpt>
      <trkpt lat="51.1353054" lon="-116.2365884">
      </trkpt>
      <trkpt lat="51.1357425" lon="-116.2361447">
      </trkpt>
      <trkpt lat="51.1359013" lon="-116.2360839">
      </trkpt>
      <trkpt lat="51.1359808" lon="-116.2359769">
      </trkpt>
      <trkpt lat="51.1361482" lon="-116.2358698">
      </trkpt>
      <trkpt lat="51.1365175" lon="-116.2357887">
      </trkpt>
      <trkpt lat="51.1366349" lon="-116.2358011">
      </trkpt>
      <trkpt lat="51.1371499" lon="-116.2361404">
      </trkpt>
      <trkpt lat="51.137277" lon="-116.23621">
      </trkpt>
      <trkpt lat="51.1373951" lon="-116.2362007">
      </trkpt>
      <trkpt lat="51.1374985" lon="-116.2361502">
      </trkpt>
      <trkpt lat="51.1375843" lon="-116.236081">
      </trkpt>
      <trkpt lat="51.1376007" lon="-116.2360264">
      </trkpt>
      <trkpt lat="51.1376084" lon="-116.2359577">
      </trkpt>
      <trkpt lat="51.1376164" lon="-116.2358373">
      </trkpt>
      <trkpt lat="51.1376371" lon="-116.2358031">
      </trkpt>
      <trkpt lat="51.1376657" lon="-116.2357915">
      </trkpt>
      <trkpt lat="51.137782" lon="-116.2358367">
      </trkpt>
      <trkpt lat="51.1378688" lon="-116.2359708">
      </trkpt>
      <trkpt lat="51.137906" lon="-116.2360014">
      </trkpt>
      <trkpt lat="51.1379501" lon="-116.236003">
      </trkpt>
      <trkpt lat="51.1379835" lon="-116.2359348">
      </trkpt>
      <trkpt lat="51.1382106" lon="-116.2353314">
      </trkpt>
      <trkpt lat="51.1385686" lon="-116.2348962">
      </trkpt>
      <trkpt lat="51.1387966" lon="-116.234901">
      </trkpt>
      <trkpt lat="51.1388985" lon="-116.2347772">
      </trkpt>
      <trkpt lat="51.1389564" lon="-116.2347513">
      </trkpt>
      <trkpt lat="51.1391177" lon="-116.2345432">
      </trkpt>
      <trkpt lat="51.1393516" lon="-116.23434">
      </trkpt>
      <trkpt lat="51.1394611" lon="-116.2343612">
      </trkpt>
      <trkpt lat="51.1395413" lon="-116.2343543">
      </trkpt>
      <trkpt lat="51.1398294" lon="-116.2341055">
      </trkpt>
      <trkpt lat="51.1399493" lon="-116.2340548">
      </trkpt>
      <trkpt lat="51.1401045" lon="-116.2338541">
      </trkpt>
      <trkpt lat="51.1402748" lon="-116.2338059">
      </trkpt>
      <trkpt lat="51.1404274" lon="-116.2337047">
      </trkpt>
      <trkpt lat="51.1404994" lon="-116.2336577">
      </trkpt>
      <trkpt lat="51.1409845" lon="-116.2336018">
      </trkpt>
      <trkpt lat="51.1411169" lon="-116.2334672">
      </trkpt>
      <trkpt lat="51.1412835" lon="-116.2334159">
      </trkpt>
      <trkpt lat="51.141523" lon="-116.2334121">
      </trkpt>
      <trkpt lat="51.1416437" lon="-116.233486">
      </trkpt>
    </trkseg>
    <trkseg>
      <trkpt lat="51.1132041" lon="-116.1823096">
      </trkpt>
      <trkpt lat="51.1129158" lon="-116.1822902">
      </trkpt>
      <trkpt lat="51.1125655" lon="-116.1822399">
      </trkpt>
      <trkpt lat="51.1124532" lon="-116.1821474">
      </trkpt>
      <trkpt lat="51.1122873" lon="-116.1820666">
      </trkpt>
      <trkpt lat="51.1120411" lon="-116.1820676">
      </trkpt>
      <trkpt lat="51.1116724" lon="-116.1819956">
      </trkpt>
      <trkpt lat="51.1115393" lon="-116.1820474">
      </trkpt>
      <trkpt lat="51.1114336" lon="-116.1821119">
      </trkpt>
      <trkpt lat="51.111234" lon="-116.1821001">
      </trkpt>
      <trkpt lat="51.1110686" lon="-116.1822059">
      </trkpt>
      <trkpt lat="51.110975" lon="-116.1822648">
      </trkpt>
      <trkpt lat="51.1108325" lon="-116.1825005">
      </trkpt>
      <trkpt lat="51.1107635" lon="-116.1826873">
      </trkpt>
      <trkpt lat="51.1106135" lon="-116.1828181">
      </trkpt>
      <trkpt lat="51.1104886" lon="-116.1830209">
      </trkpt>
      <trkpt lat="51.1103745" lon="-116.1831578">
      </trkpt>
      <trkpt lat="51.1102958" lon="-116.1831912">
      </trkpt>
      <trkpt lat="51.1101297" lon="-116.1832115">
      </trkpt>
      <trkpt lat="51.1100047" lon="-116.183394">
      </trkpt>
      <trkpt lat="51.1098329" lon="-116.1835387">
      </trkpt>
      <trkpt lat="51.1097466" lon="-116.1834905">
      </trkpt>
      <trkpt lat="51.1097108" lon="-116.1833604">
      </trkpt>
      <trkpt lat="51.1096732" lon="-116.1831689">
      </trkpt>
      <trkpt lat="51.1096893" lon="-116.1829418">
      </trkpt>
      <trkpt lat="51.1095779" lon="-116.1827511">
      </trkpt>
      <trkpt lat="51.1095552" lon="-116.1826591">
      </trkpt>
      <trkpt lat="51.1092942" lon="-116.1821904">
      </trkpt>
      <trkpt lat="51.1089304" lon="-116.1821904">
      </trkpt>
      <trkpt lat="51.1083922" lon="-116.1818465">
      </trkpt>
      <trkpt lat="51.1080891" lon="-116.1810526">
      </trkpt>
      <trkpt lat="51.1073212" lon="-116.1800655">
      </trkpt>
      <trkpt lat="51.1073138" lon="-116.1795189">
      </trkpt>
      <trkpt lat="51.1070241" lon="-116.1787571">
      </trkpt>
      <trkpt lat="51.1062838" lon="-116.1787673">
      </trkpt>
      <trkpt lat="51.1057711" lon="-116.1781778">
      </trkpt>
      <trkpt lat="51.104727" lon="-116.1773838">
      </trkpt>
      <trkpt lat="51.1039455" lon="-116.1768045">
      </trkpt>
      <trkpt lat="51.1032725" lon="-116.1763104">
      </trkpt>
      <trkpt lat="51.101911" lon="-116.1754956">
      </trkpt>
      <trkpt lat="51.1009819" lon="-116.1755379">
      </trkpt>
      <trkpt lat="51.1008802" lon="-116.1751415">
      </trkpt>
      <trkpt lat="51.0993643" lon="-116.1743368">
      </trkpt>
      <trkpt lat="51.0988193" lon="-116.1737677">
      </trkpt>
      <trkpt lat="51.0988455" lon="-116.1735644">
      </trkpt>
      <trkpt lat="51.0982594" lon="-116.1726739">
      </trkpt>
      <trkpt lat="51.097748" lon="-116.1720513">
      </trkpt>
      <trkpt lat="51.0966423" lon="-116.1714508">
      </trkpt>
      <trkpt lat="51.0962886" lon="-116.17166">
      </trkpt>
      <trkpt lat="51.0953426" lon="-116.1717456">
      </trkpt>
      <trkpt lat="51.0946614" lon="-116.1712791">
      </trkpt>
      <trkpt lat="51.0936473" lon="-116.1708124">
      </trkpt>
      <trkpt lat="51.0930476" lon="-116.1705066">
      </trkpt>
      <trkpt lat="51.0922996" lon="-116.1698897">
      </trkpt>
      <trkpt lat="51.091741" lon="-116.1689829">
      </trkpt>
      <trkpt lat="51.0911749" lon="-116.167733">
      </trkpt>
      <trkpt lat="51.0907066" lon="-116.1673146">
      </trkpt>
      <trkpt lat="51.0903663" lon="-116.1661719">
      </trkpt>
      <trkpt lat="51.0889741" lon="-116.1653461">
      </trkpt>
      <trkpt lat="51.088904" lon="-116.1644875">
      </trkpt>
      <trkpt lat="51.0879976" lon="-116.1632591">
      </trkpt>
      <trkpt lat="51.0874349" lon="-116.1622774">
      </trkpt>
      <trkpt lat="51.0881088" lon="-116.1623149">
      </trkpt>
      <trkpt lat="51.0882025" lon="-116.1619343">
      </trkpt>
      <trkpt lat="51.0870366" lon="-116.160325">
      </trkpt>
      <trkpt lat="51.0873028" lon="-116.1596973">
      </trkpt>
      <trkpt lat="51.0864098" lon="-116.1593808">
      </trkpt>
      <trkpt lat="51.0863728" lon="-116.1591663">
      </trkpt>
      <trkpt lat="51.0869867" lon="-116.1583989">
      </trkpt>
      <trkpt lat="51.0865615" lon="-116.1576213">
      </trkpt>
      <trkpt lat="51.0866289" lon="-116.1566665">
      </trkpt>
      <trkpt lat="51.085901" lon="-116.1561837">
      </trkpt>
      <trkpt lat="51.0858276" lon="-116.1558883">
      </trkpt>
      <trkpt lat="51.085591" lon="-116.155674">
      </trkpt>
      <trkpt lat="51.0854427" lon="-116.1548855">
      </trkpt>
      <trkpt lat="51.0849548" lon="-116.1553197">
      </trkpt>
      <trkpt lat="51.0846077" lon="-116.1551481">
      </trkpt>
      <trkpt lat="51.084574" lon="-116.1548959">
      </trkpt>
      <trkpt lat="51.0847829" lon="-116.154676">
      </trkpt>
      <trkpt lat="51.0848604" lon="-116.1541395">
      </trkpt>
      <trkpt lat="51.0844082" lon="-116.1530777">
      </trkpt>
      <trkpt lat="51.084388" lon="-116.1534854">
      </trkpt>
      <trkpt lat="51.0841487" lon="-116.1537053">
      </trkpt>
      <trkpt lat="51.0837073" lon="-116.153598">
      </trkpt>
      <trkpt lat="51.0837216" lon="-116.1534368">
      </trkpt>
      <trkpt lat="51.0835017" lon="-116.1530777">
      </trkpt>
      <trkpt lat="51.083607" lon="-116.1526268">
      </trkpt>
      <trkpt lat="51.0833914" lon="-116.1516129">
      </trkpt>
      <trkpt lat="51.0832861" lon="-116.1520531">
      </trkpt>
      <trkpt lat="51.0829895" lon="-116.1519565">
      </trkpt>
      <trkpt lat="51.0829356" lon="-116.1510875">
      </trkpt>
      <trkpt lat="51.0827545" lon="-116.1515432">
      </trkpt>
      <trkpt lat="51.0825219" lon="-116.1507009">
      </trkpt>
      <trkpt lat="51.0816516" lon="-116.1492045">
      </trkpt>
      <trkpt lat="51.0810889" lon="-116.1485447">
      </trkpt>
      <trkpt lat="51.0811942" lon="-116.1492418">
      </trkpt>
      <trkpt lat="51.0814494" lon="-116.149682">
      </trkpt>
      <trkpt lat="51.0815101" lon="-116.1508675">
      </trkpt>
      <trkpt lat="51.0814436" lon="-116.1509048">
      </trkpt>
      <trkpt lat="51.0813256" lon="-116.150717">
      </trkpt>
      <trkpt lat="51.0812346" lon="-116.1508404">
      </trkpt>
      <trkpt lat="51.0812414" lon="-116.1505883">
      </trkpt>
      <trkpt lat="51.0810762" lon="-116.1503898">
      </trkpt>
      <trkpt lat="51.0807788" lon="-116.1502452">
      </trkpt>
      <trkpt lat="51.0802565" lon="-116.1488559">
      </trkpt>
      <trkpt lat="51.0801351" lon="-116.1492957">
      </trkpt>
      <trkpt lat="51.0796701" lon="-116.1485394">
      </trkpt>
      <trkpt lat="51.0791241" lon="-116.1489149">
      </trkpt>
      <trkpt lat="51.0789691" lon="-116.1489095">
      </trkpt>
      <trkpt lat="51.0788983" lon="-116.1487432">
      </trkpt>
      <trkpt lat="51.0788115" lon="-116.148861">
      </trkpt>
      <trkpt lat="51.0788486" lon="-116.1491721">
      </trkpt>
      <trkpt lat="51.0790373" lon="-116.1492955">
      </trkpt>
      <trkpt lat="51.0792361" lon="-116.1501967">
      </trkpt>
      <trkpt lat="51.0790609" lon="-116.1502825">
      </trkpt>
      <trkpt lat="51.078717" lon="-116.150105">
      </trkpt>
      <trkpt lat="51.0782183" lon="-116.1500519">
      </trkpt>
      <trkpt lat="51.0776614" lon="-116.1494942">
      </trkpt>
      <trkpt lat="51.0768829" lon="-116.148872">
      </trkpt>
      <trkpt lat="51.0756325" lon="-116.1473109">
      </trkpt>
      <trkpt lat="51.0754547" lon="-116.1474984">
      </trkpt>
      <trkpt lat="51.0752187" lon="-116.1471175">
      </trkpt>
      <trkpt lat="51.0749415" lon="-116.1470427">
      </trkpt>
      <trkpt lat="51.0746382" lon="-116.1466886">
      </trkpt>
      <trkpt lat="51.0744224" lon="-116.1465438">
      </trkpt>
      <trkpt lat="51.0741494" lon="-116.1467423">
      </trkpt>
      <trkpt lat="51.0739068" lon="-116.1464204">
      </trkpt>
      <trkpt lat="51.0736607" lon="-116.1446126">
      </trkpt>
      <trkpt lat="51.0731989" lon="-116.1438294">
      </trkpt>
      <trkpt lat="51.0723504" lon="-116.1430191">
      </trkpt>
      <trkpt lat="51.0715953" lon="-116.1427187">
      </trkpt>
      <trkpt lat="51.0709305" lon="-116.1419519">
      </trkpt>
      <trkpt lat="51.0701484" lon="-116.1406912">
      </trkpt>
      <trkpt lat="51.0693327" lon="-116.1385615">
      </trkpt>
      <trkpt lat="51.0682102" lon="-116.1373599">
      </trkpt>
      <trkpt lat="51.0666806" lon="-116.1373275">
      </trkpt>
      <trkpt lat="51.0663974" lon="-116.1385344">
      </trkpt>
      <trkpt lat="51.0659448" lon="-116.138186">
      </trkpt>
      <trkpt lat="51.0658875" lon="-116.1389049">
      </trkpt>
      <trkpt lat="51.0656616" lon="-116.1386849">
      </trkpt>
      <trkpt lat="51.0657063" lon="-116.1392855">
      </trkpt>
      <trkpt lat="51.0656144" lon="-116.1392911">
      </trkpt>
      <trkpt lat="51.065456" lon="-116.1391302">
      </trkpt>
      <trkpt lat="51.0653212" lon="-116.1391302">
      </trkpt>
      <trkpt lat="51.0652234" lon="-116.139554">
      </trkpt>
      <trkpt lat="51.0643604" lon="-116.1395218">
      </trkpt>
      <trkpt lat="51.0641041" lon="-116.1396452">
      </trkpt>
      <trkpt lat="51.0635614" lon="-116.1392696">
      </trkpt>
      <trkpt lat="51.0629688" lon="-116.1385881">
      </trkpt>
      <trkpt lat="51.0625643" lon="-116.1388295">
      </trkpt>
      <trkpt lat="51.0625061" lon="-116.139334">
      </trkpt>
      <trkpt lat="51.0623822" lon="-116.139323">
      </trkpt>
      <trkpt lat="51.0620173" lon="-116.1395486">
      </trkpt>
      <trkpt lat="51.0616877" lon="-116.1399775">
      </trkpt>
      <trkpt lat="51.0613025" lon="-116.1400743">
      </trkpt>
      <trkpt lat="51.0603551" lon="-116.1401494">
      </trkpt>
      <trkpt lat="51.0598056" lon="-116.1406483">
      </trkpt>
      <trkpt lat="51.0582622" lon="-116.1391406">
      </trkpt>
      <trkpt lat="51.05748" lon="-116.1381858">
      </trkpt>
      <trkpt lat="51.05668" lon="-116.137317">
      </trkpt>
      <trkpt lat="51.0563909" lon="-116.1374455">
      </trkpt>
      <trkpt lat="51.0560764" lon="-116.1376442">
      </trkpt>
      <trkpt lat="51.0557199" lon="-116.1372684">
      </trkpt>
      <trkpt lat="51.0551357" lon="-116.1373867">
      </trkpt>
      <trkpt lat="51.0548592" lon="-116.1379285">
      </trkpt>
      <trkpt lat="51.054597" lon="-116.1368608">
      </trkpt>
      <trkpt lat="51.05437" lon="-116.136">
      </trkpt>
    </trkseg>
    <trkseg>
      <trkpt lat="51.0843955" lon="-116.0738859">
      </trkpt>
      <trkpt lat="51.08445" lon="-116.07392">
      </trkpt>
      <trkpt lat="51.08449" lon="-116.07395">
      </trkpt>
      <trkpt lat="51.08445" lon="-116.07447">
      </trkpt>
      <trkpt lat="51.08449" lon="-116.07495">
      </trkpt>
      <trkpt lat="51.08441" lon="-116.07521">
      </trkpt>
      <trkpt lat="51.0845285" lon="-116.0761165">
      </trkpt>
      <trkpt lat="51.0845137" lon="-116.0765655">
      </trkpt>
      <trkpt lat="51.08462" lon="-116.07661">
      </trkpt>
      <trkpt lat="51.08479" lon="-116.07678">
      </trkpt>
      <trkpt lat="51.08484" lon="-116.07695">
      </trkpt>
      <trkpt lat="51.08475" lon="-116.07727">
      </trkpt>
      <trkpt lat="51.08406" lon="-116.07777">
      </trkpt>
      <trkpt lat="51.0836814" lon="-116.0782397">
      </trkpt>
      <trkpt lat="51.08351" lon="-116.0785">
      </trkpt>
      <trkpt lat="51.08368" lon="-116.07846">
      </trkpt>
      <trkpt lat="51.08428" lon="-116.07824">
      </trkpt>
      <trkpt lat="51.08432" lon="-116.07833">
      </trkpt>
      <trkpt lat="51.08497" lon="-116.07841">
      </trkpt>
      <trkpt lat="51.08505" lon="-116.07854">
      </trkpt>
      <trkpt lat="51.08514" lon="-116.07859">
      </trkpt>
      <trkpt lat="51.08535" lon="-116.07859">
      </trkpt>
      <trkpt lat="51.08629" lon="-116.07901">
      </trkpt>
      <trkpt lat="51.08634" lon="-116.0791">
      </trkpt>
      <trkpt lat="51.08608" lon="-116.0791">
      </trkpt>
      <trkpt lat="51.08574" lon="-116.07901">
      </trkpt>
      <trkpt lat="51.08531" lon="-116.07914">
      </trkpt>
      <trkpt lat="51.08526" lon="-116.07923">
      </trkpt>
      <trkpt lat="51.08505" lon="-116.07923">
      </trkpt>
      <trkpt lat="51.08497" lon="-116.07914">
      </trkpt>
      <trkpt lat="51.08488" lon="-116.07914">
      </trkpt>
      <trkpt lat="51.0844214" lon="-116.0794113">
      </trkpt>
      <trkpt lat="51.0841848" lon="-116.079524">
      </trkpt>
      <trkpt lat="51.0839051" lon="-116.0796543">
      </trkpt>
      <trkpt lat="51.08368" lon="-116.0797">
      </trkpt>
      <trkpt lat="51.08355" lon="-116.0797">
      </trkpt>
      <trkpt lat="51.08278" lon="-116.08052">
      </trkpt>
      <trkpt lat="51.08222" lon="-116.08094">
      </trkpt>
      <trkpt lat="51.08183" lon="-116.08113">
      </trkpt>
      <trkpt lat="51.08119" lon="-116.08155">
      </trkpt>
      <trkpt lat="51.08059" lon="-116.08176">
      </trkpt>
      <trkpt lat="51.0793" lon="-116.08258">
      </trkpt>
      <trkpt lat="51.079" lon="-116.08287">
      </trkpt>
      <trkpt lat="51.07883" lon="-116.08313">
      </trkpt>
      <trkpt lat="51.0782492" lon="-116.0839378">
      </trkpt>
      <trkpt lat="51.0780038" lon="-116.084514">
      </trkpt>
      <trkpt lat="51.077746" lon="-116.0849372">
      </trkpt>
      <trkpt lat="51.07724" lon="-116.08528">
      </trkpt>
      <trkpt lat="51.07703" lon="-116.08558">
      </trkpt>
      <trkpt lat="51.07673" lon="-116.08609">
      </trkpt>
      <trkpt lat="51.07643" lon="-116.08648">
      </trkpt>
      <trkpt lat="51.07621" lon="-116.08691">
      </trkpt>
      <trkpt lat="51.07587" lon="-116.08731">
      </trkpt>
      <trkpt lat="51.07548" lon="-116.08786">
      </trkpt>
      <trkpt lat="51.0752742" lon="-116.0884128">
      </trkpt>
      <trkpt lat="51.0750045" lon="-116.0887138">
      </trkpt>
      <trkpt lat="51.07479" lon="-116.08905">
      </trkpt>
      <trkpt lat="51.07449" lon="-116.0894">
      </trkpt>
      <trkpt lat="51.07428" lon="-116.08953">
      </trkpt>
      <trkpt lat="51.07402" lon="-116.08995">
      </trkpt>
      <trkpt lat="51.07389" lon="-116.08995">
      </trkpt>
      <trkpt lat="51.07372" lon="-116.08983">
      </trkpt>
      <trkpt lat="51.07368" lon="-116.08987">
      </trkpt>
      <trkpt lat="51.07334" lon="-116.08983">
      </trkpt>
      <trkpt lat="51.07312" lon="-116.08992">
      </trkpt>
      <trkpt lat="51.0727341" lon="-116.0905135">
      </trkpt>
      <trkpt lat="51.0725555" lon="-116.0911202">
      </trkpt>
      <trkpt lat="51.0724311" lon="-116.091455">
      </trkpt>
      <trkpt lat="51.0720185" lon="-116.0921872">
      </trkpt>
      <trkpt lat="51.07175" lon="-116.09288">
      </trkpt>
      <trkpt lat="51.07166" lon="-116.09305">
      </trkpt>
      <trkpt lat="51.07149" lon="-116.09356">
      </trkpt>
      <trkpt lat="51.0711" lon="-116.09407">
      </trkpt>
      <trkpt lat="51.07085" lon="-116.0942">
      </trkpt>
      <trkpt lat="51.07033" lon="-116.09485">
      </trkpt>
      <trkpt lat="51.069929" lon="-116.0964053">
      </trkpt>
      <trkpt lat="51.0690495" lon="-116.0970554">
      </trkpt>
      <trkpt lat="51.0688254" lon="-116.0974379">
      </trkpt>
      <trkpt lat="51.0684785" lon="-116.0976793">
      </trkpt>
      <trkpt lat="51.06784" lon="-116.09777">
      </trkpt>
      <trkpt lat="51.0675808" lon="-116.0978354">
      </trkpt>
      <trkpt lat="51.0673182" lon="-116.0979116">
      </trkpt>
      <trkpt lat="51.0671169" lon="-116.098079">
      </trkpt>
      <trkpt lat="51.06668" lon="-116.09841">
      </trkpt>
      <trkpt lat="51.066375" lon="-116.0993267">
      </trkpt>
      <trkpt lat="51.06587" lon="-116.10017">
      </trkpt>
      <trkpt lat="51.06574" lon="-116.10077">
      </trkpt>
      <trkpt lat="51.06552" lon="-116.10129">
      </trkpt>
      <trkpt lat="51.06552" lon="-116.10147">
      </trkpt>
      <trkpt lat="51.06522" lon="-116.10167">
      </trkpt>
      <trkpt lat="51.06484" lon="-116.10206">
      </trkpt>
      <trkpt lat="51.06437" lon="-116.10193">
      </trkpt>
      <trkpt lat="51.0641523" lon="-116.1019692">
      </trkpt>
      <trkpt lat="51.0639919" lon="-116.1021876">
      </trkpt>
      <trkpt lat="51.0638584" lon="-116.1024837">
      </trkpt>
      <trkpt lat="51.0640876" lon="-116.1023678">
      </trkpt>
      <trkpt lat="51.06402" lon="-116.1025">
      </trkpt>
      <trkpt lat="51.06389" lon="-116.10263">
      </trkpt>
      <trkpt lat="51.06389" lon="-116.10322">
      </trkpt>
      <trkpt lat="51.06398" lon="-116.10317">
      </trkpt>
      <trkpt lat="51.06407" lon="-116.10292">
      </trkpt>
      <trkpt lat="51.06415" lon="-116.10283">
      </trkpt>
      <trkpt lat="51.06424" lon="-116.10366">
      </trkpt>
      <trkpt lat="51.06424" lon="-116.1045">
      </trkpt>
      <trkpt lat="51.06407" lon="-116.10494">
      </trkpt>
      <trkpt lat="51.06398" lon="-116.10553">
      </trkpt>
      <trkpt lat="51.06389" lon="-116.10575">
      </trkpt>
      <trkpt lat="51.06372" lon="-116.10592">
      </trkpt>
      <trkpt lat="51.06325" lon="-116.10597">
      </trkpt>
      <trkpt lat="51.06316" lon="-116.10622">
      </trkpt>
      <trkpt lat="51.0630952" lon="-116.1067545">
      </trkpt>
      <trkpt lat="51.06308" lon="-116.10688">
      </trkpt>
      <trkpt lat="51.06287" lon="-116.10785">
      </trkpt>
      <trkpt lat="51.06269" lon="-116.10849">
      </trkpt>
      <trkpt lat="51.06252" lon="-116.10881">
      </trkpt>
      <trkpt lat="51.06213" lon="-116.10862">
      </trkpt>
      <trkpt lat="51.0617513" lon="-116.1086613">
      </trkpt>
      <trkpt lat="51.0616087" lon="-116.1088856">
      </trkpt>
      <trkpt lat="51.06145" lon="-116.10914">
      </trkpt>
      <trkpt lat="51.06145" lon="-116.10978">
      </trkpt>
      <trkpt lat="51.06136" lon="-116.11013">
      </trkpt>
      <trkpt lat="51.06128" lon="-116.111">
      </trkpt>
      <trkpt lat="51.06132" lon="-116.11124">
      </trkpt>
      <trkpt lat="51.0614" lon="-116.11141">
      </trkpt>
      <trkpt lat="51.0614" lon="-116.11159">
      </trkpt>
      <trkpt lat="51.06059" lon="-116.11184">
      </trkpt>
      <trkpt lat="51.0602" lon="-116.11215">
      </trkpt>
      <trkpt lat="51.06007" lon="-116.1124">
      </trkpt>
      <trkpt lat="51.05973" lon="-116.1127">
      </trkpt>
      <trkpt lat="51.05956" lon="-116.11313">
      </trkpt>
      <trkpt lat="51.05909" lon="-116.11373">
      </trkpt>
      <trkpt lat="51.0587" lon="-116.11403">
      </trkpt>
      <trkpt lat="51.05857" lon="-116.11421">
      </trkpt>
      <trkpt lat="51.05814" lon="-116.11447">
      </trkpt>
      <trkpt lat="51.05801" lon="-116.11463">
      </trkpt>
      <trkpt lat="51.05763" lon="-116.11545">
      </trkpt>
      <trkpt lat="51.05741" lon="-116.11576">
      </trkpt>
      <trkpt lat="51.0572" lon="-116.11622">
      </trkpt>
      <trkpt lat="51.05703" lon="-116.11648">
      </trkpt>
      <trkpt lat="51.05643" lon="-116.11666">
      </trkpt>
      <trkpt lat="51.05634" lon="-116.11661">
      </trkpt>
      <trkpt lat="51.05621" lon="-116.11643">
      </trkpt>
      <trkpt lat="51.0560862" lon="-116.1163443">
      </trkpt>
      <trkpt lat="51.0559959" lon="-116.1164752">
      </trkpt>
      <trkpt lat="51.056" lon="-116.11669">
      </trkpt>
      <trkpt lat="51.056" lon="-116.11695">
      </trkpt>
      <trkpt lat="51.05613" lon="-116.11738">
      </trkpt>
      <trkpt lat="51.056" lon="-116.11789">
      </trkpt>
      <trkpt lat="51.056" lon="-116.11828">
      </trkpt>
      <trkpt lat="51.05561" lon="-116.11911">
      </trkpt>
      <trkpt lat="51.05553" lon="-116.11962">
      </trkpt>
      <trkpt lat="51.05527" lon="-116.12034">
      </trkpt>
      <trkpt lat="51.05514" lon="-116.12052">
      </trkpt>
      <trkpt lat="51.05501" lon="-116.12091">
      </trkpt>
      <trkpt lat="51.05501" lon="-116.12107">
      </trkpt>
      <trkpt lat="51.05514" lon="-116.12137">
      </trkpt>
      <trkpt lat="51.0551" lon="-116.12142">
      </trkpt>
      <trkpt lat="51.0549415" lon="-116.1212624">
      </trkpt>
      <trkpt lat="51.0548226" lon="-116.1214745">
      </trkpt>
      <trkpt lat="51.0549541" lon="-116.1215126">
      </trkpt>
      <trkpt lat="51.0549958" lon="-116.1216373">
      </trkpt>
      <trkpt lat="51.054686" lon="-116.1219549">
      </trkpt>
      <trkpt lat="51.0548" lon="-116.12201">
      </trkpt>
      <trkpt lat="51.05484" lon="-116.12207">
      </trkpt>
      <trkpt lat="51.0549099" lon="-116.1221494">
      </trkpt>
      <trkpt lat="51.0549718" lon="-116.122214">
      </trkpt>
      <trkpt lat="51.055046" lon="-116.122365">
      </trkpt>
      <trkpt lat="51.0547671" lon="-116.1226842">
      </trkpt>
      <trkpt lat="51.0546463" lon="-116.1228714">
      </trkpt>
      <trkpt lat="51.0544342" lon="-116.1230734">
      </trkpt>
      <trkpt lat="51.0548659" lon="-116.1229776">
      </trkpt>
      <trkpt lat="51.0548278" lon="-116.123215">
      </trkpt>
      <trkpt lat="51.0547051" lon="-116.1233961">
      </trkpt>
      <trkpt lat="51.05445" lon="-116.12326">
      </trkpt>
      <trkpt lat="51.05402" lon="-116.1236">
      </trkpt>
      <trkpt lat="51.05407" lon="-116.12364">
      </trkpt>
      <trkpt lat="51.05415" lon="-116.1236">
      </trkpt>
      <trkpt lat="51.05432" lon="-116.12369">
      </trkpt>
      <trkpt lat="51.05411" lon="-116.1239">
      </trkpt>
      <trkpt lat="51.05407" lon="-116.124">
      </trkpt>
      <trkpt lat="51.05437" lon="-116.12395">
      </trkpt>
      <trkpt lat="51.05398" lon="-116.12438">
      </trkpt>
      <trkpt lat="51.05385" lon="-116.12464">
      </trkpt>
      <trkpt lat="51.05385" lon="-116.1248">
      </trkpt>
      <trkpt lat="51.05394" lon="-116.12503">
      </trkpt>
      <trkpt lat="51.0541991" lon="-116.1246546">
      </trkpt>
      <trkpt lat="51.05419" lon="-116.1249">
      </trkpt>
      <trkpt lat="51.05441" lon="-116.1248">
      </trkpt>
      <trkpt lat="51.05458" lon="-116.12459">
      </trkpt>
      <trkpt lat="51.05454" lon="-116.1249">
      </trkpt>
      <trkpt lat="51.05463" lon="-116.12549">
      </trkpt>
      <trkpt lat="51.05458" lon="-116.12557">
      </trkpt>
      <trkpt lat="51.05454" lon="-116.1258">
      </trkpt>
      <trkpt lat="51.05445" lon="-116.12596">
      </trkpt>
      <trkpt lat="51.05441" lon="-116.12622">
      </trkpt>
      <trkpt lat="51.0542962" lon="-116.1264162">
      </trkpt>
      <trkpt lat="51.0540983" lon="-116.1262532">
      </trkpt>
      <trkpt lat="51.0539346" lon="-116.1262392">
      </trkpt>
      <trkpt lat="51.05373" lon="-116.12613">
      </trkpt>
      <trkpt lat="51.05342" lon="-116.12652">
      </trkpt>
      <trkpt lat="51.05351" lon="-116.12665">
      </trkpt>
      <trkpt lat="51.05316" lon="-116.12691">
      </trkpt>
      <trkpt lat="51.05304" lon="-116.12709">
      </trkpt>
      <trkpt lat="51.05286" lon="-116.12722">
      </trkpt>
      <trkpt lat="51.05282" lon="-116.12734">
      </trkpt>
      <trkpt lat="51.05248" lon="-116.12773">
      </trkpt>
      <trkpt lat="51.05226" lon="-116.12776">
      </trkpt>
      <trkpt lat="51.0522695" lon="-116.1280197">
      </trkpt>
      <trkpt lat="51.05248" lon="-116.12832">
      </trkpt>
      <trkpt lat="51.05265" lon="-116.12825">
      </trkpt>
      <trkpt lat="51.05291" lon="-116.12828">
      </trkpt>
      <trkpt lat="51.05325" lon="-116.12819">
      </trkpt>
      <trkpt lat="51.05368" lon="-116.12845">
      </trkpt>
      <trkpt lat="51.0536" lon="-116.12854">
      </trkpt>
      <trkpt lat="51.05299" lon="-116.12889">
      </trkpt>
      <trkpt lat="51.05278" lon="-116.12915">
      </trkpt>
      <trkpt lat="51.05325" lon="-116.12935">
      </trkpt>
      <trkpt lat="51.05321" lon="-116.1294">
      </trkpt>
      <trkpt lat="51.05329" lon="-116.12957">
      </trkpt>
      <trkpt lat="51.05338" lon="-116.12953">
      </trkpt>
      <trkpt lat="51.05334" lon="-116.12969">
      </trkpt>
      <trkpt lat="51.05325" lon="-116.12961">
      </trkpt>
      <trkpt lat="51.05321" lon="-116.12969">
      </trkpt>
      <trkpt lat="51.05321" lon="-116.12987">
      </trkpt>
      <trkpt lat="51.05308" lon="-116.13034">
      </trkpt>
      <trkpt lat="51.05304" lon="-116.13064">
      </trkpt>
      <trkpt lat="51.05312" lon="-116.13082">
      </trkpt>
      <trkpt lat="51.05312" lon="-116.13108">
      </trkpt>
      <trkpt lat="51.05321" lon="-116.13124">
      </trkpt>
      <trkpt lat="51.0532115" lon="-116.1314025">
      </trkpt>
      <trkpt lat="51.053255" lon="-116.1315527">
      </trkpt>
      <trkpt lat="51.0533543" lon="-116.1317562">
      </trkpt>
      <trkpt lat="51.05342" lon="-116.13188">
      </trkpt>
      <trkpt lat="51.053333" lon="-116.1327017">
      </trkpt>
      <trkpt lat="51.0534418" lon="-116.133283">
      </trkpt>
      <trkpt lat="51.05368" lon="-116.13378">
      </trkpt>
      <trkpt lat="51.05377" lon="-116.13404">
      </trkpt>
      <trkpt lat="51.05402" lon="-116.1345">
      </trkpt>
      <trkpt lat="51.05415" lon="-116.13484">
      </trkpt>
      <trkpt lat="51.05415" lon="-116.13507">
      </trkpt>
      <trkpt lat="51.05424" lon="-116.13536">
      </trkpt>
      <trkpt lat="51.05419" lon="-116.13549">
      </trkpt>
      <trkpt lat="51.05419" lon="-116.13571">
      </trkpt>
      <trkpt lat="51.05437" lon="-116.136">
      </trkpt>
    </trkseg>
    <trkseg>
      <trkpt lat="51.0842805" lon="-116.0738729">
      </trkpt>
      <trkpt lat="51.0843955" lon="-116.0738859">
      </trkpt>
    </trkseg>
    <trkseg>
      <trkpt lat="51.0788794" lon="-116.0576519">
      </trkpt>
      <trkpt lat="51.07879" lon="-116.05773">
      </trkpt>
      <trkpt lat="51.0793" lon="-116.05979">
      </trkpt>
      <trkpt lat="51.07947" lon="-116.06026">
      </trkpt>
      <trkpt lat="51.08012" lon="-116.06134">
      </trkpt>
      <trkpt lat="51.08055" lon="-116.0618">
      </trkpt>
      <trkpt lat="51.0807114" lon="-116.0620468">
      </trkpt>
      <trkpt lat="51.08072" lon="-116.06206">
      </trkpt>
      <trkpt lat="51.08127" lon="-116.06317">
      </trkpt>
      <trkpt lat="51.08132" lon="-116.06322">
      </trkpt>
      <trkpt lat="51.08158" lon="-116.06386">
      </trkpt>
      <trkpt lat="51.08183" lon="-116.06478">
      </trkpt>
      <trkpt lat="51.08222" lon="-116.06554">
      </trkpt>
      <trkpt lat="51.08248" lon="-116.06652">
      </trkpt>
      <trkpt lat="51.08308" lon="-116.06781">
      </trkpt>
      <trkpt lat="51.08338" lon="-116.06961">
      </trkpt>
      <trkpt lat="51.08359" lon="-116.07">
      </trkpt>
      <trkpt lat="51.08372" lon="-116.07061">
      </trkpt>
      <trkpt lat="51.08376" lon="-116.07099">
      </trkpt>
      <trkpt lat="51.0838935" lon="-116.0714343">
      </trkpt>
      <trkpt lat="51.0840258" lon="-116.0718688">
      </trkpt>
      <trkpt lat="51.0841468" lon="-116.0721841">
      </trkpt>
      <trkpt lat="51.0841446" lon="-116.0723614">
      </trkpt>
      <trkpt lat="51.0840523" lon="-116.0729339">
      </trkpt>
      <trkpt lat="51.0841591" lon="-116.0731818">
      </trkpt>
      <trkpt lat="51.0841993" lon="-116.073423">
      </trkpt>
      <trkpt lat="51.0842805" lon="-116.0738729">
      </trkpt>
    </trkseg>
    <trkseg>
      <trkpt lat="51.07904" lon="-116.0576">
      </trkpt>
      <trkpt lat="51.0788794" lon="-116.0576519">
      </trkpt>
    </trkseg>
    <trkseg>
      <trkpt lat="51.0812672" lon="-116.054286">
      </trkpt>
      <trkpt lat="51.0813526" lon="-116.0546055">
      </trkpt>
      <trkpt lat="51.0812954" lon="-116.0546382">
      </trkpt>
      <trkpt lat="51.0809701" lon="-116.054798">
      </trkpt>
      <trkpt lat="51.0807854" lon="-116.0547267">
      </trkpt>
      <trkpt lat="51.080627" lon="-116.054555">
      </trkpt>
      <trkpt lat="51.08055" lon="-116.05455">
      </trkpt>
      <trkpt lat="51.0802" lon="-116.05438">
      </trkpt>
      <trkpt lat="51.08003" lon="-116.05438">
      </trkpt>
      <trkpt lat="51.07982" lon="-116.05461">
      </trkpt>
      <trkpt lat="51.07939" lon="-116.05562">
      </trkpt>
      <trkpt lat="51.0793" lon="-116.05593">
      </trkpt>
      <trkpt lat="51.07921" lon="-116.05687">
      </trkpt>
      <trkpt lat="51.07921" lon="-116.05725">
      </trkpt>
      <trkpt lat="51.07913" lon="-116.05773">
      </trkpt>
      <trkpt lat="51.07904" lon="-116.0576">
      </trkpt>
    </trkseg>
    <trkseg>
      <trkpt lat="51.0812672" lon="-116.054286">
      </trkpt>
      <trkpt lat="51.0812166" lon="-116.0540741">
      </trkpt>
      <trkpt lat="51.0812422" lon="-116.0539475">
      </trkpt>
      <trkpt lat="51.081341" lon="-116.0537982">
      </trkpt>
      <trkpt lat="51.0814987" lon="-116.0535811">
      </trkpt>
    </trkseg>
  </trk>
</gpx>