<?xml version="1.0" encoding="UTF-8"?>
<gpx xmlns="http://www.topografix.com/GPX/1/1" xmlns:xsi="http://www.w3.org/2001/XMLSchema-instance" xsi:schemaLocation="http://www.topografix.com/GPX/1/1 http://www.topografix.com/GPX/1/1/gpx.xsd" version="1.1" creator="gpx.py -- https://github.com/tkrajina/gpxpy">
  <trk>
    <name>Merry Go Around Trail</name>
    <trkseg>
      <trkpt lat="49.29438528" lon="-117.68149908">
      </trkpt>
      <trkpt lat="49.29432961" lon="-117.68150911">
      </trkpt>
      <trkpt lat="49.29425077" lon="-117.68148024">
      </trkpt>
      <trkpt lat="49.29418714" lon="-117.68149171">
      </trkpt>
      <trkpt lat="49.29413194" lon="-117.68150781">
      </trkpt>
      <trkpt lat="49.29406434" lon="-117.68151999">
      </trkpt>
      <trkpt lat="49.2939792" lon="-117.68156609">
      </trkpt>
      <trkpt lat="49.29398296" lon="-117.68161465">
      </trkpt>
      <trkpt lat="49.29406064" lon="-117.68168065">
      </trkpt>
      <trkpt lat="49.29413105" lon="-117.68170488">
      </trkpt>
      <trkpt lat="49.29418676" lon="-117.68179946">
      </trkpt>
      <trkpt lat="49.29424455" lon="-117.68186904">
      </trkpt>
      <trkpt lat="49.29435367" lon="-117.68188674">
      </trkpt>
      <trkpt lat="49.29442266" lon="-117.68191659">
      </trkpt>
      <trkpt lat="49.29451964" lon="-117.6819932">
      </trkpt>
      <trkpt lat="49.29457856" lon="-117.68211783">
      </trkpt>
      <trkpt lat="49.29462274" lon="-117.68224926">
      </trkpt>
      <trkpt lat="49.29469575" lon="-117.68243369">
      </trkpt>
      <trkpt lat="49.29474473" lon="-117.68255458">
      </trkpt>
      <trkpt lat="49.29479538" lon="-117.68269969">
      </trkpt>
      <trkpt lat="49.2948172" lon="-117.68277137">
      </trkpt>
      <trkpt lat="49.29489104" lon="-117.6828754">
      </trkpt>
      <trkpt lat="49.2949503" lon="-117.68299567">
      </trkpt>
      <trkpt lat="49.29495894" lon="-117.6831437">
      </trkpt>
      <trkpt lat="49.29491369" lon="-117.68319049">
      </trkpt>
      <trkpt lat="49.2948835" lon="-117.68322173">
      </trkpt>
      <trkpt lat="49.2949451" lon="-117.68332324">
      </trkpt>
      <trkpt lat="49.2949976" lon="-117.68339123">
      </trkpt>
      <trkpt lat="49.29503512" lon="-117.68343983">
      </trkpt>
      <trkpt lat="49.29503144" lon="-117.6835798">
      </trkpt>
      <trkpt lat="49.29493152" lon="-117.68356213">
      </trkpt>
      <trkpt lat="49.29484016" lon="-117.68353639">
      </trkpt>
      <trkpt lat="49.2947911" lon="-117.68358792">
      </trkpt>
      <trkpt lat="49.29475852" lon="-117.68362215">
      </trkpt>
      <trkpt lat="49.29475341" lon="-117.68375994">
      </trkpt>
      <trkpt lat="49.29466489" lon="-117.68380746">
      </trkpt>
      <trkpt lat="49.29456079" lon="-117.68376212">
      </trkpt>
      <trkpt lat="49.29442843" lon="-117.68371852">
      </trkpt>
      <trkpt lat="49.2943411" lon="-117.6837109">
      </trkpt>
      <trkpt lat="49.29426156" lon="-117.68364443">
      </trkpt>
      <trkpt lat="49.2941697" lon="-117.68362734">
      </trkpt>
      <trkpt lat="49.29408193" lon="-117.68359691">
      </trkpt>
      <trkpt lat="49.29401408" lon="-117.68359039">
      </trkpt>
      <trkpt lat="49.2939806" lon="-117.68358719">
      </trkpt>
      <trkpt lat="49.29388239" lon="-117.68375576">
      </trkpt>
      <trkpt lat="49.29386112" lon="-117.6838507">
      </trkpt>
      <trkpt lat="49.2938625" lon="-117.68394886">
      </trkpt>
      <trkpt lat="49.29383572" lon="-117.68407043">
      </trkpt>
      <trkpt lat="49.293801" lon="-117.68413203">
      </trkpt>
      <trkpt lat="49.29373853" lon="-117.68418767">
      </trkpt>
      <trkpt lat="49.29372419" lon="-117.68410702">
      </trkpt>
      <trkpt lat="49.29371237" lon="-117.68404056">
      </trkpt>
      <trkpt lat="49.29361448" lon="-117.68404316">
      </trkpt>
      <trkpt lat="49.29353653" lon="-117.68413477">
      </trkpt>
      <trkpt lat="49.29344894" lon="-117.68420997">
      </trkpt>
      <trkpt lat="49.29345673" lon="-117.68435396">
      </trkpt>
      <trkpt lat="49.2935501" lon="-117.68435372">
      </trkpt>
      <trkpt lat="49.29351579" lon="-117.68456275">
      </trkpt>
      <trkpt lat="49.29349994" lon="-117.68471048">
      </trkpt>
      <trkpt lat="49.29348509" lon="-117.68487147">
      </trkpt>
      <trkpt lat="49.2934556" lon="-117.68495343">
      </trkpt>
      <trkpt lat="49.29338247" lon="-117.68503332">
      </trkpt>
      <trkpt lat="49.2933595" lon="-117.68517204">
      </trkpt>
      <trkpt lat="49.29341412" lon="-117.6851228">
      </trkpt>
      <trkpt lat="49.29349366" lon="-117.6850957">
      </trkpt>
      <trkpt lat="49.29353527" lon="-117.6850914">
      </trkpt>
      <trkpt lat="49.29357961" lon="-117.68522317">
      </trkpt>
      <trkpt lat="49.29350224" lon="-117.68529697">
      </trkpt>
      <trkpt lat="49.29338146" lon="-117.68531201">
      </trkpt>
      <trkpt lat="49.29346067" lon="-117.68539399">
      </trkpt>
      <trkpt lat="49.29347438" lon="-117.68547788">
      </trkpt>
      <trkpt lat="49.29348464" lon="-117.68554068">
      </trkpt>
      <trkpt lat="49.29338783" lon="-117.68554847">
      </trkpt>
      <trkpt lat="49.29329622" lon="-117.68556733">
      </trkpt>
      <trkpt lat="49.29325794" lon="-117.68559989">
      </trkpt>
      <trkpt lat="49.29320979" lon="-117.68564083">
      </trkpt>
      <trkpt lat="49.29329496" lon="-117.68571502">
      </trkpt>
      <trkpt lat="49.29338976" lon="-117.68567914">
      </trkpt>
      <trkpt lat="49.29349168" lon="-117.68582963">
      </trkpt>
      <trkpt lat="49.29359897" lon="-117.68597637">
      </trkpt>
      <trkpt lat="49.29365839" lon="-117.68610276">
      </trkpt>
      <trkpt lat="49.29360133" lon="-117.68613606">
      </trkpt>
      <trkpt lat="49.29351221" lon="-117.6861673">
      </trkpt>
      <trkpt lat="49.29347054" lon="-117.68620729">
      </trkpt>
      <trkpt lat="49.29347533" lon="-117.68632422">
      </trkpt>
      <trkpt lat="49.29350719" lon="-117.6864647">
      </trkpt>
      <trkpt lat="49.29347821" lon="-117.68654366">
      </trkpt>
      <trkpt lat="49.29343016" lon="-117.6866348">
      </trkpt>
      <trkpt lat="49.29337333" lon="-117.68670399">
      </trkpt>
      <trkpt lat="49.29332556" lon="-117.68665756">
      </trkpt>
      <trkpt lat="49.29329392" lon="-117.68664663">
      </trkpt>
      <trkpt lat="49.2932849" lon="-117.68676786">
      </trkpt>
      <trkpt lat="49.29330426" lon="-117.6869205">
      </trkpt>
      <trkpt lat="49.29328348" lon="-117.68695537">
      </trkpt>
      <trkpt lat="49.29323947" lon="-117.68702921">
      </trkpt>
      <trkpt lat="49.29325941" lon="-117.68709986">
      </trkpt>
      <trkpt lat="49.29327719" lon="-117.68716282">
      </trkpt>
      <trkpt lat="49.29318214" lon="-117.68716048">
      </trkpt>
      <trkpt lat="49.29310066" lon="-117.6871531">
      </trkpt>
      <trkpt lat="49.29307091" lon="-117.68715041">
      </trkpt>
      <trkpt lat="49.29303639" lon="-117.68723258">
      </trkpt>
      <trkpt lat="49.29299401" lon="-117.68721406">
      </trkpt>
      <trkpt lat="49.29296044" lon="-117.68714707">
      </trkpt>
      <trkpt lat="49.29294141" lon="-117.68699401">
      </trkpt>
      <trkpt lat="49.29294971" lon="-117.68685503">
      </trkpt>
      <trkpt lat="49.29292649" lon="-117.68672143">
      </trkpt>
      <trkpt lat="49.29284803" lon="-117.68664474">
      </trkpt>
      <trkpt lat="49.29273689" lon="-117.6865526">
      </trkpt>
      <trkpt lat="49.29264353" lon="-117.68648769">
      </trkpt>
      <trkpt lat="49.29257889" lon="-117.68644483">
      </trkpt>
      <trkpt lat="49.29250044" lon="-117.6863533">
      </trkpt>
      <trkpt lat="49.29245726" lon="-117.68632503">
      </trkpt>
      <trkpt lat="49.29241134" lon="-117.68629496">
      </trkpt>
      <trkpt lat="49.29234428" lon="-117.68619706">
      </trkpt>
      <trkpt lat="49.29229921" lon="-117.68613551">
      </trkpt>
      <trkpt lat="49.29227002" lon="-117.68609564">
      </trkpt>
      <trkpt lat="49.29225552" lon="-117.68595599">
      </trkpt>
      <trkpt lat="49.29224662" lon="-117.68590987">
      </trkpt>
      <trkpt lat="49.29222652" lon="-117.68580563">
      </trkpt>
      <trkpt lat="49.29219695" lon="-117.6857678">
      </trkpt>
      <trkpt lat="49.29213605" lon="-117.68566994">
      </trkpt>
      <trkpt lat="49.29208265" lon="-117.68554188">
      </trkpt>
      <trkpt lat="49.29202897" lon="-117.68540757">
      </trkpt>
      <trkpt lat="49.29197138" lon="-117.68527867">
      </trkpt>
      <trkpt lat="49.2919313" lon="-117.68519366">
      </trkpt>
      <trkpt lat="49.29183285" lon="-117.68509102">
      </trkpt>
      <trkpt lat="49.29175696" lon="-117.68504774">
      </trkpt>
      <trkpt lat="49.29166652" lon="-117.68498612">
      </trkpt>
      <trkpt lat="49.29152933" lon="-117.68490663">
      </trkpt>
      <trkpt lat="49.29147066" lon="-117.68485128">
      </trkpt>
      <trkpt lat="49.2913891" lon="-117.68476293">
      </trkpt>
      <trkpt lat="49.29133452" lon="-117.68472839">
      </trkpt>
      <trkpt lat="49.29128982" lon="-117.68477032">
      </trkpt>
      <trkpt lat="49.29124776" lon="-117.68480977">
      </trkpt>
      <trkpt lat="49.29114827" lon="-117.68482461">
      </trkpt>
      <trkpt lat="49.29106294" lon="-117.68487029">
      </trkpt>
      <trkpt lat="49.29096546" lon="-117.68485923">
      </trkpt>
      <trkpt lat="49.29086906" lon="-117.68487037">
      </trkpt>
      <trkpt lat="49.29079127" lon="-117.68486262">
      </trkpt>
      <trkpt lat="49.29071364" lon="-117.68481816">
      </trkpt>
      <trkpt lat="49.29063152" lon="-117.68476421">
      </trkpt>
      <trkpt lat="49.29053772" lon="-117.68473725">
      </trkpt>
      <trkpt lat="49.29047906" lon="-117.68473132">
      </trkpt>
      <trkpt lat="49.290437" lon="-117.68467448">
      </trkpt>
      <trkpt lat="49.29037834" lon="-117.68463782">
      </trkpt>
      <trkpt lat="49.2903001" lon="-117.68464649">
      </trkpt>
      <trkpt lat="49.29017614" lon="-117.68465411">
      </trkpt>
      <trkpt lat="49.29011037" lon="-117.68466199">
      </trkpt>
      <trkpt lat="49.29003691" lon="-117.68469864">
      </trkpt>
      <trkpt lat="49.28997147" lon="-117.68480796">
      </trkpt>
      <trkpt lat="49.28992141" lon="-117.68489216">
      </trkpt>
      <trkpt lat="49.28983499" lon="-117.68499929">
      </trkpt>
      <trkpt lat="49.28977055" lon="-117.68505776">
      </trkpt>
      <trkpt lat="49.28968819" lon="-117.68515738">
      </trkpt>
      <trkpt lat="49.28963604" lon="-117.68521357">
      </trkpt>
      <trkpt lat="49.28957666" lon="-117.68525828">
      </trkpt>
      <trkpt lat="49.28952723" lon="-117.68535348">
      </trkpt>
      <trkpt lat="49.28944079" lon="-117.68548997">
      </trkpt>
      <trkpt lat="49.28939749" lon="-117.68550767">
      </trkpt>
      <trkpt lat="49.2893346" lon="-117.68553337">
      </trkpt>
      <trkpt lat="49.28931136" lon="-117.6856234">
      </trkpt>
      <trkpt lat="49.28928133" lon="-117.68571307">
      </trkpt>
      <trkpt lat="49.28922601" lon="-117.68584824">
      </trkpt>
      <trkpt lat="49.2891797" lon="-117.68598157">
      </trkpt>
      <trkpt lat="49.28917078" lon="-117.68619777">
      </trkpt>
      <trkpt lat="49.28917534" lon="-117.68626429">
      </trkpt>
      <trkpt lat="49.28912221" lon="-117.68629931">
      </trkpt>
      <trkpt lat="49.28906054" lon="-117.6863585">
      </trkpt>
      <trkpt lat="49.28902128" lon="-117.68640736">
      </trkpt>
      <trkpt lat="49.28906562" lon="-117.68653862">
      </trkpt>
      <trkpt lat="49.28906095" lon="-117.68664822">
      </trkpt>
      <trkpt lat="49.28903344" lon="-117.68684707">
      </trkpt>
      <trkpt lat="49.28897429" lon="-117.68682808">
      </trkpt>
      <trkpt lat="49.28887272" lon="-117.68681878">
      </trkpt>
      <trkpt lat="49.2888017" lon="-117.68676458">
      </trkpt>
      <trkpt lat="49.28878103" lon="-117.68676242">
      </trkpt>
    </trkseg>
  </trk>
</gpx>