<?xml version="1.0" encoding="UTF-8"?>
<gpx xmlns="http://www.topografix.com/GPX/1/1" xmlns:xsi="http://www.w3.org/2001/XMLSchema-instance" xsi:schemaLocation="http://www.topografix.com/GPX/1/1 http://www.topografix.com/GPX/1/1/gpx.xsd" version="1.1" creator="gpx.py -- https://github.com/tkrajina/gpxpy">
  <trk>
    <name>Fletcher Lake</name>
    <trkseg>
      <trkpt lat="49.840634" lon="-116.95957799">
      </trkpt>
      <trkpt lat="49.84060695" lon="-116.9595299">
      </trkpt>
      <trkpt lat="49.8405586" lon="-116.95943472">
      </trkpt>
      <trkpt lat="49.84053399" lon="-116.95938347">
      </trkpt>
      <trkpt lat="49.840527" lon="-116.959304">
      </trkpt>
      <trkpt lat="49.840504" lon="-116.95913201">
      </trkpt>
      <trkpt lat="49.840522" lon="-116.95906001">
      </trkpt>
      <trkpt lat="49.84053287" lon="-116.9590235">
      </trkpt>
      <trkpt lat="49.840564" lon="-116.95891901">
      </trkpt>
      <trkpt lat="49.840583" lon="-116.958875">
      </trkpt>
      <trkpt lat="49.84059168" lon="-116.95876372">
      </trkpt>
      <trkpt lat="49.840596" lon="-116.95871001">
      </trkpt>
      <trkpt lat="49.84058996" lon="-116.95861402">
      </trkpt>
      <trkpt lat="49.840586" lon="-116.958551">
      </trkpt>
      <trkpt lat="49.840553" lon="-116.958481">
      </trkpt>
      <trkpt lat="49.840537" lon="-116.958427">
      </trkpt>
      <trkpt lat="49.84051246" lon="-116.95833484">
      </trkpt>
      <trkpt lat="49.84049501" lon="-116.95826936">
      </trkpt>
      <trkpt lat="49.840477" lon="-116.95820899">
      </trkpt>
      <trkpt lat="49.84049002" lon="-116.95815041">
      </trkpt>
      <trkpt lat="49.84050355" lon="-116.95808956">
      </trkpt>
      <trkpt lat="49.8405178" lon="-116.95796714">
      </trkpt>
      <trkpt lat="49.840521" lon="-116.95791399">
      </trkpt>
      <trkpt lat="49.840496" lon="-116.957878">
      </trkpt>
      <trkpt lat="49.840448" lon="-116.957864">
      </trkpt>
      <trkpt lat="49.840461" lon="-116.957787">
      </trkpt>
      <trkpt lat="49.840447" lon="-116.95775">
      </trkpt>
      <trkpt lat="49.840461" lon="-116.957658">
      </trkpt>
      <trkpt lat="49.840461" lon="-116.957615">
      </trkpt>
      <trkpt lat="49.84043942" lon="-116.95758312">
      </trkpt>
      <trkpt lat="49.840417" lon="-116.95755">
      </trkpt>
      <trkpt lat="49.840405" lon="-116.957494">
      </trkpt>
      <trkpt lat="49.840415" lon="-116.95744099">
      </trkpt>
      <trkpt lat="49.840423" lon="-116.95743201">
      </trkpt>
      <trkpt lat="49.8403757" lon="-116.9573851">
      </trkpt>
      <trkpt lat="49.84033983" lon="-116.95734954">
      </trkpt>
      <trkpt lat="49.840307" lon="-116.957317">
      </trkpt>
      <trkpt lat="49.840269" lon="-116.95720901">
      </trkpt>
      <trkpt lat="49.84023848" lon="-116.95717312">
      </trkpt>
      <trkpt lat="49.840224" lon="-116.957109">
      </trkpt>
      <trkpt lat="49.840211" lon="-116.957112">
      </trkpt>
      <trkpt lat="49.840196" lon="-116.95702901">
      </trkpt>
      <trkpt lat="49.8401655" lon="-116.95695886">
      </trkpt>
      <trkpt lat="49.840136" lon="-116.956891">
      </trkpt>
      <trkpt lat="49.8401" lon="-116.956778">
      </trkpt>
      <trkpt lat="49.840105" lon="-116.95665">
      </trkpt>
      <trkpt lat="49.84012354" lon="-116.95653426">
      </trkpt>
      <trkpt lat="49.840136" lon="-116.95648001">
      </trkpt>
      <trkpt lat="49.84017" lon="-116.956477">
      </trkpt>
      <trkpt lat="49.84018945" lon="-116.95641257">
      </trkpt>
      <trkpt lat="49.840219" lon="-116.95633601">
      </trkpt>
      <trkpt lat="49.84023939" lon="-116.95631691">
      </trkpt>
      <trkpt lat="49.840266" lon="-116.95629201">
      </trkpt>
      <trkpt lat="49.84026881" lon="-116.9562464">
      </trkpt>
      <trkpt lat="49.840274" lon="-116.956162">
      </trkpt>
      <trkpt lat="49.84026306" lon="-116.9560952">
      </trkpt>
      <trkpt lat="49.840246" lon="-116.955991">
      </trkpt>
      <trkpt lat="49.840238" lon="-116.955957">
      </trkpt>
      <trkpt lat="49.840206" lon="-116.955893">
      </trkpt>
      <trkpt lat="49.84015" lon="-116.955826">
      </trkpt>
      <trkpt lat="49.84014156" lon="-116.9557875">
      </trkpt>
      <trkpt lat="49.840118" lon="-116.95568">
      </trkpt>
      <trkpt lat="49.840111" lon="-116.95566001">
      </trkpt>
      <trkpt lat="49.84006925" lon="-116.95556429">
      </trkpt>
      <trkpt lat="49.840046" lon="-116.955511">
      </trkpt>
      <trkpt lat="49.840033" lon="-116.955459">
      </trkpt>
      <trkpt lat="49.84000934" lon="-116.95539984">
      </trkpt>
      <trkpt lat="49.83997946" lon="-116.95534759">
      </trkpt>
      <trkpt lat="49.839945" lon="-116.955301">
      </trkpt>
      <trkpt lat="49.839904" lon="-116.955234">
      </trkpt>
      <trkpt lat="49.83988634" lon="-116.95519962">
      </trkpt>
      <trkpt lat="49.83985954" lon="-116.95514745">
      </trkpt>
      <trkpt lat="49.83982301" lon="-116.95509389">
      </trkpt>
      <trkpt lat="49.839795" lon="-116.955059">
      </trkpt>
      <trkpt lat="49.839745" lon="-116.955012">
      </trkpt>
      <trkpt lat="49.83972176" lon="-116.95498842">
      </trkpt>
      <trkpt lat="49.839686" lon="-116.95494201">
      </trkpt>
      <trkpt lat="49.839664" lon="-116.954921">
      </trkpt>
      <trkpt lat="49.83964234" lon="-116.95487324">
      </trkpt>
      <trkpt lat="49.83960981" lon="-116.9548163">
      </trkpt>
      <trkpt lat="49.83958484" lon="-116.95477153">
      </trkpt>
      <trkpt lat="49.839563" lon="-116.95472299">
      </trkpt>
      <trkpt lat="49.83953" lon="-116.95469">
      </trkpt>
      <trkpt lat="49.83950241" lon="-116.95465322">
      </trkpt>
      <trkpt lat="49.839467" lon="-116.954606">
      </trkpt>
      <trkpt lat="49.83943468" lon="-116.95454684">
      </trkpt>
      <trkpt lat="49.839408" lon="-116.954498">
      </trkpt>
      <trkpt lat="49.839383" lon="-116.954486">
      </trkpt>
      <trkpt lat="49.8393542" lon="-116.95441815">
      </trkpt>
      <trkpt lat="49.83932886" lon="-116.95435457">
      </trkpt>
      <trkpt lat="49.83930748" lon="-116.95426431">
      </trkpt>
      <trkpt lat="49.83929" lon="-116.95415199">
      </trkpt>
      <trkpt lat="49.83928158" lon="-116.95409646">
      </trkpt>
      <trkpt lat="49.839277" lon="-116.954039">
      </trkpt>
      <trkpt lat="49.83927996" lon="-116.95394427">
      </trkpt>
      <trkpt lat="49.839282" lon="-116.95387899">
      </trkpt>
      <trkpt lat="49.83927324" lon="-116.95378516">
      </trkpt>
      <trkpt lat="49.839265" lon="-116.953697">
      </trkpt>
      <trkpt lat="49.839246" lon="-116.95362001">
      </trkpt>
      <trkpt lat="49.839229" lon="-116.953565">
      </trkpt>
      <trkpt lat="49.83925299" lon="-116.95352194">
      </trkpt>
      <trkpt lat="49.83927121" lon="-116.95345685">
      </trkpt>
      <trkpt lat="49.839278" lon="-116.953384">
      </trkpt>
      <trkpt lat="49.839297" lon="-116.95332">
      </trkpt>
      <trkpt lat="49.83928652" lon="-116.95324945">
      </trkpt>
      <trkpt lat="49.83927844" lon="-116.95314667">
      </trkpt>
      <trkpt lat="49.839278" lon="-116.953095">
      </trkpt>
      <trkpt lat="49.839258" lon="-116.953079">
      </trkpt>
      <trkpt lat="49.839242" lon="-116.953061">
      </trkpt>
      <trkpt lat="49.839216" lon="-116.953083">
      </trkpt>
      <trkpt lat="49.83919544" lon="-116.95309214">
      </trkpt>
      <trkpt lat="49.839162" lon="-116.95310701">
      </trkpt>
      <trkpt lat="49.83913103" lon="-116.95313797">
      </trkpt>
      <trkpt lat="49.839094" lon="-116.953175">
      </trkpt>
      <trkpt lat="49.8390736" lon="-116.95317554">
      </trkpt>
      <trkpt lat="49.839056" lon="-116.953176">
      </trkpt>
      <trkpt lat="49.839026" lon="-116.95313299">
      </trkpt>
      <trkpt lat="49.83900066" lon="-116.95310343">
      </trkpt>
      <trkpt lat="49.83897281" lon="-116.95307094">
      </trkpt>
      <trkpt lat="49.838948" lon="-116.953042">
      </trkpt>
      <trkpt lat="49.838935" lon="-116.95300799">
      </trkpt>
      <trkpt lat="49.83893455" lon="-116.95295929">
      </trkpt>
      <trkpt lat="49.838934" lon="-116.95290101">
      </trkpt>
      <trkpt lat="49.83895708" lon="-116.95285291">
      </trkpt>
      <trkpt lat="49.83898" lon="-116.952822">
      </trkpt>
      <trkpt lat="49.838972" lon="-116.952768">
      </trkpt>
      <trkpt lat="49.838967" lon="-116.952699">
      </trkpt>
      <trkpt lat="49.8389799" lon="-116.95266872">
      </trkpt>
      <trkpt lat="49.838993" lon="-116.95263801">
      </trkpt>
      <trkpt lat="49.838962" lon="-116.952627">
      </trkpt>
      <trkpt lat="49.838933" lon="-116.952547">
      </trkpt>
      <trkpt lat="49.83889945" lon="-116.9524628">
      </trkpt>
      <trkpt lat="49.838878" lon="-116.95241399">
      </trkpt>
      <trkpt lat="49.838861" lon="-116.952419">
      </trkpt>
      <trkpt lat="49.83883737" lon="-116.95236254">
      </trkpt>
      <trkpt lat="49.83882" lon="-116.952321">
      </trkpt>
      <trkpt lat="49.838801" lon="-116.95227699">
      </trkpt>
      <trkpt lat="49.83880242" lon="-116.95220484">
      </trkpt>
      <trkpt lat="49.838782" lon="-116.952067">
      </trkpt>
      <trkpt lat="49.838765" lon="-116.951998">
      </trkpt>
      <trkpt lat="49.83874385" lon="-116.95190709">
      </trkpt>
      <trkpt lat="49.838727" lon="-116.951829">
      </trkpt>
      <trkpt lat="49.838717" lon="-116.951748">
      </trkpt>
      <trkpt lat="49.83869644" lon="-116.95171413">
      </trkpt>
      <trkpt lat="49.838654" lon="-116.951648">
      </trkpt>
      <trkpt lat="49.838641" lon="-116.951583">
      </trkpt>
      <trkpt lat="49.83862257" lon="-116.95152716">
      </trkpt>
      <trkpt lat="49.838608" lon="-116.951483">
      </trkpt>
      <trkpt lat="49.838609" lon="-116.951393">
      </trkpt>
      <trkpt lat="49.8386" lon="-116.95133901">
      </trkpt>
      <trkpt lat="49.83857779" lon="-116.95130483">
      </trkpt>
      <trkpt lat="49.83854343" lon="-116.95123666">
      </trkpt>
      <trkpt lat="49.83849974" lon="-116.95119332">
      </trkpt>
      <trkpt lat="49.83847066" lon="-116.95117596">
      </trkpt>
      <trkpt lat="49.83843853" lon="-116.95117992">
      </trkpt>
      <trkpt lat="49.83841" lon="-116.951193">
      </trkpt>
      <trkpt lat="49.83839985" lon="-116.95117163">
      </trkpt>
      <trkpt lat="49.83839515" lon="-116.95114885">
      </trkpt>
      <trkpt lat="49.838369" lon="-116.951107">
      </trkpt>
      <trkpt lat="49.838325" lon="-116.951059">
      </trkpt>
      <trkpt lat="49.83826582" lon="-116.95106322">
      </trkpt>
      <trkpt lat="49.838213" lon="-116.951067">
      </trkpt>
      <trkpt lat="49.83819472" lon="-116.95103044">
      </trkpt>
      <trkpt lat="49.83815686" lon="-116.95095214">
      </trkpt>
      <trkpt lat="49.83811821" lon="-116.9509042">
      </trkpt>
      <trkpt lat="49.838085" lon="-116.950863">
      </trkpt>
      <trkpt lat="49.838077" lon="-116.950806">
      </trkpt>
      <trkpt lat="49.838069" lon="-116.950743">
      </trkpt>
      <trkpt lat="49.8380558" lon="-116.95072344">
      </trkpt>
      <trkpt lat="49.838042" lon="-116.95070301">
      </trkpt>
      <trkpt lat="49.838019" lon="-116.950666">
      </trkpt>
      <trkpt lat="49.83800866" lon="-116.95061883">
      </trkpt>
      <trkpt lat="49.838003" lon="-116.950593">
      </trkpt>
      <trkpt lat="49.838029" lon="-116.95055999">
      </trkpt>
      <trkpt lat="49.8380042" lon="-116.95049822">
      </trkpt>
      <trkpt lat="49.83798337" lon="-116.95044632">
      </trkpt>
      <trkpt lat="49.837953" lon="-116.950406">
      </trkpt>
      <trkpt lat="49.837941" lon="-116.950401">
      </trkpt>
      <trkpt lat="49.83792095" lon="-116.95037336">
      </trkpt>
      <trkpt lat="49.837936" lon="-116.950332">
      </trkpt>
      <trkpt lat="49.837918" lon="-116.950324">
      </trkpt>
      <trkpt lat="49.83787651" lon="-116.95022067">
      </trkpt>
      <trkpt lat="49.83784962" lon="-116.95015267">
      </trkpt>
      <trkpt lat="49.837822" lon="-116.950082">
      </trkpt>
      <trkpt lat="49.837786" lon="-116.949975">
      </trkpt>
      <trkpt lat="49.837755" lon="-116.94985501">
      </trkpt>
      <trkpt lat="49.837733" lon="-116.949803">
      </trkpt>
      <trkpt lat="49.837706" lon="-116.949746">
      </trkpt>
      <trkpt lat="49.83768458" lon="-116.94972076">
      </trkpt>
      <trkpt lat="49.83765541" lon="-116.9496864">
      </trkpt>
      <trkpt lat="49.837611" lon="-116.949632">
      </trkpt>
      <trkpt lat="49.83755737" lon="-116.94960859">
      </trkpt>
      <trkpt lat="49.837509" lon="-116.949589">
      </trkpt>
      <trkpt lat="49.83746434" lon="-116.949548">
      </trkpt>
      <trkpt lat="49.83742683" lon="-116.94950993">
      </trkpt>
      <trkpt lat="49.837369" lon="-116.949455">
      </trkpt>
      <trkpt lat="49.837334" lon="-116.949391">
      </trkpt>
      <trkpt lat="49.837301" lon="-116.949314">
      </trkpt>
      <trkpt lat="49.8372648" lon="-116.94922388">
      </trkpt>
      <trkpt lat="49.83722604" lon="-116.9491552">
      </trkpt>
      <trkpt lat="49.83717644" lon="-116.94908102">
      </trkpt>
      <trkpt lat="49.83711406" lon="-116.94900681">
      </trkpt>
      <trkpt lat="49.83706545" lon="-116.94894943">
      </trkpt>
      <trkpt lat="49.83701349" lon="-116.94887093">
      </trkpt>
      <trkpt lat="49.83696439" lon="-116.94876747">
      </trkpt>
      <trkpt lat="49.836948" lon="-116.948728">
      </trkpt>
      <trkpt lat="49.836928" lon="-116.94861301">
      </trkpt>
      <trkpt lat="49.8369053" lon="-116.94853879">
      </trkpt>
      <trkpt lat="49.836865" lon="-116.948407">
      </trkpt>
      <trkpt lat="49.83686416" lon="-116.94836241">
      </trkpt>
      <trkpt lat="49.836861" lon="-116.94829">
      </trkpt>
      <trkpt lat="49.836818" lon="-116.948213">
      </trkpt>
      <trkpt lat="49.83681102" lon="-116.94809958">
      </trkpt>
      <trkpt lat="49.836806" lon="-116.948018">
      </trkpt>
      <trkpt lat="49.83677462" lon="-116.94789534">
      </trkpt>
      <trkpt lat="49.83672245" lon="-116.94776634">
      </trkpt>
      <trkpt lat="49.83667654" lon="-116.94769483">
      </trkpt>
      <trkpt lat="49.836609" lon="-116.94764">
      </trkpt>
      <trkpt lat="49.83651362" lon="-116.94757925">
      </trkpt>
      <trkpt lat="49.83645319" lon="-116.94750711">
      </trkpt>
      <trkpt lat="49.836389" lon="-116.94747099">
      </trkpt>
      <trkpt lat="49.836307" lon="-116.94738">
      </trkpt>
      <trkpt lat="49.83625402" lon="-116.94729108">
      </trkpt>
      <trkpt lat="49.83621898" lon="-116.9472045">
      </trkpt>
      <trkpt lat="49.83617396" lon="-116.94708692">
      </trkpt>
      <trkpt lat="49.83613305" lon="-116.94699271">
      </trkpt>
      <trkpt lat="49.836108" lon="-116.946935">
      </trkpt>
      <trkpt lat="49.836051" lon="-116.946826">
      </trkpt>
      <trkpt lat="49.83601285" lon="-116.9467391">
      </trkpt>
      <trkpt lat="49.835975" lon="-116.946659">
      </trkpt>
      <trkpt lat="49.83593979" lon="-116.94657763">
      </trkpt>
      <trkpt lat="49.835912" lon="-116.946524">
      </trkpt>
      <trkpt lat="49.83585952" lon="-116.94645594">
      </trkpt>
      <trkpt lat="49.835797" lon="-116.94637">
      </trkpt>
      <trkpt lat="49.83575847" lon="-116.94630875">
      </trkpt>
      <trkpt lat="49.835719" lon="-116.946246">
      </trkpt>
      <trkpt lat="49.83567594" lon="-116.94621544">
      </trkpt>
      <trkpt lat="49.835634" lon="-116.94615299">
      </trkpt>
      <trkpt lat="49.83562" lon="-116.946108">
      </trkpt>
      <trkpt lat="49.835618" lon="-116.946073">
      </trkpt>
      <trkpt lat="49.835614" lon="-116.94602899">
      </trkpt>
      <trkpt lat="49.835576" lon="-116.945917">
      </trkpt>
      <trkpt lat="49.835548" lon="-116.94583101">
      </trkpt>
      <trkpt lat="49.835525" lon="-116.94577">
      </trkpt>
      <trkpt lat="49.835473" lon="-116.94564201">
      </trkpt>
      <trkpt lat="49.83546" lon="-116.94557201">
      </trkpt>
      <trkpt lat="49.83544097" lon="-116.9455114">
      </trkpt>
      <trkpt lat="49.83541042" lon="-116.94544597">
      </trkpt>
      <trkpt lat="49.83537646" lon="-116.94537329">
      </trkpt>
      <trkpt lat="49.83532641" lon="-116.94524775">
      </trkpt>
      <trkpt lat="49.8352874" lon="-116.94515196">
      </trkpt>
      <trkpt lat="49.83523212" lon="-116.94507652">
      </trkpt>
      <trkpt lat="49.83517131" lon="-116.94499841">
      </trkpt>
      <trkpt lat="49.83511808" lon="-116.94496713">
      </trkpt>
      <trkpt lat="49.83503376" lon="-116.94491527">
      </trkpt>
      <trkpt lat="49.83497117" lon="-116.94487011">
      </trkpt>
    </trkseg>
  </trk>
</gpx>