<?xml version="1.0" encoding="UTF-8"?>
<gpx xmlns="http://www.topografix.com/GPX/1/1" xmlns:xsi="http://www.w3.org/2001/XMLSchema-instance" xsi:schemaLocation="http://www.topografix.com/GPX/1/1 http://www.topografix.com/GPX/1/1/gpx.xsd" version="1.1" creator="gpx.py -- https://github.com/tkrajina/gpxpy">
  <trk>
    <name>Unnamed ski tour</name>
    <trkseg>
      <trkpt lat="49.7348002" lon="-122.9377897">
      </trkpt>
      <trkpt lat="49.7348886" lon="-122.9375536">
      </trkpt>
      <trkpt lat="49.7350256" lon="-122.9371915">
      </trkpt>
      <trkpt lat="49.7351227" lon="-122.9368938">
      </trkpt>
      <trkpt lat="49.7351591" lon="-122.9365263">
      </trkpt>
      <trkpt lat="49.7351591" lon="-122.936183">
      </trkpt>
      <trkpt lat="49.7351608" lon="-122.9357458">
      </trkpt>
      <trkpt lat="49.7352283" lon="-122.935322">
      </trkpt>
      <trkpt lat="49.7352526" lon="-122.9351235">
      </trkpt>
      <trkpt lat="49.7354988" lon="-122.9347158">
      </trkpt>
      <trkpt lat="49.7356617" lon="-122.9343564">
      </trkpt>
      <trkpt lat="49.7358975" lon="-122.933997">
      </trkpt>
      <trkpt lat="49.736005" lon="-122.9334981">
      </trkpt>
      <trkpt lat="49.7360812" lon="-122.9331226">
      </trkpt>
      <trkpt lat="49.7362303" lon="-122.932908">
      </trkpt>
      <trkpt lat="49.7364349" lon="-122.9328383">
      </trkpt>
      <trkpt lat="49.7366152" lon="-122.9327954">
      </trkpt>
      <trkpt lat="49.7368093" lon="-122.9326559">
      </trkpt>
      <trkpt lat="49.7368475" lon="-122.932377">
      </trkpt>
      <trkpt lat="49.7368475" lon="-122.9320819">
      </trkpt>
      <trkpt lat="49.7367955" lon="-122.931921">
      </trkpt>
      <trkpt lat="49.7366984" lon="-122.9317332">
      </trkpt>
      <trkpt lat="49.7366048" lon="-122.9315347">
      </trkpt>
      <trkpt lat="49.7364904" lon="-122.9314275">
      </trkpt>
      <trkpt lat="49.7363066" lon="-122.9312826">
      </trkpt>
      <trkpt lat="49.7361333" lon="-122.9311753">
      </trkpt>
      <trkpt lat="49.7359668" lon="-122.9311271">
      </trkpt>
      <trkpt lat="49.7358594" lon="-122.93095">
      </trkpt>
      <trkpt lat="49.7355751" lon="-122.9306121">
      </trkpt>
      <trkpt lat="49.7354121" lon="-122.9304458">
      </trkpt>
      <trkpt lat="49.735055" lon="-122.9303921">
      </trkpt>
      <trkpt lat="49.7348678" lon="-122.9301775">
      </trkpt>
      <trkpt lat="49.7346909" lon="-122.9299522">
      </trkpt>
      <trkpt lat="49.7343581" lon="-122.9294158">
      </trkpt>
      <trkpt lat="49.7341292" lon="-122.9290725">
      </trkpt>
      <trkpt lat="49.7339594" lon="-122.9288418">
      </trkpt>
      <trkpt lat="49.7337478" lon="-122.9286487">
      </trkpt>
      <trkpt lat="49.7335953" lon="-122.9285307">
      </trkpt>
      <trkpt lat="49.7331307" lon="-122.9279513">
      </trkpt>
      <trkpt lat="49.7328949" lon="-122.9277046">
      </trkpt>
      <trkpt lat="49.7326453" lon="-122.92749">
      </trkpt>
      <trkpt lat="49.7325239" lon="-122.9274578">
      </trkpt>
      <trkpt lat="49.7322292" lon="-122.9271306">
      </trkpt>
      <trkpt lat="49.7320419" lon="-122.9267819">
      </trkpt>
      <trkpt lat="49.7318478" lon="-122.9265888">
      </trkpt>
      <trkpt lat="49.7315288" lon="-122.9263956">
      </trkpt>
      <trkpt lat="49.7313727" lon="-122.9262776">
      </trkpt>
      <trkpt lat="49.7310849" lon="-122.9260148">
      </trkpt>
      <trkpt lat="49.7308214" lon="-122.9258216">
      </trkpt>
      <trkpt lat="49.7307471" lon="-122.9257531">
      </trkpt>
    </trkseg>
    <trkseg>
      <trkpt lat="49.7340738" lon="-122.9418291">
      </trkpt>
      <trkpt lat="49.7340634" lon="-122.9420866">
      </trkpt>
      <trkpt lat="49.7341015" lon="-122.9423011">
      </trkpt>
      <trkpt lat="49.7340772" lon="-122.9426874">
      </trkpt>
      <trkpt lat="49.7340911" lon="-122.9429931">
      </trkpt>
      <trkpt lat="49.7341154" lon="-122.9435618">
      </trkpt>
      <trkpt lat="49.7341154" lon="-122.9437871">
      </trkpt>
      <trkpt lat="49.7340738" lon="-122.9441036">
      </trkpt>
      <trkpt lat="49.7341188" lon="-122.9443342">
      </trkpt>
      <trkpt lat="49.7341292" lon="-122.9445381">
      </trkpt>
      <trkpt lat="49.7340564" lon="-122.9450692">
      </trkpt>
      <trkpt lat="49.7339351" lon="-122.9454822">
      </trkpt>
      <trkpt lat="49.7337929" lon="-122.9459758">
      </trkpt>
      <trkpt lat="49.7336612" lon="-122.9463566">
      </trkpt>
      <trkpt lat="49.733571" lon="-122.9468126">
      </trkpt>
      <trkpt lat="49.7335953" lon="-122.947231">
      </trkpt>
      <trkpt lat="49.7335745" lon="-122.9476495">
      </trkpt>
      <trkpt lat="49.7334081" lon="-122.9479767">
      </trkpt>
      <trkpt lat="49.7332763" lon="-122.9482235">
      </trkpt>
      <trkpt lat="49.7332" lon="-122.948556">
      </trkpt>
      <trkpt lat="49.7330613" lon="-122.9490227">
      </trkpt>
      <trkpt lat="49.7328533" lon="-122.9493285">
      </trkpt>
      <trkpt lat="49.7326349" lon="-122.9494358">
      </trkpt>
      <trkpt lat="49.7325031" lon="-122.9496826">
      </trkpt>
      <trkpt lat="49.7324268" lon="-122.9499776">
      </trkpt>
      <trkpt lat="49.7322465" lon="-122.9502137">
      </trkpt>
      <trkpt lat="49.7319414" lon="-122.950557">
      </trkpt>
      <trkpt lat="49.7317923" lon="-122.9507876">
      </trkpt>
      <trkpt lat="49.7316432" lon="-122.9510129">
      </trkpt>
      <trkpt lat="49.7315912" lon="-122.9514421">
      </trkpt>
      <trkpt lat="49.7315565" lon="-122.9517425">
      </trkpt>
      <trkpt lat="49.7314837" lon="-122.9520161">
      </trkpt>
      <trkpt lat="49.731345" lon="-122.9522521">
      </trkpt>
      <trkpt lat="49.7310537" lon="-122.9523111">
      </trkpt>
      <trkpt lat="49.7308422" lon="-122.9522897">
      </trkpt>
      <trkpt lat="49.7305579" lon="-122.9521878">
      </trkpt>
      <trkpt lat="49.7302597" lon="-122.9520322">
      </trkpt>
      <trkpt lat="49.7300274" lon="-122.9519464">
      </trkpt>
      <trkpt lat="49.7297985" lon="-122.9520536">
      </trkpt>
      <trkpt lat="49.7295454" lon="-122.9521287">
      </trkpt>
      <trkpt lat="49.7292784" lon="-122.9521341">
      </trkpt>
      <trkpt lat="49.7290773" lon="-122.9521663">
      </trkpt>
      <trkpt lat="49.7287929" lon="-122.9522146">
      </trkpt>
      <trkpt lat="49.7284566" lon="-122.9521717">
      </trkpt>
      <trkpt lat="49.7282242" lon="-122.9520751">
      </trkpt>
      <trkpt lat="49.7279954" lon="-122.9519088">
      </trkpt>
      <trkpt lat="49.7277249" lon="-122.9515601">
      </trkpt>
      <trkpt lat="49.7276793" lon="-122.9514667">
      </trkpt>
      <trkpt lat="49.7275789" lon="-122.9512608">
      </trkpt>
      <trkpt lat="49.7273988" lon="-122.9508247">
      </trkpt>
      <trkpt lat="49.7272637" lon="-122.9506535">
      </trkpt>
      <trkpt lat="49.727122" lon="-122.950511">
      </trkpt>
      <trkpt lat="49.7270244" lon="-122.9503531">
      </trkpt>
      <trkpt lat="49.7268961" lon="-122.9499615">
      </trkpt>
      <trkpt lat="49.7266672" lon="-122.9495431">
      </trkpt>
      <trkpt lat="49.7265424" lon="-122.9492427">
      </trkpt>
      <trkpt lat="49.7264106" lon="-122.9490067">
      </trkpt>
      <trkpt lat="49.7262407" lon="-122.9489155">
      </trkpt>
      <trkpt lat="49.7261297" lon="-122.9489316">
      </trkpt>
      <trkpt lat="49.726103" lon="-122.9491224">
      </trkpt>
      <trkpt lat="49.7261054" lon="-122.9492641">
      </trkpt>
      <trkpt lat="49.7261228" lon="-122.949468">
      </trkpt>
      <trkpt lat="49.7261304" lon="-122.9499031">
      </trkpt>
      <trkpt lat="49.7261193" lon="-122.9501278">
      </trkpt>
      <trkpt lat="49.7261228" lon="-122.9503424">
      </trkpt>
      <trkpt lat="49.7261748" lon="-122.9507018">
      </trkpt>
      <trkpt lat="49.7261367" lon="-122.9509539">
      </trkpt>
      <trkpt lat="49.7260777" lon="-122.9513187">
      </trkpt>
      <trkpt lat="49.7259078" lon="-122.9523809">
      </trkpt>
      <trkpt lat="49.7259113" lon="-122.9526062">
      </trkpt>
      <trkpt lat="49.7259841" lon="-122.9529924">
      </trkpt>
      <trkpt lat="49.7260049" lon="-122.9534752">
      </trkpt>
      <trkpt lat="49.7259563" lon="-122.954135">
      </trkpt>
      <trkpt lat="49.7259147" lon="-122.9544247">
      </trkpt>
      <trkpt lat="49.7258488" lon="-122.9547251">
      </trkpt>
      <trkpt lat="49.7259771" lon="-122.9550577">
      </trkpt>
      <trkpt lat="49.7260638" lon="-122.9553957">
      </trkpt>
      <trkpt lat="49.7260812" lon="-122.9558141">
      </trkpt>
      <trkpt lat="49.7259875" lon="-122.9561896">
      </trkpt>
      <trkpt lat="49.7259043" lon="-122.9565812">
      </trkpt>
      <trkpt lat="49.7258384" lon="-122.9569943">
      </trkpt>
      <trkpt lat="49.7259009" lon="-122.9572947">
      </trkpt>
      <trkpt lat="49.7259667" lon="-122.9578365">
      </trkpt>
      <trkpt lat="49.7260257" lon="-122.9582871">
      </trkpt>
      <trkpt lat="49.7260985" lon="-122.9588396">
      </trkpt>
      <trkpt lat="49.7261817" lon="-122.9592044">
      </trkpt>
      <trkpt lat="49.7262892" lon="-122.9595907">
      </trkpt>
      <trkpt lat="49.7262996" lon="-122.9599823">
      </trkpt>
      <trkpt lat="49.7263239" lon="-122.96039">
      </trkpt>
      <trkpt lat="49.7263863" lon="-122.9607118">
      </trkpt>
      <trkpt lat="49.7264418" lon="-122.9609586">
      </trkpt>
      <trkpt lat="49.7264106" lon="-122.9612053">
      </trkpt>
      <trkpt lat="49.7263586" lon="-122.9615326">
      </trkpt>
      <trkpt lat="49.7263621" lon="-122.9617847">
      </trkpt>
      <trkpt lat="49.7264002" lon="-122.9620797">
      </trkpt>
      <trkpt lat="49.7264418" lon="-122.9626162">
      </trkpt>
      <trkpt lat="49.726421" lon="-122.9635764">
      </trkpt>
      <trkpt lat="49.7264453" lon="-122.9640378">
      </trkpt>
      <trkpt lat="49.7264522" lon="-122.9646064">
      </trkpt>
      <trkpt lat="49.7265077" lon="-122.965116">
      </trkpt>
      <trkpt lat="49.7265597" lon="-122.965352">
      </trkpt>
      <trkpt lat="49.7267123" lon="-122.9655183">
      </trkpt>
      <trkpt lat="49.7268545" lon="-122.9655881">
      </trkpt>
      <trkpt lat="49.7270938" lon="-122.9656739">
      </trkpt>
      <trkpt lat="49.7272394" lon="-122.9658026">
      </trkpt>
      <trkpt lat="49.7273885" lon="-122.9660548">
      </trkpt>
      <trkpt lat="49.7278705" lon="-122.9671598">
      </trkpt>
      <trkpt lat="49.7280266" lon="-122.9674871">
      </trkpt>
      <trkpt lat="49.7280346" lon="-122.967504">
      </trkpt>
      <trkpt lat="49.7282875" lon="-122.9680377">
      </trkpt>
    </trkseg>
    <trkseg>
      <trkpt lat="49.7340738" lon="-122.9418291">
      </trkpt>
      <trkpt lat="49.7340322" lon="-122.9413624">
      </trkpt>
      <trkpt lat="49.7341119" lon="-122.940901">
      </trkpt>
      <trkpt lat="49.734209" lon="-122.9403753">
      </trkpt>
      <trkpt lat="49.7342506" lon="-122.9398818">
      </trkpt>
      <trkpt lat="49.7343824" lon="-122.9393829">
      </trkpt>
      <trkpt lat="49.7345319" lon="-122.9388909">
      </trkpt>
      <trkpt lat="49.7346948" lon="-122.9384081">
      </trkpt>
      <trkpt lat="49.7348002" lon="-122.9377897">
      </trkpt>
    </trkseg>
    <trkseg>
      <trkpt lat="49.7307471" lon="-122.9257531">
      </trkpt>
      <trkpt lat="49.730539" lon="-122.9250504">
      </trkpt>
      <trkpt lat="49.7304523" lon="-122.9241438">
      </trkpt>
      <trkpt lat="49.7306898" lon="-122.9224433">
      </trkpt>
      <trkpt lat="49.7309811" lon="-122.9213275">
      </trkpt>
      <trkpt lat="49.731203" lon="-122.919804">
      </trkpt>
      <trkpt lat="49.7310227" lon="-122.916006">
      </trkpt>
      <trkpt lat="49.7310782" lon="-122.9103841">
      </trkpt>
      <trkpt lat="49.7309811" lon="-122.9070152">
      </trkpt>
      <trkpt lat="49.7310921" lon="-122.9046763">
      </trkpt>
      <trkpt lat="49.7313556" lon="-122.9032387">
      </trkpt>
      <trkpt lat="49.7315914" lon="-122.9017796">
      </trkpt>
      <trkpt lat="49.7317301" lon="-122.9009642">
      </trkpt>
      <trkpt lat="49.7322571" lon="-122.9001059">
      </trkpt>
      <trkpt lat="49.7326177" lon="-122.8992046">
      </trkpt>
      <trkpt lat="49.7326316" lon="-122.8984536">
      </trkpt>
      <trkpt lat="49.7326038" lon="-122.8967585">
      </trkpt>
      <trkpt lat="49.7321462" lon="-122.8959002">
      </trkpt>
      <trkpt lat="49.7301178" lon="-122.8940835">
      </trkpt>
      <trkpt lat="49.7295884" lon="-122.8936094">
      </trkpt>
      <trkpt lat="49.7263714" lon="-122.8913242">
      </trkpt>
      <trkpt lat="49.7243608" lon="-122.8895733">
      </trkpt>
      <trkpt lat="49.7225831" lon="-122.8878379">
      </trkpt>
      <trkpt lat="49.7218163" lon="-122.8866641">
      </trkpt>
      <trkpt lat="49.7215163" lon="-122.8858793">
      </trkpt>
      <trkpt lat="49.7212985" lon="-122.8856535">
      </trkpt>
      <trkpt lat="49.7210717" lon="-122.8856696">
      </trkpt>
      <trkpt lat="49.7205638" lon="-122.8859653">
      </trkpt>
      <trkpt lat="49.7198979" lon="-122.8865232">
      </trkpt>
      <trkpt lat="49.7195478" lon="-122.8878261">
      </trkpt>
      <trkpt lat="49.7195391" lon="-122.8883555">
      </trkpt>
    </trkseg>
  </trk>
</gpx>