<?xml version="1.0" encoding="UTF-8"?>
<gpx xmlns="http://www.topografix.com/GPX/1/1" xmlns:xsi="http://www.w3.org/2001/XMLSchema-instance" xsi:schemaLocation="http://www.topografix.com/GPX/1/1 http://www.topografix.com/GPX/1/1/gpx.xsd" version="1.1" creator="gpx.py -- https://github.com/tkrajina/gpxpy">
  <trk>
    <name>Ski tour near 5040 Peak</name>
    <trkseg>
      <trkpt lat="49.1831615" lon="-125.2930254">
      </trkpt>
      <trkpt lat="49.1828185" lon="-125.2925921">
      </trkpt>
      <trkpt lat="49.1827846" lon="-125.2923271">
      </trkpt>
      <trkpt lat="49.1828369" lon="-125.2919441">
      </trkpt>
      <trkpt lat="49.1827746" lon="-125.2914619">
      </trkpt>
      <trkpt lat="49.182675" lon="-125.2910547">
      </trkpt>
      <trkpt lat="49.1827558" lon="-125.2908619">
      </trkpt>
      <trkpt lat="49.1828991" lon="-125.2907091">
      </trkpt>
      <trkpt lat="49.1829027" lon="-125.2905559">
      </trkpt>
      <trkpt lat="49.1827343" lon="-125.290339">
      </trkpt>
      <trkpt lat="49.1828102" lon="-125.2902018">
      </trkpt>
      <trkpt lat="49.1829224" lon="-125.2900814">
      </trkpt>
      <trkpt lat="49.1831535" lon="-125.2898417">
      </trkpt>
      <trkpt lat="49.1831329" lon="-125.2897979">
      </trkpt>
      <trkpt lat="49.1828956" lon="-125.289765">
      </trkpt>
      <trkpt lat="49.1829148" lon="-125.2896719">
      </trkpt>
      <trkpt lat="49.1832583" lon="-125.2895619">
      </trkpt>
      <trkpt lat="49.183218" lon="-125.289492">
      </trkpt>
      <trkpt lat="49.1830782" lon="-125.2894898">
      </trkpt>
      <trkpt lat="49.1830512" lon="-125.2893272">
      </trkpt>
      <trkpt lat="49.18316" lon="-125.2889702">
      </trkpt>
      <trkpt lat="49.183294" lon="-125.2887456">
      </trkpt>
      <trkpt lat="49.1834436" lon="-125.2885833">
      </trkpt>
      <trkpt lat="49.183674" lon="-125.2884293">
      </trkpt>
      <trkpt lat="49.1840174" lon="-125.2882668">
      </trkpt>
      <trkpt lat="49.1842467" lon="-125.288299">
      </trkpt>
      <trkpt lat="49.1843648" lon="-125.288153">
      </trkpt>
      <trkpt lat="49.1854412" lon="-125.2882254">
      </trkpt>
      <trkpt lat="49.1855744" lon="-125.2882683">
      </trkpt>
      <trkpt lat="49.1857533" lon="-125.2884454">
      </trkpt>
      <trkpt lat="49.1858058" lon="-125.2885741">
      </trkpt>
      <trkpt lat="49.1858269" lon="-125.2888423">
      </trkpt>
      <trkpt lat="49.1859489" lon="-125.2891466">
      </trkpt>
      <trkpt lat="49.1860177" lon="-125.2892548">
      </trkpt>
      <trkpt lat="49.1860368" lon="-125.289398">
      </trkpt>
      <trkpt lat="49.1860731" lon="-125.2894623">
      </trkpt>
      <trkpt lat="49.1861954" lon="-125.2894915">
      </trkpt>
      <trkpt lat="49.1862699" lon="-125.2893717">
      </trkpt>
      <trkpt lat="49.1863826" lon="-125.2894477">
      </trkpt>
      <trkpt lat="49.1865717" lon="-125.2894448">
      </trkpt>
      <trkpt lat="49.1866959" lon="-125.2893425">
      </trkpt>
      <trkpt lat="49.1868367" lon="-125.2892608">
      </trkpt>
      <trkpt lat="49.1870576" lon="-125.289014">
      </trkpt>
      <trkpt lat="49.1870365" lon="-125.2896255">
      </trkpt>
      <trkpt lat="49.1871873" lon="-125.2899581">
      </trkpt>
      <trkpt lat="49.1872679" lon="-125.2896309">
      </trkpt>
      <trkpt lat="49.1873906" lon="-125.2899742">
      </trkpt>
      <trkpt lat="49.1874362" lon="-125.2895129">
      </trkpt>
      <trkpt lat="49.1874958" lon="-125.2897489">
      </trkpt>
      <trkpt lat="49.1875519" lon="-125.28947">
      </trkpt>
      <trkpt lat="49.1876992" lon="-125.2897972">
      </trkpt>
      <trkpt lat="49.1878254" lon="-125.2892822">
      </trkpt>
      <trkpt lat="49.1880393" lon="-125.2887887">
      </trkpt>
      <trkpt lat="49.1881094" lon="-125.2891052">
      </trkpt>
      <trkpt lat="49.1881409" lon="-125.288837">
      </trkpt>
      <trkpt lat="49.1884354" lon="-125.2894431">
      </trkpt>
      <trkpt lat="49.188549" lon="-125.2892168">
      </trkpt>
    </trkseg>
  </trk>
</gpx>