<?xml version="1.0" encoding="UTF-8"?>
<gpx xmlns="http://www.topografix.com/GPX/1/1" xmlns:xsi="http://www.w3.org/2001/XMLSchema-instance" xsi:schemaLocation="http://www.topografix.com/GPX/1/1 http://www.topografix.com/GPX/1/1/gpx.xsd" version="1.1" creator="gpx.py -- https://github.com/tkrajina/gpxpy">
  <trk>
    <name>Galbraith-Aldertree Trail</name>
    <trkseg>
      <trkpt lat="49.86609456" lon="-115.26510008">
      </trkpt>
      <trkpt lat="49.86610397" lon="-115.26512759">
      </trkpt>
      <trkpt lat="49.86615916" lon="-115.2652091">
      </trkpt>
      <trkpt lat="49.86620494" lon="-115.26526312">
      </trkpt>
      <trkpt lat="49.86621434" lon="-115.26529061">
      </trkpt>
      <trkpt lat="49.86625114" lon="-115.26534497">
      </trkpt>
      <trkpt lat="49.86626974" lon="-115.26538604">
      </trkpt>
      <trkpt lat="49.86628815" lon="-115.26541322">
      </trkpt>
      <trkpt lat="49.86630674" lon="-115.26545431">
      </trkpt>
      <trkpt lat="49.86633435" lon="-115.26549505">
      </trkpt>
      <trkpt lat="49.86636194" lon="-115.26553582">
      </trkpt>
      <trkpt lat="49.86638974" lon="-115.26559049">
      </trkpt>
      <trkpt lat="49.86643573" lon="-115.26565842">
      </trkpt>
      <trkpt lat="49.86647294" lon="-115.26574059">
      </trkpt>
      <trkpt lat="49.86650995" lon="-115.26580884">
      </trkpt>
      <trkpt lat="49.86654694" lon="-115.2658771">
      </trkpt>
      <trkpt lat="49.86658394" lon="-115.26594533">
      </trkpt>
      <trkpt lat="49.86663893" lon="-115.26601295">
      </trkpt>
      <trkpt lat="49.86669411" lon="-115.26609448">
      </trkpt>
      <trkpt lat="49.8667493" lon="-115.26617601">
      </trkpt>
      <trkpt lat="49.86679509" lon="-115.26623002">
      </trkpt>
      <trkpt lat="49.86684046" lon="-115.26625623">
      </trkpt>
      <trkpt lat="49.86685864" lon="-115.2662695">
      </trkpt>
      <trkpt lat="49.86689501" lon="-115.26629602">
      </trkpt>
      <trkpt lat="49.86694059" lon="-115.26633614">
      </trkpt>
      <trkpt lat="49.86698617" lon="-115.26637626">
      </trkpt>
      <trkpt lat="49.86703174" lon="-115.26641637">
      </trkpt>
      <trkpt lat="49.86707711" lon="-115.26644258">
      </trkpt>
      <trkpt lat="49.86713167" lon="-115.26648238">
      </trkpt>
      <trkpt lat="49.86716805" lon="-115.2665089">
      </trkpt>
      <trkpt lat="49.86721342" lon="-115.26653511">
      </trkpt>
      <trkpt lat="49.86725878" lon="-115.26656132">
      </trkpt>
      <trkpt lat="49.86727719" lon="-115.2665885">
      </trkpt>
      <trkpt lat="49.86730436" lon="-115.26660143">
      </trkpt>
      <trkpt lat="49.86734074" lon="-115.26662797">
      </trkpt>
      <trkpt lat="49.86736812" lon="-115.26665482">
      </trkpt>
      <trkpt lat="49.86740429" lon="-115.26666744">
      </trkpt>
      <trkpt lat="49.86746784" lon="-115.26670692">
      </trkpt>
      <trkpt lat="49.8675314" lon="-115.2667464">
      </trkpt>
      <trkpt lat="49.86758576" lon="-115.26677227">
      </trkpt>
      <trkpt lat="49.86764033" lon="-115.26681208">
      </trkpt>
      <trkpt lat="49.8676861" lon="-115.2668661">
      </trkpt>
      <trkpt lat="49.86772268" lon="-115.26690655">
      </trkpt>
      <trkpt lat="49.86775049" lon="-115.26696122">
      </trkpt>
      <trkpt lat="49.8677875" lon="-115.26702947">
      </trkpt>
      <trkpt lat="49.86781551" lon="-115.26709805">
      </trkpt>
      <trkpt lat="49.86784351" lon="-115.26716663">
      </trkpt>
      <trkpt lat="49.86786254" lon="-115.26723552">
      </trkpt>
      <trkpt lat="49.86786357" lon="-115.26730507">
      </trkpt>
      <trkpt lat="49.86787381" lon="-115.2673882">
      </trkpt>
      <trkpt lat="49.86787506" lon="-115.26747166">
      </trkpt>
      <trkpt lat="49.86787651" lon="-115.26756901">
      </trkpt>
      <trkpt lat="49.86787838" lon="-115.26769421">
      </trkpt>
      <trkpt lat="49.86787127" lon="-115.26781971">
      </trkpt>
      <trkpt lat="49.86786394" lon="-115.26793131">
      </trkpt>
      <trkpt lat="49.86784742" lon="-115.2680293">
      </trkpt>
      <trkpt lat="49.86783987" lon="-115.26812698">
      </trkpt>
      <trkpt lat="49.86781498" lon="-115.26826705">
      </trkpt>
      <trkpt lat="49.86779909" lon="-115.26840678">
      </trkpt>
      <trkpt lat="49.86778339" lon="-115.26856042">
      </trkpt>
      <trkpt lat="49.86776769" lon="-115.26871406">
      </trkpt>
      <trkpt lat="49.86774322" lon="-115.26888193">
      </trkpt>
      <trkpt lat="49.86773548" lon="-115.26896571">
      </trkpt>
      <trkpt lat="49.86773588" lon="-115.26899353">
      </trkpt>
      <trkpt lat="49.86771937" lon="-115.26909154">
      </trkpt>
      <trkpt lat="49.86771182" lon="-115.2691892">
      </trkpt>
      <trkpt lat="49.86769529" lon="-115.26928721">
      </trkpt>
      <trkpt lat="49.86767899" lon="-115.26939912">
      </trkpt>
      <trkpt lat="49.86765429" lon="-115.26955309">
      </trkpt>
      <trkpt lat="49.8676294" lon="-115.26969314">
      </trkpt>
      <trkpt lat="49.86761309" lon="-115.26980506">
      </trkpt>
      <trkpt lat="49.86758797" lon="-115.2699312">
      </trkpt>
      <trkpt lat="49.86757187" lon="-115.27005702">
      </trkpt>
      <trkpt lat="49.86755576" lon="-115.27018284">
      </trkpt>
      <trkpt lat="49.86753065" lon="-115.27030899">
      </trkpt>
      <trkpt lat="49.86751495" lon="-115.27046263">
      </trkpt>
      <trkpt lat="49.86749006" lon="-115.27060268">
      </trkpt>
      <trkpt lat="49.86746537" lon="-115.27075665">
      </trkpt>
      <trkpt lat="49.86743985" lon="-115.27085497">
      </trkpt>
      <trkpt lat="49.86742312" lon="-115.27093905">
      </trkpt>
      <trkpt lat="49.86740659" lon="-115.27103706">
      </trkpt>
      <trkpt lat="49.86738087" lon="-115.27112147">
      </trkpt>
      <trkpt lat="49.86736454" lon="-115.27123339">
      </trkpt>
      <trkpt lat="49.86734822" lon="-115.27134531">
      </trkpt>
      <trkpt lat="49.86734069" lon="-115.27144299">
      </trkpt>
      <trkpt lat="49.86732395" lon="-115.27152708">
      </trkpt>
      <trkpt lat="49.867316" lon="-115.27159695">
      </trkpt>
      <trkpt lat="49.86730804" lon="-115.27166681">
      </trkpt>
      <trkpt lat="49.86728294" lon="-115.27179296">
      </trkpt>
      <trkpt lat="49.86724905" lon="-115.27193333">
      </trkpt>
      <trkpt lat="49.86721517" lon="-115.27207369">
      </trkpt>
      <trkpt lat="49.86717229" lon="-115.27221439">
      </trkpt>
      <trkpt lat="49.86712941" lon="-115.27235509">
      </trkpt>
      <trkpt lat="49.86710431" lon="-115.27248121">
      </trkpt>
      <trkpt lat="49.86707899" lon="-115.27259344">
      </trkpt>
      <trkpt lat="49.86705347" lon="-115.27269178">
      </trkpt>
      <trkpt lat="49.86701938" lon="-115.27281824">
      </trkpt>
      <trkpt lat="49.86697651" lon="-115.27295894">
      </trkpt>
      <trkpt lat="49.86693342" lon="-115.2730857">
      </trkpt>
      <trkpt lat="49.86689013" lon="-115.27319858">
      </trkpt>
      <trkpt lat="49.86684641" lon="-115.27328364">
      </trkpt>
      <trkpt lat="49.86679371" lon="-115.27336901">
      </trkpt>
      <trkpt lat="49.86675001" lon="-115.27345408">
      </trkpt>
      <trkpt lat="49.86670589" lon="-115.2735113">
      </trkpt>
      <trkpt lat="49.86666176" lon="-115.27356853">
      </trkpt>
      <trkpt lat="49.86661764" lon="-115.27362578">
      </trkpt>
      <trkpt lat="49.86657352" lon="-115.27368301">
      </trkpt>
      <trkpt lat="49.86652041" lon="-115.27374058">
      </trkpt>
      <trkpt lat="49.86648486" lon="-115.27376967">
      </trkpt>
      <trkpt lat="49.86644931" lon="-115.27379877">
      </trkpt>
      <trkpt lat="49.86640478" lon="-115.27382818">
      </trkpt>
      <trkpt lat="49.86636024" lon="-115.27385761">
      </trkpt>
      <trkpt lat="49.86630692" lon="-115.27390126">
      </trkpt>
      <trkpt lat="49.86628037" lon="-115.27393004">
      </trkpt>
      <trkpt lat="49.86625382" lon="-115.27395882">
      </trkpt>
      <trkpt lat="49.86622704" lon="-115.27397368">
      </trkpt>
      <trkpt lat="49.86620947" lon="-115.27400214">
      </trkpt>
      <trkpt lat="49.86619192" lon="-115.2740306">
      </trkpt>
      <trkpt lat="49.86615657" lon="-115.27407361">
      </trkpt>
      <trkpt lat="49.86612123" lon="-115.27411662">
      </trkpt>
      <trkpt lat="49.86608611" lon="-115.27417353">
      </trkpt>
      <trkpt lat="49.86605097" lon="-115.27423043">
      </trkpt>
      <trkpt lat="49.86601584" lon="-115.27428736">
      </trkpt>
      <trkpt lat="49.86598969" lon="-115.27434396">
      </trkpt>
      <trkpt lat="49.86596376" lon="-115.27441446">
      </trkpt>
      <trkpt lat="49.86594681" lon="-115.27448463">
      </trkpt>
      <trkpt lat="49.86592088" lon="-115.27455515">
      </trkpt>
      <trkpt lat="49.86589516" lon="-115.27463955">
      </trkpt>
      <trkpt lat="49.86585206" lon="-115.27476634">
      </trkpt>
      <trkpt lat="49.86580835" lon="-115.27485139">
      </trkpt>
      <trkpt lat="49.86579079" lon="-115.27487985">
      </trkpt>
      <trkpt lat="49.86575566" lon="-115.27493675">
      </trkpt>
      <trkpt lat="49.86571174" lon="-115.2750079">
      </trkpt>
      <trkpt lat="49.86565863" lon="-115.27506546">
      </trkpt>
      <trkpt lat="49.8656143" lon="-115.27510878">
      </trkpt>
      <trkpt lat="49.86556997" lon="-115.27515211">
      </trkpt>
      <trkpt lat="49.86552563" lon="-115.27519542">
      </trkpt>
      <trkpt lat="49.86548151" lon="-115.27525266">
      </trkpt>
      <trkpt lat="49.86543739" lon="-115.27530991">
      </trkpt>
      <trkpt lat="49.86540205" lon="-115.27535292">
      </trkpt>
      <trkpt lat="49.86536672" lon="-115.27539591">
      </trkpt>
      <trkpt lat="49.86534057" lon="-115.2754525">
      </trkpt>
      <trkpt lat="49.86530523" lon="-115.27549551">
      </trkpt>
      <trkpt lat="49.8652795" lon="-115.27557991">
      </trkpt>
      <trkpt lat="49.86525336" lon="-115.2756365">
      </trkpt>
      <trkpt lat="49.8652362" lon="-115.27569279">
      </trkpt>
      <trkpt lat="49.86522784" lon="-115.27573484">
      </trkpt>
      <trkpt lat="49.86521069" lon="-115.27579111">
      </trkpt>
      <trkpt lat="49.86520231" lon="-115.27583316">
      </trkpt>
      <trkpt lat="49.86520314" lon="-115.27588878">
      </trkpt>
      <trkpt lat="49.86519498" lon="-115.27594473">
      </trkpt>
      <trkpt lat="49.86518681" lon="-115.27600069">
      </trkpt>
      <trkpt lat="49.86517865" lon="-115.27605665">
      </trkpt>
      <trkpt lat="49.8651707" lon="-115.27612651">
      </trkpt>
      <trkpt lat="49.86516233" lon="-115.27616855">
      </trkpt>
      <trkpt lat="49.86515396" lon="-115.27621059">
      </trkpt>
      <trkpt lat="49.86515458" lon="-115.27625231">
      </trkpt>
      <trkpt lat="49.86514621" lon="-115.27629436">
      </trkpt>
      <trkpt lat="49.86513785" lon="-115.2763364">
      </trkpt>
      <trkpt lat="49.8651121" lon="-115.27642082">
      </trkpt>
      <trkpt lat="49.86507718" lon="-115.27649164">
      </trkpt>
      <trkpt lat="49.86504226" lon="-115.27656246">
      </trkpt>
      <trkpt lat="49.86500734" lon="-115.27663328">
      </trkpt>
      <trkpt lat="49.86497219" lon="-115.27669019">
      </trkpt>
      <trkpt lat="49.86493727" lon="-115.27676101">
      </trkpt>
      <trkpt lat="49.86489335" lon="-115.27683215">
      </trkpt>
      <trkpt lat="49.86486742" lon="-115.27690265">
      </trkpt>
      <trkpt lat="49.8648237" lon="-115.27698771">
      </trkpt>
      <trkpt lat="49.86478898" lon="-115.27707243">
      </trkpt>
      <trkpt lat="49.86474528" lon="-115.27715748">
      </trkpt>
      <trkpt lat="49.86471055" lon="-115.2772422">
      </trkpt>
      <trkpt lat="49.86468482" lon="-115.27732662">
      </trkpt>
      <trkpt lat="49.8646501" lon="-115.27741134">
      </trkpt>
      <trkpt lat="49.86461579" lon="-115.27752388">
      </trkpt>
      <trkpt lat="49.86458128" lon="-115.27762251">
      </trkpt>
      <trkpt lat="49.86455576" lon="-115.27772083">
      </trkpt>
      <trkpt lat="49.86453023" lon="-115.27781914">
      </trkpt>
      <trkpt lat="49.86450471" lon="-115.27791748">
      </trkpt>
      <trkpt lat="49.86450492" lon="-115.27793138">
      </trkpt>
      <trkpt lat="49.86448798" lon="-115.27800156">
      </trkpt>
      <trkpt lat="49.86447102" lon="-115.27807173">
      </trkpt>
      <trkpt lat="49.86444508" lon="-115.27814224">
      </trkpt>
      <trkpt lat="49.86441936" lon="-115.27822664">
      </trkpt>
      <trkpt lat="49.86440241" lon="-115.27829682">
      </trkpt>
      <trkpt lat="49.86437668" lon="-115.27838123">
      </trkpt>
      <trkpt lat="49.86434196" lon="-115.27846595">
      </trkpt>
      <trkpt lat="49.86430723" lon="-115.27855068">
      </trkpt>
      <trkpt lat="49.86427251" lon="-115.2786354">
      </trkpt>
      <trkpt lat="49.86423779" lon="-115.27872014">
      </trkpt>
      <trkpt lat="49.86419428" lon="-115.27881909">
      </trkpt>
      <trkpt lat="49.8641422" lon="-115.27894618">
      </trkpt>
      <trkpt lat="49.8641081" lon="-115.27907262">
      </trkpt>
      <trkpt lat="49.86406481" lon="-115.27918549">
      </trkpt>
      <trkpt lat="49.86402129" lon="-115.27928444">
      </trkpt>
      <trkpt lat="49.86397758" lon="-115.27936948">
      </trkpt>
      <trkpt lat="49.86391609" lon="-115.27946906">
      </trkpt>
      <trkpt lat="49.86384563" lon="-115.27956898">
      </trkpt>
      <trkpt lat="49.86376595" lon="-115.27965531">
      </trkpt>
      <trkpt lat="49.86368648" lon="-115.27975553">
      </trkpt>
      <trkpt lat="49.86360722" lon="-115.27986967">
      </trkpt>
      <trkpt lat="49.86358087" lon="-115.27991236">
      </trkpt>
      <trkpt lat="49.86354573" lon="-115.27996926">
      </trkpt>
      <trkpt lat="49.86352858" lon="-115.28002552">
      </trkpt>
      <trkpt lat="49.86350223" lon="-115.2800682">
      </trkpt>
      <trkpt lat="49.86349345" lon="-115.28008243">
      </trkpt>
      <trkpt lat="49.86345872" lon="-115.28016716">
      </trkpt>
      <trkpt lat="49.86343257" lon="-115.28022375">
      </trkpt>
      <trkpt lat="49.863424" lon="-115.28025188">
      </trkpt>
      <trkpt lat="49.86341542" lon="-115.28028002">
      </trkpt>
      <trkpt lat="49.86339805" lon="-115.28032239">
      </trkpt>
      <trkpt lat="49.86338989" lon="-115.28037833">
      </trkpt>
      <trkpt lat="49.86336417" lon="-115.28046275">
      </trkpt>
      <trkpt lat="49.86335559" lon="-115.28049086">
      </trkpt>
      <trkpt lat="49.86333843" lon="-115.28054713">
      </trkpt>
      <trkpt lat="49.86332107" lon="-115.28058949">
      </trkpt>
      <trkpt lat="49.86330392" lon="-115.28064577">
      </trkpt>
      <trkpt lat="49.86327797" lon="-115.28071626">
      </trkpt>
      <trkpt lat="49.86325183" lon="-115.28077286">
      </trkpt>
      <trkpt lat="49.86322547" lon="-115.28081554">
      </trkpt>
      <trkpt lat="49.86319913" lon="-115.28085821">
      </trkpt>
      <trkpt lat="49.86316378" lon="-115.28090121">
      </trkpt>
      <trkpt lat="49.86313742" lon="-115.28094389">
      </trkpt>
      <trkpt lat="49.86311088" lon="-115.28097268">
      </trkpt>
      <trkpt lat="49.86307553" lon="-115.28101566">
      </trkpt>
      <trkpt lat="49.86304897" lon="-115.28104444">
      </trkpt>
      <trkpt lat="49.86302262" lon="-115.28108712">
      </trkpt>
      <trkpt lat="49.86299606" lon="-115.28111589">
      </trkpt>
      <trkpt lat="49.86296951" lon="-115.28114467">
      </trkpt>
      <trkpt lat="49.86293395" lon="-115.28117375">
      </trkpt>
      <trkpt lat="49.8629074" lon="-115.28120252">
      </trkpt>
      <trkpt lat="49.86287184" lon="-115.28123162">
      </trkpt>
      <trkpt lat="49.86282793" lon="-115.28130275">
      </trkpt>
      <trkpt lat="49.8627838" lon="-115.28135998">
      </trkpt>
      <trkpt lat="49.86273968" lon="-115.28141722">
      </trkpt>
      <trkpt lat="49.86271353" lon="-115.28147379">
      </trkpt>
      <trkpt lat="49.86266941" lon="-115.28153101">
      </trkpt>
      <trkpt lat="49.86263427" lon="-115.28158793">
      </trkpt>
      <trkpt lat="49.86259913" lon="-115.28164483">
      </trkpt>
      <trkpt lat="49.86256421" lon="-115.28171565">
      </trkpt>
      <trkpt lat="49.86252007" lon="-115.28177286">
      </trkpt>
      <trkpt lat="49.86248494" lon="-115.28182977">
      </trkpt>
      <trkpt lat="49.86244123" lon="-115.28191482">
      </trkpt>
      <trkpt lat="49.8624065" lon="-115.28199953">
      </trkpt>
      <trkpt lat="49.8623538" lon="-115.28208489">
      </trkpt>
      <trkpt lat="49.86231029" lon="-115.28218383">
      </trkpt>
      <trkpt lat="49.86223981" lon="-115.28228374">
      </trkpt>
      <trkpt lat="49.86218689" lon="-115.28235519">
      </trkpt>
      <trkpt lat="49.86213378" lon="-115.28241273">
      </trkpt>
      <trkpt lat="49.86208945" lon="-115.28245605">
      </trkpt>
      <trkpt lat="49.86203592" lon="-115.28248577">
      </trkpt>
      <trkpt lat="49.8619826" lon="-115.2825294">
      </trkpt>
      <trkpt lat="49.86195583" lon="-115.28254427">
      </trkpt>
      <trkpt lat="49.86192927" lon="-115.28257305">
      </trkpt>
      <trkpt lat="49.86190251" lon="-115.28258792">
      </trkpt>
      <trkpt lat="49.86187595" lon="-115.28261668">
      </trkpt>
      <trkpt lat="49.8618402" lon="-115.28263186">
      </trkpt>
      <trkpt lat="49.86180465" lon="-115.28266094">
      </trkpt>
      <trkpt lat="49.86177809" lon="-115.28268972">
      </trkpt>
      <trkpt lat="49.86175132" lon="-115.28270459">
      </trkpt>
      <trkpt lat="49.86172456" lon="-115.28271946">
      </trkpt>
      <trkpt lat="49.86168901" lon="-115.28274854">
      </trkpt>
      <trkpt lat="49.86161791" lon="-115.28280672">
      </trkpt>
      <trkpt lat="49.86154681" lon="-115.2828649">
      </trkpt>
      <trkpt lat="49.86148471" lon="-115.28292276">
      </trkpt>
      <trkpt lat="49.86143159" lon="-115.28298031">
      </trkpt>
      <trkpt lat="49.86136948" lon="-115.28303816">
      </trkpt>
      <trkpt lat="49.86130738" lon="-115.28309602">
      </trkpt>
      <trkpt lat="49.86124528" lon="-115.28315387">
      </trkpt>
      <trkpt lat="49.86117437" lon="-115.28322596">
      </trkpt>
      <trkpt lat="49.86110348" lon="-115.28329804">
      </trkpt>
      <trkpt lat="49.86103259" lon="-115.28337013">
      </trkpt>
      <trkpt lat="49.86097927" lon="-115.28341378">
      </trkpt>
      <trkpt lat="49.86093514" lon="-115.28347098">
      </trkpt>
      <trkpt lat="49.86089101" lon="-115.28352821">
      </trkpt>
      <trkpt lat="49.86084689" lon="-115.28358543">
      </trkpt>
      <trkpt lat="49.86079398" lon="-115.28365688">
      </trkpt>
      <trkpt lat="49.86074086" lon="-115.28371442">
      </trkpt>
      <trkpt lat="49.86070572" lon="-115.28377132">
      </trkpt>
      <trkpt lat="49.86066139" lon="-115.28381464">
      </trkpt>
      <trkpt lat="49.86062625" lon="-115.28387154">
      </trkpt>
      <trkpt lat="49.86059071" lon="-115.28390063">
      </trkpt>
      <trkpt lat="49.86056414" lon="-115.28392939">
      </trkpt>
      <trkpt lat="49.86052859" lon="-115.28395848">
      </trkpt>
      <trkpt lat="49.86049304" lon="-115.28398757">
      </trkpt>
      <trkpt lat="49.86045749" lon="-115.28401666">
      </trkpt>
      <trkpt lat="49.86041295" lon="-115.28404606">
      </trkpt>
      <trkpt lat="49.86036862" lon="-115.28408937">
      </trkpt>
      <trkpt lat="49.8603153" lon="-115.28413301">
      </trkpt>
      <trkpt lat="49.86027097" lon="-115.28417632">
      </trkpt>
      <trkpt lat="49.86022663" lon="-115.28421963">
      </trkpt>
      <trkpt lat="49.86016432" lon="-115.28426358">
      </trkpt>
      <trkpt lat="49.86009322" lon="-115.28432176">
      </trkpt>
      <trkpt lat="49.86002212" lon="-115.28437993">
      </trkpt>
      <trkpt lat="49.8599688" lon="-115.28442356">
      </trkpt>
      <trkpt lat="49.85991567" lon="-115.28448111">
      </trkpt>
      <trkpt lat="49.85986277" lon="-115.28455255">
      </trkpt>
      <trkpt lat="49.85982763" lon="-115.28460944">
      </trkpt>
      <trkpt lat="49.8597929" lon="-115.28469417">
      </trkpt>
      <trkpt lat="49.85975797" lon="-115.28476498">
      </trkpt>
      <trkpt lat="49.85972345" lon="-115.28486359">
      </trkpt>
      <trkpt lat="49.85971466" lon="-115.28487782">
      </trkpt>
      <trkpt lat="49.85968872" lon="-115.2849483">
      </trkpt>
      <trkpt lat="49.85965359" lon="-115.2850052">
      </trkpt>
      <trkpt lat="49.85961866" lon="-115.28507602">
      </trkpt>
      <trkpt lat="49.85959251" lon="-115.2851326">
      </trkpt>
      <trkpt lat="49.85955736" lon="-115.28518948">
      </trkpt>
      <trkpt lat="49.85952244" lon="-115.28526029">
      </trkpt>
      <trkpt lat="49.85947913" lon="-115.28537314">
      </trkpt>
      <trkpt lat="49.85942664" lon="-115.28547239">
      </trkpt>
      <trkpt lat="49.8593919" lon="-115.28555711">
      </trkpt>
      <trkpt lat="49.85934819" lon="-115.28564214">
      </trkpt>
      <trkpt lat="49.85930447" lon="-115.28572717">
      </trkpt>
      <trkpt lat="49.85926933" lon="-115.28578407">
      </trkpt>
      <trkpt lat="49.85923439" lon="-115.28585487">
      </trkpt>
      <trkpt lat="49.85919926" lon="-115.28591178">
      </trkpt>
      <trkpt lat="49.85916454" lon="-115.28599649">
      </trkpt>
      <trkpt lat="49.8591296" lon="-115.28606729">
      </trkpt>
      <trkpt lat="49.85909488" lon="-115.28615201">
      </trkpt>
      <trkpt lat="49.85908671" lon="-115.28620794">
      </trkpt>
      <trkpt lat="49.85907813" lon="-115.28623608">
      </trkpt>
      <trkpt lat="49.85906138" lon="-115.28632015">
      </trkpt>
      <trkpt lat="49.85904463" lon="-115.28640423">
      </trkpt>
      <trkpt lat="49.85901011" lon="-115.28650285">
      </trkpt>
      <trkpt lat="49.85898479" lon="-115.28661506">
      </trkpt>
      <trkpt lat="49.85895904" lon="-115.28669945">
      </trkpt>
      <trkpt lat="49.85894169" lon="-115.2867418">
      </trkpt>
      <trkpt lat="49.8589333" lon="-115.28678384">
      </trkpt>
      <trkpt lat="49.85891636" lon="-115.286854">
      </trkpt>
      <trkpt lat="49.85890861" lon="-115.28693777">
      </trkpt>
      <trkpt lat="49.85890064" lon="-115.28700762">
      </trkpt>
      <trkpt lat="49.85889287" lon="-115.28709138">
      </trkpt>
      <trkpt lat="49.85889412" lon="-115.2871748">
      </trkpt>
      <trkpt lat="49.85890434" lon="-115.28725794">
      </trkpt>
      <trkpt lat="49.85890557" lon="-115.28734138">
      </trkpt>
      <trkpt lat="49.85890681" lon="-115.28742481">
      </trkpt>
      <trkpt lat="49.85890721" lon="-115.28745262">
      </trkpt>
      <trkpt lat="49.85890804" lon="-115.28750825">
      </trkpt>
      <trkpt lat="49.85891806" lon="-115.28757747">
      </trkpt>
      <trkpt lat="49.85891929" lon="-115.2876609">
      </trkpt>
      <trkpt lat="49.85892052" lon="-115.28774435">
      </trkpt>
      <trkpt lat="49.85893074" lon="-115.28782746">
      </trkpt>
      <trkpt lat="49.85893177" lon="-115.287897">
      </trkpt>
      <trkpt lat="49.85893279" lon="-115.28796654">
      </trkpt>
      <trkpt lat="49.85892484" lon="-115.28803638">
      </trkpt>
      <trkpt lat="49.85892566" lon="-115.28809201">
      </trkpt>
      <trkpt lat="49.85892627" lon="-115.28813373">
      </trkpt>
      <trkpt lat="49.8589179" lon="-115.28817576">
      </trkpt>
      <trkpt lat="49.85890953" lon="-115.2882178">
      </trkpt>
      <trkpt lat="49.85890135" lon="-115.28827376">
      </trkpt>
      <trkpt lat="49.85889298" lon="-115.28831578">
      </trkpt>
      <trkpt lat="49.85887603" lon="-115.28838595">
      </trkpt>
      <trkpt lat="49.85885008" lon="-115.28845645">
      </trkpt>
      <trkpt lat="49.85882393" lon="-115.28851302">
      </trkpt>
      <trkpt lat="49.85879799" lon="-115.2885835">
      </trkpt>
      <trkpt lat="49.85877204" lon="-115.28865398">
      </trkpt>
      <trkpt lat="49.85873732" lon="-115.28873869">
      </trkpt>
      <trkpt lat="49.85871117" lon="-115.28879526">
      </trkpt>
      <trkpt lat="49.85868522" lon="-115.28886576">
      </trkpt>
      <trkpt lat="49.85866806" lon="-115.28892203">
      </trkpt>
      <trkpt lat="49.8586509" lon="-115.28897827">
      </trkpt>
      <trkpt lat="49.85862496" lon="-115.28904877">
      </trkpt>
      <trkpt lat="49.85859922" lon="-115.28913315">
      </trkpt>
      <trkpt lat="49.85857327" lon="-115.28920363">
      </trkpt>
      <trkpt lat="49.85854753" lon="-115.28928803">
      </trkpt>
      <trkpt lat="49.85851281" lon="-115.28937275">
      </trkpt>
      <trkpt lat="49.85848686" lon="-115.28944323">
      </trkpt>
      <trkpt lat="49.8584607" lon="-115.2894998">
      </trkpt>
      <trkpt lat="49.85842557" lon="-115.2895567">
      </trkpt>
      <trkpt lat="49.85839942" lon="-115.28961327">
      </trkpt>
      <trkpt lat="49.85836449" lon="-115.28968407">
      </trkpt>
      <trkpt lat="49.85832097" lon="-115.28978301">
      </trkpt>
      <trkpt lat="49.85828604" lon="-115.28985382">
      </trkpt>
      <trkpt lat="49.8582511" lon="-115.28992462">
      </trkpt>
      <trkpt lat="49.85821616" lon="-115.2899954">
      </trkpt>
      <trkpt lat="49.85818124" lon="-115.29006621">
      </trkpt>
      <trkpt lat="49.85815508" lon="-115.29012279">
      </trkpt>
      <trkpt lat="49.85812873" lon="-115.29016547">
      </trkpt>
      <trkpt lat="49.85810237" lon="-115.29020814">
      </trkpt>
      <trkpt lat="49.85806723" lon="-115.29026504">
      </trkpt>
      <trkpt lat="49.85804109" lon="-115.29032161">
      </trkpt>
      <trkpt lat="49.85801514" lon="-115.29039209">
      </trkpt>
      <trkpt lat="49.85798919" lon="-115.29046258">
      </trkpt>
      <trkpt lat="49.85797224" lon="-115.29053274">
      </trkpt>
      <trkpt lat="49.85794629" lon="-115.29060322">
      </trkpt>
      <trkpt lat="49.85790298" lon="-115.29071605">
      </trkpt>
      <trkpt lat="49.85788561" lon="-115.29075841">
      </trkpt>
      <trkpt lat="49.85786845" lon="-115.29081467">
      </trkpt>
      <trkpt lat="49.85785088" lon="-115.29084312">
      </trkpt>
      <trkpt lat="49.85784251" lon="-115.29088516">
      </trkpt>
      <trkpt lat="49.85782493" lon="-115.29091359">
      </trkpt>
      <trkpt lat="49.85780799" lon="-115.29098376">
      </trkpt>
      <trkpt lat="49.85778204" lon="-115.29105424">
      </trkpt>
      <trkpt lat="49.85775609" lon="-115.29112472">
      </trkpt>
      <trkpt lat="49.85773914" lon="-115.29119489">
      </trkpt>
      <trkpt lat="49.85772198" lon="-115.29125116">
      </trkpt>
      <trkpt lat="49.85770461" lon="-115.29129351">
      </trkpt>
      <trkpt lat="49.85767846" lon="-115.29135009">
      </trkpt>
      <trkpt lat="49.85764331" lon="-115.29140698">
      </trkpt>
      <trkpt lat="49.85761717" lon="-115.29146355">
      </trkpt>
      <trkpt lat="49.85759101" lon="-115.29152014">
      </trkpt>
      <trkpt lat="49.85754668" lon="-115.29156343">
      </trkpt>
      <trkpt lat="49.85750214" lon="-115.29159283">
      </trkpt>
      <trkpt lat="49.85744861" lon="-115.29162255">
      </trkpt>
      <trkpt lat="49.85743961" lon="-115.29162287">
      </trkpt>
      <trkpt lat="49.85739507" lon="-115.29165226">
      </trkpt>
      <trkpt lat="49.85733236" lon="-115.29166839">
      </trkpt>
      <trkpt lat="49.85725184" lon="-115.29169906">
      </trkpt>
      <trkpt lat="49.85718033" lon="-115.2917294">
      </trkpt>
      <trkpt lat="49.85710882" lon="-115.29175974">
      </trkpt>
      <trkpt lat="49.8570463" lon="-115.29178978">
      </trkpt>
      <trkpt lat="49.85698379" lon="-115.29181982">
      </trkpt>
      <trkpt lat="49.85692146" lon="-115.29186375">
      </trkpt>
      <trkpt lat="49.85685036" lon="-115.29192191">
      </trkpt>
      <trkpt lat="49.85677966" lon="-115.29200787">
      </trkpt>
      <trkpt lat="49.85670897" lon="-115.29209386">
      </trkpt>
      <trkpt lat="49.85665626" lon="-115.29217919">
      </trkpt>
      <trkpt lat="49.85660356" lon="-115.29226453">
      </trkpt>
      <trkpt lat="49.85655083" lon="-115.29234986">
      </trkpt>
      <trkpt lat="49.85648913" lon="-115.29243552">
      </trkpt>
      <trkpt lat="49.85643622" lon="-115.29250695">
      </trkpt>
      <trkpt lat="49.85636532" lon="-115.29257901">
      </trkpt>
      <trkpt lat="49.85633876" lon="-115.29260778">
      </trkpt>
      <trkpt lat="49.85630321" lon="-115.29263686">
      </trkpt>
      <trkpt lat="49.85624089" lon="-115.29268078">
      </trkpt>
      <trkpt lat="49.85616958" lon="-115.29272504">
      </trkpt>
      <trkpt lat="49.85610706" lon="-115.29275506">
      </trkpt>
      <trkpt lat="49.85604474" lon="-115.29279901">
      </trkpt>
      <trkpt lat="49.85599142" lon="-115.29284261">
      </trkpt>
      <trkpt lat="49.85592931" lon="-115.29290046">
      </trkpt>
      <trkpt lat="49.85586698" lon="-115.2929444">
      </trkpt>
      <trkpt lat="49.85583123" lon="-115.29295956">
      </trkpt>
      <trkpt lat="49.85581366" lon="-115.292988">
      </trkpt>
      <trkpt lat="49.85576013" lon="-115.29301772">
      </trkpt>
      <trkpt lat="49.85570639" lon="-115.29303352">
      </trkpt>
      <trkpt lat="49.85563508" lon="-115.29307778">
      </trkpt>
      <trkpt lat="49.85557276" lon="-115.29312172">
      </trkpt>
      <trkpt lat="49.85550166" lon="-115.29317988">
      </trkpt>
      <trkpt lat="49.85544853" lon="-115.29323739">
      </trkpt>
      <trkpt lat="49.85543076" lon="-115.29325193">
      </trkpt>
      <trkpt lat="49.85538642" lon="-115.29329524">
      </trkpt>
      <trkpt lat="49.85535149" lon="-115.29336602">
      </trkpt>
      <trkpt lat="49.85531634" lon="-115.29342293">
      </trkpt>
      <trkpt lat="49.85528141" lon="-115.29349372">
      </trkpt>
      <trkpt lat="49.85524626" lon="-115.29355061">
      </trkpt>
      <trkpt lat="49.85520295" lon="-115.29366342">
      </trkpt>
      <trkpt lat="49.85515964" lon="-115.29377626">
      </trkpt>
      <trkpt lat="49.85512511" lon="-115.29387485">
      </trkpt>
      <trkpt lat="49.85509059" lon="-115.29397346">
      </trkpt>
      <trkpt lat="49.85505585" lon="-115.29405816">
      </trkpt>
      <trkpt lat="49.85503869" lon="-115.29411441">
      </trkpt>
      <trkpt lat="49.85501294" lon="-115.29419881">
      </trkpt>
      <trkpt lat="49.854987" lon="-115.29426927">
      </trkpt>
      <trkpt lat="49.85495246" lon="-115.29436788">
      </trkpt>
      <trkpt lat="49.85493572" lon="-115.29445195">
      </trkpt>
      <trkpt lat="49.85492693" lon="-115.29446617">
      </trkpt>
      <trkpt lat="49.85490997" lon="-115.29453634">
      </trkpt>
      <trkpt lat="49.85489301" lon="-115.29460649">
      </trkpt>
      <trkpt lat="49.85486706" lon="-115.29467697">
      </trkpt>
      <trkpt lat="49.85485011" lon="-115.29474713">
      </trkpt>
      <trkpt lat="49.85482396" lon="-115.2948037">
      </trkpt>
      <trkpt lat="49.85478881" lon="-115.29486058">
      </trkpt>
      <trkpt lat="49.85475368" lon="-115.29491747">
      </trkpt>
      <trkpt lat="49.85471852" lon="-115.29497437">
      </trkpt>
      <trkpt lat="49.85468317" lon="-115.29501734">
      </trkpt>
      <trkpt lat="49.85465682" lon="-115.29506">
      </trkpt>
      <trkpt lat="49.85462168" lon="-115.29511689">
      </trkpt>
      <trkpt lat="49.85456876" lon="-115.29518831">
      </trkpt>
      <trkpt lat="49.85451585" lon="-115.29525975">
      </trkpt>
      <trkpt lat="49.85445414" lon="-115.29534539">
      </trkpt>
      <trkpt lat="49.85439243" lon="-115.29543104">
      </trkpt>
      <trkpt lat="49.85433093" lon="-115.29553059">
      </trkpt>
      <trkpt lat="49.85426024" lon="-115.29561655">
      </trkpt>
      <trkpt lat="49.85419853" lon="-115.29570219">
      </trkpt>
      <trkpt lat="49.85414582" lon="-115.29578752">
      </trkpt>
      <trkpt lat="49.85409311" lon="-115.29587286">
      </trkpt>
      <trkpt lat="49.85406715" lon="-115.29594333">
      </trkpt>
      <trkpt lat="49.85403242" lon="-115.29602802">
      </trkpt>
      <trkpt lat="49.85400668" lon="-115.2961124">
      </trkpt>
      <trkpt lat="49.85397194" lon="-115.29619711">
      </trkpt>
      <trkpt lat="49.85395477" lon="-115.29625334">
      </trkpt>
      <trkpt lat="49.85393781" lon="-115.29632351">
      </trkpt>
      <trkpt lat="49.85390288" lon="-115.29639429">
      </trkpt>
      <trkpt lat="49.85385895" lon="-115.2964654">
      </trkpt>
      <trkpt lat="49.853824" lon="-115.2965362">
      </trkpt>
      <trkpt lat="49.85378008" lon="-115.2966073">
      </trkpt>
      <trkpt lat="49.85374514" lon="-115.29667809">
      </trkpt>
      <trkpt lat="49.85370121" lon="-115.2967492">
      </trkpt>
      <trkpt lat="49.85366607" lon="-115.29680607">
      </trkpt>
      <trkpt lat="49.85363113" lon="-115.29687687">
      </trkpt>
      <trkpt lat="49.85359598" lon="-115.29693377">
      </trkpt>
      <trkpt lat="49.85352529" lon="-115.29701971">
      </trkpt>
      <trkpt lat="49.8534458" lon="-115.29711989">
      </trkpt>
      <trkpt lat="49.85336612" lon="-115.29720617">
      </trkpt>
      <trkpt lat="49.85328623" lon="-115.29727854">
      </trkpt>
      <trkpt lat="49.85322411" lon="-115.29733636">
      </trkpt>
      <trkpt lat="49.85311745" lon="-115.29742359">
      </trkpt>
      <trkpt lat="49.85300221" lon="-115.29753894">
      </trkpt>
      <trkpt lat="49.85286041" lon="-115.29768303">
      </trkpt>
      <trkpt lat="49.85272801" lon="-115.29785464">
      </trkpt>
      <trkpt lat="49.85260439" lon="-115.29801202">
      </trkpt>
      <trkpt lat="49.85250753" lon="-115.29815453">
      </trkpt>
      <trkpt lat="49.85241068" lon="-115.29829705">
      </trkpt>
      <trkpt lat="49.85231363" lon="-115.29842566">
      </trkpt>
      <trkpt lat="49.85221657" lon="-115.29855428">
      </trkpt>
      <trkpt lat="49.85211053" lon="-115.29868321">
      </trkpt>
      <trkpt lat="49.85204841" lon="-115.29874104">
      </trkpt>
      <trkpt lat="49.8519863" lon="-115.29879887">
      </trkpt>
      <trkpt lat="49.85192398" lon="-115.2988428">
      </trkpt>
      <trkpt lat="49.85187964" lon="-115.29888609">
      </trkpt>
      <trkpt lat="49.85183509" lon="-115.29891547">
      </trkpt>
      <trkpt lat="49.85178156" lon="-115.29894518">
      </trkpt>
      <trkpt lat="49.85172844" lon="-115.29900269">
      </trkpt>
      <trkpt lat="49.85165753" lon="-115.29907474">
      </trkpt>
      <trkpt lat="49.85158663" lon="-115.29914677">
      </trkpt>
      <trkpt lat="49.85151594" lon="-115.29923274">
      </trkpt>
      <trkpt lat="49.8514009" lon="-115.29936198">
      </trkpt>
      <trkpt lat="49.85130404" lon="-115.29950448">
      </trkpt>
      <trkpt lat="49.85120718" lon="-115.29964701">
      </trkpt>
      <trkpt lat="49.85111933" lon="-115.29978921">
      </trkpt>
      <trkpt lat="49.85104045" lon="-115.29993109">
      </trkpt>
      <trkpt lat="49.85097036" lon="-115.30005874">
      </trkpt>
      <trkpt lat="49.85090906" lon="-115.30017218">
      </trkpt>
      <trkpt lat="49.85084797" lon="-115.30029953">
      </trkpt>
      <trkpt lat="49.85083039" lon="-115.30032797">
      </trkpt>
      <trkpt lat="49.85078667" lon="-115.30041297">
      </trkpt>
      <trkpt lat="49.85074294" lon="-115.30049798">
      </trkpt>
      <trkpt lat="49.8506988" lon="-115.30055517">
      </trkpt>
      <trkpt lat="49.85064568" lon="-115.30061268">
      </trkpt>
      <trkpt lat="49.85059275" lon="-115.3006841">
      </trkpt>
      <trkpt lat="49.85052185" lon="-115.30075614">
      </trkpt>
      <trkpt lat="49.85045973" lon="-115.30081397">
      </trkpt>
      <trkpt lat="49.8504066" lon="-115.30087146">
      </trkpt>
      <trkpt lat="49.85036247" lon="-115.30092867">
      </trkpt>
      <trkpt lat="49.85030914" lon="-115.30097226">
      </trkpt>
      <trkpt lat="49.85027399" lon="-115.30102915">
      </trkpt>
      <trkpt lat="49.85022965" lon="-115.30107244">
      </trkpt>
      <trkpt lat="49.8501947" lon="-115.30114322">
      </trkpt>
      <trkpt lat="49.85016875" lon="-115.30121368">
      </trkpt>
      <trkpt lat="49.85014301" lon="-115.30129805">
      </trkpt>
      <trkpt lat="49.85013524" lon="-115.3013818">
      </trkpt>
      <trkpt lat="49.85012727" lon="-115.30145164">
      </trkpt>
      <trkpt lat="49.85011991" lon="-115.30156317">
      </trkpt>
      <trkpt lat="49.85009457" lon="-115.30167536">
      </trkpt>
      <trkpt lat="49.85006043" lon="-115.30180175">
      </trkpt>
      <trkpt lat="49.85001732" lon="-115.30192846">
      </trkpt>
      <trkpt lat="49.84996481" lon="-115.30202769">
      </trkpt>
      <trkpt lat="49.84991188" lon="-115.3020991">
      </trkpt>
      <trkpt lat="49.84985896" lon="-115.30217051">
      </trkpt>
      <trkpt lat="49.84980584" lon="-115.30222801">
      </trkpt>
      <trkpt lat="49.8497525" lon="-115.30227162">
      </trkpt>
      <trkpt lat="49.84970815" lon="-115.30231489">
      </trkpt>
      <trkpt lat="49.84964625" lon="-115.30238663">
      </trkpt>
      <trkpt lat="49.84957514" lon="-115.30244477">
      </trkpt>
      <trkpt lat="49.84949505" lon="-115.30250321">
      </trkpt>
      <trkpt lat="49.84942393" lon="-115.30256135">
      </trkpt>
      <trkpt lat="49.84935262" lon="-115.30260559">
      </trkpt>
      <trkpt lat="49.84929009" lon="-115.30263559">
      </trkpt>
      <trkpt lat="49.84920939" lon="-115.30265233">
      </trkpt>
      <trkpt lat="49.84913787" lon="-115.30268266">
      </trkpt>
      <trkpt lat="49.84904838" lon="-115.30271361">
      </trkpt>
      <trkpt lat="49.84895888" lon="-115.30274457">
      </trkpt>
      <trkpt lat="49.84890514" lon="-115.30276037">
      </trkpt>
      <trkpt lat="49.84885181" lon="-115.30280396">
      </trkpt>
      <trkpt lat="49.84880706" lon="-115.30281944">
      </trkpt>
      <trkpt lat="49.84877151" lon="-115.30284851">
      </trkpt>
      <trkpt lat="49.84872675" lon="-115.30286398">
      </trkpt>
      <trkpt lat="49.84867322" lon="-115.30289368">
      </trkpt>
      <trkpt lat="49.84861111" lon="-115.3029515">
      </trkpt>
      <trkpt lat="49.84854" lon="-115.30300964">
      </trkpt>
      <trkpt lat="49.8484603" lon="-115.30309588">
      </trkpt>
      <trkpt lat="49.84839819" lon="-115.30315371">
      </trkpt>
      <trkpt lat="49.84836284" lon="-115.30319667">
      </trkpt>
      <trkpt lat="49.84832789" lon="-115.30326746">
      </trkpt>
      <trkpt lat="49.84829275" lon="-115.30332433">
      </trkpt>
      <trkpt lat="49.8482574" lon="-115.3033673">
      </trkpt>
      <trkpt lat="49.84823144" lon="-115.30343777">
      </trkpt>
      <trkpt lat="49.84818791" lon="-115.30353666">
      </trkpt>
      <trkpt lat="49.84814438" lon="-115.30363555">
      </trkpt>
      <trkpt lat="49.84810107" lon="-115.30374835">
      </trkpt>
      <trkpt lat="49.84805734" lon="-115.30383336">
      </trkpt>
      <trkpt lat="49.84800461" lon="-115.30391866">
      </trkpt>
      <trkpt lat="49.84797825" lon="-115.30396132">
      </trkpt>
      <trkpt lat="49.84795189" lon="-115.30400397">
      </trkpt>
      <trkpt lat="49.84792533" lon="-115.30403273">
      </trkpt>
      <trkpt lat="49.84764156" lon="-115.30419307">
      </trkpt>
      <trkpt lat="49.84711093" lon="-115.30413414">
      </trkpt>
      <trkpt lat="49.84672293" lon="-115.30413177">
      </trkpt>
      <trkpt lat="49.84619671" lon="-115.30406557">
      </trkpt>
      <trkpt lat="49.84571998" lon="-115.30351029">
      </trkpt>
      <trkpt lat="49.8450801" lon="-115.30256089">
      </trkpt>
      <trkpt lat="49.84477548" lon="-115.30194087">
      </trkpt>
      <trkpt lat="49.84429362" lon="-115.30113198">
      </trkpt>
      <trkpt lat="49.84368336" lon="-115.30006835">
      </trkpt>
      <trkpt lat="49.84326147" lon="-115.29929184">
      </trkpt>
      <trkpt lat="49.84253691" lon="-115.2986711">
      </trkpt>
      <trkpt lat="49.84189301" lon="-115.29797592">
      </trkpt>
      <trkpt lat="49.84138431" lon="-115.29719662">
      </trkpt>
      <trkpt lat="49.84104861" lon="-115.29684619">
      </trkpt>
      <trkpt lat="49.84089365" lon="-115.29675315">
      </trkpt>
      <trkpt lat="49.84027701" lon="-115.29638294">
      </trkpt>
      <trkpt lat="49.83969822" lon="-115.29597381">
      </trkpt>
      <trkpt lat="49.83906213" lon="-115.29544052">
      </trkpt>
      <trkpt lat="49.83852835" lon="-115.29500103">
      </trkpt>
      <trkpt lat="49.83774921" lon="-115.29461579">
      </trkpt>
      <trkpt lat="49.83691078" lon="-115.29445908">
      </trkpt>
      <trkpt lat="49.83598059" lon="-115.294053">
      </trkpt>
      <trkpt lat="49.83512791" lon="-115.2938688">
      </trkpt>
      <trkpt lat="49.83410138" lon="-115.29366487">
      </trkpt>
      <trkpt lat="49.83300648" lon="-115.29368993">
      </trkpt>
      <trkpt lat="49.83218373" lon="-115.29340558">
      </trkpt>
      <trkpt lat="49.83087493" lon="-115.29301091">
      </trkpt>
      <trkpt lat="49.82948263" lon="-115.29277546">
      </trkpt>
      <trkpt lat="49.82812923" lon="-115.29265796">
      </trkpt>
      <trkpt lat="49.82672511" lon="-115.29251475">
      </trkpt>
      <trkpt lat="49.82551563" lon="-115.29274282">
      </trkpt>
      <trkpt lat="49.82415883" lon="-115.2929075">
      </trkpt>
      <trkpt lat="49.82310296" lon="-115.29328317">
      </trkpt>
      <trkpt lat="49.8224445" lon="-115.29344913">
      </trkpt>
      <trkpt lat="49.82136271" lon="-115.29367093">
      </trkpt>
      <trkpt lat="49.8203456" lon="-115.29393186">
      </trkpt>
      <trkpt lat="49.81907514" lon="-115.29430379">
      </trkpt>
      <trkpt lat="49.81830995" lon="-115.29438328">
      </trkpt>
      <trkpt lat="49.81778244" lon="-115.29447941">
      </trkpt>
      <trkpt lat="49.81730737" lon="-115.29491134">
      </trkpt>
      <trkpt lat="49.81686977" lon="-115.29516523">
      </trkpt>
      <trkpt lat="49.81656512" lon="-115.29522233">
      </trkpt>
      <trkpt lat="49.81643689" lon="-115.29520035">
      </trkpt>
      <trkpt lat="49.81623012" lon="-115.29513285">
      </trkpt>
      <trkpt lat="49.81572999" lon="-115.29500207">
      </trkpt>
      <trkpt lat="49.81529665" lon="-115.29479052">
      </trkpt>
      <trkpt lat="49.81484352" lon="-115.29427682">
      </trkpt>
      <trkpt lat="49.81402873" lon="-115.2932591">
      </trkpt>
      <trkpt lat="49.81351276" lon="-115.29257228">
      </trkpt>
      <trkpt lat="49.81258241" lon="-115.29170826">
      </trkpt>
      <trkpt lat="49.81179099" lon="-115.29116879">
      </trkpt>
      <trkpt lat="49.81099286" lon="-115.29052395">
      </trkpt>
      <trkpt lat="49.8098294" lon="-115.2903198">
      </trkpt>
      <trkpt lat="49.80882481" lon="-115.29007267">
      </trkpt>
      <trkpt lat="49.80779915" lon="-115.28991115">
      </trkpt>
      <trkpt lat="49.8070955" lon="-115.2896494">
      </trkpt>
      <trkpt lat="49.80635283" lon="-115.28948823">
      </trkpt>
      <trkpt lat="49.80570506" lon="-115.28973119">
      </trkpt>
      <trkpt lat="49.80472941" lon="-115.28978572">
      </trkpt>
      <trkpt lat="49.80407665" lon="-115.28978225">
      </trkpt>
      <trkpt lat="49.80346949" lon="-115.28977657">
      </trkpt>
      <trkpt lat="49.80289611" lon="-115.28986085">
      </trkpt>
      <trkpt lat="49.80232058" lon="-115.28983953">
      </trkpt>
      <trkpt lat="49.80168476" lon="-115.2897718">
      </trkpt>
      <trkpt lat="49.80135204" lon="-115.28956956">
      </trkpt>
      <trkpt lat="49.80106205" lon="-115.28922428">
      </trkpt>
      <trkpt lat="49.80062955" lon="-115.28860407">
      </trkpt>
      <trkpt lat="49.8001808" lon="-115.28808333">
      </trkpt>
      <trkpt lat="49.80000112" lon="-115.28785856">
      </trkpt>
      <trkpt lat="49.79899672" lon="-115.28880762">
      </trkpt>
      <trkpt lat="49.79858762" lon="-115.28891513">
      </trkpt>
      <trkpt lat="49.79833215" lon="-115.28889254">
      </trkpt>
      <trkpt lat="49.79808514" lon="-115.28880638">
      </trkpt>
      <trkpt lat="49.79775018" lon="-115.28858838">
      </trkpt>
      <trkpt lat="49.7974145" lon="-115.28829995">
      </trkpt>
      <trkpt lat="49.79716077" lon="-115.28800271">
      </trkpt>
      <trkpt lat="49.79699918" lon="-115.28780202">
      </trkpt>
      <trkpt lat="49.79675356" lon="-115.28740603">
      </trkpt>
      <trkpt lat="49.79660448" lon="-115.28709243">
      </trkpt>
      <trkpt lat="49.79617027" lon="-115.28608798">
      </trkpt>
      <trkpt lat="49.795955" lon="-115.28554346">
      </trkpt>
      <trkpt lat="49.79578793" lon="-115.28525138">
      </trkpt>
      <trkpt lat="49.79564962" lon="-115.2850995">
      </trkpt>
      <trkpt lat="49.79551465" lon="-115.28482786">
      </trkpt>
      <trkpt lat="49.79537563" lon="-115.28460558">
      </trkpt>
      <trkpt lat="49.79512832" lon="-115.2844913">
      </trkpt>
      <trkpt lat="49.79491264" lon="-115.28434815">
      </trkpt>
      <trkpt lat="49.79467871" lon="-115.28420543">
      </trkpt>
      <trkpt lat="49.79432552" lon="-115.28398784">
      </trkpt>
      <trkpt lat="49.79431303" lon="-115.28397659">
      </trkpt>
      <trkpt lat="49.79398563" lon="-115.28373477">
      </trkpt>
      <trkpt lat="49.79331889" lon="-115.28360856">
      </trkpt>
      <trkpt lat="49.7930546" lon="-115.28361436">
      </trkpt>
      <trkpt lat="49.79256275" lon="-115.28365331">
      </trkpt>
      <trkpt lat="49.79212531" lon="-115.2836629">
      </trkpt>
      <trkpt lat="49.79181941" lon="-115.28361329">
      </trkpt>
      <trkpt lat="49.79135904" lon="-115.2836093">
      </trkpt>
      <trkpt lat="49.79075545" lon="-115.2838619">
      </trkpt>
      <trkpt lat="49.78973921" lon="-115.28387713">
      </trkpt>
      <trkpt lat="49.78909547" lon="-115.28377155">
      </trkpt>
      <trkpt lat="49.78893612" lon="-115.28378912">
      </trkpt>
      <trkpt lat="49.78875863" lon="-115.28381414">
      </trkpt>
      <trkpt lat="49.78874609" lon="-115.28381566">
      </trkpt>
      <trkpt lat="49.78796407" lon="-115.28366962">
      </trkpt>
      <trkpt lat="49.78754081" lon="-115.28372817">
      </trkpt>
      <trkpt lat="49.78704404" lon="-115.28373202">
      </trkpt>
      <trkpt lat="49.78675176" lon="-115.28367508">
      </trkpt>
      <trkpt lat="49.78657744" lon="-115.28356625">
      </trkpt>
      <trkpt lat="49.78639111" lon="-115.28361961">
      </trkpt>
      <trkpt lat="49.78615748" lon="-115.28350505">
      </trkpt>
      <trkpt lat="49.78559259" lon="-115.28353153">
      </trkpt>
      <trkpt lat="49.7847179" lon="-115.28357181">
      </trkpt>
      <trkpt lat="49.78404842" lon="-115.28362168">
      </trkpt>
      <trkpt lat="49.78369732" lon="-115.28360826">
      </trkpt>
      <trkpt lat="49.78364727" lon="-115.28361638">
      </trkpt>
      <trkpt lat="49.78306074" lon="-115.28331247">
      </trkpt>
      <trkpt lat="49.78225483" lon="-115.28339349">
      </trkpt>
      <trkpt lat="49.78147807" lon="-115.28320638">
      </trkpt>
      <trkpt lat="49.78070037" lon="-115.28292778">
      </trkpt>
      <trkpt lat="49.78038712" lon="-115.28304726">
      </trkpt>
      <trkpt lat="49.77953411" lon="-115.2829815">
      </trkpt>
      <trkpt lat="49.7790464" lon="-115.28297811">
      </trkpt>
      <trkpt lat="49.77890044" lon="-115.28296723">
      </trkpt>
      <trkpt lat="49.77824591" lon="-115.28270004">
      </trkpt>
      <trkpt lat="49.77798544" lon="-115.28263538">
      </trkpt>
      <trkpt lat="49.77775665" lon="-115.28254888">
      </trkpt>
      <trkpt lat="49.77684493" lon="-115.28253367">
      </trkpt>
      <trkpt lat="49.77634579" lon="-115.28274874">
      </trkpt>
      <trkpt lat="49.77605503" lon="-115.28283956">
      </trkpt>
      <trkpt lat="49.77543177" lon="-115.28295177">
      </trkpt>
      <trkpt lat="49.77500798" lon="-115.28296107">
      </trkpt>
      <trkpt lat="49.7747157" lon="-115.28290413">
      </trkpt>
      <trkpt lat="49.77406914" lon="-115.28296757">
      </trkpt>
      <trkpt lat="49.77368275" lon="-115.28306754">
      </trkpt>
      <trkpt lat="49.77297145" lon="-115.2825975">
      </trkpt>
      <trkpt lat="49.77202572" lon="-115.28237893">
      </trkpt>
      <trkpt lat="49.77153299" lon="-115.28233345">
      </trkpt>
      <trkpt lat="49.77134125" lon="-115.28230246">
      </trkpt>
      <trkpt lat="49.77092997" lon="-115.28219887">
      </trkpt>
      <trkpt lat="49.77066813" lon="-115.28200053">
      </trkpt>
      <trkpt lat="49.770389" lon="-115.28189405">
      </trkpt>
      <trkpt lat="49.77013831" lon="-115.28189253">
      </trkpt>
      <trkpt lat="49.76906305" lon="-115.28193018">
      </trkpt>
      <trkpt lat="49.76867991" lon="-115.28190339">
      </trkpt>
      <trkpt lat="49.76849184" lon="-115.28178789">
      </trkpt>
      <trkpt lat="49.76737658" lon="-115.2814816">
      </trkpt>
      <trkpt lat="49.76680059" lon="-115.2813183">
      </trkpt>
      <trkpt lat="49.76657709" lon="-115.28130211">
      </trkpt>
      <trkpt lat="49.76600134" lon="-115.28115991">
      </trkpt>
      <trkpt lat="49.76545886" lon="-115.28115071">
      </trkpt>
      <trkpt lat="49.76497281" lon="-115.28130916">
      </trkpt>
      <trkpt lat="49.76460538" lon="-115.28147906">
      </trkpt>
      <trkpt lat="49.76430196" lon="-115.28166867">
      </trkpt>
      <trkpt lat="49.76413893" lon="-115.28177075">
      </trkpt>
      <trkpt lat="49.76343949" lon="-115.28156797">
      </trkpt>
      <trkpt lat="49.76302684" lon="-115.28133075">
      </trkpt>
      <trkpt lat="49.76260073" lon="-115.28111494">
      </trkpt>
      <trkpt lat="49.76210757" lon="-115.28102723">
      </trkpt>
      <trkpt lat="49.76179287" lon="-115.28100601">
      </trkpt>
      <trkpt lat="49.7613374" lon="-115.2810371">
      </trkpt>
      <trkpt lat="49.76092693" lon="-115.28101093">
      </trkpt>
      <trkpt lat="49.76018611" lon="-115.2807739">
      </trkpt>
      <trkpt lat="49.75990444" lon="-115.2808645">
      </trkpt>
      <trkpt lat="49.75947127" lon="-115.28084587">
      </trkpt>
      <trkpt lat="49.75901398" lon="-115.2807011">
      </trkpt>
      <trkpt lat="49.7585753" lon="-115.28059114">
      </trkpt>
      <trkpt lat="49.75806147" lon="-115.28070795">
      </trkpt>
      <trkpt lat="49.75768426" lon="-115.28081471">
      </trkpt>
      <trkpt lat="49.75709745" lon="-115.2809261">
      </trkpt>
      <trkpt lat="49.7566747" lon="-115.28103388">
      </trkpt>
      <trkpt lat="49.75642479" lon="-115.28110971">
      </trkpt>
      <trkpt lat="49.75597013" lon="-115.28121819">
      </trkpt>
      <trkpt lat="49.75562012" lon="-115.2813103">
      </trkpt>
      <trkpt lat="49.75509124" lon="-115.28129376">
      </trkpt>
      <trkpt lat="49.75467664" lon="-115.28130989">
      </trkpt>
      <trkpt lat="49.75422279" lon="-115.28149572">
      </trkpt>
      <trkpt lat="49.7538735" lon="-115.28165815">
      </trkpt>
      <trkpt lat="49.7535601" lon="-115.28176352">
      </trkpt>
      <trkpt lat="49.75303318" lon="-115.28193687">
      </trkpt>
      <trkpt lat="49.75249238" lon="-115.28208943">
      </trkpt>
      <trkpt lat="49.75207372" lon="-115.28215488">
      </trkpt>
      <trkpt lat="49.75159945" lon="-115.28213008">
      </trkpt>
      <trkpt lat="49.75089416" lon="-115.28224405">
      </trkpt>
      <trkpt lat="49.75047045" lon="-115.28226036">
      </trkpt>
      <trkpt lat="49.75019799" lon="-115.28235777">
      </trkpt>
      <trkpt lat="49.74980616" lon="-115.28237339">
      </trkpt>
      <trkpt lat="49.74877929" lon="-115.28224113">
      </trkpt>
      <trkpt lat="49.74849221" lon="-115.2822474">
      </trkpt>
      <trkpt lat="49.74754604" lon="-115.28198677">
      </trkpt>
      <trkpt lat="49.7467653" lon="-115.28185615">
      </trkpt>
      <trkpt lat="49.74625559" lon="-115.28193063">
      </trkpt>
      <trkpt lat="49.74592207" lon="-115.28185353">
      </trkpt>
      <trkpt lat="49.74554682" lon="-115.28170699">
      </trkpt>
      <trkpt lat="49.7449864" lon="-115.28172633">
      </trkpt>
      <trkpt lat="49.74462011" lon="-115.28156554">
      </trkpt>
      <trkpt lat="49.74408066" lon="-115.28140855">
      </trkpt>
      <trkpt lat="49.74362302" lon="-115.28122869">
      </trkpt>
      <trkpt lat="49.74322954" lon="-115.28108256">
      </trkpt>
      <trkpt lat="49.74297283" lon="-115.28094048">
      </trkpt>
      <trkpt lat="49.74271407" lon="-115.28060151">
      </trkpt>
      <trkpt lat="49.74235971" lon="-115.28027167">
      </trkpt>
      <trkpt lat="49.74165007" lon="-115.2799637">
      </trkpt>
      <trkpt lat="49.74123379" lon="-115.27981811">
      </trkpt>
      <trkpt lat="49.74058772" lon="-115.27948766">
      </trkpt>
      <trkpt lat="49.74011371" lon="-115.27904795">
      </trkpt>
      <trkpt lat="49.73959502" lon="-115.27869361">
      </trkpt>
      <trkpt lat="49.73918183" lon="-115.27840731">
      </trkpt>
      <trkpt lat="49.73865287" lon="-115.27838376">
      </trkpt>
      <trkpt lat="49.73822424" lon="-115.27836505">
      </trkpt>
      <trkpt lat="49.73781435" lon="-115.27839515">
      </trkpt>
      <trkpt lat="49.7376681" lon="-115.27835618">
      </trkpt>
      <trkpt lat="49.73710491" lon="-115.27810835">
      </trkpt>
      <trkpt lat="49.73665651" lon="-115.27794237">
      </trkpt>
      <trkpt lat="49.73607547" lon="-115.27773011">
      </trkpt>
      <trkpt lat="49.73580024" lon="-115.27756034">
      </trkpt>
      <trkpt lat="49.73548087" lon="-115.27708917">
      </trkpt>
      <trkpt lat="49.7352493" lon="-115.27673559">
      </trkpt>
      <trkpt lat="49.73503128" lon="-115.27636768">
      </trkpt>
      <trkpt lat="49.73477106" lon="-115.27588815">
      </trkpt>
      <trkpt lat="49.7346485" lon="-115.27549705">
      </trkpt>
      <trkpt lat="49.73464602" lon="-115.275258">
      </trkpt>
      <trkpt lat="49.73456424" lon="-115.27484489">
      </trkpt>
      <trkpt lat="49.73444536" lon="-115.27436932">
      </trkpt>
      <trkpt lat="49.73423317" lon="-115.27412786">
      </trkpt>
      <trkpt lat="49.7340266" lon="-115.27398475">
      </trkpt>
      <trkpt lat="49.73380243" lon="-115.27390529">
      </trkpt>
      <trkpt lat="49.73309506" lon="-115.27337943">
      </trkpt>
      <trkpt lat="49.7327969" lon="-115.27319614">
      </trkpt>
      <trkpt lat="49.7323108" lon="-115.27291153">
      </trkpt>
      <trkpt lat="49.73188282" lon="-115.27295613">
      </trkpt>
      <trkpt lat="49.73160428" lon="-115.27290603">
      </trkpt>
      <trkpt lat="49.73119447" lon="-115.27250723">
      </trkpt>
      <trkpt lat="49.73077848" lon="-115.27238983">
      </trkpt>
      <trkpt lat="49.7305625" lon="-115.27221881">
      </trkpt>
      <trkpt lat="49.73033591" lon="-115.2719074">
      </trkpt>
      <trkpt lat="49.73019746" lon="-115.27174169">
      </trkpt>
      <trkpt lat="49.72995604" lon="-115.2713181">
      </trkpt>
      <trkpt lat="49.72961385" lon="-115.2708475">
      </trkpt>
      <trkpt lat="49.7292191" lon="-115.27058201">
      </trkpt>
      <trkpt lat="49.72903081" lon="-115.27044554">
      </trkpt>
      <trkpt lat="49.72812085" lon="-115.26972738">
      </trkpt>
      <trkpt lat="49.72767555" lon="-115.26942083">
      </trkpt>
      <trkpt lat="49.7272209" lon="-115.26909339">
      </trkpt>
      <trkpt lat="49.72685475" lon="-115.26894681">
      </trkpt>
      <trkpt lat="49.72651652" lon="-115.26885587">
      </trkpt>
      <trkpt lat="49.72615536" lon="-115.26875139">
      </trkpt>
      <trkpt lat="49.72568872" lon="-115.26858595">
      </trkpt>
      <trkpt lat="49.72529125" lon="-115.26849631">
      </trkpt>
      <trkpt lat="49.72481639" lon="-115.26841544">
      </trkpt>
      <trkpt lat="49.7244864" lon="-115.26823995">
      </trkpt>
      <trkpt lat="49.72401668" lon="-115.26821522">
      </trkpt>
      <trkpt lat="49.72385242" lon="-115.26819778">
      </trkpt>
      <trkpt lat="49.72369733" lon="-115.26818713">
      </trkpt>
      <trkpt lat="49.72348259" lon="-115.26825053">
      </trkpt>
      <trkpt lat="49.72237473" lon="-115.26861878">
      </trkpt>
    </trkseg>
    <trkseg>
      <trkpt lat="49.73626497" lon="-115.3173549">
      </trkpt>
      <trkpt lat="49.7362891" lon="-115.31732205">
      </trkpt>
      <trkpt lat="49.73639087" lon="-115.31718345">
      </trkpt>
      <trkpt lat="49.73645383" lon="-115.31709772">
      </trkpt>
      <trkpt lat="49.73649783" lon="-115.31705625">
      </trkpt>
      <trkpt lat="49.73667508" lon="-115.31688909">
      </trkpt>
      <trkpt lat="49.73685539" lon="-115.31668834">
      </trkpt>
      <trkpt lat="49.73703084" lon="-115.31645958">
      </trkpt>
      <trkpt lat="49.73713894" lon="-115.31633071">
      </trkpt>
      <trkpt lat="49.73730368" lon="-115.3159404">
      </trkpt>
      <trkpt lat="49.73736122" lon="-115.3157704">
      </trkpt>
      <trkpt lat="49.73739534" lon="-115.31553758">
      </trkpt>
      <trkpt lat="49.73755459" lon="-115.31505599">
      </trkpt>
      <trkpt lat="49.73773677" lon="-115.31458794">
      </trkpt>
      <trkpt lat="49.73793844" lon="-115.31424609">
      </trkpt>
      <trkpt lat="49.73801827" lon="-115.31402638">
      </trkpt>
      <trkpt lat="49.73811549" lon="-115.3137219">
      </trkpt>
      <trkpt lat="49.73816116" lon="-115.31327785">
      </trkpt>
      <trkpt lat="49.73831656" lon="-115.31286663">
      </trkpt>
      <trkpt lat="49.73859797" lon="-115.312298">
      </trkpt>
      <trkpt lat="49.73871291" lon="-115.31194392">
      </trkpt>
      <trkpt lat="49.73888653" lon="-115.31153231">
      </trkpt>
      <trkpt lat="49.73914587" lon="-115.31103448">
      </trkpt>
      <trkpt lat="49.73923411" lon="-115.31074422">
      </trkpt>
      <trkpt lat="49.7395116" lon="-115.31023896">
      </trkpt>
      <trkpt lat="49.73976062" lon="-115.30962177">
      </trkpt>
      <trkpt lat="49.74014351" lon="-115.30872037">
      </trkpt>
      <trkpt lat="49.74061964" lon="-115.30802798">
      </trkpt>
      <trkpt lat="49.74118208" lon="-115.30730559">
      </trkpt>
      <trkpt lat="49.74172257" lon="-115.30666807">
      </trkpt>
      <trkpt lat="49.74209668" lon="-115.30625211">
      </trkpt>
      <trkpt lat="49.74275473" lon="-115.30552061">
      </trkpt>
      <trkpt lat="49.74321432" lon="-115.30499729">
      </trkpt>
      <trkpt lat="49.74475453" lon="-115.30316361">
      </trkpt>
      <trkpt lat="49.74523748" lon="-115.30224586">
      </trkpt>
      <trkpt lat="49.74585178" lon="-115.3012479">
      </trkpt>
      <trkpt lat="49.74635385" lon="-115.30042114">
      </trkpt>
      <trkpt lat="49.74688903" lon="-115.29971324">
      </trkpt>
      <trkpt lat="49.74734319" lon="-115.29910554">
      </trkpt>
      <trkpt lat="49.7478948" lon="-115.29822139">
      </trkpt>
      <trkpt lat="49.7482077" lon="-115.29761671">
      </trkpt>
      <trkpt lat="49.74871646" lon="-115.29665691">
      </trkpt>
      <trkpt lat="49.74907525" lon="-115.29598005">
      </trkpt>
      <trkpt lat="49.74944506" lon="-115.295149">
      </trkpt>
      <trkpt lat="49.74957355" lon="-115.29478747">
      </trkpt>
      <trkpt lat="49.74988731" lon="-115.29382397">
      </trkpt>
      <trkpt lat="49.75009322" lon="-115.29301051">
      </trkpt>
      <trkpt lat="49.75030577" lon="-115.29195774">
      </trkpt>
      <trkpt lat="49.75064309" lon="-115.29107106">
      </trkpt>
      <trkpt lat="49.7505941" lon="-115.2898481">
      </trkpt>
      <trkpt lat="49.75047949" lon="-115.28800751">
      </trkpt>
      <trkpt lat="49.75060043" lon="-115.28691448">
      </trkpt>
      <trkpt lat="49.75059348" lon="-115.28579612">
      </trkpt>
      <trkpt lat="49.75054508" lon="-115.28463644">
      </trkpt>
      <trkpt lat="49.75050139" lon="-115.28393393">
      </trkpt>
      <trkpt lat="49.75048603" lon="-115.28332929">
      </trkpt>
      <trkpt lat="49.75063237" lon="-115.28225412">
      </trkpt>
    </trkseg>
  </trk>
</gpx>