<?xml version="1.0" encoding="UTF-8"?>
<gpx xmlns="http://www.topografix.com/GPX/1/1" xmlns:xsi="http://www.w3.org/2001/XMLSchema-instance" xsi:schemaLocation="http://www.topografix.com/GPX/1/1 http://www.topografix.com/GPX/1/1/gpx.xsd" version="1.1" creator="gpx.py -- https://github.com/tkrajina/gpxpy">
  <trk>
    <name>Azure Lake Trail</name>
    <trkseg>
      <trkpt lat="50.70648089" lon="-116.53960451">
      </trkpt>
      <trkpt lat="50.70638733" lon="-116.53958301">
      </trkpt>
      <trkpt lat="50.70629262" lon="-116.53954799">
      </trkpt>
      <trkpt lat="50.706223" lon="-116.53945404">
      </trkpt>
      <trkpt lat="50.70619354" lon="-116.53941054">
      </trkpt>
      <trkpt lat="50.70616203" lon="-116.53934834">
      </trkpt>
      <trkpt lat="50.70607961" lon="-116.5393038">
      </trkpt>
      <trkpt lat="50.7060141" lon="-116.53930391">
      </trkpt>
      <trkpt lat="50.70598004" lon="-116.53926292">
      </trkpt>
      <trkpt lat="50.70594481" lon="-116.53920838">
      </trkpt>
      <trkpt lat="50.70598879" lon="-116.5391095">
      </trkpt>
      <trkpt lat="50.70603682" lon="-116.53905799">
      </trkpt>
      <trkpt lat="50.70600729" lon="-116.53896779">
      </trkpt>
      <trkpt lat="50.70592487" lon="-116.53892327">
      </trkpt>
      <trkpt lat="50.7058682" lon="-116.53887329">
      </trkpt>
      <trkpt lat="50.70585417" lon="-116.53886249">
      </trkpt>
      <trkpt lat="50.70576144" lon="-116.53879947">
      </trkpt>
      <trkpt lat="50.70568959" lon="-116.53872515">
      </trkpt>
      <trkpt lat="50.70560198" lon="-116.53861973">
      </trkpt>
      <trkpt lat="50.70554985" lon="-116.53852056">
      </trkpt>
      <trkpt lat="50.70553056" lon="-116.53834554">
      </trkpt>
      <trkpt lat="50.70553866" lon="-116.53808203">
      </trkpt>
      <trkpt lat="50.70557879" lon="-116.53778419">
      </trkpt>
      <trkpt lat="50.70560951" lon="-116.53752966">
      </trkpt>
      <trkpt lat="50.70563197" lon="-116.537332">
      </trkpt>
      <trkpt lat="50.70566012" lon="-116.53709868">
      </trkpt>
      <trkpt lat="50.70572721" lon="-116.53691223">
      </trkpt>
      <trkpt lat="50.70575934" lon="-116.53662296">
      </trkpt>
      <trkpt lat="50.70580415" lon="-116.53648257">
      </trkpt>
      <trkpt lat="50.70591735" lon="-116.53637588">
      </trkpt>
      <trkpt lat="50.70598016" lon="-116.53619034">
      </trkpt>
      <trkpt lat="50.7060192" lon="-116.53598228">
      </trkpt>
      <trkpt lat="50.70601951" lon="-116.53575867">
      </trkpt>
      <trkpt lat="50.7060348" lon="-116.5355599">
      </trkpt>
      <trkpt lat="50.70603267" lon="-116.53542583">
      </trkpt>
      <trkpt lat="50.70602511" lon="-116.53530197">
      </trkpt>
      <trkpt lat="50.70607515" lon="-116.53514447">
      </trkpt>
      <trkpt lat="50.70606658" lon="-116.53504121">
      </trkpt>
      <trkpt lat="50.70601376" lon="-116.53472773">
      </trkpt>
      <trkpt lat="50.7059801" lon="-116.53452802">
      </trkpt>
      <trkpt lat="50.70595666" lon="-116.53438889">
      </trkpt>
      <trkpt lat="50.70591901" lon="-116.53420963">
      </trkpt>
      <trkpt lat="50.70581089" lon="-116.53399179">
      </trkpt>
      <trkpt lat="50.70573715" lon="-116.53384322">
      </trkpt>
      <trkpt lat="50.70567627" lon="-116.53372054">
      </trkpt>
      <trkpt lat="50.70561189" lon="-116.53359082">
      </trkpt>
      <trkpt lat="50.70555949" lon="-116.53346827">
      </trkpt>
      <trkpt lat="50.7055476" lon="-116.53336147">
      </trkpt>
      <trkpt lat="50.70559558" lon="-116.53320695">
      </trkpt>
      <trkpt lat="50.7056787" lon="-116.53303984">
      </trkpt>
      <trkpt lat="50.70571237" lon="-116.53297216">
      </trkpt>
      <trkpt lat="50.70564887" lon="-116.53266447">
      </trkpt>
      <trkpt lat="50.70557313" lon="-116.53245342">
      </trkpt>
      <trkpt lat="50.70551152" lon="-116.53233392">
      </trkpt>
      <trkpt lat="50.70542323" lon="-116.5320308">
      </trkpt>
      <trkpt lat="50.70537972" lon="-116.5318549">
      </trkpt>
      <trkpt lat="50.70533765" lon="-116.53165933">
      </trkpt>
      <trkpt lat="50.70529242" lon="-116.53144881">
      </trkpt>
      <trkpt lat="50.70524203" lon="-116.5312143">
      </trkpt>
      <trkpt lat="50.7051504" lon="-116.53083542">
      </trkpt>
      <trkpt lat="50.70507468" lon="-116.53061103">
      </trkpt>
      <trkpt lat="50.70503447" lon="-116.5304393">
      </trkpt>
      <trkpt lat="50.70501593" lon="-116.53029182">
      </trkpt>
      <trkpt lat="50.70504801" lon="-116.53013671">
      </trkpt>
      <trkpt lat="50.70507062" lon="-116.53005465">
      </trkpt>
      <trkpt lat="50.70493793" lon="-116.52983146">
      </trkpt>
      <trkpt lat="50.70487271" lon="-116.52968922">
      </trkpt>
      <trkpt lat="50.70480917" lon="-116.52949807">
      </trkpt>
      <trkpt lat="50.70479624" lon="-116.52928662">
      </trkpt>
      <trkpt lat="50.70482307" lon="-116.52911543">
      </trkpt>
      <trkpt lat="50.70485232" lon="-116.52903863">
      </trkpt>
      <trkpt lat="50.7047561" lon="-116.5287815">
      </trkpt>
      <trkpt lat="50.70465504" lon="-116.5285696">
      </trkpt>
      <trkpt lat="50.70455031" lon="-116.52840317">
      </trkpt>
      <trkpt lat="50.70449529" lon="-116.52819349">
      </trkpt>
      <trkpt lat="50.70442097" lon="-116.52791027">
      </trkpt>
      <trkpt lat="50.70436271" lon="-116.52772952">
      </trkpt>
      <trkpt lat="50.7042356" lon="-116.52750238">
      </trkpt>
      <trkpt lat="50.70416375" lon="-116.52727497">
      </trkpt>
      <trkpt lat="50.70409851" lon="-116.52704156">
      </trkpt>
      <trkpt lat="50.7040654" lon="-116.52692313">
      </trkpt>
      <trkpt lat="50.70394719" lon="-116.52679089">
      </trkpt>
      <trkpt lat="50.70383001" lon="-116.5266717">
      </trkpt>
      <trkpt lat="50.7037374" lon="-116.5266631">
      </trkpt>
      <trkpt lat="50.7036412" lon="-116.52660762">
      </trkpt>
      <trkpt lat="50.70357338" lon="-116.52654123">
      </trkpt>
      <trkpt lat="50.70344591" lon="-116.52642936">
      </trkpt>
      <trkpt lat="50.70334018" lon="-116.52633578">
      </trkpt>
      <trkpt lat="50.70324052" lon="-116.52624756">
      </trkpt>
      <trkpt lat="50.70318955" lon="-116.52611136">
      </trkpt>
      <trkpt lat="50.70310763" lon="-116.52605369">
      </trkpt>
      <trkpt lat="50.70302727" lon="-116.52602128">
      </trkpt>
      <trkpt lat="50.7029799" lon="-116.52600218">
      </trkpt>
      <trkpt lat="50.70284902" lon="-116.5259494">
      </trkpt>
      <trkpt lat="50.70275793" lon="-116.52591266">
      </trkpt>
      <trkpt lat="50.70263225" lon="-116.52592897">
      </trkpt>
      <trkpt lat="50.70246616" lon="-116.52593315">
      </trkpt>
      <trkpt lat="50.70235164" lon="-116.52592729">
      </trkpt>
      <trkpt lat="50.70222479" lon="-116.52595597">
      </trkpt>
      <trkpt lat="50.70211642" lon="-116.52589243">
      </trkpt>
      <trkpt lat="50.70202167" lon="-116.52583688">
      </trkpt>
      <trkpt lat="50.70191353" lon="-116.5258173">
      </trkpt>
      <trkpt lat="50.70183025" lon="-116.52586085">
      </trkpt>
      <trkpt lat="50.70171051" lon="-116.52589297">
      </trkpt>
      <trkpt lat="50.7016359" lon="-116.52589397">
      </trkpt>
      <trkpt lat="50.70156361" lon="-116.52602534">
      </trkpt>
      <trkpt lat="50.70147782" lon="-116.52610156">
      </trkpt>
      <trkpt lat="50.7013314" lon="-116.52614357">
      </trkpt>
      <trkpt lat="50.70119713" lon="-116.52618774">
      </trkpt>
      <trkpt lat="50.70106729" lon="-116.52629788">
      </trkpt>
      <trkpt lat="50.70096738" lon="-116.52637884">
      </trkpt>
      <trkpt lat="50.70084905" lon="-116.52642513">
      </trkpt>
      <trkpt lat="50.70070924" lon="-116.52652149">
      </trkpt>
      <trkpt lat="50.70062073" lon="-116.52668684">
      </trkpt>
      <trkpt lat="50.70056985" lon="-116.52671599">
      </trkpt>
      <trkpt lat="50.70048426" lon="-116.52676499">
      </trkpt>
      <trkpt lat="50.70038406" lon="-116.5268375">
      </trkpt>
      <trkpt lat="50.70026326" lon="-116.52703585">
      </trkpt>
      <trkpt lat="50.70012501" lon="-116.52718067">
      </trkpt>
      <trkpt lat="50.69999746" lon="-116.52730223">
      </trkpt>
      <trkpt lat="50.69987732" lon="-116.52732331">
      </trkpt>
      <trkpt lat="50.69982883" lon="-116.52733184">
      </trkpt>
      <trkpt lat="50.69969448" lon="-116.52739353">
      </trkpt>
      <trkpt lat="50.69960212" lon="-116.52746572">
      </trkpt>
      <trkpt lat="50.69946047" lon="-116.52751049">
      </trkpt>
      <trkpt lat="50.69936277" lon="-116.52759555">
      </trkpt>
      <trkpt lat="50.69926367" lon="-116.52769428">
      </trkpt>
      <trkpt lat="50.69913443" lon="-116.52772948">
      </trkpt>
      <trkpt lat="50.69901677" lon="-116.52775215">
      </trkpt>
      <trkpt lat="50.6988732" lon="-116.52773275">
      </trkpt>
      <trkpt lat="50.69874182" lon="-116.52773208">
      </trkpt>
      <trkpt lat="50.69861069" lon="-116.52772363">
      </trkpt>
      <trkpt lat="50.69849397" lon="-116.52769413">
      </trkpt>
      <trkpt lat="50.69836608" lon="-116.52757571">
      </trkpt>
      <trkpt lat="50.69824139" lon="-116.52752584">
      </trkpt>
      <trkpt lat="50.69811852" lon="-116.52748938">
      </trkpt>
      <trkpt lat="50.69801889" lon="-116.52747123">
      </trkpt>
      <trkpt lat="50.69792384" lon="-116.52746249">
      </trkpt>
      <trkpt lat="50.69781079" lon="-116.52741617">
      </trkpt>
      <trkpt lat="50.69774192" lon="-116.52735282">
      </trkpt>
      <trkpt lat="50.69763255" lon="-116.52732266">
      </trkpt>
      <trkpt lat="50.69750288" lon="-116.52728688">
      </trkpt>
      <trkpt lat="50.69740572" lon="-116.52726007">
      </trkpt>
      <trkpt lat="50.69725998" lon="-116.52721986">
      </trkpt>
      <trkpt lat="50.69717317" lon="-116.52722014">
      </trkpt>
      <trkpt lat="50.69712337" lon="-116.52714729">
      </trkpt>
      <trkpt lat="50.69705948" lon="-116.52701951">
      </trkpt>
      <trkpt lat="50.69697042" lon="-116.52695487">
      </trkpt>
      <trkpt lat="50.69683207" lon="-116.52698267">
      </trkpt>
      <trkpt lat="50.69670666" lon="-116.52697426">
      </trkpt>
      <trkpt lat="50.69660494" lon="-116.52700175">
      </trkpt>
      <trkpt lat="50.69651759" lon="-116.5269059">
      </trkpt>
      <trkpt lat="50.69645377" lon="-116.52682511">
      </trkpt>
      <trkpt lat="50.69646439" lon="-116.52667163">
      </trkpt>
      <trkpt lat="50.69649976" lon="-116.52658938">
      </trkpt>
      <trkpt lat="50.69650161" lon="-116.52641424">
      </trkpt>
      <trkpt lat="50.69644936" lon="-116.52619927">
      </trkpt>
      <trkpt lat="50.69638401" lon="-116.52608341">
      </trkpt>
      <trkpt lat="50.69628045" lon="-116.52592571">
      </trkpt>
      <trkpt lat="50.69614372" lon="-116.52579839">
      </trkpt>
      <trkpt lat="50.69601109" lon="-116.52575787">
      </trkpt>
      <trkpt lat="50.69581856" lon="-116.52573076">
      </trkpt>
      <trkpt lat="50.69567837" lon="-116.52565085">
      </trkpt>
      <trkpt lat="50.69557235" lon="-116.525535">
      </trkpt>
      <trkpt lat="50.69546235" lon="-116.52535284">
      </trkpt>
      <trkpt lat="50.69532284" lon="-116.52523907">
      </trkpt>
      <trkpt lat="50.69522096" lon="-116.52519455">
      </trkpt>
      <trkpt lat="50.69512029" lon="-116.5251717">
      </trkpt>
      <trkpt lat="50.69493593" lon="-116.52521739">
      </trkpt>
      <trkpt lat="50.69480254" lon="-116.52519991">
      </trkpt>
      <trkpt lat="50.69471083" lon="-116.52518969">
      </trkpt>
      <trkpt lat="50.6945989" lon="-116.52519579">
      </trkpt>
      <trkpt lat="50.6945019" lon="-116.52513185">
      </trkpt>
      <trkpt lat="50.69441285" lon="-116.52514454">
      </trkpt>
      <trkpt lat="50.69429088" lon="-116.52521101">
      </trkpt>
      <trkpt lat="50.69413681" lon="-116.52529498">
      </trkpt>
      <trkpt lat="50.69404164" lon="-116.52532752">
      </trkpt>
      <trkpt lat="50.69393292" lon="-116.52533751">
      </trkpt>
      <trkpt lat="50.69382853" lon="-116.52534713">
      </trkpt>
      <trkpt lat="50.69375686" lon="-116.52536445">
      </trkpt>
      <trkpt lat="50.69366868" lon="-116.52546412">
      </trkpt>
      <trkpt lat="50.69350544" lon="-116.5254952">
      </trkpt>
      <trkpt lat="50.69335551" lon="-116.52550898">
      </trkpt>
      <trkpt lat="50.69320227" lon="-116.52558119">
      </trkpt>
      <trkpt lat="50.69308174" lon="-116.52556551">
      </trkpt>
      <trkpt lat="50.69297731" lon="-116.52553674">
      </trkpt>
      <trkpt lat="50.69287664" lon="-116.52543068">
      </trkpt>
      <trkpt lat="50.69277709" lon="-116.52530845">
      </trkpt>
      <trkpt lat="50.69262145" lon="-116.52511928">
      </trkpt>
      <trkpt lat="50.69250965" lon="-116.52501616">
      </trkpt>
      <trkpt lat="50.6924058" lon="-116.52492647">
      </trkpt>
      <trkpt lat="50.69229344" lon="-116.52478432">
      </trkpt>
      <trkpt lat="50.69212573" lon="-116.52473354">
      </trkpt>
      <trkpt lat="50.69202161" lon="-116.52474664">
      </trkpt>
      <trkpt lat="50.69187598" lon="-116.52470006">
      </trkpt>
      <trkpt lat="50.69173101" lon="-116.52455458">
      </trkpt>
      <trkpt lat="50.69156653" lon="-116.52442476">
      </trkpt>
      <trkpt lat="50.69144202" lon="-116.52430072">
      </trkpt>
      <trkpt lat="50.69130742" lon="-116.52422822">
      </trkpt>
      <trkpt lat="50.69119494" lon="-116.52414092">
      </trkpt>
      <trkpt lat="50.69109059" lon="-116.52407113">
      </trkpt>
      <trkpt lat="50.69102672" lon="-116.52398702">
      </trkpt>
      <trkpt lat="50.69095443" lon="-116.52389948">
      </trkpt>
      <trkpt lat="50.69088678" lon="-116.52374796">
      </trkpt>
      <trkpt lat="50.69082209" lon="-116.52365855">
      </trkpt>
      <trkpt lat="50.69070903" lon="-116.52352897">
      </trkpt>
      <trkpt lat="50.69062536" lon="-116.52339434">
      </trkpt>
      <trkpt lat="50.69051573" lon="-116.52327203">
      </trkpt>
      <trkpt lat="50.69041647" lon="-116.52324536">
      </trkpt>
      <trkpt lat="50.69038246" lon="-116.52317702">
      </trkpt>
      <trkpt lat="50.69033126" lon="-116.52312613">
      </trkpt>
      <trkpt lat="50.69026609" lon="-116.52306267">
      </trkpt>
      <trkpt lat="50.69017683" lon="-116.52295337">
      </trkpt>
      <trkpt lat="50.69010074" lon="-116.52290625">
      </trkpt>
      <trkpt lat="50.6899562" lon="-116.52290726">
      </trkpt>
      <trkpt lat="50.68978796" lon="-116.52293706">
      </trkpt>
      <trkpt lat="50.68959447" lon="-116.52285008">
      </trkpt>
      <trkpt lat="50.68947864" lon="-116.52282944">
      </trkpt>
      <trkpt lat="50.68940037" lon="-116.5228155">
      </trkpt>
      <trkpt lat="50.68931898" lon="-116.52280098">
      </trkpt>
      <trkpt lat="50.6892042" lon="-116.5227974">
      </trkpt>
      <trkpt lat="50.68908291" lon="-116.52280907">
      </trkpt>
      <trkpt lat="50.68897117" lon="-116.52277429">
      </trkpt>
      <trkpt lat="50.68884199" lon="-116.52272895">
      </trkpt>
      <trkpt lat="50.68869644" lon="-116.52274045">
      </trkpt>
      <trkpt lat="50.68852652" lon="-116.52274132">
      </trkpt>
      <trkpt lat="50.68837913" lon="-116.52273645">
      </trkpt>
      <trkpt lat="50.68817707" lon="-116.52272978">
      </trkpt>
      <trkpt lat="50.68801445" lon="-116.52272898">
      </trkpt>
      <trkpt lat="50.68788055" lon="-116.52274261">
      </trkpt>
      <trkpt lat="50.68766417" lon="-116.52276465">
      </trkpt>
      <trkpt lat="50.68748557" lon="-116.52277671">
      </trkpt>
      <trkpt lat="50.68732378" lon="-116.52276453">
      </trkpt>
      <trkpt lat="50.68725934" lon="-116.52281838">
      </trkpt>
      <trkpt lat="50.6871362" lon="-116.52276785">
      </trkpt>
      <trkpt lat="50.68708338" lon="-116.52266661">
      </trkpt>
      <trkpt lat="50.68691436" lon="-116.52253465">
      </trkpt>
      <trkpt lat="50.68680755" lon="-116.52245242">
      </trkpt>
      <trkpt lat="50.68671788" lon="-116.52235298">
      </trkpt>
      <trkpt lat="50.6866455" lon="-116.52235818">
      </trkpt>
      <trkpt lat="50.68657726" lon="-116.52232472">
      </trkpt>
      <trkpt lat="50.68650655" lon="-116.52231587">
      </trkpt>
      <trkpt lat="50.68644243" lon="-116.52230509">
      </trkpt>
      <trkpt lat="50.6863571" lon="-116.52239638">
      </trkpt>
      <trkpt lat="50.68621393" lon="-116.52246286">
      </trkpt>
      <trkpt lat="50.68607023" lon="-116.52249932">
      </trkpt>
      <trkpt lat="50.68584334" lon="-116.52255162">
      </trkpt>
      <trkpt lat="50.68565688" lon="-116.52251215">
      </trkpt>
      <trkpt lat="50.68554269" lon="-116.52248626">
      </trkpt>
      <trkpt lat="50.68539781" lon="-116.52253231">
      </trkpt>
      <trkpt lat="50.68529788" lon="-116.5225437">
      </trkpt>
      <trkpt lat="50.68520304" lon="-116.52251014">
      </trkpt>
      <trkpt lat="50.68512874" lon="-116.5224513">
      </trkpt>
      <trkpt lat="50.6850094" lon="-116.52241117">
      </trkpt>
      <trkpt lat="50.68485478" lon="-116.52241836">
      </trkpt>
      <trkpt lat="50.68468397" lon="-116.52233446">
      </trkpt>
      <trkpt lat="50.68458991" lon="-116.52226592">
      </trkpt>
      <trkpt lat="50.68449391" lon="-116.52223725">
      </trkpt>
      <trkpt lat="50.68435369" lon="-116.52226179">
      </trkpt>
      <trkpt lat="50.68426314" lon="-116.52221198">
      </trkpt>
      <trkpt lat="50.68416241" lon="-116.52221108">
      </trkpt>
      <trkpt lat="50.68407949" lon="-116.52217912">
      </trkpt>
      <trkpt lat="50.68399137" lon="-116.52219187">
      </trkpt>
      <trkpt lat="50.68392791" lon="-116.52212593">
      </trkpt>
      <trkpt lat="50.68383159" lon="-116.52211228">
      </trkpt>
      <trkpt lat="50.68369557" lon="-116.52208208">
      </trkpt>
      <trkpt lat="50.68362445" lon="-116.52215066">
      </trkpt>
      <trkpt lat="50.68353296" lon="-116.52217277">
      </trkpt>
      <trkpt lat="50.68342294" lon="-116.52221177">
      </trkpt>
      <trkpt lat="50.68328285" lon="-116.5222518">
      </trkpt>
      <trkpt lat="50.68316451" lon="-116.52225883">
      </trkpt>
      <trkpt lat="50.68304186" lon="-116.52226609">
      </trkpt>
      <trkpt lat="50.68290997" lon="-116.52225163">
      </trkpt>
      <trkpt lat="50.68281414" lon="-116.52221705">
      </trkpt>
      <trkpt lat="50.68273868" lon="-116.52216445">
      </trkpt>
      <trkpt lat="50.68270851" lon="-116.52208948">
      </trkpt>
      <trkpt lat="50.68268174" lon="-116.52201573">
      </trkpt>
      <trkpt lat="50.68261453" lon="-116.52198973">
      </trkpt>
      <trkpt lat="50.68258686" lon="-116.52195807">
      </trkpt>
      <trkpt lat="50.68255085" lon="-116.52188518">
      </trkpt>
      <trkpt lat="50.68256385" lon="-116.52180538">
      </trkpt>
      <trkpt lat="50.68252295" lon="-116.52180516">
      </trkpt>
      <trkpt lat="50.68236475" lon="-116.52180449">
      </trkpt>
      <trkpt lat="50.68225579" lon="-116.52177274">
      </trkpt>
      <trkpt lat="50.68215348" lon="-116.52174293">
      </trkpt>
      <trkpt lat="50.68206253" lon="-116.52171588">
      </trkpt>
      <trkpt lat="50.68196142" lon="-116.52167304">
      </trkpt>
      <trkpt lat="50.68191892" lon="-116.52159982">
      </trkpt>
      <trkpt lat="50.6818937" lon="-116.52155196">
      </trkpt>
      <trkpt lat="50.681865" lon="-116.52145261">
      </trkpt>
      <trkpt lat="50.68186337" lon="-116.5214174">
      </trkpt>
      <trkpt lat="50.68181066" lon="-116.52136184">
      </trkpt>
      <trkpt lat="50.6817137" lon="-116.52136948">
      </trkpt>
      <trkpt lat="50.68166088" lon="-116.52137632">
      </trkpt>
      <trkpt lat="50.68158231" lon="-116.52130094">
      </trkpt>
      <trkpt lat="50.68150955" lon="-116.52121949">
      </trkpt>
      <trkpt lat="50.6814296" lon="-116.52118241">
      </trkpt>
      <trkpt lat="50.68130712" lon="-116.52113505">
      </trkpt>
      <trkpt lat="50.68123971" lon="-116.52103459">
      </trkpt>
      <trkpt lat="50.68114841" lon="-116.52091601">
      </trkpt>
      <trkpt lat="50.68101096" lon="-116.52082005">
      </trkpt>
      <trkpt lat="50.68096483" lon="-116.52072718">
      </trkpt>
      <trkpt lat="50.68090808" lon="-116.52070664">
      </trkpt>
      <trkpt lat="50.68082376" lon="-116.52071161">
      </trkpt>
      <trkpt lat="50.68073296" lon="-116.52064396">
      </trkpt>
      <trkpt lat="50.68065202" lon="-116.52057291">
      </trkpt>
      <trkpt lat="50.68061752" lon="-116.52046349">
      </trkpt>
      <trkpt lat="50.68062158" lon="-116.52038395">
      </trkpt>
      <trkpt lat="50.6806615" lon="-116.52015523">
      </trkpt>
      <trkpt lat="50.68074156" lon="-116.51999573">
      </trkpt>
      <trkpt lat="50.68080768" lon="-116.51987533">
      </trkpt>
      <trkpt lat="50.68080509" lon="-116.51979292">
      </trkpt>
      <trkpt lat="50.68089407" lon="-116.51970622">
      </trkpt>
      <trkpt lat="50.68089037" lon="-116.5196605">
      </trkpt>
      <trkpt lat="50.68084698" lon="-116.51960676">
      </trkpt>
      <trkpt lat="50.68087818" lon="-116.51946178">
      </trkpt>
      <trkpt lat="50.68088917" lon="-116.51935868">
      </trkpt>
      <trkpt lat="50.68088324" lon="-116.51927797">
      </trkpt>
      <trkpt lat="50.680813" lon="-116.5191965">
      </trkpt>
      <trkpt lat="50.68077318" lon="-116.51914309">
      </trkpt>
      <trkpt lat="50.68077527" lon="-116.51900375">
      </trkpt>
      <trkpt lat="50.68083106" lon="-116.51891265">
      </trkpt>
      <trkpt lat="50.68080302" lon="-116.51887198">
      </trkpt>
      <trkpt lat="50.68073776" lon="-116.51879866">
      </trkpt>
      <trkpt lat="50.68067261" lon="-116.51875758">
      </trkpt>
      <trkpt lat="50.68058185" lon="-116.51874568">
      </trkpt>
      <trkpt lat="50.68051043" lon="-116.51871159">
      </trkpt>
      <trkpt lat="50.68053871" lon="-116.51860575">
      </trkpt>
      <trkpt lat="50.68056783" lon="-116.51850581">
      </trkpt>
      <trkpt lat="50.6806405" lon="-116.51849539">
      </trkpt>
      <trkpt lat="50.68066802" lon="-116.5184566">
      </trkpt>
      <trkpt lat="50.68058531" lon="-116.51825294">
      </trkpt>
      <trkpt lat="50.68054934" lon="-116.51809188">
      </trkpt>
      <trkpt lat="50.68053598" lon="-116.51792618">
      </trkpt>
      <trkpt lat="50.68050911" lon="-116.51779504">
      </trkpt>
      <trkpt lat="50.68052504" lon="-116.51764154">
      </trkpt>
      <trkpt lat="50.68051015" lon="-116.51748162">
      </trkpt>
      <trkpt lat="50.68040094" lon="-116.51720825">
      </trkpt>
      <trkpt lat="50.68030929" lon="-116.51697883">
      </trkpt>
      <trkpt lat="50.68020623" lon="-116.51681175">
      </trkpt>
      <trkpt lat="50.68014908" lon="-116.51668665">
      </trkpt>
      <trkpt lat="50.6800773" lon="-116.51660646">
      </trkpt>
      <trkpt lat="50.68014331" lon="-116.51663572">
      </trkpt>
      <trkpt lat="50.68024692" lon="-116.51673443">
      </trkpt>
      <trkpt lat="50.6803286" lon="-116.51681652">
      </trkpt>
      <trkpt lat="50.68039913" lon="-116.51690092">
      </trkpt>
      <trkpt lat="50.6804459" lon="-116.51696476">
      </trkpt>
      <trkpt lat="50.68048614" lon="-116.51707775">
      </trkpt>
      <trkpt lat="50.68057693" lon="-116.51724461">
      </trkpt>
      <trkpt lat="50.68068597" lon="-116.51739791">
      </trkpt>
      <trkpt lat="50.68076465" lon="-116.51753553">
      </trkpt>
      <trkpt lat="50.68085866" lon="-116.5176344">
      </trkpt>
      <trkpt lat="50.68091297" lon="-116.51771462">
      </trkpt>
      <trkpt lat="50.68094848" lon="-116.51782372">
      </trkpt>
      <trkpt lat="50.68099727" lon="-116.51797358">
      </trkpt>
      <trkpt lat="50.68107015" lon="-116.51806321">
      </trkpt>
      <trkpt lat="50.68116095" lon="-116.51815976">
      </trkpt>
      <trkpt lat="50.68123323" lon="-116.51821151">
      </trkpt>
      <trkpt lat="50.68129338" lon="-116.51825458">
      </trkpt>
      <trkpt lat="50.6812938" lon="-116.51830789">
      </trkpt>
      <trkpt lat="50.68129845" lon="-116.51839342">
      </trkpt>
      <trkpt lat="50.68137107" lon="-116.51852899">
      </trkpt>
      <trkpt lat="50.6814586" lon="-116.5186399">
      </trkpt>
      <trkpt lat="50.68156719" lon="-116.51872504">
      </trkpt>
      <trkpt lat="50.68168752" lon="-116.51878731">
      </trkpt>
      <trkpt lat="50.68175049" lon="-116.51884515">
      </trkpt>
      <trkpt lat="50.68183046" lon="-116.51894259">
      </trkpt>
      <trkpt lat="50.68184742" lon="-116.51905253">
      </trkpt>
      <trkpt lat="50.68184672" lon="-116.51915572">
      </trkpt>
      <trkpt lat="50.68192785" lon="-116.51917882">
      </trkpt>
      <trkpt lat="50.6819402" lon="-116.51927327">
      </trkpt>
      <trkpt lat="50.68197041" lon="-116.51938864">
      </trkpt>
      <trkpt lat="50.68204192" lon="-116.51950901">
      </trkpt>
      <trkpt lat="50.68209098" lon="-116.51953647">
      </trkpt>
      <trkpt lat="50.68215681" lon="-116.51965824">
      </trkpt>
      <trkpt lat="50.68219658" lon="-116.51973194">
      </trkpt>
      <trkpt lat="50.6822128" lon="-116.51984286">
      </trkpt>
      <trkpt lat="50.68220818" lon="-116.51993211">
      </trkpt>
      <trkpt lat="50.68224617" lon="-116.52011875">
      </trkpt>
      <trkpt lat="50.68228342" lon="-116.52030173">
      </trkpt>
      <trkpt lat="50.68230388" lon="-116.52040226">
      </trkpt>
      <trkpt lat="50.68230166" lon="-116.52047971">
      </trkpt>
      <trkpt lat="50.68229279" lon="-116.52060473">
      </trkpt>
      <trkpt lat="50.68227795" lon="-116.5208136">
      </trkpt>
      <trkpt lat="50.68230544" lon="-116.52097313">
      </trkpt>
      <trkpt lat="50.68236621" lon="-116.5211005">
      </trkpt>
      <trkpt lat="50.68242371" lon="-116.5211818">
      </trkpt>
      <trkpt lat="50.68249382" lon="-116.5212166">
      </trkpt>
      <trkpt lat="50.6825185" lon="-116.52127503">
      </trkpt>
      <trkpt lat="50.6825501" lon="-116.52136167">
      </trkpt>
      <trkpt lat="50.68260971" lon="-116.52143662">
      </trkpt>
      <trkpt lat="50.68270312" lon="-116.52153199">
      </trkpt>
      <trkpt lat="50.68279022" lon="-116.52162092">
      </trkpt>
      <trkpt lat="50.68284343" lon="-116.52169156">
      </trkpt>
      <trkpt lat="50.68290361" lon="-116.52180462">
      </trkpt>
      <trkpt lat="50.68296617" lon="-116.52189845">
      </trkpt>
      <trkpt lat="50.68305189" lon="-116.52194849">
      </trkpt>
      <trkpt lat="50.68314622" lon="-116.52200356">
      </trkpt>
      <trkpt lat="50.68323202" lon="-116.52202632">
      </trkpt>
      <trkpt lat="50.6833151" lon="-116.52204667">
      </trkpt>
      <trkpt lat="50.68338351" lon="-116.52211593">
      </trkpt>
      <trkpt lat="50.68343493" lon="-116.52212937">
      </trkpt>
      <trkpt lat="50.68349006" lon="-116.52213557">
      </trkpt>
      <trkpt lat="50.68353296" lon="-116.52217277">
      </trkpt>
    </trkseg>
    <trkseg>
      <trkpt lat="50.6800773" lon="-116.51660646">
      </trkpt>
      <trkpt lat="50.67998468" lon="-116.51650301">
      </trkpt>
      <trkpt lat="50.67992882" lon="-116.51641271">
      </trkpt>
      <trkpt lat="50.67988313" lon="-116.51632491">
      </trkpt>
      <trkpt lat="50.67987589" lon="-116.51622259">
      </trkpt>
      <trkpt lat="50.67987966" lon="-116.51608164">
      </trkpt>
      <trkpt lat="50.6798826" lon="-116.51597185">
      </trkpt>
      <trkpt lat="50.67984087" lon="-116.51579135">
      </trkpt>
      <trkpt lat="50.67981901" lon="-116.51570418">
      </trkpt>
      <trkpt lat="50.6798348" lon="-116.51562875">
      </trkpt>
      <trkpt lat="50.67979638" lon="-116.51553918">
      </trkpt>
      <trkpt lat="50.67975703" lon="-116.51540631">
      </trkpt>
      <trkpt lat="50.6797935" lon="-116.51529224">
      </trkpt>
      <trkpt lat="50.67974817" lon="-116.51512931">
      </trkpt>
      <trkpt lat="50.67970377" lon="-116.51497818">
      </trkpt>
      <trkpt lat="50.67966593" lon="-116.51484932">
      </trkpt>
      <trkpt lat="50.67962928" lon="-116.51472454">
      </trkpt>
      <trkpt lat="50.67958746" lon="-116.51463786">
      </trkpt>
      <trkpt lat="50.67950094" lon="-116.5144805">
      </trkpt>
      <trkpt lat="50.67942367" lon="-116.514403">
      </trkpt>
      <trkpt lat="50.67930381" lon="-116.51430041">
      </trkpt>
      <trkpt lat="50.67917566" lon="-116.5141013">
      </trkpt>
      <trkpt lat="50.67913968" lon="-116.51397303">
      </trkpt>
      <trkpt lat="50.67908871" lon="-116.51379129">
      </trkpt>
      <trkpt lat="50.67901772" lon="-116.51363328">
      </trkpt>
      <trkpt lat="50.67893809" lon="-116.51352393">
      </trkpt>
      <trkpt lat="50.67883115" lon="-116.51345518">
      </trkpt>
      <trkpt lat="50.67874685" lon="-116.51335781">
      </trkpt>
      <trkpt lat="50.67865806" lon="-116.51322504">
      </trkpt>
      <trkpt lat="50.67853836" lon="-116.51311359">
      </trkpt>
      <trkpt lat="50.67846587" lon="-116.51298964">
      </trkpt>
      <trkpt lat="50.67837847" lon="-116.51281869">
      </trkpt>
      <trkpt lat="50.67830566" lon="-116.51258418">
      </trkpt>
      <trkpt lat="50.67828316" lon="-116.51239339">
      </trkpt>
      <trkpt lat="50.67826594" lon="-116.51221811">
      </trkpt>
      <trkpt lat="50.67823158" lon="-116.51203614">
      </trkpt>
      <trkpt lat="50.67815429" lon="-116.51187829">
      </trkpt>
      <trkpt lat="50.67805106" lon="-116.51174019">
      </trkpt>
      <trkpt lat="50.67796208" lon="-116.51165148">
      </trkpt>
      <trkpt lat="50.67789551" lon="-116.51160853">
      </trkpt>
      <trkpt lat="50.67787188" lon="-116.51167885">
      </trkpt>
      <trkpt lat="50.67783183" lon="-116.51182114">
      </trkpt>
      <trkpt lat="50.677837" lon="-116.51195904">
      </trkpt>
      <trkpt lat="50.67781918" lon="-116.51207507">
      </trkpt>
      <trkpt lat="50.67781619" lon="-116.51207705">
      </trkpt>
      <trkpt lat="50.67774445" lon="-116.5121245">
      </trkpt>
      <trkpt lat="50.6775754" lon="-116.51217189">
      </trkpt>
      <trkpt lat="50.67745442" lon="-116.51221709">
      </trkpt>
      <trkpt lat="50.6773934" lon="-116.51228026">
      </trkpt>
      <trkpt lat="50.67740198" lon="-116.51239351">
      </trkpt>
      <trkpt lat="50.67737955" lon="-116.51243711">
      </trkpt>
      <trkpt lat="50.67728738" lon="-116.51255957">
      </trkpt>
      <trkpt lat="50.67722072" lon="-116.5127448">
      </trkpt>
      <trkpt lat="50.6771606" lon="-116.51291188">
      </trkpt>
      <trkpt lat="50.6771119" lon="-116.5130472">
      </trkpt>
      <trkpt lat="50.67706271" lon="-116.51318386">
      </trkpt>
      <trkpt lat="50.67699468" lon="-116.51330776">
      </trkpt>
      <trkpt lat="50.67689414" lon="-116.51338064">
      </trkpt>
      <trkpt lat="50.6767594" lon="-116.51353077">
      </trkpt>
      <trkpt lat="50.67666202" lon="-116.51356645">
      </trkpt>
      <trkpt lat="50.6765504" lon="-116.51353321">
      </trkpt>
      <trkpt lat="50.67648488" lon="-116.51347129">
      </trkpt>
      <trkpt lat="50.67640178" lon="-116.51341759">
      </trkpt>
      <trkpt lat="50.6762548" lon="-116.5133766">
      </trkpt>
      <trkpt lat="50.67615655" lon="-116.51334921">
      </trkpt>
      <trkpt lat="50.6760624" lon="-116.51326438">
      </trkpt>
      <trkpt lat="50.67591839" lon="-116.5131718">
      </trkpt>
      <trkpt lat="50.67583465" lon="-116.5130588">
      </trkpt>
      <trkpt lat="50.67573445" lon="-116.51294734">
      </trkpt>
      <trkpt lat="50.67566376" lon="-116.5128627">
      </trkpt>
      <trkpt lat="50.67568861" lon="-116.51268905">
      </trkpt>
      <trkpt lat="50.67562962" lon="-116.51277126">
      </trkpt>
      <trkpt lat="50.6755699" lon="-116.51285449">
      </trkpt>
      <trkpt lat="50.67557801" lon="-116.5128432">
      </trkpt>
      <trkpt lat="50.67554023" lon="-116.51289584">
      </trkpt>
      <trkpt lat="50.67546412" lon="-116.51297228">
      </trkpt>
      <trkpt lat="50.67537399" lon="-116.51298895">
      </trkpt>
      <trkpt lat="50.67530068" lon="-116.51300251">
      </trkpt>
      <trkpt lat="50.67520316" lon="-116.51299003">
      </trkpt>
      <trkpt lat="50.67522036" lon="-116.51310889">
      </trkpt>
      <trkpt lat="50.67532257" lon="-116.51318444">
      </trkpt>
      <trkpt lat="50.67535765" lon="-116.51327144">
      </trkpt>
      <trkpt lat="50.67538174" lon="-116.51339001">
      </trkpt>
      <trkpt lat="50.67541761" lon="-116.51356659">
      </trkpt>
      <trkpt lat="50.67545241" lon="-116.5137379">
      </trkpt>
      <trkpt lat="50.67548802" lon="-116.51382867">
      </trkpt>
      <trkpt lat="50.67557295" lon="-116.5139891">
      </trkpt>
      <trkpt lat="50.67564674" lon="-116.51412852">
      </trkpt>
      <trkpt lat="50.67569672" lon="-116.51422293">
      </trkpt>
      <trkpt lat="50.6757299" lon="-116.5144181">
      </trkpt>
      <trkpt lat="50.67575744" lon="-116.51461802">
      </trkpt>
      <trkpt lat="50.67577407" lon="-116.51473873">
      </trkpt>
      <trkpt lat="50.675799" lon="-116.51483243">
      </trkpt>
      <trkpt lat="50.67584989" lon="-116.51481117">
      </trkpt>
      <trkpt lat="50.67593546" lon="-116.51470445">
      </trkpt>
      <trkpt lat="50.67597811" lon="-116.51456023">
      </trkpt>
      <trkpt lat="50.67601308" lon="-116.51435883">
      </trkpt>
      <trkpt lat="50.67606479" lon="-116.51423163">
      </trkpt>
      <trkpt lat="50.67613853" lon="-116.51420637">
      </trkpt>
      <trkpt lat="50.67623562" lon="-116.51422814">
      </trkpt>
      <trkpt lat="50.67633123" lon="-116.51412411">
      </trkpt>
      <trkpt lat="50.67643798" lon="-116.51399224">
      </trkpt>
      <trkpt lat="50.67647869" lon="-116.51386311">
      </trkpt>
      <trkpt lat="50.67651978" lon="-116.51372022">
      </trkpt>
      <trkpt lat="50.67658686" lon="-116.51364246">
      </trkpt>
      <trkpt lat="50.67664978" lon="-116.51365671">
      </trkpt>
      <trkpt lat="50.67675503" lon="-116.51366555">
      </trkpt>
      <trkpt lat="50.67683977" lon="-116.51361177">
      </trkpt>
      <trkpt lat="50.67690176" lon="-116.51367588">
      </trkpt>
      <trkpt lat="50.67697713" lon="-116.51377067">
      </trkpt>
      <trkpt lat="50.67707908" lon="-116.51370809">
      </trkpt>
      <trkpt lat="50.67721011" lon="-116.51362767">
      </trkpt>
      <trkpt lat="50.6773118" lon="-116.51356523">
      </trkpt>
      <trkpt lat="50.67737699" lon="-116.51345882">
      </trkpt>
      <trkpt lat="50.67744992" lon="-116.51334432">
      </trkpt>
      <trkpt lat="50.67751936" lon="-116.5132457">
      </trkpt>
      <trkpt lat="50.67757332" lon="-116.51308816">
      </trkpt>
      <trkpt lat="50.67763305" lon="-116.51285859">
      </trkpt>
      <trkpt lat="50.67768197" lon="-116.51271266">
      </trkpt>
      <trkpt lat="50.67775237" lon="-116.51260698">
      </trkpt>
      <trkpt lat="50.67779287" lon="-116.51248448">
      </trkpt>
      <trkpt lat="50.67781197" lon="-116.51239283">
      </trkpt>
      <trkpt lat="50.67782533" lon="-116.51226513">
      </trkpt>
      <trkpt lat="50.67781619" lon="-116.51207705">
      </trkpt>
    </trkseg>
  </trk>
</gpx>