<?xml version="1.0" encoding="UTF-8"?>
<gpx xmlns="http://www.topografix.com/GPX/1/1" xmlns:xsi="http://www.w3.org/2001/XMLSchema-instance" xsi:schemaLocation="http://www.topografix.com/GPX/1/1 http://www.topografix.com/GPX/1/1/gpx.xsd" version="1.1" creator="gpx.py -- https://github.com/tkrajina/gpxpy">
  <trk>
    <name>Butler Lake Trail</name>
    <trkseg>
      <trkpt lat="51.72537261" lon="-124.62827235">
      </trkpt>
      <trkpt lat="51.72539046" lon="-124.62805507">
      </trkpt>
      <trkpt lat="51.72540736" lon="-124.62792625">
      </trkpt>
      <trkpt lat="51.72540869" lon="-124.62784887">
      </trkpt>
      <trkpt lat="51.72540434" lon="-124.6277341">
      </trkpt>
      <trkpt lat="51.72541119" lon="-124.62756349">
      </trkpt>
      <trkpt lat="51.72542407" lon="-124.62752024">
      </trkpt>
      <trkpt lat="51.72545194" lon="-124.62741654">
      </trkpt>
      <trkpt lat="51.72549511" lon="-124.62731687">
      </trkpt>
      <trkpt lat="51.72552945" lon="-124.62723335">
      </trkpt>
      <trkpt lat="51.72555303" lon="-124.62720877">
      </trkpt>
      <trkpt lat="51.7255768" lon="-124.6271346">
      </trkpt>
      <trkpt lat="51.7255867" lon="-124.6270881">
      </trkpt>
      <trkpt lat="51.72558687" lon="-124.62704954">
      </trkpt>
      <trkpt lat="51.7255852" lon="-124.62698892">
      </trkpt>
      <trkpt lat="51.72559679" lon="-124.62694428">
      </trkpt>
      <trkpt lat="51.72563111" lon="-124.62688363">
      </trkpt>
      <trkpt lat="51.72566704" lon="-124.62683913">
      </trkpt>
      <trkpt lat="51.72570387" lon="-124.62684144">
      </trkpt>
      <trkpt lat="51.7257514" lon="-124.62685019">
      </trkpt>
      <trkpt lat="51.72580234" lon="-124.62687136">
      </trkpt>
      <trkpt lat="51.72585189" lon="-124.6268707">
      </trkpt>
      <trkpt lat="51.72589561" lon="-124.62687012">
      </trkpt>
      <trkpt lat="51.72596013" lon="-124.62686615">
      </trkpt>
      <trkpt lat="51.72602461" lon="-124.62684979">
      </trkpt>
      <trkpt lat="51.72608844" lon="-124.62686135">
      </trkpt>
      <trkpt lat="51.72614459" lon="-124.62687918">
      </trkpt>
      <trkpt lat="51.72621024" lon="-124.62686593">
      </trkpt>
      <trkpt lat="51.7262999" lon="-124.62678187">
      </trkpt>
      <trkpt lat="51.7263277" lon="-124.62674497">
      </trkpt>
      <trkpt lat="51.7263957" lon="-124.62666867">
      </trkpt>
      <trkpt lat="51.7264377" lon="-124.62661164">
      </trkpt>
      <trkpt lat="51.72647211" lon="-124.62652824">
      </trkpt>
      <trkpt lat="51.72649374" lon="-124.6264484">
      </trkpt>
      <trkpt lat="51.72651361" lon="-124.62640123">
      </trkpt>
      <trkpt lat="51.72654976" lon="-124.62636883">
      </trkpt>
      <trkpt lat="51.72657678" lon="-124.62633359">
      </trkpt>
      <trkpt lat="51.72660195" lon="-124.6263043">
      </trkpt>
      <trkpt lat="51.72662176" lon="-124.62629846">
      </trkpt>
      <trkpt lat="51.72664881" lon="-124.62631311">
      </trkpt>
      <trkpt lat="51.726683" lon="-124.62632191">
      </trkpt>
      <trkpt lat="51.72670996" lon="-124.62632777">
      </trkpt>
      <trkpt lat="51.72673536" lon="-124.62631314">
      </trkpt>
      <trkpt lat="51.72675581" lon="-124.62633068">
      </trkpt>
      <trkpt lat="51.72678012" lon="-124.62636586">
      </trkpt>
      <trkpt lat="51.7268042" lon="-124.62641619">
      </trkpt>
      <trkpt lat="51.72684597" lon="-124.62643701">
      </trkpt>
      <trkpt lat="51.72690374" lon="-124.62646827">
      </trkpt>
      <trkpt lat="51.72695319" lon="-124.62649966">
      </trkpt>
      <trkpt lat="51.72697962" lon="-124.62654442">
      </trkpt>
      <trkpt lat="51.72699353" lon="-124.6266101">
      </trkpt>
      <trkpt lat="51.72702494" lon="-124.62663965">
      </trkpt>
      <trkpt lat="51.72705805" lon="-124.62668786">
      </trkpt>
      <trkpt lat="51.72711224" lon="-124.62677905">
      </trkpt>
      <trkpt lat="51.72715525" lon="-124.62685005">
      </trkpt>
      <trkpt lat="51.72715842" lon="-124.62685562">
      </trkpt>
      <trkpt lat="51.72720648" lon="-124.62691777">
      </trkpt>
      <trkpt lat="51.72724233" lon="-124.62693316">
      </trkpt>
      <trkpt lat="51.72729001" lon="-124.6269492">
      </trkpt>
      <trkpt lat="51.72734311" lon="-124.62696006">
      </trkpt>
      <trkpt lat="51.72740512" lon="-124.62698823">
      </trkpt>
      <trkpt lat="51.72743893" lon="-124.62699554">
      </trkpt>
      <trkpt lat="51.72747297" lon="-124.62701418">
      </trkpt>
      <trkpt lat="51.72751417" lon="-124.62706112">
      </trkpt>
      <trkpt lat="51.72753996" lon="-124.62707342">
      </trkpt>
      <trkpt lat="51.72760197" lon="-124.62708387">
      </trkpt>
      <trkpt lat="51.72764169" lon="-124.627085">
      </trkpt>
      <trkpt lat="51.72769212" lon="-124.62706469">
      </trkpt>
      <trkpt lat="51.72773679" lon="-124.62704528">
      </trkpt>
      <trkpt lat="51.72778258" lon="-124.62703902">
      </trkpt>
      <trkpt lat="51.72782541" lon="-124.62704144">
      </trkpt>
      <trkpt lat="51.72787045" lon="-124.62705257">
      </trkpt>
      <trkpt lat="51.72791233" lon="-124.62707219">
      </trkpt>
      <trkpt lat="51.72793955" lon="-124.62708211">
      </trkpt>
      <trkpt lat="51.72796903" lon="-124.62712651">
      </trkpt>
      <trkpt lat="51.72798425" lon="-124.6271763">
      </trkpt>
      <trkpt lat="51.72800839" lon="-124.6272122">
      </trkpt>
      <trkpt lat="51.72803614" lon="-124.6272397">
      </trkpt>
      <trkpt lat="51.72805612" lon="-124.62723482">
      </trkpt>
      <trkpt lat="51.72812105" lon="-124.62700877">
      </trkpt>
      <trkpt lat="51.7282168" lon="-124.62678114">
      </trkpt>
      <trkpt lat="51.72832779" lon="-124.62637515">
      </trkpt>
      <trkpt lat="51.72845239" lon="-124.62613723">
      </trkpt>
      <trkpt lat="51.72849523" lon="-124.62584571">
      </trkpt>
      <trkpt lat="51.72866818" lon="-124.62577476">
      </trkpt>
      <trkpt lat="51.72889837" lon="-124.62564585">
      </trkpt>
      <trkpt lat="51.7290084" lon="-124.6256424">
      </trkpt>
      <trkpt lat="51.72920417" lon="-124.62554265">
      </trkpt>
      <trkpt lat="51.72938224" lon="-124.62541538">
      </trkpt>
      <trkpt lat="51.72954827" lon="-124.62525104">
      </trkpt>
      <trkpt lat="51.72966555" lon="-124.62536905">
      </trkpt>
      <trkpt lat="51.72977615" lon="-124.62541239">
      </trkpt>
      <trkpt lat="51.72996" lon="-124.62528493">
      </trkpt>
      <trkpt lat="51.7302147" lon="-124.62526757">
      </trkpt>
      <trkpt lat="51.73038697" lon="-124.62514047">
      </trkpt>
      <trkpt lat="51.73049076" lon="-124.62509977">
      </trkpt>
      <trkpt lat="51.73060658" lon="-124.62509613">
      </trkpt>
      <trkpt lat="51.73075148" lon="-124.62510095">
      </trkpt>
      <trkpt lat="51.73093089" lon="-124.62508595">
      </trkpt>
      <trkpt lat="51.73109906" lon="-124.6250994">
      </trkpt>
      <trkpt lat="51.73121556" lon="-124.6251519">
      </trkpt>
      <trkpt lat="51.73141347" lon="-124.62522994">
      </trkpt>
      <trkpt lat="51.73154767" lon="-124.62530999">
      </trkpt>
      <trkpt lat="51.73179804" lon="-124.62541446">
      </trkpt>
      <trkpt lat="51.73200765" lon="-124.6255015">
      </trkpt>
      <trkpt lat="51.73219397" lon="-124.62557991">
      </trkpt>
      <trkpt lat="51.73238008" lon="-124.62563959">
      </trkpt>
      <trkpt lat="51.73259626" lon="-124.62579196">
      </trkpt>
      <trkpt lat="51.73272502" lon="-124.62590025">
      </trkpt>
      <trkpt lat="51.73289566" lon="-124.62611957">
      </trkpt>
      <trkpt lat="51.7330058" lon="-124.62612547">
      </trkpt>
      <trkpt lat="51.73308642" lon="-124.6260855">
      </trkpt>
      <trkpt lat="51.73328277" lon="-124.62603254">
      </trkpt>
      <trkpt lat="51.73345706" lon="-124.62607387">
      </trkpt>
      <trkpt lat="51.73359126" lon="-124.62615392">
      </trkpt>
      <trkpt lat="51.73370343" lon="-124.62632827">
      </trkpt>
      <trkpt lat="51.73381403" lon="-124.62637162">
      </trkpt>
      <trkpt lat="51.73393586" lon="-124.62638652">
      </trkpt>
      <trkpt lat="51.73406282" lon="-124.62634509">
      </trkpt>
      <trkpt lat="51.73433179" lon="-124.62655197">
      </trkpt>
      <trkpt lat="51.7345365" lon="-124.62671407">
      </trkpt>
      <trkpt lat="51.73478788" lon="-124.62690278">
      </trkpt>
      <trkpt lat="51.73496342" lon="-124.62704707">
      </trkpt>
      <trkpt lat="51.73514018" lon="-124.6272943">
      </trkpt>
      <trkpt lat="51.7353527" lon="-124.62762468">
      </trkpt>
      <trkpt lat="51.73552368" lon="-124.62787209">
      </trkpt>
      <trkpt lat="51.7357461" lon="-124.62806173">
      </trkpt>
      <trkpt lat="51.73584645" lon="-124.62821774">
      </trkpt>
      <trkpt lat="51.73594703" lon="-124.62839247">
      </trkpt>
      <trkpt lat="51.73610187" lon="-124.62874337">
      </trkpt>
      <trkpt lat="51.73625546" lon="-124.62899135">
      </trkpt>
      <trkpt lat="51.73633923" lon="-124.62921342">
      </trkpt>
      <trkpt lat="51.73637622" lon="-124.62939951">
      </trkpt>
      <trkpt lat="51.73640163" lon="-124.62958595">
      </trkpt>
      <trkpt lat="51.73649253" lon="-124.62992015">
      </trkpt>
      <trkpt lat="51.73658822" lon="-124.63016993">
      </trkpt>
      <trkpt lat="51.73663723" lon="-124.63039309">
      </trkpt>
      <trkpt lat="51.73674562" lon="-124.63073611">
      </trkpt>
      <trkpt lat="51.73681903" lon="-124.63106149">
      </trkpt>
      <trkpt lat="51.73686394" lon="-124.63142522">
      </trkpt>
      <trkpt lat="51.73696052" lon="-124.63174988">
      </trkpt>
      <trkpt lat="51.73719417" lon="-124.63191111">
      </trkpt>
      <trkpt lat="51.73736958" lon="-124.63204607">
      </trkpt>
      <trkpt lat="51.73750547" lon="-124.63226651">
      </trkpt>
      <trkpt lat="51.73760739" lon="-124.63255357">
      </trkpt>
      <trkpt lat="51.73763814" lon="-124.63270241">
      </trkpt>
      <trkpt lat="51.73767422" lon="-124.63281363">
      </trkpt>
      <trkpt lat="51.73766999" lon="-124.63294484">
      </trkpt>
      <trkpt lat="51.73757879" lon="-124.6330694">
      </trkpt>
      <trkpt lat="51.73742467" lon="-124.63326146">
      </trkpt>
      <trkpt lat="51.73724806" lon="-124.63351039">
      </trkpt>
      <trkpt lat="51.73707032" lon="-124.63366572">
      </trkpt>
      <trkpt lat="51.73685204" lon="-124.63382234">
      </trkpt>
      <trkpt lat="51.73664501" lon="-124.6339505">
      </trkpt>
      <trkpt lat="51.73647229" lon="-124.63404015">
      </trkpt>
      <trkpt lat="51.73626092" lon="-124.63429016">
      </trkpt>
      <trkpt lat="51.73615335" lon="-124.63449947">
      </trkpt>
      <trkpt lat="51.73614646" lon="-124.6348929">
      </trkpt>
      <trkpt lat="51.73610972" lon="-124.63521235">
      </trkpt>
      <trkpt lat="51.73611552" lon="-124.635699">
      </trkpt>
      <trkpt lat="51.73617722" lon="-124.6360154">
      </trkpt>
      <trkpt lat="51.73631533" lon="-124.63642302">
      </trkpt>
      <trkpt lat="51.73646035" lon="-124.63692406">
      </trkpt>
      <trkpt lat="51.73662629" lon="-124.63723722">
      </trkpt>
      <trkpt lat="51.73672786" lon="-124.6374962">
      </trkpt>
      <trkpt lat="51.73681127" lon="-124.63769021">
      </trkpt>
      <trkpt lat="51.73696886" lon="-124.6377883">
      </trkpt>
      <trkpt lat="51.73718458" lon="-124.6379033">
      </trkpt>
      <trkpt lat="51.73734863" lon="-124.63805735">
      </trkpt>
      <trkpt lat="51.73755254" lon="-124.638154">
      </trkpt>
      <trkpt lat="51.73771636" lon="-124.63828934">
      </trkpt>
      <trkpt lat="51.73789166" lon="-124.63841497">
      </trkpt>
      <trkpt lat="51.73814212" lon="-124.6385289">
      </trkpt>
      <trkpt lat="51.73829481" lon="-124.63870204">
      </trkpt>
      <trkpt lat="51.7383565" lon="-124.63901845">
      </trkpt>
      <trkpt lat="51.73847611" lon="-124.63933305">
      </trkpt>
      <trkpt lat="51.73856776" lon="-124.6397328">
      </trkpt>
      <trkpt lat="51.73873448" lon="-124.6401115">
      </trkpt>
      <trkpt lat="51.73881767" lon="-124.6402868">
      </trkpt>
      <trkpt lat="51.73897747" lon="-124.64057208">
      </trkpt>
      <trkpt lat="51.73913071" lon="-124.64079203">
      </trkpt>
      <trkpt lat="51.73919119" lon="-124.6410055">
      </trkpt>
      <trkpt lat="51.73920053" lon="-124.64130482">
      </trkpt>
      <trkpt lat="51.73918561" lon="-124.64151126">
      </trkpt>
      <trkpt lat="51.73911867" lon="-124.64172868">
      </trkpt>
      <trkpt lat="51.73899994" lon="-124.64197579">
      </trkpt>
      <trkpt lat="51.73887933" lon="-124.6420638">
      </trkpt>
      <trkpt lat="51.73871316" lon="-124.64221876">
      </trkpt>
      <trkpt lat="51.73862841" lon="-124.64239927">
      </trkpt>
      <trkpt lat="51.73864845" lon="-124.64262335">
      </trkpt>
      <trkpt lat="51.73855912" lon="-124.642907">
      </trkpt>
      <trkpt lat="51.73843571" lon="-124.64324787">
      </trkpt>
      <trkpt lat="51.73830105" lon="-124.64361718">
      </trkpt>
      <trkpt lat="51.7381595" lon="-124.64389308">
      </trkpt>
      <trkpt lat="51.73799565" lon="-124.64424457">
      </trkpt>
      <trkpt lat="51.73784296" lon="-124.64455824">
      </trkpt>
      <trkpt lat="51.73773613" lon="-124.64483307">
      </trkpt>
      <trkpt lat="51.73766407" lon="-124.64510681">
      </trkpt>
      <trkpt lat="51.73763866" lon="-124.64540719">
      </trkpt>
      <trkpt lat="51.73756124" lon="-124.64571855">
      </trkpt>
      <trkpt lat="51.73741222" lon="-124.64585422">
      </trkpt>
      <trkpt lat="51.73725863" lon="-124.64609304">
      </trkpt>
      <trkpt lat="51.73709914" lon="-124.64632266">
      </trkpt>
      <trkpt lat="51.73692227" lon="-124.64655281">
      </trkpt>
      <trkpt lat="51.73680299" lon="-124.64675311">
      </trkpt>
      <trkpt lat="51.7367533" lon="-124.64696062">
      </trkpt>
      <trkpt lat="51.73681911" lon="-124.64713646">
      </trkpt>
      <trkpt lat="51.73683224" lon="-124.64726712">
      </trkpt>
      <trkpt lat="51.73681752" lon="-124.64749227">
      </trkpt>
      <trkpt lat="51.73673342" lon="-124.64772893">
      </trkpt>
      <trkpt lat="51.73665588" lon="-124.64803091">
      </trkpt>
      <trkpt lat="51.73658414" lon="-124.64833271">
      </trkpt>
      <trkpt lat="51.73652231" lon="-124.64849377">
      </trkpt>
      <trkpt lat="51.73656517" lon="-124.64868907">
      </trkpt>
      <trkpt lat="51.73664813" lon="-124.64884566">
      </trkpt>
      <trkpt lat="51.73677631" lon="-124.64890725">
      </trkpt>
      <trkpt lat="51.73689269" lon="-124.64895046">
      </trkpt>
      <trkpt lat="51.73704314" lon="-124.64893646">
      </trkpt>
      <trkpt lat="51.73716977" lon="-124.64886702">
      </trkpt>
      <trkpt lat="51.73732602" lon="-124.64885283">
      </trkpt>
      <trkpt lat="51.73747737" lon="-124.6489137">
      </trkpt>
      <trkpt lat="51.73763941" lon="-124.64889935">
      </trkpt>
      <trkpt lat="51.73777828" lon="-124.64888569">
      </trkpt>
      <trkpt lat="51.73791037" lon="-124.648788">
      </trkpt>
      <trkpt lat="51.73808902" lon="-124.64870758">
      </trkpt>
      <trkpt lat="51.73826843" lon="-124.64869269">
      </trkpt>
      <trkpt lat="51.73839539" lon="-124.64865132">
      </trkpt>
      <trkpt lat="51.73852881" lon="-124.64866593">
      </trkpt>
      <trkpt lat="51.73862224" lon="-124.64872859">
      </trkpt>
      <trkpt lat="51.73878605" lon="-124.64886397">
      </trkpt>
      <trkpt lat="51.73893315" lon="-124.64905605">
      </trkpt>
      <trkpt lat="51.73901153" lon="-124.64931578">
      </trkpt>
      <trkpt lat="51.73907176" lon="-124.64951054">
      </trkpt>
      <trkpt lat="51.73913133" lon="-124.64964914">
      </trkpt>
      <trkpt lat="51.73923078" lon="-124.64973034">
      </trkpt>
      <trkpt lat="51.73934671" lon="-124.64973614">
      </trkpt>
      <trkpt lat="51.73945718" lon="-124.64977018">
      </trkpt>
      <trkpt lat="51.73952044" lon="-124.64973078">
      </trkpt>
      <trkpt lat="51.7396944" lon="-124.64974414">
      </trkpt>
      <trkpt lat="51.7397876" lon="-124.64978807">
      </trkpt>
      <trkpt lat="51.73992681" lon="-124.64980252">
      </trkpt>
      <trkpt lat="51.74006536" lon="-124.64976079">
      </trkpt>
      <trkpt lat="51.74014555" lon="-124.64968342">
      </trkpt>
      <trkpt lat="51.74023688" lon="-124.64956825">
      </trkpt>
      <trkpt lat="51.74033302" lon="-124.64936865">
      </trkpt>
      <trkpt lat="51.74048794" lon="-124.64924216">
      </trkpt>
      <trkpt lat="51.74063784" lon="-124.64918136">
      </trkpt>
      <trkpt lat="51.74082807" lon="-124.64910059">
      </trkpt>
      <trkpt lat="51.74098955" lon="-124.64903944">
      </trkpt>
      <trkpt lat="51.74108844" lon="-124.64907384">
      </trkpt>
      <trkpt lat="51.74113742" lon="-124.64929704">
      </trkpt>
      <trkpt lat="51.74118542" lon="-124.64943601">
      </trkpt>
      <trkpt lat="51.74131382" lon="-124.64951632">
      </trkpt>
      <trkpt lat="51.74145958" lon="-124.64959608">
      </trkpt>
      <trkpt lat="51.74149141" lon="-124.64983854">
      </trkpt>
      <trkpt lat="51.74151254" lon="-124.65015625">
      </trkpt>
      <trkpt lat="51.74159726" lon="-124.65046262">
      </trkpt>
      <trkpt lat="51.74161871" lon="-124.6508084">
      </trkpt>
      <trkpt lat="51.74166847" lon="-124.65109713">
      </trkpt>
      <trkpt lat="51.74170752" lon="-124.65146109">
      </trkpt>
      <trkpt lat="51.74184143" lon="-124.65200941">
      </trkpt>
      <trkpt lat="51.74195698" lon="-124.65247402">
      </trkpt>
      <trkpt lat="51.74208333" lon="-124.65287275">
      </trkpt>
      <trkpt lat="51.74217559" lon="-124.65332871">
      </trkpt>
      <trkpt lat="51.74229582" lon="-124.65369956">
      </trkpt>
      <trkpt lat="51.74236918" lon="-124.65402502">
      </trkpt>
      <trkpt lat="51.74246678" lon="-124.65444337">
      </trkpt>
      <trkpt lat="51.74259214" lon="-124.65475787">
      </trkpt>
      <trkpt lat="51.74267652" lon="-124.65503618">
      </trkpt>
      <trkpt lat="51.74277325" lon="-124.65537966">
      </trkpt>
      <trkpt lat="51.74285751" lon="-124.65564862">
      </trkpt>
      <trkpt lat="51.74292407" lon="-124.65589003">
      </trkpt>
      <trkpt lat="51.74295545" lon="-124.65609507">
      </trkpt>
      <trkpt lat="51.74297612" lon="-124.65637534">
      </trkpt>
      <trkpt lat="51.74302454" lon="-124.65655175">
      </trkpt>
      <trkpt lat="51.74308553" lon="-124.65681206">
      </trkpt>
      <trkpt lat="51.74314585" lon="-124.65701621">
      </trkpt>
      <trkpt lat="51.74318914" lon="-124.65724897">
      </trkpt>
      <trkpt lat="51.74319232" lon="-124.65752042">
      </trkpt>
      <trkpt lat="51.74311334" lon="-124.65770074">
      </trkpt>
      <trkpt lat="51.7430102" lon="-124.65779753">
      </trkpt>
      <trkpt lat="51.74290771" lon="-124.6579505">
      </trkpt>
      <trkpt lat="51.74282949" lon="-124.65819634">
      </trkpt>
      <trkpt lat="51.74280416" lon="-124.65850612">
      </trkpt>
      <trkpt lat="51.74280778" lon="-124.65881501">
      </trkpt>
      <trkpt lat="51.74281052" lon="-124.659049">
      </trkpt>
      <trkpt lat="51.7428148" lon="-124.65941405">
      </trkpt>
      <trkpt lat="51.74278214" lon="-124.65959295">
      </trkpt>
      <trkpt lat="51.74272282" lon="-124.65996931">
      </trkpt>
      <trkpt lat="51.74267934" lon="-124.66021409">
      </trkpt>
      <trkpt lat="51.74258047" lon="-124.66067592">
      </trkpt>
      <trkpt lat="51.74250235" lon="-124.66093112">
      </trkpt>
      <trkpt lat="51.74241833" lon="-124.66117714">
      </trkpt>
      <trkpt lat="51.7424037" lon="-124.66141167">
      </trkpt>
      <trkpt lat="51.74242545" lon="-124.66178554">
      </trkpt>
      <trkpt lat="51.7424413" lon="-124.66215023">
      </trkpt>
      <trkpt lat="51.74248065" lon="-124.66254228">
      </trkpt>
      <trkpt lat="51.74254184" lon="-124.66282132">
      </trkpt>
      <trkpt lat="51.74259156" lon="-124.66311007">
      </trkpt>
      <trkpt lat="51.74259593" lon="-124.66348446">
      </trkpt>
      <trkpt lat="51.74253551" lon="-124.66376722">
      </trkpt>
      <trkpt lat="51.74248208" lon="-124.66415275">
      </trkpt>
      <trkpt lat="51.7424103" lon="-124.66445456">
      </trkpt>
      <trkpt lat="51.74232135" lon="-124.66477563">
      </trkpt>
      <trkpt lat="51.74220323" lon="-124.66507885">
      </trkpt>
      <trkpt lat="51.74209659" lon="-124.66537237">
      </trkpt>
      <trkpt lat="51.7419954" lon="-124.66563762">
      </trkpt>
      <trkpt lat="51.74189499" lon="-124.6659684">
      </trkpt>
      <trkpt lat="51.74181117" lon="-124.66623312">
      </trkpt>
      <trkpt lat="51.74171632" lon="-124.666545">
      </trkpt>
      <trkpt lat="51.74163765" lon="-124.66675339">
      </trkpt>
      <trkpt lat="51.74152461" lon="-124.66696871">
      </trkpt>
      <trkpt lat="51.741535" lon="-124.667002">
      </trkpt>
      <trkpt lat="51.741579" lon="-124.667097">
      </trkpt>
      <trkpt lat="51.741615" lon="-124.66723">
      </trkpt>
      <trkpt lat="51.74164" lon="-124.66724701">
      </trkpt>
      <trkpt lat="51.74167" lon="-124.66724699">
      </trkpt>
      <trkpt lat="51.741685" lon="-124.66727">
      </trkpt>
      <trkpt lat="51.741666" lon="-124.667317">
      </trkpt>
      <trkpt lat="51.741641" lon="-124.66733701">
      </trkpt>
      <trkpt lat="51.741613" lon="-124.667447">
      </trkpt>
      <trkpt lat="51.741587" lon="-124.66747501">
      </trkpt>
      <trkpt lat="51.741574" lon="-124.66750801">
      </trkpt>
      <trkpt lat="51.741558" lon="-124.66769501">
      </trkpt>
      <trkpt lat="51.741522" lon="-124.667809">
      </trkpt>
      <trkpt lat="51.74151" lon="-124.66795">
      </trkpt>
      <trkpt lat="51.741461" lon="-124.668249">
      </trkpt>
      <trkpt lat="51.741417" lon="-124.668434">
      </trkpt>
      <trkpt lat="51.741355" lon="-124.668886">
      </trkpt>
      <trkpt lat="51.741315" lon="-124.66907501">
      </trkpt>
      <trkpt lat="51.741289" lon="-124.66937699">
      </trkpt>
      <trkpt lat="51.741291" lon="-124.66965099">
      </trkpt>
      <trkpt lat="51.741273" lon="-124.669788">
      </trkpt>
      <trkpt lat="51.741163" lon="-124.67017">
      </trkpt>
      <trkpt lat="51.741163" lon="-124.670308">
      </trkpt>
      <trkpt lat="51.741105" lon="-124.670774">
      </trkpt>
      <trkpt lat="51.741063" lon="-124.671034">
      </trkpt>
      <trkpt lat="51.741031" lon="-124.671164">
      </trkpt>
      <trkpt lat="51.741007" lon="-124.671885">
      </trkpt>
      <trkpt lat="51.741038" lon="-124.67226001">
      </trkpt>
      <trkpt lat="51.741042" lon="-124.672531">
      </trkpt>
      <trkpt lat="51.741032" lon="-124.672606">
      </trkpt>
      <trkpt lat="51.740999" lon="-124.672686">
      </trkpt>
      <trkpt lat="51.741001" lon="-124.672726">
      </trkpt>
      <trkpt lat="51.741038" lon="-124.672727">
      </trkpt>
      <trkpt lat="51.741089" lon="-124.67267101">
      </trkpt>
      <trkpt lat="51.741137" lon="-124.67264101">
      </trkpt>
      <trkpt lat="51.741284" lon="-124.672437">
      </trkpt>
      <trkpt lat="51.741412" lon="-124.67207699">
      </trkpt>
      <trkpt lat="51.741468" lon="-124.67196801">
      </trkpt>
      <trkpt lat="51.741583" lon="-124.671573">
      </trkpt>
      <trkpt lat="51.741706" lon="-124.671377">
      </trkpt>
      <trkpt lat="51.741814" lon="-124.67106401">
      </trkpt>
      <trkpt lat="51.741902" lon="-124.670902">
      </trkpt>
      <trkpt lat="51.741965" lon="-124.670808">
      </trkpt>
      <trkpt lat="51.742065" lon="-124.670617">
      </trkpt>
      <trkpt lat="51.742266" lon="-124.670339">
      </trkpt>
      <trkpt lat="51.742479" lon="-124.67022999">
      </trkpt>
      <trkpt lat="51.742619" lon="-124.670199">
      </trkpt>
      <trkpt lat="51.742667" lon="-124.670194">
      </trkpt>
      <trkpt lat="51.742745" lon="-124.670204">
      </trkpt>
      <trkpt lat="51.742831" lon="-124.670201">
      </trkpt>
      <trkpt lat="51.742867" lon="-124.67021301">
      </trkpt>
      <trkpt lat="51.743015" lon="-124.67021399">
      </trkpt>
      <trkpt lat="51.743132" lon="-124.670179">
      </trkpt>
      <trkpt lat="51.743274" lon="-124.67016301">
      </trkpt>
      <trkpt lat="51.743414" lon="-124.67009701">
      </trkpt>
      <trkpt lat="51.743459" lon="-124.670087">
      </trkpt>
      <trkpt lat="51.743507" lon="-124.670099">
      </trkpt>
      <trkpt lat="51.743562" lon="-124.67014">
      </trkpt>
      <trkpt lat="51.743606" lon="-124.670158">
      </trkpt>
      <trkpt lat="51.74374" lon="-124.670187">
      </trkpt>
      <trkpt lat="51.743879" lon="-124.670177">
      </trkpt>
      <trkpt lat="51.744028" lon="-124.670101">
      </trkpt>
      <trkpt lat="51.744086" lon="-124.670141">
      </trkpt>
      <trkpt lat="51.744116" lon="-124.670123">
      </trkpt>
      <trkpt lat="51.744197" lon="-124.670138">
      </trkpt>
      <trkpt lat="51.744299" lon="-124.670131">
      </trkpt>
      <trkpt lat="51.744384" lon="-124.670106">
      </trkpt>
      <trkpt lat="51.744438" lon="-124.670124">
      </trkpt>
      <trkpt lat="51.744524" lon="-124.67022701">
      </trkpt>
      <trkpt lat="51.744547" lon="-124.670274">
      </trkpt>
      <trkpt lat="51.744561" lon="-124.670365">
      </trkpt>
      <trkpt lat="51.744603" lon="-124.670503">
      </trkpt>
      <trkpt lat="51.74465" lon="-124.670529">
      </trkpt>
      <trkpt lat="51.744704" lon="-124.67058999">
      </trkpt>
      <trkpt lat="51.744804" lon="-124.670672">
      </trkpt>
      <trkpt lat="51.744889" lon="-124.67077101">
      </trkpt>
      <trkpt lat="51.744964" lon="-124.670799">
      </trkpt>
      <trkpt lat="51.745002" lon="-124.670786">
      </trkpt>
      <trkpt lat="51.745133" lon="-124.67068201">
      </trkpt>
      <trkpt lat="51.745184" lon="-124.670653">
      </trkpt>
      <trkpt lat="51.745224" lon="-124.670666">
      </trkpt>
      <trkpt lat="51.745292" lon="-124.670706">
      </trkpt>
      <trkpt lat="51.745372" lon="-124.670806">
      </trkpt>
      <trkpt lat="51.745435" lon="-124.67103899">
      </trkpt>
      <trkpt lat="51.745479" lon="-124.671125">
      </trkpt>
      <trkpt lat="51.745509" lon="-124.67115099">
      </trkpt>
      <trkpt lat="51.745544" lon="-124.671161">
      </trkpt>
      <trkpt lat="51.745619" lon="-124.671204">
      </trkpt>
      <trkpt lat="51.745648" lon="-124.671232">
      </trkpt>
      <trkpt lat="51.745693" lon="-124.67130801">
      </trkpt>
      <trkpt lat="51.74576" lon="-124.67136099">
      </trkpt>
      <trkpt lat="51.745792" lon="-124.671377">
      </trkpt>
      <trkpt lat="51.74584" lon="-124.67138001">
      </trkpt>
      <trkpt lat="51.745933" lon="-124.671363">
      </trkpt>
      <trkpt lat="51.746005" lon="-124.671373">
      </trkpt>
      <trkpt lat="51.746147" lon="-124.671425">
      </trkpt>
      <trkpt lat="51.746255" lon="-124.67141399">
      </trkpt>
      <trkpt lat="51.746302" lon="-124.671396">
      </trkpt>
      <trkpt lat="51.746378" lon="-124.67140299">
      </trkpt>
      <trkpt lat="51.746459" lon="-124.671463">
      </trkpt>
      <trkpt lat="51.746501" lon="-124.671478">
      </trkpt>
      <trkpt lat="51.746534" lon="-124.671509">
      </trkpt>
      <trkpt lat="51.746551" lon="-124.671559">
      </trkpt>
      <trkpt lat="51.746631" lon="-124.671657">
      </trkpt>
      <trkpt lat="51.746709" lon="-124.67168799">
      </trkpt>
      <trkpt lat="51.746825" lon="-124.671771">
      </trkpt>
      <trkpt lat="51.746862" lon="-124.671787">
      </trkpt>
      <trkpt lat="51.747006" lon="-124.671807">
      </trkpt>
      <trkpt lat="51.747081" lon="-124.671789">
      </trkpt>
      <trkpt lat="51.74719" lon="-124.671789">
      </trkpt>
      <trkpt lat="51.747275" lon="-124.67181801">
      </trkpt>
      <trkpt lat="51.747446" lon="-124.671834">
      </trkpt>
      <trkpt lat="51.747566" lon="-124.671816">
      </trkpt>
      <trkpt lat="51.747609" lon="-124.67182699">
      </trkpt>
      <trkpt lat="51.747655" lon="-124.671817">
      </trkpt>
      <trkpt lat="51.747697" lon="-124.67182401">
      </trkpt>
      <trkpt lat="51.747737" lon="-124.671814">
      </trkpt>
      <trkpt lat="51.747839" lon="-124.671744">
      </trkpt>
      <trkpt lat="51.747881" lon="-124.671735">
      </trkpt>
      <trkpt lat="51.747954" lon="-124.671751">
      </trkpt>
      <trkpt lat="51.748067" lon="-124.671748">
      </trkpt>
      <trkpt lat="51.748243" lon="-124.671771">
      </trkpt>
      <trkpt lat="51.748317" lon="-124.67175">
      </trkpt>
      <trkpt lat="51.748381" lon="-124.671757">
      </trkpt>
      <trkpt lat="51.748451" lon="-124.67171101">
      </trkpt>
      <trkpt lat="51.748587" lon="-124.671589">
      </trkpt>
      <trkpt lat="51.748606" lon="-124.671559">
      </trkpt>
      <trkpt lat="51.748616" lon="-124.671513">
      </trkpt>
      <trkpt lat="51.748662" lon="-124.67144">
      </trkpt>
      <trkpt lat="51.748698" lon="-124.67141">
      </trkpt>
      <trkpt lat="51.748725" lon="-124.671366">
      </trkpt>
      <trkpt lat="51.748773" lon="-124.671354">
      </trkpt>
      <trkpt lat="51.748954" lon="-124.67099501">
      </trkpt>
      <trkpt lat="51.748989" lon="-124.670964">
      </trkpt>
      <trkpt lat="51.749053" lon="-124.670869">
      </trkpt>
      <trkpt lat="51.749112" lon="-124.67084101">
      </trkpt>
      <trkpt lat="51.749262" lon="-124.67093099">
      </trkpt>
      <trkpt lat="51.749291" lon="-124.670957">
      </trkpt>
      <trkpt lat="51.749325" lon="-124.67105999">
      </trkpt>
      <trkpt lat="51.749584" lon="-124.67143899">
      </trkpt>
      <trkpt lat="51.749699" lon="-124.67159001">
      </trkpt>
      <trkpt lat="51.749757" lon="-124.671691">
      </trkpt>
      <trkpt lat="51.749789" lon="-124.671968">
      </trkpt>
      <trkpt lat="51.749821" lon="-124.672067">
      </trkpt>
      <trkpt lat="51.74984" lon="-124.672093">
      </trkpt>
      <trkpt lat="51.749872" lon="-124.672206">
      </trkpt>
      <trkpt lat="51.74995" lon="-124.672351">
      </trkpt>
      <trkpt lat="51.750034" lon="-124.672467">
      </trkpt>
      <trkpt lat="51.750098" lon="-124.67253801">
      </trkpt>
      <trkpt lat="51.750247" lon="-124.672662">
      </trkpt>
      <trkpt lat="51.750564" lon="-124.672958">
      </trkpt>
      <trkpt lat="51.750861" lon="-124.67314">
      </trkpt>
      <trkpt lat="51.751029" lon="-124.673205">
      </trkpt>
      <trkpt lat="51.751077" lon="-124.67321799">
      </trkpt>
      <trkpt lat="51.751272" lon="-124.67321901">
      </trkpt>
      <trkpt lat="51.751354" lon="-124.67318201">
      </trkpt>
      <trkpt lat="51.751371" lon="-124.673154">
      </trkpt>
      <trkpt lat="51.751441" lon="-124.673091">
      </trkpt>
      <trkpt lat="51.75148" lon="-124.673027">
      </trkpt>
      <trkpt lat="51.751539" lon="-124.672967">
      </trkpt>
      <trkpt lat="51.75165" lon="-124.67280899">
      </trkpt>
      <trkpt lat="51.751823" lon="-124.672639">
      </trkpt>
      <trkpt lat="51.751872" lon="-124.67265201">
      </trkpt>
      <trkpt lat="51.751898" lon="-124.67269801">
      </trkpt>
      <trkpt lat="51.751941" lon="-124.672736">
      </trkpt>
      <trkpt lat="51.751965" lon="-124.67278101">
      </trkpt>
      <trkpt lat="51.752027" lon="-124.67281799">
      </trkpt>
      <trkpt lat="51.752111" lon="-124.672931">
      </trkpt>
      <trkpt lat="51.752328" lon="-124.673114">
      </trkpt>
      <trkpt lat="51.752382" lon="-124.67320099">
      </trkpt>
      <trkpt lat="51.752549" lon="-124.673386">
      </trkpt>
      <trkpt lat="51.752737" lon="-124.673523">
      </trkpt>
      <trkpt lat="51.752861" lon="-124.67358799">
      </trkpt>
      <trkpt lat="51.752899" lon="-124.673622">
      </trkpt>
      <trkpt lat="51.75296" lon="-124.673645">
      </trkpt>
      <trkpt lat="51.753002" lon="-124.673677">
      </trkpt>
      <trkpt lat="51.753087" lon="-124.673715">
      </trkpt>
      <trkpt lat="51.753218" lon="-124.673713">
      </trkpt>
      <trkpt lat="51.753264" lon="-124.673693">
      </trkpt>
      <trkpt lat="51.753315" lon="-124.673692">
      </trkpt>
      <trkpt lat="51.7534" lon="-124.673655">
      </trkpt>
      <trkpt lat="51.753615" lon="-124.673489">
      </trkpt>
      <trkpt lat="51.753691" lon="-124.67341401">
      </trkpt>
      <trkpt lat="51.753715" lon="-124.67336499">
      </trkpt>
      <trkpt lat="51.753747" lon="-124.673342">
      </trkpt>
      <trkpt lat="51.753807" lon="-124.673319">
      </trkpt>
      <trkpt lat="51.753872" lon="-124.67330899">
      </trkpt>
      <trkpt lat="51.754049" lon="-124.6733">
      </trkpt>
      <trkpt lat="51.75433" lon="-124.673163">
      </trkpt>
      <trkpt lat="51.754401" lon="-124.6731">
      </trkpt>
      <trkpt lat="51.754584" lon="-124.672985">
      </trkpt>
      <trkpt lat="51.754667" lon="-124.672954">
      </trkpt>
      <trkpt lat="51.754697" lon="-124.67296701">
      </trkpt>
      <trkpt lat="51.754778" lon="-124.672904">
      </trkpt>
      <trkpt lat="51.754815" lon="-124.67285899">
      </trkpt>
      <trkpt lat="51.754851" lon="-124.67284701">
      </trkpt>
      <trkpt lat="51.755027" lon="-124.672854">
      </trkpt>
      <trkpt lat="51.755184" lon="-124.67290701">
      </trkpt>
      <trkpt lat="51.755224" lon="-124.672897">
      </trkpt>
      <trkpt lat="51.755324" lon="-124.67295401">
      </trkpt>
      <trkpt lat="51.755405" lon="-124.672975">
      </trkpt>
      <trkpt lat="51.755458" lon="-124.67300401">
      </trkpt>
      <trkpt lat="51.755581" lon="-124.673008">
      </trkpt>
      <trkpt lat="51.755627" lon="-124.67299399">
      </trkpt>
      <trkpt lat="51.755667" lon="-124.672931">
      </trkpt>
      <trkpt lat="51.755771" lon="-124.67284801">
      </trkpt>
      <trkpt lat="51.755841" lon="-124.672771">
      </trkpt>
      <trkpt lat="51.755924" lon="-124.672747">
      </trkpt>
      <trkpt lat="51.755967" lon="-124.67270101">
      </trkpt>
      <trkpt lat="51.756061" lon="-124.672647">
      </trkpt>
      <trkpt lat="51.756115" lon="-124.672635">
      </trkpt>
      <trkpt lat="51.75621" lon="-124.672591">
      </trkpt>
      <trkpt lat="51.756318" lon="-124.672525">
      </trkpt>
      <trkpt lat="51.756345" lon="-124.672492">
      </trkpt>
      <trkpt lat="51.756488" lon="-124.67241">
      </trkpt>
      <trkpt lat="51.756622" lon="-124.672348">
      </trkpt>
      <trkpt lat="51.756747" lon="-124.672219">
      </trkpt>
      <trkpt lat="51.756834" lon="-124.67214501">
      </trkpt>
      <trkpt lat="51.756859" lon="-124.672095">
      </trkpt>
      <trkpt lat="51.756935" lon="-124.67199699">
      </trkpt>
      <trkpt lat="51.757022" lon="-124.671926">
      </trkpt>
      <trkpt lat="51.757052" lon="-124.671886">
      </trkpt>
      <trkpt lat="51.757102" lon="-124.671857">
      </trkpt>
      <trkpt lat="51.757141" lon="-124.67181">
      </trkpt>
      <trkpt lat="51.757244" lon="-124.67174601">
      </trkpt>
      <trkpt lat="51.757276" lon="-124.67173599">
      </trkpt>
      <trkpt lat="51.757338" lon="-124.67169">
      </trkpt>
      <trkpt lat="51.757414" lon="-124.671675">
      </trkpt>
      <trkpt lat="51.757642" lon="-124.67156699">
      </trkpt>
      <trkpt lat="51.757723" lon="-124.671562">
      </trkpt>
      <trkpt lat="51.757799" lon="-124.671529">
      </trkpt>
      <trkpt lat="51.757839" lon="-124.6715">
      </trkpt>
      <trkpt lat="51.757894" lon="-124.67149101">
      </trkpt>
      <trkpt lat="51.757979" lon="-124.671448">
      </trkpt>
      <trkpt lat="51.75809" lon="-124.671362">
      </trkpt>
      <trkpt lat="51.758106" lon="-124.671329">
      </trkpt>
      <trkpt lat="51.758188" lon="-124.67126901">
      </trkpt>
      <trkpt lat="51.758243" lon="-124.67116001">
      </trkpt>
      <trkpt lat="51.758279" lon="-124.671124">
      </trkpt>
      <trkpt lat="51.758416" lon="-124.671022">
      </trkpt>
      <trkpt lat="51.758573" lon="-124.67092399">
      </trkpt>
      <trkpt lat="51.758646" lon="-124.670865">
      </trkpt>
      <trkpt lat="51.758792" lon="-124.67070899">
      </trkpt>
      <trkpt lat="51.758935" lon="-124.67058801">
      </trkpt>
      <trkpt lat="51.759036" lon="-124.670518">
      </trkpt>
      <trkpt lat="51.759105" lon="-124.67045401">
      </trkpt>
      <trkpt lat="51.759249" lon="-124.670262">
      </trkpt>
      <trkpt lat="51.759436" lon="-124.669911">
      </trkpt>
      <trkpt lat="51.759495" lon="-124.66983801">
      </trkpt>
      <trkpt lat="51.759711" lon="-124.669501">
      </trkpt>
      <trkpt lat="51.759922" lon="-124.66933201">
      </trkpt>
      <trkpt lat="51.760034" lon="-124.669299">
      </trkpt>
      <trkpt lat="51.760039" lon="-124.669388">
      </trkpt>
      <trkpt lat="51.759947" lon="-124.66972501">
      </trkpt>
      <trkpt lat="51.759917" lon="-124.669949">
      </trkpt>
      <trkpt lat="51.759889" lon="-124.670295">
      </trkpt>
      <trkpt lat="51.759799" lon="-124.67073401">
      </trkpt>
      <trkpt lat="51.759775" lon="-124.67098101">
      </trkpt>
      <trkpt lat="51.759619" lon="-124.671492">
      </trkpt>
      <trkpt lat="51.759545" lon="-124.671785">
      </trkpt>
      <trkpt lat="51.759408" lon="-124.672228">
      </trkpt>
      <trkpt lat="51.759325" lon="-124.672432">
      </trkpt>
      <trkpt lat="51.759098" lon="-124.672883">
      </trkpt>
      <trkpt lat="51.758953" lon="-124.673207">
      </trkpt>
      <trkpt lat="51.758803" lon="-124.67369299">
      </trkpt>
      <trkpt lat="51.75867" lon="-124.67416899">
      </trkpt>
      <trkpt lat="51.758614" lon="-124.674321">
      </trkpt>
      <trkpt lat="51.758549" lon="-124.674544">
      </trkpt>
      <trkpt lat="51.758339" lon="-124.67513201">
      </trkpt>
      <trkpt lat="51.758317" lon="-124.675261">
      </trkpt>
      <trkpt lat="51.758257" lon="-124.675432">
      </trkpt>
      <trkpt lat="51.758211" lon="-124.675608">
      </trkpt>
      <trkpt lat="51.758112" lon="-124.67586299">
      </trkpt>
      <trkpt lat="51.758002" lon="-124.67603001">
      </trkpt>
      <trkpt lat="51.757884" lon="-124.676139">
      </trkpt>
      <trkpt lat="51.757868" lon="-124.676181">
      </trkpt>
      <trkpt lat="51.757901" lon="-124.676288">
      </trkpt>
      <trkpt lat="51.757942" lon="-124.676296">
      </trkpt>
      <trkpt lat="51.757977" lon="-124.67628">
      </trkpt>
      <trkpt lat="51.758106" lon="-124.676252">
      </trkpt>
      <trkpt lat="51.758382" lon="-124.676149">
      </trkpt>
      <trkpt lat="51.758599" lon="-124.676125">
      </trkpt>
      <trkpt lat="51.75886" lon="-124.675996">
      </trkpt>
      <trkpt lat="51.759036" lon="-124.676002">
      </trkpt>
      <trkpt lat="51.759261" lon="-124.675909">
      </trkpt>
      <trkpt lat="51.759379" lon="-124.675883">
      </trkpt>
      <trkpt lat="51.759487" lon="-124.675823">
      </trkpt>
      <trkpt lat="51.75965" lon="-124.675785">
      </trkpt>
      <trkpt lat="51.759684" lon="-124.67576699">
      </trkpt>
      <trkpt lat="51.759782" lon="-124.675685">
      </trkpt>
      <trkpt lat="51.759852" lon="-124.675645">
      </trkpt>
      <trkpt lat="51.759882" lon="-124.67564">
      </trkpt>
      <trkpt lat="51.759949" lon="-124.67565499">
      </trkpt>
      <trkpt lat="51.760118" lon="-124.67565701">
      </trkpt>
      <trkpt lat="51.760273" lon="-124.675698">
      </trkpt>
      <trkpt lat="51.760359" lon="-124.67573399">
      </trkpt>
      <trkpt lat="51.760414" lon="-124.675739">
      </trkpt>
      <trkpt lat="51.760451" lon="-124.67571999">
      </trkpt>
      <trkpt lat="51.760571" lon="-124.675693">
      </trkpt>
      <trkpt lat="51.760619" lon="-124.675697">
      </trkpt>
      <trkpt lat="51.760672" lon="-124.67572">
      </trkpt>
      <trkpt lat="51.760743" lon="-124.675778">
      </trkpt>
      <trkpt lat="51.760891" lon="-124.675929">
      </trkpt>
      <trkpt lat="51.760969" lon="-124.67596399">
      </trkpt>
      <trkpt lat="51.761034" lon="-124.67592199">
      </trkpt>
      <trkpt lat="51.761144" lon="-124.67582001">
      </trkpt>
      <trkpt lat="51.761178" lon="-124.675803">
      </trkpt>
      <trkpt lat="51.761296" lon="-124.67581999">
      </trkpt>
      <trkpt lat="51.761337" lon="-124.675811">
      </trkpt>
      <trkpt lat="51.761528" lon="-124.675726">
      </trkpt>
      <trkpt lat="51.761748" lon="-124.675647">
      </trkpt>
      <trkpt lat="51.761845" lon="-124.675638">
      </trkpt>
      <trkpt lat="51.762031" lon="-124.675642">
      </trkpt>
      <trkpt lat="51.762316" lon="-124.67568699">
      </trkpt>
      <trkpt lat="51.762453" lon="-124.675723">
      </trkpt>
      <trkpt lat="51.762635" lon="-124.675808">
      </trkpt>
      <trkpt lat="51.762775" lon="-124.675846">
      </trkpt>
      <trkpt lat="51.763067" lon="-124.675977">
      </trkpt>
      <trkpt lat="51.763228" lon="-124.675966">
      </trkpt>
      <trkpt lat="51.763315" lon="-124.675971">
      </trkpt>
      <trkpt lat="51.763399" lon="-124.675993">
      </trkpt>
      <trkpt lat="51.763439" lon="-124.67599099">
      </trkpt>
      <trkpt lat="51.763499" lon="-124.67597901">
      </trkpt>
      <trkpt lat="51.763615" lon="-124.675928">
      </trkpt>
      <trkpt lat="51.763727" lon="-124.67592">
      </trkpt>
      <trkpt lat="51.76379" lon="-124.675904">
      </trkpt>
      <trkpt lat="51.763909" lon="-124.675935">
      </trkpt>
      <trkpt lat="51.763983" lon="-124.675971">
      </trkpt>
      <trkpt lat="51.764046" lon="-124.67602599">
      </trkpt>
      <trkpt lat="51.764123" lon="-124.67612901">
      </trkpt>
      <trkpt lat="51.764199" lon="-124.676263">
      </trkpt>
      <trkpt lat="51.764207" lon="-124.67630501">
      </trkpt>
      <trkpt lat="51.764171" lon="-124.676584">
      </trkpt>
      <trkpt lat="51.764172" lon="-124.676717">
      </trkpt>
      <trkpt lat="51.764237" lon="-124.677004">
      </trkpt>
      <trkpt lat="51.764241" lon="-124.677065">
      </trkpt>
      <trkpt lat="51.764226" lon="-124.677176">
      </trkpt>
      <trkpt lat="51.764151" lon="-124.677314">
      </trkpt>
      <trkpt lat="51.764136" lon="-124.677363">
      </trkpt>
      <trkpt lat="51.764108" lon="-124.67753101">
      </trkpt>
      <trkpt lat="51.764111" lon="-124.677653">
      </trkpt>
      <trkpt lat="51.764134" lon="-124.67777501">
      </trkpt>
      <trkpt lat="51.764156" lon="-124.677826">
      </trkpt>
      <trkpt lat="51.764269" lon="-124.67801">
      </trkpt>
      <trkpt lat="51.764292" lon="-124.678068">
      </trkpt>
      <trkpt lat="51.764312" lon="-124.678234">
      </trkpt>
      <trkpt lat="51.764267" lon="-124.678429">
      </trkpt>
      <trkpt lat="51.764251" lon="-124.678555">
      </trkpt>
      <trkpt lat="51.764156" lon="-124.678941">
      </trkpt>
      <trkpt lat="51.764142" lon="-124.67917899">
      </trkpt>
      <trkpt lat="51.764126" lon="-124.67928301">
      </trkpt>
      <trkpt lat="51.764054" lon="-124.67950899">
      </trkpt>
      <trkpt lat="51.763971" lon="-124.67989899">
      </trkpt>
      <trkpt lat="51.763867" lon="-124.68021">
      </trkpt>
      <trkpt lat="51.763859" lon="-124.680368">
      </trkpt>
      <trkpt lat="51.763867" lon="-124.680422">
      </trkpt>
      <trkpt lat="51.763889" lon="-124.680473">
      </trkpt>
      <trkpt lat="51.763919" lon="-124.680509">
      </trkpt>
      <trkpt lat="51.764111" lon="-124.680663">
      </trkpt>
      <trkpt lat="51.764343" lon="-124.68079701">
      </trkpt>
      <trkpt lat="51.764391" lon="-124.680863">
      </trkpt>
      <trkpt lat="51.764401" lon="-124.68096">
      </trkpt>
      <trkpt lat="51.764385" lon="-124.681065">
      </trkpt>
      <trkpt lat="51.764312" lon="-124.681344">
      </trkpt>
      <trkpt lat="51.764147" lon="-124.681783">
      </trkpt>
      <trkpt lat="51.764098" lon="-124.68215">
      </trkpt>
      <trkpt lat="51.764008" lon="-124.68258301">
      </trkpt>
      <trkpt lat="51.764018" lon="-124.682722">
      </trkpt>
      <trkpt lat="51.764109" lon="-124.683016">
      </trkpt>
      <trkpt lat="51.764111" lon="-124.683407">
      </trkpt>
      <trkpt lat="51.764095" lon="-124.683631">
      </trkpt>
      <trkpt lat="51.764089" lon="-124.683947">
      </trkpt>
      <trkpt lat="51.764056" lon="-124.68416">
      </trkpt>
      <trkpt lat="51.76399" lon="-124.68433301">
      </trkpt>
      <trkpt lat="51.763957" lon="-124.684676">
      </trkpt>
      <trkpt lat="51.764001" lon="-124.684907">
      </trkpt>
      <trkpt lat="51.764098" lon="-124.685118">
      </trkpt>
      <trkpt lat="51.764125" lon="-124.68524101">
      </trkpt>
      <trkpt lat="51.764168" lon="-124.685359">
      </trkpt>
      <trkpt lat="51.764228" lon="-124.685429">
      </trkpt>
      <trkpt lat="51.764302" lon="-124.68548">
      </trkpt>
      <trkpt lat="51.764359" lon="-124.68556399">
      </trkpt>
      <trkpt lat="51.764419" lon="-124.685841">
      </trkpt>
      <trkpt lat="51.764553" lon="-124.68612699">
      </trkpt>
      <trkpt lat="51.764586" lon="-124.68625801">
      </trkpt>
      <trkpt lat="51.764593" lon="-124.686336">
      </trkpt>
      <trkpt lat="51.764578" lon="-124.68679999">
      </trkpt>
      <trkpt lat="51.764547" lon="-124.686949">
      </trkpt>
      <trkpt lat="51.7645" lon="-124.68709299">
      </trkpt>
      <trkpt lat="51.764294" lon="-124.68752199">
      </trkpt>
      <trkpt lat="51.764174" lon="-124.687838">
      </trkpt>
      <trkpt lat="51.764101" lon="-124.68798699">
      </trkpt>
      <trkpt lat="51.764009" lon="-124.688114">
      </trkpt>
      <trkpt lat="51.763936" lon="-124.68818899">
      </trkpt>
      <trkpt lat="51.763809" lon="-124.68829">
      </trkpt>
      <trkpt lat="51.763723" lon="-124.688405">
      </trkpt>
      <trkpt lat="51.763691" lon="-124.68848">
      </trkpt>
      <trkpt lat="51.763633" lon="-124.68875799">
      </trkpt>
      <trkpt lat="51.763632" lon="-124.688854">
      </trkpt>
      <trkpt lat="51.763647" lon="-124.688985">
      </trkpt>
      <trkpt lat="51.763638" lon="-124.689088">
      </trkpt>
      <trkpt lat="51.763658" lon="-124.689115">
      </trkpt>
      <trkpt lat="51.763669" lon="-124.689158">
      </trkpt>
      <trkpt lat="51.763696" lon="-124.689362">
      </trkpt>
      <trkpt lat="51.763698" lon="-124.689453">
      </trkpt>
      <trkpt lat="51.763685" lon="-124.68954701">
      </trkpt>
      <trkpt lat="51.763635" lon="-124.68973599">
      </trkpt>
      <trkpt lat="51.763531" lon="-124.689927">
      </trkpt>
      <trkpt lat="51.76347" lon="-124.690151">
      </trkpt>
      <trkpt lat="51.763366" lon="-124.69037101">
      </trkpt>
      <trkpt lat="51.763346" lon="-124.690432">
      </trkpt>
      <trkpt lat="51.763316" lon="-124.690621">
      </trkpt>
      <trkpt lat="51.763316" lon="-124.690827">
      </trkpt>
      <trkpt lat="51.763352" lon="-124.690997">
      </trkpt>
      <trkpt lat="51.763401" lon="-124.691149">
      </trkpt>
      <trkpt lat="51.763448" lon="-124.69139899">
      </trkpt>
      <trkpt lat="51.763454" lon="-124.69153699">
      </trkpt>
      <trkpt lat="51.763441" lon="-124.69182701">
      </trkpt>
      <trkpt lat="51.763468" lon="-124.692194">
      </trkpt>
      <trkpt lat="51.763563" lon="-124.692518">
      </trkpt>
      <trkpt lat="51.763598" lon="-124.69273299">
      </trkpt>
      <trkpt lat="51.763602" lon="-124.692888">
      </trkpt>
      <trkpt lat="51.763591" lon="-124.693224">
      </trkpt>
      <trkpt lat="51.76361" lon="-124.693465">
      </trkpt>
      <trkpt lat="51.763665" lon="-124.693768">
      </trkpt>
      <trkpt lat="51.763719" lon="-124.69398601">
      </trkpt>
      <trkpt lat="51.763809" lon="-124.694272">
      </trkpt>
      <trkpt lat="51.763837" lon="-124.69441401">
      </trkpt>
      <trkpt lat="51.763842" lon="-124.69455199">
      </trkpt>
      <trkpt lat="51.763774" lon="-124.694771">
      </trkpt>
      <trkpt lat="51.763746" lon="-124.694916">
      </trkpt>
      <trkpt lat="51.763758" lon="-124.695047">
      </trkpt>
      <trkpt lat="51.763818" lon="-124.695243">
      </trkpt>
      <trkpt lat="51.763858" lon="-124.69545799">
      </trkpt>
      <trkpt lat="51.76388" lon="-124.69552501">
      </trkpt>
      <trkpt lat="51.764029" lon="-124.69583301">
      </trkpt>
      <trkpt lat="51.764094" lon="-124.696057">
      </trkpt>
      <trkpt lat="51.764178" lon="-124.696292">
      </trkpt>
      <trkpt lat="51.764237" lon="-124.696415">
      </trkpt>
      <trkpt lat="51.764362" lon="-124.696619">
      </trkpt>
      <trkpt lat="51.764384" lon="-124.696676">
      </trkpt>
      <trkpt lat="51.764395" lon="-124.696732">
      </trkpt>
      <trkpt lat="51.764392" lon="-124.696876">
      </trkpt>
      <trkpt lat="51.764353" lon="-124.69703499">
      </trkpt>
      <trkpt lat="51.764258" lon="-124.697258">
      </trkpt>
      <trkpt lat="51.764112" lon="-124.697524">
      </trkpt>
      <trkpt lat="51.764051" lon="-124.697662">
      </trkpt>
      <trkpt lat="51.763976" lon="-124.697866">
      </trkpt>
      <trkpt lat="51.763886" lon="-124.698214">
      </trkpt>
      <trkpt lat="51.763842" lon="-124.698309">
      </trkpt>
      <trkpt lat="51.763785" lon="-124.69839899">
      </trkpt>
      <trkpt lat="51.763621" lon="-124.69855399">
      </trkpt>
      <trkpt lat="51.763455" lon="-124.69876201">
      </trkpt>
      <trkpt lat="51.76329" lon="-124.69892001">
      </trkpt>
      <trkpt lat="51.76323" lon="-124.69902">
      </trkpt>
      <trkpt lat="51.76321" lon="-124.699085">
      </trkpt>
      <trkpt lat="51.763205" lon="-124.69941299">
      </trkpt>
      <trkpt lat="51.763181" lon="-124.699554">
      </trkpt>
      <trkpt lat="51.763158" lon="-124.699618">
      </trkpt>
      <trkpt lat="51.76313" lon="-124.69967699">
      </trkpt>
      <trkpt lat="51.763062" lon="-124.699777">
      </trkpt>
      <trkpt lat="51.762932" lon="-124.699903">
      </trkpt>
      <trkpt lat="51.762784" lon="-124.70007999">
      </trkpt>
      <trkpt lat="51.762657" lon="-124.700276">
      </trkpt>
      <trkpt lat="51.762564" lon="-124.700493">
      </trkpt>
      <trkpt lat="51.762527" lon="-124.70069">
      </trkpt>
      <trkpt lat="51.762524" lon="-124.700834">
      </trkpt>
      <trkpt lat="51.762551" lon="-124.70104499">
      </trkpt>
      <trkpt lat="51.76261" lon="-124.701288">
      </trkpt>
      <trkpt lat="51.762677" lon="-124.701489">
      </trkpt>
      <trkpt lat="51.762737" lon="-124.701608">
      </trkpt>
      <trkpt lat="51.7628" lon="-124.701693">
      </trkpt>
      <trkpt lat="51.763102" lon="-124.701911">
      </trkpt>
      <trkpt lat="51.763279" lon="-124.702081">
      </trkpt>
      <trkpt lat="51.763404" lon="-124.702094">
      </trkpt>
      <trkpt lat="51.763484" lon="-124.702079">
      </trkpt>
      <trkpt lat="51.763538" lon="-124.70208599">
      </trkpt>
      <trkpt lat="51.763576" lon="-124.702108">
      </trkpt>
      <trkpt lat="51.763648" lon="-124.702196">
      </trkpt>
      <trkpt lat="51.763684" lon="-124.702214">
      </trkpt>
      <trkpt lat="51.763764" lon="-124.70221501">
      </trkpt>
      <trkpt lat="51.763988" lon="-124.702177">
      </trkpt>
      <trkpt lat="51.764119" lon="-124.702127">
      </trkpt>
      <trkpt lat="51.764233" lon="-124.70210701">
      </trkpt>
      <trkpt lat="51.764311" lon="-124.702076">
      </trkpt>
      <trkpt lat="51.764457" lon="-124.70199501">
      </trkpt>
      <trkpt lat="51.764523" lon="-124.701991">
      </trkpt>
      <trkpt lat="51.764553" lon="-124.70199799">
      </trkpt>
      <trkpt lat="51.764581" lon="-124.70202001">
      </trkpt>
      <trkpt lat="51.764682" lon="-124.702122">
      </trkpt>
      <trkpt lat="51.764766" lon="-124.702162">
      </trkpt>
      <trkpt lat="51.764889" lon="-124.702183">
      </trkpt>
      <trkpt lat="51.764929" lon="-124.702212">
      </trkpt>
      <trkpt lat="51.76497" lon="-124.70234501">
      </trkpt>
      <trkpt lat="51.764964" lon="-124.70239899">
      </trkpt>
      <trkpt lat="51.764981" lon="-124.702468">
      </trkpt>
      <trkpt lat="51.765081" lon="-124.702721">
      </trkpt>
      <trkpt lat="51.765179" lon="-124.70287601">
      </trkpt>
      <trkpt lat="51.765277" lon="-124.70315999">
      </trkpt>
    </trkseg>
  </trk>
</gpx>