<?xml version="1.0" encoding="UTF-8"?>
<gpx xmlns="http://www.topografix.com/GPX/1/1" xmlns:xsi="http://www.w3.org/2001/XMLSchema-instance" xsi:schemaLocation="http://www.topografix.com/GPX/1/1 http://www.topografix.com/GPX/1/1/gpx.xsd" version="1.1" creator="gpx.py -- https://github.com/tkrajina/gpxpy">
  <trk>
    <name>99 Mile Snowshoe Trails</name>
    <trkseg>
      <trkpt lat="51.61965037" lon="-121.3144381">
      </trkpt>
      <trkpt lat="51.61968517" lon="-121.31449429">
      </trkpt>
      <trkpt lat="51.61973176" lon="-121.31462475">
      </trkpt>
      <trkpt lat="51.61978326" lon="-121.31472343">
      </trkpt>
      <trkpt lat="51.61982679" lon="-121.31476491">
      </trkpt>
      <trkpt lat="51.61987739" lon="-121.31480039">
      </trkpt>
      <trkpt lat="51.61992912" lon="-121.31478987">
      </trkpt>
      <trkpt lat="51.61997657" lon="-121.31473062">
      </trkpt>
      <trkpt lat="51.62001162" lon="-121.31469704">
      </trkpt>
      <trkpt lat="51.62004213" lon="-121.31457476">
      </trkpt>
      <trkpt lat="51.62007959" lon="-121.31459126">
      </trkpt>
      <trkpt lat="51.62018203" lon="-121.31462186">
      </trkpt>
      <trkpt lat="51.62028093" lon="-121.31466343">
      </trkpt>
      <trkpt lat="51.62045251" lon="-121.3146879">
      </trkpt>
      <trkpt lat="51.62048302" lon="-121.31468648">
      </trkpt>
      <trkpt lat="51.62056256" lon="-121.31472504">
      </trkpt>
      <trkpt lat="51.62058821" lon="-121.31471933">
      </trkpt>
      <trkpt lat="51.62064018" lon="-121.3146346">
      </trkpt>
      <trkpt lat="51.62070715" lon="-121.31460778">
      </trkpt>
      <trkpt lat="51.62075686" lon="-121.31463024">
      </trkpt>
      <trkpt lat="51.62088032" lon="-121.31451122">
      </trkpt>
      <trkpt lat="51.620897" lon="-121.31445874">
      </trkpt>
      <trkpt lat="51.6209219" lon="-121.31442329">
      </trkpt>
      <trkpt lat="51.6208581" lon="-121.31431122">
      </trkpt>
      <trkpt lat="51.62083288" lon="-121.31425196">
      </trkpt>
      <trkpt lat="51.62087269" lon="-121.31409673">
      </trkpt>
      <trkpt lat="51.62090781" lon="-121.31400906">
      </trkpt>
      <trkpt lat="51.62095835" lon="-121.31398474">
      </trkpt>
      <trkpt lat="51.62099289" lon="-121.31399749">
      </trkpt>
      <trkpt lat="51.6211415" lon="-121.31405272">
      </trkpt>
      <trkpt lat="51.62126136" lon="-121.31412715">
      </trkpt>
      <trkpt lat="51.62126982" lon="-121.31412874">
      </trkpt>
      <trkpt lat="51.62143043" lon="-121.31424181">
      </trkpt>
      <trkpt lat="51.62144048" lon="-121.31434701">
      </trkpt>
      <trkpt lat="51.62144383" lon="-121.3144077">
      </trkpt>
      <trkpt lat="51.62149597" lon="-121.31446838">
      </trkpt>
      <trkpt lat="51.62166596" lon="-121.31455354">
      </trkpt>
      <trkpt lat="51.62171633" lon="-121.31456939">
      </trkpt>
      <trkpt lat="51.6217496" lon="-121.31460116">
      </trkpt>
      <trkpt lat="51.62176813" lon="-121.31460442">
      </trkpt>
      <trkpt lat="51.62179361" lon="-121.314562">
      </trkpt>
      <trkpt lat="51.62183745" lon="-121.31459151">
      </trkpt>
      <trkpt lat="51.62188917" lon="-121.31461482">
      </trkpt>
      <trkpt lat="51.62193208" lon="-121.31467089">
      </trkpt>
      <trkpt lat="51.62197298" lon="-121.31476946">
      </trkpt>
      <trkpt lat="51.62207935" lon="-121.3148449">
      </trkpt>
      <trkpt lat="51.62207223" lon="-121.31494666">
      </trkpt>
      <trkpt lat="51.62213333" lon="-121.31507087">
      </trkpt>
      <trkpt lat="51.62221405" lon="-121.3151749">
      </trkpt>
      <trkpt lat="51.62230516" lon="-121.31525552">
      </trkpt>
      <trkpt lat="51.6223127" lon="-121.31530733">
      </trkpt>
      <trkpt lat="51.6223562" lon="-121.31533247">
      </trkpt>
      <trkpt lat="51.62243483" lon="-121.31539676">
      </trkpt>
      <trkpt lat="51.6225163" lon="-121.31546499">
      </trkpt>
      <trkpt lat="51.62258863" lon="-121.31555896">
      </trkpt>
      <trkpt lat="51.62260137" lon="-121.31565342">
      </trkpt>
      <trkpt lat="51.62262032" lon="-121.31568913">
      </trkpt>
      <trkpt lat="51.62257296" lon="-121.31571058">
      </trkpt>
      <trkpt lat="51.62256474" lon="-121.31580454">
      </trkpt>
      <trkpt lat="51.62254086" lon="-121.31593203">
      </trkpt>
      <trkpt lat="51.62252778" lon="-121.31605064">
      </trkpt>
      <trkpt lat="51.62259827" lon="-121.31612808">
      </trkpt>
      <trkpt lat="51.62261286" lon="-121.31615013">
      </trkpt>
      <trkpt lat="51.62267137" lon="-121.31621818">
      </trkpt>
      <trkpt lat="51.62266609" lon="-121.31633386">
      </trkpt>
      <trkpt lat="51.62272433" lon="-121.31642154">
      </trkpt>
      <trkpt lat="51.62277111" lon="-121.31647191">
      </trkpt>
      <trkpt lat="51.6228701" lon="-121.31660996">
      </trkpt>
      <trkpt lat="51.62292333" lon="-121.31665406">
      </trkpt>
      <trkpt lat="51.62297387" lon="-121.31671314">
      </trkpt>
      <trkpt lat="51.62300354" lon="-121.31676636">
      </trkpt>
      <trkpt lat="51.623021" lon="-121.31683459">
      </trkpt>
      <trkpt lat="51.62303777" lon="-121.31689311">
      </trkpt>
      <trkpt lat="51.62305605" lon="-121.31692696">
      </trkpt>
      <trkpt lat="51.62308685" lon="-121.31695559">
      </trkpt>
      <trkpt lat="51.62312745" lon="-121.31699577">
      </trkpt>
      <trkpt lat="51.62315075" lon="-121.31706993">
      </trkpt>
      <trkpt lat="51.62314126" lon="-121.3171834">
      </trkpt>
      <trkpt lat="51.62314245" lon="-121.31742151">
      </trkpt>
      <trkpt lat="51.62315096" lon="-121.3175498">
      </trkpt>
      <trkpt lat="51.6232399" lon="-121.31780848">
      </trkpt>
      <trkpt lat="51.62328538" lon="-121.31793064">
      </trkpt>
      <trkpt lat="51.62328681" lon="-121.31797822">
      </trkpt>
      <trkpt lat="51.62329032" lon="-121.31806858">
      </trkpt>
      <trkpt lat="51.62329574" lon="-121.31813626">
      </trkpt>
      <trkpt lat="51.62331898" lon="-121.31820684">
      </trkpt>
      <trkpt lat="51.6233438" lon="-121.31828334">
      </trkpt>
      <trkpt lat="51.62337162" lon="-121.31836209">
      </trkpt>
      <trkpt lat="51.62335614" lon="-121.31841982">
      </trkpt>
      <trkpt lat="51.62331771" lon="-121.31853198">
      </trkpt>
      <trkpt lat="51.62327008" lon="-121.31862187">
      </trkpt>
      <trkpt lat="51.6232401" lon="-121.31865036">
      </trkpt>
      <trkpt lat="51.62322802" lon="-121.31868652">
      </trkpt>
      <trkpt lat="51.62323301" lon="-121.31872445">
      </trkpt>
      <trkpt lat="51.62323533" lon="-121.31883511">
      </trkpt>
      <trkpt lat="51.62322539" lon="-121.31886525">
      </trkpt>
      <trkpt lat="51.62319154" lon="-121.31898557">
      </trkpt>
      <trkpt lat="51.62315283" lon="-121.31907751">
      </trkpt>
      <trkpt lat="51.62307645" lon="-121.31912677">
      </trkpt>
      <trkpt lat="51.62304943" lon="-121.31920636">
      </trkpt>
      <trkpt lat="51.62295013" lon="-121.31941484">
      </trkpt>
      <trkpt lat="51.62289145" lon="-121.31950989">
      </trkpt>
      <trkpt lat="51.62283711" lon="-121.31964883">
      </trkpt>
      <trkpt lat="51.62278587" lon="-121.31984959">
      </trkpt>
      <trkpt lat="51.62279681" lon="-121.31999208">
      </trkpt>
      <trkpt lat="51.62276621" lon="-121.32018492">
      </trkpt>
      <trkpt lat="51.62277607" lon="-121.32030363">
      </trkpt>
      <trkpt lat="51.62276107" lon="-121.32055068">
      </trkpt>
      <trkpt lat="51.62273654" lon="-121.32085641">
      </trkpt>
      <trkpt lat="51.62271768" lon="-121.3211441">
      </trkpt>
      <trkpt lat="51.62274531" lon="-121.32136575">
      </trkpt>
      <trkpt lat="51.62274819" lon="-121.32141207">
      </trkpt>
      <trkpt lat="51.62274772" lon="-121.32153474">
      </trkpt>
      <trkpt lat="51.62275058" lon="-121.32163109">
      </trkpt>
      <trkpt lat="51.6227328" lon="-121.32173534">
      </trkpt>
      <trkpt lat="51.62273556" lon="-121.32182455">
      </trkpt>
      <trkpt lat="51.62272757" lon="-121.32193915">
      </trkpt>
      <trkpt lat="51.62275029" lon="-121.32207764">
      </trkpt>
      <trkpt lat="51.62276505" lon="-121.32217712">
      </trkpt>
      <trkpt lat="51.62275927" lon="-121.32249766">
      </trkpt>
      <trkpt lat="51.62284218" lon="-121.32269822">
      </trkpt>
      <trkpt lat="51.62299576" lon="-121.3230724">
      </trkpt>
      <trkpt lat="51.62311097" lon="-121.32345874">
      </trkpt>
      <trkpt lat="51.62317196" lon="-121.32357676">
      </trkpt>
      <trkpt lat="51.6231962" lon="-121.32361278">
      </trkpt>
      <trkpt lat="51.62327318" lon="-121.32376237">
      </trkpt>
      <trkpt lat="51.62330748" lon="-121.32382778">
      </trkpt>
      <trkpt lat="51.62340341" lon="-121.32405764">
      </trkpt>
      <trkpt lat="51.62360969" lon="-121.32459303">
      </trkpt>
      <trkpt lat="51.62367758" lon="-121.32472748">
      </trkpt>
      <trkpt lat="51.62374945" lon="-121.32488201">
      </trkpt>
      <trkpt lat="51.62383104" lon="-121.32504215">
      </trkpt>
      <trkpt lat="51.62390508" lon="-121.32519184">
      </trkpt>
      <trkpt lat="51.62394231" lon="-121.32525597">
      </trkpt>
      <trkpt lat="51.62399842" lon="-121.32534441">
      </trkpt>
      <trkpt lat="51.6240825" lon="-121.3254711">
      </trkpt>
      <trkpt lat="51.62416767" lon="-121.32557037">
      </trkpt>
      <trkpt lat="51.62420397" lon="-121.32562144">
      </trkpt>
      <trkpt lat="51.62420716" lon="-121.32565174">
      </trkpt>
      <trkpt lat="51.62420283" lon="-121.3256556">
      </trkpt>
      <trkpt lat="51.62417758" lon="-121.32571414">
      </trkpt>
      <trkpt lat="51.62410316" lon="-121.32605804">
      </trkpt>
      <trkpt lat="51.62403267" lon="-121.32619877">
      </trkpt>
      <trkpt lat="51.62393058" lon="-121.32628017">
      </trkpt>
      <trkpt lat="51.6238709" lon="-121.32645794">
      </trkpt>
      <trkpt lat="51.62385799" lon="-121.32655752">
      </trkpt>
      <trkpt lat="51.62383905" lon="-121.32688676">
      </trkpt>
      <trkpt lat="51.62386712" lon="-121.3272383">
      </trkpt>
      <trkpt lat="51.62384701" lon="-121.32755304">
      </trkpt>
      <trkpt lat="51.62382765" lon="-121.32786728">
      </trkpt>
      <trkpt lat="51.62384433" lon="-121.32802166">
      </trkpt>
      <trkpt lat="51.62384784" lon="-121.32803784">
      </trkpt>
      <trkpt lat="51.62382874" lon="-121.32826349">
      </trkpt>
      <trkpt lat="51.62384424" lon="-121.32845241">
      </trkpt>
      <trkpt lat="51.62383394" lon="-121.32850866">
      </trkpt>
      <trkpt lat="51.62384173" lon="-121.32856859">
      </trkpt>
      <trkpt lat="51.62383779" lon="-121.32892666">
      </trkpt>
      <trkpt lat="51.62375255" lon="-121.32921492">
      </trkpt>
      <trkpt lat="51.62373897" lon="-121.32922245">
      </trkpt>
      <trkpt lat="51.62346572" lon="-121.32925909">
      </trkpt>
      <trkpt lat="51.62333404" lon="-121.32933745">
      </trkpt>
      <trkpt lat="51.62326539" lon="-121.3294408">
      </trkpt>
      <trkpt lat="51.62318735" lon="-121.32964408">
      </trkpt>
      <trkpt lat="51.62318199" lon="-121.3298599">
      </trkpt>
      <trkpt lat="51.62318752" lon="-121.3299304">
      </trkpt>
      <trkpt lat="51.62322423" lon="-121.33010817">
      </trkpt>
      <trkpt lat="51.62321493" lon="-121.33022452">
      </trkpt>
      <trkpt lat="51.62321141" lon="-121.33028251">
      </trkpt>
      <trkpt lat="51.62323505" lon="-121.33046492">
      </trkpt>
      <trkpt lat="51.62316665" lon="-121.3307095">
      </trkpt>
      <trkpt lat="51.62309582" lon="-121.33087126">
      </trkpt>
      <trkpt lat="51.6230379" lon="-121.3310472">
      </trkpt>
      <trkpt lat="51.62297898" lon="-121.33120721">
      </trkpt>
      <trkpt lat="51.62289122" lon="-121.33129447">
      </trkpt>
      <trkpt lat="51.62277396" lon="-121.33139647">
      </trkpt>
      <trkpt lat="51.62266658" lon="-121.33137217">
      </trkpt>
      <trkpt lat="51.62262309" lon="-121.33130729">
      </trkpt>
      <trkpt lat="51.62254446" lon="-121.33127796">
      </trkpt>
      <trkpt lat="51.62243759" lon="-121.33115215">
      </trkpt>
      <trkpt lat="51.62238618" lon="-121.3310974">
      </trkpt>
      <trkpt lat="51.62233301" lon="-121.3310245">
      </trkpt>
      <trkpt lat="51.62225695" lon="-121.33109679">
      </trkpt>
      <trkpt lat="51.62220107" lon="-121.33110687">
      </trkpt>
      <trkpt lat="51.62217863" lon="-121.33111262">
      </trkpt>
      <trkpt lat="51.62212531" lon="-121.33116166">
      </trkpt>
      <trkpt lat="51.62205357" lon="-121.33116891">
      </trkpt>
      <trkpt lat="51.6218745" lon="-121.33118563">
      </trkpt>
      <trkpt lat="51.62184269" lon="-121.33117203">
      </trkpt>
      <trkpt lat="51.62177367" lon="-121.33108685">
      </trkpt>
      <trkpt lat="51.62169932" lon="-121.3309917">
      </trkpt>
      <trkpt lat="51.62157908" lon="-121.33086224">
      </trkpt>
      <trkpt lat="51.62147568" lon="-121.33074415">
      </trkpt>
      <trkpt lat="51.62142989" lon="-121.33047439">
      </trkpt>
      <trkpt lat="51.62133829" lon="-121.33005488">
      </trkpt>
      <trkpt lat="51.62127439" lon="-121.3298855">
      </trkpt>
      <trkpt lat="51.6211661" lon="-121.32962633">
      </trkpt>
      <trkpt lat="51.62112079" lon="-121.32951258">
      </trkpt>
      <trkpt lat="51.62111261" lon="-121.3294621">
      </trkpt>
      <trkpt lat="51.62108289" lon="-121.32939301">
      </trkpt>
      <trkpt lat="51.62106155" lon="-121.32930702">
      </trkpt>
      <trkpt lat="51.62086464" lon="-121.32883783">
      </trkpt>
      <trkpt lat="51.62085513" lon="-121.32881601">
      </trkpt>
      <trkpt lat="51.62081661" lon="-121.32861339">
      </trkpt>
      <trkpt lat="51.62079913" lon="-121.32855586">
      </trkpt>
      <trkpt lat="51.62070663" lon="-121.32843739">
      </trkpt>
      <trkpt lat="51.62062181" lon="-121.3283334">
      </trkpt>
      <trkpt lat="51.62060168" lon="-121.32829167">
      </trkpt>
      <trkpt lat="51.62054871" lon="-121.32824469">
      </trkpt>
      <trkpt lat="51.62049204" lon="-121.32822">
      </trkpt>
      <trkpt lat="51.62044266" lon="-121.32818302">
      </trkpt>
      <trkpt lat="51.62034248" lon="-121.32808976">
      </trkpt>
      <trkpt lat="51.62024151" lon="-121.32790051">
      </trkpt>
      <trkpt lat="51.6202045" lon="-121.32780401">
      </trkpt>
      <trkpt lat="51.62014746" lon="-121.32767315">
      </trkpt>
      <trkpt lat="51.62011521" lon="-121.32762818">
      </trkpt>
      <trkpt lat="51.62004664" lon="-121.32745435">
      </trkpt>
      <trkpt lat="51.62000216" lon="-121.3273175">
      </trkpt>
      <trkpt lat="51.61990745" lon="-121.32712432">
      </trkpt>
      <trkpt lat="51.61990797" lon="-121.32704029">
      </trkpt>
      <trkpt lat="51.6199568" lon="-121.32687692">
      </trkpt>
      <trkpt lat="51.61997264" lon="-121.32685879">
      </trkpt>
      <trkpt lat="51.62010441" lon="-121.32674961">
      </trkpt>
      <trkpt lat="51.62020006" lon="-121.32672671">
      </trkpt>
      <trkpt lat="51.62021785" lon="-121.32672421">
      </trkpt>
      <trkpt lat="51.62028357" lon="-121.32669778">
      </trkpt>
      <trkpt lat="51.62023791" lon="-121.32659974">
      </trkpt>
      <trkpt lat="51.62011859" lon="-121.32649426">
      </trkpt>
      <trkpt lat="51.61992851" lon="-121.32634338">
      </trkpt>
      <trkpt lat="51.61978335" lon="-121.32620007">
      </trkpt>
      <trkpt lat="51.61972252" lon="-121.326206">
      </trkpt>
      <trkpt lat="51.61967311" lon="-121.32620783">
      </trkpt>
      <trkpt lat="51.6196588" lon="-121.32621113">
      </trkpt>
      <trkpt lat="51.61965062" lon="-121.32620659">
      </trkpt>
      <trkpt lat="51.61961432" lon="-121.32619147">
      </trkpt>
      <trkpt lat="51.61953946" lon="-121.32618696">
      </trkpt>
      <trkpt lat="51.61945842" lon="-121.3261469">
      </trkpt>
      <trkpt lat="51.6194497" lon="-121.32613272">
      </trkpt>
      <trkpt lat="51.61937736" lon="-121.32610901">
      </trkpt>
      <trkpt lat="51.61930846" lon="-121.32610464">
      </trkpt>
      <trkpt lat="51.61921006" lon="-121.32610498">
      </trkpt>
      <trkpt lat="51.61909631" lon="-121.32606165">
      </trkpt>
      <trkpt lat="51.61903873" lon="-121.32601186">
      </trkpt>
      <trkpt lat="51.61898802" lon="-121.3259562">
      </trkpt>
      <trkpt lat="51.61885894" lon="-121.32596919">
      </trkpt>
      <trkpt lat="51.61883337" lon="-121.32597599">
      </trkpt>
      <trkpt lat="51.61876842" lon="-121.3259816">
      </trkpt>
      <trkpt lat="51.61872244" lon="-121.32597813">
      </trkpt>
      <trkpt lat="51.61868822" lon="-121.32595384">
      </trkpt>
      <trkpt lat="51.61861192" lon="-121.32597841">
      </trkpt>
      <trkpt lat="51.61851763" lon="-121.32594882">
      </trkpt>
      <trkpt lat="51.61832761" lon="-121.32591328">
      </trkpt>
      <trkpt lat="51.61832887" lon="-121.32590439">
      </trkpt>
      <trkpt lat="51.61831864" lon="-121.32588546">
      </trkpt>
      <trkpt lat="51.61820761" lon="-121.32574833">
      </trkpt>
      <trkpt lat="51.61817179" lon="-121.32558589">
      </trkpt>
      <trkpt lat="51.61817053" lon="-121.32556334">
      </trkpt>
      <trkpt lat="51.61815067" lon="-121.32533409">
      </trkpt>
      <trkpt lat="51.61819191" lon="-121.32515179">
      </trkpt>
      <trkpt lat="51.61824807" lon="-121.32500595">
      </trkpt>
      <trkpt lat="51.61825016" lon="-121.32498759">
      </trkpt>
      <trkpt lat="51.61825813" lon="-121.32490679">
      </trkpt>
      <trkpt lat="51.61837153" lon="-121.32469522">
      </trkpt>
      <trkpt lat="51.61840657" lon="-121.32466388">
      </trkpt>
      <trkpt lat="51.618467" lon="-121.32452994">
      </trkpt>
      <trkpt lat="51.61847681" lon="-121.32450101">
      </trkpt>
      <trkpt lat="51.61852148" lon="-121.32439122">
      </trkpt>
      <trkpt lat="51.61857286" lon="-121.32416918">
      </trkpt>
      <trkpt lat="51.61857529" lon="-121.32414689">
      </trkpt>
      <trkpt lat="51.61864269" lon="-121.32402937">
      </trkpt>
      <trkpt lat="51.61863967" lon="-121.32394798">
      </trkpt>
      <trkpt lat="51.61864947" lon="-121.32381807">
      </trkpt>
      <trkpt lat="51.61864503" lon="-121.32362377">
      </trkpt>
      <trkpt lat="51.61861721" lon="-121.32344834">
      </trkpt>
      <trkpt lat="51.61861721" lon="-121.32334867">
      </trkpt>
      <trkpt lat="51.61862676" lon="-121.32327181">
      </trkpt>
      <trkpt lat="51.61861804" lon="-121.3232336">
      </trkpt>
      <trkpt lat="51.61864503" lon="-121.32319688">
      </trkpt>
      <trkpt lat="51.61863589" lon="-121.32302329">
      </trkpt>
      <trkpt lat="51.61863036" lon="-121.32300225">
      </trkpt>
      <trkpt lat="51.6186571" lon="-121.32276621">
      </trkpt>
      <trkpt lat="51.61863698" lon="-121.32254209">
      </trkpt>
      <trkpt lat="51.61862693" lon="-121.322414">
      </trkpt>
      <trkpt lat="51.61860186" lon="-121.32227621">
      </trkpt>
      <trkpt lat="51.61860246" lon="-121.32217848">
      </trkpt>
      <trkpt lat="51.6185468" lon="-121.32201537">
      </trkpt>
      <trkpt lat="51.61844873" lon="-121.32183716">
      </trkpt>
      <trkpt lat="51.61840171" lon="-121.32171052">
      </trkpt>
      <trkpt lat="51.61843967" lon="-121.32157967">
      </trkpt>
      <trkpt lat="51.61846046" lon="-121.32153508">
      </trkpt>
      <trkpt lat="51.61851788" lon="-121.32146903">
      </trkpt>
      <trkpt lat="51.61854872" lon="-121.32140819">
      </trkpt>
      <trkpt lat="51.61858687" lon="-121.32133023">
      </trkpt>
      <trkpt lat="51.61862081" lon="-121.32117273">
      </trkpt>
      <trkpt lat="51.6186566" lon="-121.3209782">
      </trkpt>
      <trkpt lat="51.61868301" lon="-121.32090267">
      </trkpt>
      <trkpt lat="51.61873103" lon="-121.32078482">
      </trkpt>
      <trkpt lat="51.61879046" lon="-121.32070301">
      </trkpt>
      <trkpt lat="51.61888501" lon="-121.32062053">
      </trkpt>
      <trkpt lat="51.61895315" lon="-121.32042716">
      </trkpt>
      <trkpt lat="51.61894368" lon="-121.3203047">
      </trkpt>
      <trkpt lat="51.61895022" lon="-121.32022951">
      </trkpt>
      <trkpt lat="51.61893832" lon="-121.3201452">
      </trkpt>
      <trkpt lat="51.61893597" lon="-121.32014016">
      </trkpt>
      <trkpt lat="51.61893521" lon="-121.32013497">
      </trkpt>
      <trkpt lat="51.61896581" lon="-121.32007503">
      </trkpt>
      <trkpt lat="51.61901828" lon="-121.32000932">
      </trkpt>
      <trkpt lat="51.61904586" lon="-121.31988066">
      </trkpt>
      <trkpt lat="51.61904846" lon="-121.31980866">
      </trkpt>
      <trkpt lat="51.61903546" lon="-121.31968126">
      </trkpt>
      <trkpt lat="51.61905785" lon="-121.31963507">
      </trkpt>
      <trkpt lat="51.61906622" lon="-121.31956425">
      </trkpt>
      <trkpt lat="51.6190793" lon="-121.31939979">
      </trkpt>
      <trkpt lat="51.61897369" lon="-121.31925336">
      </trkpt>
      <trkpt lat="51.61896816" lon="-121.31924573">
      </trkpt>
      <trkpt lat="51.6189633" lon="-121.31911012">
      </trkpt>
      <trkpt lat="51.61898216" lon="-121.31908631">
      </trkpt>
      <trkpt lat="51.61901844" lon="-121.31894574">
      </trkpt>
      <trkpt lat="51.61905483" lon="-121.3188045">
      </trkpt>
      <trkpt lat="51.61907478" lon="-121.31875379">
      </trkpt>
      <trkpt lat="51.61917049" lon="-121.31858507">
      </trkpt>
      <trkpt lat="51.61919598" lon="-121.31834434">
      </trkpt>
      <trkpt lat="51.6192212" lon="-121.31825349">
      </trkpt>
      <trkpt lat="51.61923411" lon="-121.31820898">
      </trkpt>
      <trkpt lat="51.6192259" lon="-121.31795676">
      </trkpt>
      <trkpt lat="51.61925741" lon="-121.31779467">
      </trkpt>
      <trkpt lat="51.61931768" lon="-121.31754714">
      </trkpt>
      <trkpt lat="51.61931618" lon="-121.31745905">
      </trkpt>
      <trkpt lat="51.61934467" lon="-121.31736651">
      </trkpt>
      <trkpt lat="51.61935599" lon="-121.31732033">
      </trkpt>
      <trkpt lat="51.61935767" lon="-121.31731748">
      </trkpt>
      <trkpt lat="51.61935515" lon="-121.31719771">
      </trkpt>
      <trkpt lat="51.61949404" lon="-121.31707927">
      </trkpt>
      <trkpt lat="51.61950946" lon="-121.31708153">
      </trkpt>
      <trkpt lat="51.61954995" lon="-121.31711153">
      </trkpt>
      <trkpt lat="51.61960635" lon="-121.31716165">
      </trkpt>
      <trkpt lat="51.6196947" lon="-121.31717072">
      </trkpt>
      <trkpt lat="51.61972354" lon="-121.31714614">
      </trkpt>
      <trkpt lat="51.61981162" lon="-121.31705311">
      </trkpt>
      <trkpt lat="51.619904" lon="-121.31689629">
      </trkpt>
      <trkpt lat="51.61995873" lon="-121.31664458">
      </trkpt>
      <trkpt lat="51.62003593" lon="-121.31625121">
      </trkpt>
      <trkpt lat="51.62011748" lon="-121.31589691">
      </trkpt>
      <trkpt lat="51.62006501" lon="-121.31542786">
      </trkpt>
      <trkpt lat="51.61995034" lon="-121.31508445">
      </trkpt>
      <trkpt lat="51.61995462" lon="-121.3150381">
      </trkpt>
      <trkpt lat="51.62001162" lon="-121.31469704">
      </trkpt>
    </trkseg>
    <trkseg>
      <trkpt lat="51.62420716" lon="-121.32565174">
      </trkpt>
      <trkpt lat="51.62422446" lon="-121.32563636">
      </trkpt>
      <trkpt lat="51.62428297" lon="-121.32564259">
      </trkpt>
      <trkpt lat="51.62435639" lon="-121.32567005">
      </trkpt>
      <trkpt lat="51.62438333" lon="-121.32566823">
      </trkpt>
      <trkpt lat="51.62441976" lon="-121.32564384">
      </trkpt>
      <trkpt lat="51.62445615" lon="-121.32562284">
      </trkpt>
      <trkpt lat="51.62453461" lon="-121.32561154">
      </trkpt>
      <trkpt lat="51.62465498" lon="-121.32559868">
      </trkpt>
      <trkpt lat="51.62479852" lon="-121.32561866">
      </trkpt>
      <trkpt lat="51.624871" lon="-121.32567774">
      </trkpt>
      <trkpt lat="51.62495268" lon="-121.32577017">
      </trkpt>
      <trkpt lat="51.62502136" lon="-121.32593046">
      </trkpt>
      <trkpt lat="51.62509877" lon="-121.32609041">
      </trkpt>
      <trkpt lat="51.62517109" lon="-121.32626177">
      </trkpt>
      <trkpt lat="51.62525048" lon="-121.3264385">
      </trkpt>
      <trkpt lat="51.62533784" lon="-121.3265616">
      </trkpt>
      <trkpt lat="51.62544592" lon="-121.32666709">
      </trkpt>
      <trkpt lat="51.62556293" lon="-121.3267863">
      </trkpt>
      <trkpt lat="51.62565192" lon="-121.32690091">
      </trkpt>
      <trkpt lat="51.62577" lon="-121.32697236">
      </trkpt>
      <trkpt lat="51.62590735" lon="-121.32704871">
      </trkpt>
      <trkpt lat="51.6259936" lon="-121.32709325">
      </trkpt>
      <trkpt lat="51.62605338" lon="-121.32708598">
      </trkpt>
      <trkpt lat="51.62607559" lon="-121.32709747">
      </trkpt>
      <trkpt lat="51.62613091" lon="-121.32711206">
      </trkpt>
      <trkpt lat="51.62615086" lon="-121.32715599">
      </trkpt>
      <trkpt lat="51.62626502" lon="-121.32739009">
      </trkpt>
      <trkpt lat="51.62625429" lon="-121.32753268">
      </trkpt>
      <trkpt lat="51.62630325" lon="-121.3275973">
      </trkpt>
      <trkpt lat="51.62632956" lon="-121.32766921">
      </trkpt>
      <trkpt lat="51.62640223" lon="-121.3277724">
      </trkpt>
      <trkpt lat="51.62649577" lon="-121.32788806">
      </trkpt>
      <trkpt lat="51.62652" lon="-121.32792485">
      </trkpt>
      <trkpt lat="51.62663877" lon="-121.32811219">
      </trkpt>
      <trkpt lat="51.62676442" lon="-121.32826693">
      </trkpt>
      <trkpt lat="51.62681362" lon="-121.3283416">
      </trkpt>
      <trkpt lat="51.62691437" lon="-121.32841813">
      </trkpt>
      <trkpt lat="51.62697003" lon="-121.32851712">
      </trkpt>
      <trkpt lat="51.62711679" lon="-121.32868467">
      </trkpt>
      <trkpt lat="51.6271354" lon="-121.32880664">
      </trkpt>
      <trkpt lat="51.62719348" lon="-121.32886396">
      </trkpt>
      <trkpt lat="51.62722308" lon="-121.32894838">
      </trkpt>
      <trkpt lat="51.62728895" lon="-121.32912214">
      </trkpt>
      <trkpt lat="51.62729331" lon="-121.32913453">
      </trkpt>
      <trkpt lat="51.62731779" lon="-121.32929932">
      </trkpt>
      <trkpt lat="51.62735509" lon="-121.32945867">
      </trkpt>
      <trkpt lat="51.62737227" lon="-121.32959126">
      </trkpt>
      <trkpt lat="51.62733388" lon="-121.32961021">
      </trkpt>
      <trkpt lat="51.62728636" lon="-121.32966235">
      </trkpt>
      <trkpt lat="51.62728904" lon="-121.32969176">
      </trkpt>
      <trkpt lat="51.62731125" lon="-121.32972228">
      </trkpt>
      <trkpt lat="51.62737529" lon="-121.32991506">
      </trkpt>
      <trkpt lat="51.62742557" lon="-121.33017657">
      </trkpt>
      <trkpt lat="51.62742634" lon="-121.33020087">
      </trkpt>
      <trkpt lat="51.62741158" lon="-121.3302852">
      </trkpt>
      <trkpt lat="51.62729147" lon="-121.33044822">
      </trkpt>
      <trkpt lat="51.62725039" lon="-121.33061579">
      </trkpt>
      <trkpt lat="51.62721519" lon="-121.33073113">
      </trkpt>
      <trkpt lat="51.62720195" lon="-121.3308592">
      </trkpt>
      <trkpt lat="51.62720413" lon="-121.33097738">
      </trkpt>
      <trkpt lat="51.62721863" lon="-121.33119917">
      </trkpt>
      <trkpt lat="51.62734813" lon="-121.3314347">
      </trkpt>
      <trkpt lat="51.62740974" lon="-121.33163351">
      </trkpt>
      <trkpt lat="51.62746062" lon="-121.33182605">
      </trkpt>
      <trkpt lat="51.62754703" lon="-121.33199922">
      </trkpt>
      <trkpt lat="51.62761451" lon="-121.33212343">
      </trkpt>
      <trkpt lat="51.62765106" lon="-121.33218445">
      </trkpt>
      <trkpt lat="51.62770646" lon="-121.33245914">
      </trkpt>
      <trkpt lat="51.62769916" lon="-121.33250791">
      </trkpt>
      <trkpt lat="51.62773906" lon="-121.33269156">
      </trkpt>
      <trkpt lat="51.62778139" lon="-121.33294244">
      </trkpt>
      <trkpt lat="51.62778433" lon="-121.33308266">
      </trkpt>
      <trkpt lat="51.62782573" lon="-121.33338013">
      </trkpt>
      <trkpt lat="51.62782774" lon="-121.33339698">
      </trkpt>
      <trkpt lat="51.62780604" lon="-121.33368566">
      </trkpt>
      <trkpt lat="51.62780511" lon="-121.33372563">
      </trkpt>
      <trkpt lat="51.62783135" lon="-121.33398179">
      </trkpt>
      <trkpt lat="51.6278974" lon="-121.33429334">
      </trkpt>
      <trkpt lat="51.62797552" lon="-121.3345438">
      </trkpt>
      <trkpt lat="51.62800518" lon="-121.33461822">
      </trkpt>
      <trkpt lat="51.62806771" lon="-121.3347349">
      </trkpt>
      <trkpt lat="51.62815933" lon="-121.33504327">
      </trkpt>
      <trkpt lat="51.62819445" lon="-121.33529473">
      </trkpt>
      <trkpt lat="51.62823418" lon="-121.33545014">
      </trkpt>
      <trkpt lat="51.62829972" lon="-121.33551593">
      </trkpt>
      <trkpt lat="51.62833762" lon="-121.33554459">
      </trkpt>
      <trkpt lat="51.62841749" lon="-121.33563075">
      </trkpt>
      <trkpt lat="51.62845848" lon="-121.33567032">
      </trkpt>
      <trkpt lat="51.62857097" lon="-121.33585372">
      </trkpt>
      <trkpt lat="51.62858136" lon="-121.33594911">
      </trkpt>
      <trkpt lat="51.62855797" lon="-121.33613468">
      </trkpt>
      <trkpt lat="51.62853241" lon="-121.33622328">
      </trkpt>
      <trkpt lat="51.62855789" lon="-121.33647951">
      </trkpt>
      <trkpt lat="51.62855035" lon="-121.33657632">
      </trkpt>
      <trkpt lat="51.62838556" lon="-121.33683893">
      </trkpt>
      <trkpt lat="51.62836368" lon="-121.33684538">
      </trkpt>
      <trkpt lat="51.62821859" lon="-121.33693926">
      </trkpt>
      <trkpt lat="51.62817668" lon="-121.33696968">
      </trkpt>
      <trkpt lat="51.6280528" lon="-121.33698494">
      </trkpt>
      <trkpt lat="51.62795104" lon="-121.33701511">
      </trkpt>
      <trkpt lat="51.62788952" lon="-121.33707807">
      </trkpt>
      <trkpt lat="51.62786655" lon="-121.33711503">
      </trkpt>
      <trkpt lat="51.62783018" lon="-121.33714713">
      </trkpt>
      <trkpt lat="51.62770612" lon="-121.33733975">
      </trkpt>
      <trkpt lat="51.6276736" lon="-121.33740421">
      </trkpt>
      <trkpt lat="51.62760671" lon="-121.3374799">
      </trkpt>
      <trkpt lat="51.62758878" lon="-121.33749398">
      </trkpt>
      <trkpt lat="51.62746338" lon="-121.33767226">
      </trkpt>
      <trkpt lat="51.6274105" lon="-121.33776269">
      </trkpt>
      <trkpt lat="51.62738786" lon="-121.33779959">
      </trkpt>
      <trkpt lat="51.62734436" lon="-121.33790787">
      </trkpt>
      <trkpt lat="51.62727161" lon="-121.33800208">
      </trkpt>
      <trkpt lat="51.62726322" lon="-121.33800795">
      </trkpt>
      <trkpt lat="51.62717304" lon="-121.33800166">
      </trkpt>
      <trkpt lat="51.62712459" lon="-121.3379906">
      </trkpt>
      <trkpt lat="51.62699693" lon="-121.33794911">
      </trkpt>
      <trkpt lat="51.62691646" lon="-121.3379735">
      </trkpt>
      <trkpt lat="51.62691982" lon="-121.33800828">
      </trkpt>
      <trkpt lat="51.62681386" lon="-121.33813519">
      </trkpt>
      <trkpt lat="51.62663575" lon="-121.33834097">
      </trkpt>
      <trkpt lat="51.62661488" lon="-121.33837382">
      </trkpt>
      <trkpt lat="51.62655923" lon="-121.33856342">
      </trkpt>
      <trkpt lat="51.62654439" lon="-121.33870734">
      </trkpt>
      <trkpt lat="51.62650164" lon="-121.33891445">
      </trkpt>
      <trkpt lat="51.62645436" lon="-121.33900255">
      </trkpt>
      <trkpt lat="51.62636066" lon="-121.33922752">
      </trkpt>
      <trkpt lat="51.62628263" lon="-121.33935392">
      </trkpt>
      <trkpt lat="51.62623376" lon="-121.33947152">
      </trkpt>
      <trkpt lat="51.6261771" lon="-121.33958685">
      </trkpt>
      <trkpt lat="51.62615916" lon="-121.33980797">
      </trkpt>
      <trkpt lat="51.62617475" lon="-121.33987418">
      </trkpt>
      <trkpt lat="51.62616075" lon="-121.33995348">
      </trkpt>
      <trkpt lat="51.6261279" lon="-121.3401533">
      </trkpt>
      <trkpt lat="51.6261543" lon="-121.34027929">
      </trkpt>
      <trkpt lat="51.62611716" lon="-121.34033587">
      </trkpt>
      <trkpt lat="51.62602915" lon="-121.34043678">
      </trkpt>
      <trkpt lat="51.62602153" lon="-121.34043242">
      </trkpt>
      <trkpt lat="51.62598423" lon="-121.34045102">
      </trkpt>
      <trkpt lat="51.62594777" lon="-121.3406361">
      </trkpt>
      <trkpt lat="51.62591826" lon="-121.34075496">
      </trkpt>
      <trkpt lat="51.62587895" lon="-121.34087758">
      </trkpt>
      <trkpt lat="51.62587819" lon="-121.3408972">
      </trkpt>
      <trkpt lat="51.6258953" lon="-121.34102099">
      </trkpt>
      <trkpt lat="51.62589865" lon="-121.34111286">
      </trkpt>
      <trkpt lat="51.62583193" lon="-121.34122861">
      </trkpt>
      <trkpt lat="51.62583109" lon="-121.34122292">
      </trkpt>
      <trkpt lat="51.62569924" lon="-121.34122224">
      </trkpt>
      <trkpt lat="51.62566781" lon="-121.34121939">
      </trkpt>
      <trkpt lat="51.62556103" lon="-121.34122534">
      </trkpt>
      <trkpt lat="51.62555063" lon="-121.34122443">
      </trkpt>
      <trkpt lat="51.62541258" lon="-121.34121328">
      </trkpt>
      <trkpt lat="51.62531376" lon="-121.34123859">
      </trkpt>
      <trkpt lat="51.62518954" lon="-121.34124203">
      </trkpt>
      <trkpt lat="51.62505199" lon="-121.34129752">
      </trkpt>
      <trkpt lat="51.62491486" lon="-121.34133791">
      </trkpt>
      <trkpt lat="51.62481512" lon="-121.34129559">
      </trkpt>
      <trkpt lat="51.62469275" lon="-121.34127404">
      </trkpt>
      <trkpt lat="51.62465117" lon="-121.34129752">
      </trkpt>
      <trkpt lat="51.62455629" lon="-121.34137723">
      </trkpt>
      <trkpt lat="51.62440734" lon="-121.34130765">
      </trkpt>
      <trkpt lat="51.62436342" lon="-121.34131059">
      </trkpt>
      <trkpt lat="51.62430726" lon="-121.3413442">
      </trkpt>
      <trkpt lat="51.62425487" lon="-121.34140439">
      </trkpt>
      <trkpt lat="51.62423187" lon="-121.34148851">
      </trkpt>
      <trkpt lat="51.62421674" lon="-121.34160336">
      </trkpt>
      <trkpt lat="51.62421422" lon="-121.34163464">
      </trkpt>
      <trkpt lat="51.6242221" lon="-121.34166179">
      </trkpt>
      <trkpt lat="51.62423752" lon="-121.34175323">
      </trkpt>
      <trkpt lat="51.62423174" lon="-121.3418664">
      </trkpt>
      <trkpt lat="51.62425185" lon="-121.34201928">
      </trkpt>
      <trkpt lat="51.62424725" lon="-121.34208207">
      </trkpt>
      <trkpt lat="51.62432101" lon="-121.34212128">
      </trkpt>
      <trkpt lat="51.62434774" lon="-121.34215709">
      </trkpt>
      <trkpt lat="51.62437532" lon="-121.34224207">
      </trkpt>
      <trkpt lat="51.62446082" lon="-121.34242169">
      </trkpt>
      <trkpt lat="51.62446375" lon="-121.34248858">
      </trkpt>
      <trkpt lat="51.62447196" lon="-121.34257366">
      </trkpt>
      <trkpt lat="51.62462669" lon="-121.34268798">
      </trkpt>
      <trkpt lat="51.62468394" lon="-121.34273166">
      </trkpt>
      <trkpt lat="51.62475829" lon="-121.34285731">
      </trkpt>
      <trkpt lat="51.6249447" lon="-121.34292503">
      </trkpt>
      <trkpt lat="51.62496683" lon="-121.34298203">
      </trkpt>
      <trkpt lat="51.62504395" lon="-121.34321965">
      </trkpt>
      <trkpt lat="51.62505685" lon="-121.3432722">
      </trkpt>
      <trkpt lat="51.62510363" lon="-121.34349072">
      </trkpt>
      <trkpt lat="51.62515827" lon="-121.34368644">
      </trkpt>
      <trkpt lat="51.62516314" lon="-121.34376087">
      </trkpt>
      <trkpt lat="51.62503682" lon="-121.34387998">
      </trkpt>
      <trkpt lat="51.62498787" lon="-121.34392356">
      </trkpt>
      <trkpt lat="51.62488377" lon="-121.34407972">
      </trkpt>
      <trkpt lat="51.62482568" lon="-121.34408123">
      </trkpt>
      <trkpt lat="51.62474035" lon="-121.34405541">
      </trkpt>
      <trkpt lat="51.62472015" lon="-121.34402943">
      </trkpt>
      <trkpt lat="51.62467313" lon="-121.34397805">
      </trkpt>
      <trkpt lat="51.62459937" lon="-121.343911">
      </trkpt>
      <trkpt lat="51.62459442" lon="-121.34390119">
      </trkpt>
      <trkpt lat="51.62448227" lon="-121.3437897">
      </trkpt>
      <trkpt lat="51.62442654" lon="-121.34372618">
      </trkpt>
      <trkpt lat="51.62439837" lon="-121.34371645">
      </trkpt>
      <trkpt lat="51.62435462" lon="-121.34368644">
      </trkpt>
      <trkpt lat="51.62423434" lon="-121.34354001">
      </trkpt>
      <trkpt lat="51.62416535" lon="-121.34343213">
      </trkpt>
      <trkpt lat="51.62407064" lon="-121.34336425">
      </trkpt>
      <trkpt lat="51.62401121" lon="-121.34326659">
      </trkpt>
      <trkpt lat="51.62391549" lon="-121.34313147">
      </trkpt>
      <trkpt lat="51.6239652" lon="-121.34297725">
      </trkpt>
      <trkpt lat="51.6240201" lon="-121.34289578">
      </trkpt>
      <trkpt lat="51.62406444" lon="-121.34288286">
      </trkpt>
      <trkpt lat="51.62401012" lon="-121.34267374">
      </trkpt>
      <trkpt lat="51.62398556" lon="-121.34265304">
      </trkpt>
      <trkpt lat="51.62395572" lon="-121.34261053">
      </trkpt>
      <trkpt lat="51.62382262" lon="-121.34247584">
      </trkpt>
      <trkpt lat="51.62368197" lon="-121.34232296">
      </trkpt>
      <trkpt lat="51.6236119" lon="-121.34215298">
      </trkpt>
      <trkpt lat="51.62360586" lon="-121.34207109">
      </trkpt>
      <trkpt lat="51.62361718" lon="-121.34188727">
      </trkpt>
      <trkpt lat="51.62365716" lon="-121.34167613">
      </trkpt>
      <trkpt lat="51.62373201" lon="-121.34152852">
      </trkpt>
      <trkpt lat="51.62376311" lon="-121.34145929">
      </trkpt>
      <trkpt lat="51.62379152" lon="-121.34127731">
      </trkpt>
      <trkpt lat="51.62376596" lon="-121.34109459">
      </trkpt>
      <trkpt lat="51.6237207" lon="-121.34103089">
      </trkpt>
      <trkpt lat="51.62364475" lon="-121.34086887">
      </trkpt>
      <trkpt lat="51.62362347" lon="-121.34081062">
      </trkpt>
      <trkpt lat="51.62358122" lon="-121.34072704">
      </trkpt>
      <trkpt lat="51.62353579" lon="-121.34062311">
      </trkpt>
      <trkpt lat="51.62339288" lon="-121.34044037">
      </trkpt>
      <trkpt lat="51.62333127" lon="-121.34033084">
      </trkpt>
      <trkpt lat="51.62333404" lon="-121.34007082">
      </trkpt>
      <trkpt lat="51.62323731" lon="-121.33972818">
      </trkpt>
      <trkpt lat="51.62312776" lon="-121.33959422">
      </trkpt>
      <trkpt lat="51.62302198" lon="-121.33943674">
      </trkpt>
      <trkpt lat="51.62293757" lon="-121.33920732">
      </trkpt>
      <trkpt lat="51.62293665" lon="-121.33916692">
      </trkpt>
      <trkpt lat="51.62292224" lon="-121.33900062">
      </trkpt>
      <trkpt lat="51.6228188" lon="-121.33888318">
      </trkpt>
      <trkpt lat="51.62279332" lon="-121.33887238">
      </trkpt>
      <trkpt lat="51.62272593" lon="-121.33871647">
      </trkpt>
      <trkpt lat="51.62272543" lon="-121.33865965">
      </trkpt>
      <trkpt lat="51.62271445" lon="-121.3384786">
      </trkpt>
      <trkpt lat="51.62270573" lon="-121.33822781">
      </trkpt>
      <trkpt lat="51.62274261" lon="-121.33800771">
      </trkpt>
      <trkpt lat="51.62271395" lon="-121.33788448">
      </trkpt>
      <trkpt lat="51.62266818" lon="-121.33774577">
      </trkpt>
      <trkpt lat="51.62262116" lon="-121.33756463">
      </trkpt>
      <trkpt lat="51.62261043" lon="-121.33728745">
      </trkpt>
      <trkpt lat="51.62259777" lon="-121.33713113">
      </trkpt>
      <trkpt lat="51.62265008" lon="-121.33692862">
      </trkpt>
      <trkpt lat="51.62271529" lon="-121.33684295">
      </trkpt>
      <trkpt lat="51.6227748" lon="-121.33677003">
      </trkpt>
      <trkpt lat="51.62279902" lon="-121.33674883">
      </trkpt>
      <trkpt lat="51.62285996" lon="-121.3366516">
      </trkpt>
      <trkpt lat="51.62289349" lon="-121.33661882">
      </trkpt>
      <trkpt lat="51.62296532" lon="-121.33646376">
      </trkpt>
      <trkpt lat="51.62292098" lon="-121.33639007">
      </trkpt>
      <trkpt lat="51.62289977" lon="-121.33627374">
      </trkpt>
      <trkpt lat="51.62283113" lon="-121.33607442">
      </trkpt>
      <trkpt lat="51.62279382" lon="-121.33587509">
      </trkpt>
      <trkpt lat="51.62267371" lon="-121.33576671">
      </trkpt>
      <trkpt lat="51.62251815" lon="-121.33566865">
      </trkpt>
      <trkpt lat="51.6225132" lon="-121.33565833">
      </trkpt>
      <trkpt lat="51.62241664" lon="-121.33555649">
      </trkpt>
      <trkpt lat="51.62233266" lon="-121.33532801">
      </trkpt>
      <trkpt lat="51.62232553" lon="-121.33529272">
      </trkpt>
      <trkpt lat="51.62228312" lon="-121.3350799">
      </trkpt>
      <trkpt lat="51.62224229" lon="-121.3348204">
      </trkpt>
      <trkpt lat="51.6222402" lon="-121.3347235">
      </trkpt>
      <trkpt lat="51.62221513" lon="-121.33443483">
      </trkpt>
      <trkpt lat="51.62220667" lon="-121.33417801">
      </trkpt>
      <trkpt lat="51.62225419" lon="-121.33394692">
      </trkpt>
      <trkpt lat="51.62237992" lon="-121.33367065">
      </trkpt>
      <trkpt lat="51.62245268" lon="-121.33357418">
      </trkpt>
      <trkpt lat="51.62245361" lon="-121.33356395">
      </trkpt>
      <trkpt lat="51.62245561" lon="-121.33349924">
      </trkpt>
      <trkpt lat="51.62250213" lon="-121.33338265">
      </trkpt>
      <trkpt lat="51.62260205" lon="-121.33317227">
      </trkpt>
      <trkpt lat="51.62264371" lon="-121.33295148">
      </trkpt>
      <trkpt lat="51.62265754" lon="-121.33290757">
      </trkpt>
      <trkpt lat="51.62270128" lon="-121.33272593">
      </trkpt>
      <trkpt lat="51.62265158" lon="-121.33250188">
      </trkpt>
      <trkpt lat="51.62253063" lon="-121.33227775">
      </trkpt>
      <trkpt lat="51.62245654" lon="-121.33211019">
      </trkpt>
      <trkpt lat="51.62236643" lon="-121.33190401">
      </trkpt>
      <trkpt lat="51.62233617" lon="-121.33180577">
      </trkpt>
      <trkpt lat="51.62232636" lon="-121.33172153">
      </trkpt>
      <trkpt lat="51.62227582" lon="-121.33144945">
      </trkpt>
      <trkpt lat="51.62221732" lon="-121.33123228">
      </trkpt>
      <trkpt lat="51.62222153" lon="-121.33119128">
      </trkpt>
      <trkpt lat="51.62220107" lon="-121.33110687">
      </trkpt>
    </trkseg>
  </trk>
</gpx>