<?xml version="1.0" encoding="UTF-8"?>
<gpx xmlns="http://www.topografix.com/GPX/1/1" xmlns:xsi="http://www.w3.org/2001/XMLSchema-instance" xsi:schemaLocation="http://www.topografix.com/GPX/1/1 http://www.topografix.com/GPX/1/1/gpx.xsd" version="1.1" creator="gpx.py -- https://github.com/tkrajina/gpxpy">
  <trk>
    <name>Retallack Cedars</name>
    <trkseg>
      <trkpt lat="50.04220862" lon="-117.15047375">
      </trkpt>
      <trkpt lat="50.0422222" lon="-117.15046663">
      </trkpt>
      <trkpt lat="50.04225584" lon="-117.15048688">
      </trkpt>
      <trkpt lat="50.04228464" lon="-117.15050694">
      </trkpt>
      <trkpt lat="50.04230588" lon="-117.15052304">
      </trkpt>
      <trkpt lat="50.04233187" lon="-117.15054272">
      </trkpt>
      <trkpt lat="50.0423497" lon="-117.15055622">
      </trkpt>
      <trkpt lat="50.04236972" lon="-117.1505714">
      </trkpt>
      <trkpt lat="50.04238195" lon="-117.15060243">
      </trkpt>
      <trkpt lat="50.04240272" lon="-117.15065515">
      </trkpt>
      <trkpt lat="50.04243208" lon="-117.15072965">
      </trkpt>
      <trkpt lat="50.04245376" lon="-117.15079071">
      </trkpt>
      <trkpt lat="50.04247264" lon="-117.15084387">
      </trkpt>
      <trkpt lat="50.04249042" lon="-117.15089394">
      </trkpt>
      <trkpt lat="50.04250811" lon="-117.15092105">
      </trkpt>
      <trkpt lat="50.04252657" lon="-117.15094933">
      </trkpt>
      <trkpt lat="50.04255404" lon="-117.15099142">
      </trkpt>
      <trkpt lat="50.04256077" lon="-117.15102218">
      </trkpt>
      <trkpt lat="50.04257752" lon="-117.15110086">
      </trkpt>
      <trkpt lat="50.04259732" lon="-117.15119605">
      </trkpt>
      <trkpt lat="50.04261176" lon="-117.15126548">
      </trkpt>
      <trkpt lat="50.042632" lon="-117.15137297">
      </trkpt>
      <trkpt lat="50.04264527" lon="-117.1514465">
      </trkpt>
      <trkpt lat="50.04265973" lon="-117.15152661">
      </trkpt>
      <trkpt lat="50.04267397" lon="-117.15156361">
      </trkpt>
      <trkpt lat="50.04268826" lon="-117.15160075">
      </trkpt>
      <trkpt lat="50.04269921" lon="-117.15162919">
      </trkpt>
      <trkpt lat="50.04270487" lon="-117.15167161">
      </trkpt>
      <trkpt lat="50.04271389" lon="-117.15173918">
      </trkpt>
      <trkpt lat="50.04272174" lon="-117.15179796">
      </trkpt>
      <trkpt lat="50.04272495" lon="-117.15182198">
      </trkpt>
      <trkpt lat="50.0427218" lon="-117.15191087">
      </trkpt>
      <trkpt lat="50.04271997" lon="-117.15196257">
      </trkpt>
      <trkpt lat="50.04271776" lon="-117.1520247">
      </trkpt>
      <trkpt lat="50.04271468" lon="-117.15211175">
      </trkpt>
      <trkpt lat="50.04271167" lon="-117.15219695">
      </trkpt>
      <trkpt lat="50.04270894" lon="-117.15227625">
      </trkpt>
      <trkpt lat="50.04270321" lon="-117.15236182">
      </trkpt>
      <trkpt lat="50.04269832" lon="-117.15239994">
      </trkpt>
      <trkpt lat="50.04268309" lon="-117.15253532">
      </trkpt>
      <trkpt lat="50.04266698" lon="-117.15268695">
      </trkpt>
      <trkpt lat="50.04265389" lon="-117.1527933">
      </trkpt>
      <trkpt lat="50.04264111" lon="-117.15288399">
      </trkpt>
      <trkpt lat="50.0426427" lon="-117.15297123">
      </trkpt>
      <trkpt lat="50.0426487" lon="-117.15304864">
      </trkpt>
      <trkpt lat="50.04265866" lon="-117.1531319">
      </trkpt>
      <trkpt lat="50.0426646" lon="-117.15317641">
      </trkpt>
      <trkpt lat="50.04264838" lon="-117.15322023">
      </trkpt>
      <trkpt lat="50.0426347" lon="-117.1532572">
      </trkpt>
      <trkpt lat="50.0426252" lon="-117.15328286">
      </trkpt>
      <trkpt lat="50.04259358" lon="-117.15332231">
      </trkpt>
      <trkpt lat="50.04256389" lon="-117.15335933">
      </trkpt>
      <trkpt lat="50.04252927" lon="-117.15340253">
      </trkpt>
      <trkpt lat="50.04249513" lon="-117.1534451">
      </trkpt>
      <trkpt lat="50.04245445" lon="-117.15350417">
      </trkpt>
      <trkpt lat="50.04242093" lon="-117.15356149">
      </trkpt>
      <trkpt lat="50.04238623" lon="-117.15362082">
      </trkpt>
      <trkpt lat="50.04236068" lon="-117.15368219">
      </trkpt>
      <trkpt lat="50.04232712" lon="-117.15376279">
      </trkpt>
      <trkpt lat="50.04231381" lon="-117.15379475">
      </trkpt>
      <trkpt lat="50.04231272" lon="-117.15383288">
      </trkpt>
      <trkpt lat="50.04233587" lon="-117.15388379">
      </trkpt>
      <trkpt lat="50.04235934" lon="-117.15393537">
      </trkpt>
      <trkpt lat="50.04238425" lon="-117.15399012">
      </trkpt>
      <trkpt lat="50.04239553" lon="-117.15401494">
      </trkpt>
      <trkpt lat="50.04240677" lon="-117.15410262">
      </trkpt>
      <trkpt lat="50.04240694" lon="-117.15414721">
      </trkpt>
      <trkpt lat="50.04240709" lon="-117.15418592">
      </trkpt>
      <trkpt lat="50.04241076" lon="-117.15424991">
      </trkpt>
      <trkpt lat="50.04241632" lon="-117.15431235">
      </trkpt>
      <trkpt lat="50.04241993" lon="-117.15435281">
      </trkpt>
      <trkpt lat="50.04245182" lon="-117.15440695">
      </trkpt>
      <trkpt lat="50.04248456" lon="-117.1544639">
      </trkpt>
      <trkpt lat="50.04250944" lon="-117.15450771">
      </trkpt>
      <trkpt lat="50.04253403" lon="-117.15449415">
      </trkpt>
      <trkpt lat="50.04258436" lon="-117.15446637">
      </trkpt>
      <trkpt lat="50.04261258" lon="-117.1544508">
      </trkpt>
      <trkpt lat="50.04264089" lon="-117.15448344">
      </trkpt>
      <trkpt lat="50.04265153" lon="-117.15451862">
      </trkpt>
      <trkpt lat="50.04266375" lon="-117.1545591">
      </trkpt>
      <trkpt lat="50.04264816" lon="-117.15459689">
      </trkpt>
      <trkpt lat="50.04264054" lon="-117.15463512">
      </trkpt>
      <trkpt lat="50.04265868" lon="-117.15467098">
      </trkpt>
      <trkpt lat="50.0427061" lon="-117.1547138">
      </trkpt>
      <trkpt lat="50.04273576" lon="-117.1547372">
      </trkpt>
      <trkpt lat="50.042742" lon="-117.15468596">
      </trkpt>
      <trkpt lat="50.04274631" lon="-117.15465059">
      </trkpt>
      <trkpt lat="50.04274992" lon="-117.15462095">
      </trkpt>
      <trkpt lat="50.04273575" lon="-117.15458981">
      </trkpt>
      <trkpt lat="50.04272268" lon="-117.15456296">
      </trkpt>
      <trkpt lat="50.04272922" lon="-117.15449413">
      </trkpt>
      <trkpt lat="50.04272629" lon="-117.15443349">
      </trkpt>
      <trkpt lat="50.04272267" lon="-117.15435867">
      </trkpt>
      <trkpt lat="50.04271978" lon="-117.15429878">
      </trkpt>
      <trkpt lat="50.04271849" lon="-117.15427226">
      </trkpt>
      <trkpt lat="50.04269027" lon="-117.15421867">
      </trkpt>
      <trkpt lat="50.04266677" lon="-117.15417403">
      </trkpt>
      <trkpt lat="50.04268271" lon="-117.15412231">
      </trkpt>
      <trkpt lat="50.04269793" lon="-117.15407289">
      </trkpt>
      <trkpt lat="50.04272411" lon="-117.15398786">
      </trkpt>
      <trkpt lat="50.04274584" lon="-117.15391731">
      </trkpt>
      <trkpt lat="50.04276981" lon="-117.15383108">
      </trkpt>
      <trkpt lat="50.04278697" lon="-117.15378376">
      </trkpt>
      <trkpt lat="50.04282146" lon="-117.15372278">
      </trkpt>
      <trkpt lat="50.04285163" lon="-117.15366942">
      </trkpt>
      <trkpt lat="50.04287288" lon="-117.15362233">
      </trkpt>
      <trkpt lat="50.04285217" lon="-117.15359447">
      </trkpt>
      <trkpt lat="50.04281495" lon="-117.15354441">
      </trkpt>
      <trkpt lat="50.04277256" lon="-117.15348738">
      </trkpt>
      <trkpt lat="50.04274766" lon="-117.15349123">
      </trkpt>
      <trkpt lat="50.04271891" lon="-117.15348747">
      </trkpt>
      <trkpt lat="50.04269546" lon="-117.15340267">
      </trkpt>
      <trkpt lat="50.04267536" lon="-117.15333002">
      </trkpt>
      <trkpt lat="50.04266112" lon="-117.15327854">
      </trkpt>
      <trkpt lat="50.04264838" lon="-117.15322023">
      </trkpt>
      <trkpt lat="50.04262998" lon="-117.15316593">
      </trkpt>
      <trkpt lat="50.04262478" lon="-117.15306292">
      </trkpt>
      <trkpt lat="50.0426204" lon="-117.15297617">
      </trkpt>
      <trkpt lat="50.04261466" lon="-117.15286225">
      </trkpt>
      <trkpt lat="50.04261207" lon="-117.1528112">
      </trkpt>
      <trkpt lat="50.04261421" lon="-117.15273086">
      </trkpt>
      <trkpt lat="50.04262047" lon="-117.15263084">
      </trkpt>
      <trkpt lat="50.04262613" lon="-117.15254047">
      </trkpt>
      <trkpt lat="50.04263098" lon="-117.15246308">
      </trkpt>
      <trkpt lat="50.04263337" lon="-117.15238928">
      </trkpt>
      <trkpt lat="50.04263325" lon="-117.15231115">
      </trkpt>
      <trkpt lat="50.04263314" lon="-117.15222967">
      </trkpt>
      <trkpt lat="50.04263305" lon="-117.15216978">
      </trkpt>
      <trkpt lat="50.04263297" lon="-117.15211844">
      </trkpt>
      <trkpt lat="50.04263291" lon="-117.15207369">
      </trkpt>
      <trkpt lat="50.04261166" lon="-117.15200755">
      </trkpt>
      <trkpt lat="50.04260018" lon="-117.15197183">
      </trkpt>
      <trkpt lat="50.04258192" lon="-117.15191496">
      </trkpt>
      <trkpt lat="50.04255583" lon="-117.1518338">
      </trkpt>
      <trkpt lat="50.04253399" lon="-117.15176578">
      </trkpt>
      <trkpt lat="50.04252085" lon="-117.15171268">
      </trkpt>
      <trkpt lat="50.0424931" lon="-117.15164436">
      </trkpt>
      <trkpt lat="50.0424636" lon="-117.15157279">
      </trkpt>
      <trkpt lat="50.04241745" lon="-117.1514816">
      </trkpt>
      <trkpt lat="50.04236544" lon="-117.15137883">
      </trkpt>
      <trkpt lat="50.04232524" lon="-117.1513005">
      </trkpt>
      <trkpt lat="50.04226653" lon="-117.15118822">
      </trkpt>
      <trkpt lat="50.0422217" lon="-117.15110247">
      </trkpt>
      <trkpt lat="50.04220609" lon="-117.15105344">
      </trkpt>
      <trkpt lat="50.04217619" lon="-117.15096599">
      </trkpt>
      <trkpt lat="50.04214556" lon="-117.1508764">
      </trkpt>
      <trkpt lat="50.04212749" lon="-117.15082353">
      </trkpt>
      <trkpt lat="50.04214102" lon="-117.15076201">
      </trkpt>
      <trkpt lat="50.04215692" lon="-117.15068972">
      </trkpt>
      <trkpt lat="50.04216669" lon="-117.15064529">
      </trkpt>
      <trkpt lat="50.04217878" lon="-117.15059035">
      </trkpt>
      <trkpt lat="50.04219174" lon="-117.15056016">
      </trkpt>
      <trkpt lat="50.04220837" lon="-117.15052144">
      </trkpt>
      <trkpt lat="50.04220862" lon="-117.15047375">
      </trkpt>
    </trkseg>
  </trk>
</gpx>