<?xml version="1.0" encoding="UTF-8"?>
<gpx xmlns="http://www.topografix.com/GPX/1/1" xmlns:xsi="http://www.w3.org/2001/XMLSchema-instance" xsi:schemaLocation="http://www.topografix.com/GPX/1/1 http://www.topografix.com/GPX/1/1/gpx.xsd" version="1.1" creator="gpx.py -- https://github.com/tkrajina/gpxpy">
  <trk>
    <name>Old Baldy Trails</name>
    <trkseg>
      <trkpt lat="48.62644846" lon="-123.6281909">
      </trkpt>
      <trkpt lat="48.62601758" lon="-123.62793869">
      </trkpt>
      <trkpt lat="48.62575326" lon="-123.62789112">
      </trkpt>
      <trkpt lat="48.62525967" lon="-123.62755076">
      </trkpt>
      <trkpt lat="48.62472764" lon="-123.62730365">
      </trkpt>
      <trkpt lat="48.62427668" lon="-123.62730479">
      </trkpt>
      <trkpt lat="48.62373038" lon="-123.62708">
      </trkpt>
      <trkpt lat="48.62342222" lon="-123.62688248">
      </trkpt>
      <trkpt lat="48.6232604" lon="-123.62689064">
      </trkpt>
      <trkpt lat="48.62307428" lon="-123.62671741">
      </trkpt>
      <trkpt lat="48.62283833" lon="-123.62703365">
      </trkpt>
      <trkpt lat="48.6225895" lon="-123.62677228">
      </trkpt>
      <trkpt lat="48.62199013" lon="-123.62713726">
      </trkpt>
      <trkpt lat="48.62213838" lon="-123.62652112">
      </trkpt>
      <trkpt lat="48.62199801" lon="-123.62567605">
      </trkpt>
      <trkpt lat="48.62194331" lon="-123.6250397">
      </trkpt>
      <trkpt lat="48.62143543" lon="-123.62406101">
      </trkpt>
      <trkpt lat="48.62097005" lon="-123.6231715">
      </trkpt>
      <trkpt lat="48.62054103" lon="-123.62209759">
      </trkpt>
      <trkpt lat="48.62012015" lon="-123.62138846">
      </trkpt>
      <trkpt lat="48.619582" lon="-123.62086785">
      </trkpt>
      <trkpt lat="48.61896972" lon="-123.62065534">
      </trkpt>
      <trkpt lat="48.61853814" lon="-123.62037283">
      </trkpt>
      <trkpt lat="48.61794201" lon="-123.61997691">
      </trkpt>
      <trkpt lat="48.61736747" lon="-123.61964078">
      </trkpt>
      <trkpt lat="48.61695406" lon="-123.61926608">
      </trkpt>
      <trkpt lat="48.6166768" lon="-123.61864106">
      </trkpt>
      <trkpt lat="48.61666455" lon="-123.61809394">
      </trkpt>
      <trkpt lat="48.61685798" lon="-123.61768856">
      </trkpt>
      <trkpt lat="48.61697186" lon="-123.61734806">
      </trkpt>
      <trkpt lat="48.61708096" lon="-123.6167948">
      </trkpt>
      <trkpt lat="48.61742735" lon="-123.61598606">
      </trkpt>
      <trkpt lat="48.61754986" lon="-123.61512779">
      </trkpt>
      <trkpt lat="48.61754031" lon="-123.61470225">
      </trkpt>
      <trkpt lat="48.61732713" lon="-123.61422615">
      </trkpt>
      <trkpt lat="48.61701552" lon="-123.61387677">
      </trkpt>
      <trkpt lat="48.61692916" lon="-123.6136377">
      </trkpt>
      <trkpt lat="48.61693983" lon="-123.61321113">
      </trkpt>
      <trkpt lat="48.61657505" lon="-123.61319919">
      </trkpt>
      <trkpt lat="48.61613481" lon="-123.61343452">
      </trkpt>
      <trkpt lat="48.61583685" lon="-123.61369305">
      </trkpt>
      <trkpt lat="48.61555094" lon="-123.61358582">
      </trkpt>
      <trkpt lat="48.61534525" lon="-123.61344409">
      </trkpt>
      <trkpt lat="48.61533638" lon="-123.61304896">
      </trkpt>
      <trkpt lat="48.61519864" lon="-123.61232563">
      </trkpt>
      <trkpt lat="48.61504749" lon="-123.61190728">
      </trkpt>
      <trkpt lat="48.61473861" lon="-123.61167952">
      </trkpt>
      <trkpt lat="48.61445406" lon="-123.61163309">
      </trkpt>
      <trkpt lat="48.61421883" lon="-123.61197974">
      </trkpt>
      <trkpt lat="48.61403951" lon="-123.61211055">
      </trkpt>
      <trkpt lat="48.61387563" lon="-123.61202756">
      </trkpt>
      <trkpt lat="48.61344539" lon="-123.61180595">
      </trkpt>
      <trkpt lat="48.61313924" lon="-123.61169977">
      </trkpt>
      <trkpt lat="48.61289105" lon="-123.61146893">
      </trkpt>
      <trkpt lat="48.6123449" lon="-123.61149663">
      </trkpt>
      <trkpt lat="48.61183783" lon="-123.61146149">
      </trkpt>
      <trkpt lat="48.61147304" lon="-123.61144956">
      </trkpt>
      <trkpt lat="48.61123031" lon="-123.61146187">
      </trkpt>
      <trkpt lat="48.61100575" lon="-123.61138197">
      </trkpt>
    </trkseg>
    <trkseg>
      <trkpt lat="48.6242761" lon="-123.6273059">
      </trkpt>
      <trkpt lat="48.62454835" lon="-123.62678977">
      </trkpt>
      <trkpt lat="48.62505549" lon="-123.62582298">
      </trkpt>
      <trkpt lat="48.62483131" lon="-123.62566925">
      </trkpt>
      <trkpt lat="48.62422912" lon="-123.62582608">
      </trkpt>
      <trkpt lat="48.62388045" lon="-123.62584366">
      </trkpt>
      <trkpt lat="48.62362371" lon="-123.62560973">
      </trkpt>
      <trkpt lat="48.62331919" lon="-123.6248459">
      </trkpt>
      <trkpt lat="48.62288235" lon="-123.6239036">
      </trkpt>
      <trkpt lat="48.6226112" lon="-123.62321041">
      </trkpt>
      <trkpt lat="48.62226054" lon="-123.62292376">
      </trkpt>
      <trkpt lat="48.62183372" lon="-123.62285401">
      </trkpt>
      <trkpt lat="48.62152283" lon="-123.62253494">
      </trkpt>
      <trkpt lat="48.62143172" lon="-123.62208303">
      </trkpt>
      <trkpt lat="48.62144516" lon="-123.62177803">
      </trkpt>
      <trkpt lat="48.62123064" lon="-123.62124106">
      </trkpt>
      <trkpt lat="48.6210559" lon="-123.62067165">
      </trkpt>
      <trkpt lat="48.62101935" lon="-123.61994312">
      </trkpt>
      <trkpt lat="48.62137645" lon="-123.61870773">
      </trkpt>
      <trkpt lat="48.62136828" lon="-123.61834294">
      </trkpt>
      <trkpt lat="48.62168307" lon="-123.61793138">
      </trkpt>
      <trkpt lat="48.62197832" lon="-123.61755124">
      </trkpt>
      <trkpt lat="48.62194992" lon="-123.61718748">
      </trkpt>
      <trkpt lat="48.62170173" lon="-123.61695656">
      </trkpt>
      <trkpt lat="48.62175016" lon="-123.61640631">
      </trkpt>
      <trkpt lat="48.62165221" lon="-123.61565043">
      </trkpt>
      <trkpt lat="48.62156085" lon="-123.61428554">
      </trkpt>
      <trkpt lat="48.62143107" lon="-123.61301391">
      </trkpt>
      <trkpt lat="48.62133445" lon="-123.61231884">
      </trkpt>
      <trkpt lat="48.62105127" lon="-123.6123332">
      </trkpt>
      <trkpt lat="48.62096558" lon="-123.61212451">
      </trkpt>
      <trkpt lat="48.62089261" lon="-123.61158042">
      </trkpt>
      <trkpt lat="48.62054073" lon="-123.61109939">
      </trkpt>
      <trkpt lat="48.62002461" lon="-123.61080276">
      </trkpt>
      <trkpt lat="48.61951122" lon="-123.61078425">
      </trkpt>
      <trkpt lat="48.6191987" lon="-123.61099683">
      </trkpt>
      <trkpt lat="48.61889392" lon="-123.61095143">
      </trkpt>
      <trkpt lat="48.61865801" lon="-123.61126771">
      </trkpt>
      <trkpt lat="48.61827368" lon="-123.6112872">
      </trkpt>
      <trkpt lat="48.6179905" lon="-123.61130157">
      </trkpt>
      <trkpt lat="48.61773573" lon="-123.61167967">
      </trkpt>
      <trkpt lat="48.61758074" lon="-123.61199184">
      </trkpt>
      <trkpt lat="48.61732187" lon="-123.61218755">
      </trkpt>
      <trkpt lat="48.61708938" lon="-123.6126558">
      </trkpt>
      <trkpt lat="48.61693983" lon="-123.61321113">
      </trkpt>
    </trkseg>
    <trkseg>
      <trkpt lat="48.61697186" lon="-123.61734806">
      </trkpt>
      <trkpt lat="48.61729822" lon="-123.61745327">
      </trkpt>
      <trkpt lat="48.61774848" lon="-123.61676102">
      </trkpt>
      <trkpt lat="48.61829101" lon="-123.61566845">
      </trkpt>
      <trkpt lat="48.61882011" lon="-123.61488087">
      </trkpt>
      <trkpt lat="48.61917058" lon="-123.61425447">
      </trkpt>
      <trkpt lat="48.61962967" lon="-123.61395733">
      </trkpt>
      <trkpt lat="48.61960716" lon="-123.6129542">
      </trkpt>
      <trkpt lat="48.61960829" lon="-123.61210204">
      </trkpt>
      <trkpt lat="48.61972078" lon="-123.61170072">
      </trkpt>
      <trkpt lat="48.6198994" lon="-123.6115395">
      </trkpt>
      <trkpt lat="48.62002461" lon="-123.61080276">
      </trkpt>
    </trkseg>
  </trk>
</gpx>