<?xml version="1.0" encoding="UTF-8"?>
<gpx xmlns="http://www.topografix.com/GPX/1/1" xmlns:xsi="http://www.w3.org/2001/XMLSchema-instance" xsi:schemaLocation="http://www.topografix.com/GPX/1/1 http://www.topografix.com/GPX/1/1/gpx.xsd" version="1.1" creator="gpx.py -- https://github.com/tkrajina/gpxpy">
  <trk>
    <name>Peacock Falls</name>
    <trkseg>
      <trkpt lat="54.329899" lon="-126.737985">
      </trkpt>
      <trkpt lat="54.329821" lon="-126.73813999">
      </trkpt>
      <trkpt lat="54.3298" lon="-126.738209">
      </trkpt>
      <trkpt lat="54.329785" lon="-126.73823399">
      </trkpt>
      <trkpt lat="54.329749" lon="-126.738278">
      </trkpt>
      <trkpt lat="54.329705" lon="-126.73832101">
      </trkpt>
      <trkpt lat="54.329678" lon="-126.738408">
      </trkpt>
      <trkpt lat="54.329615" lon="-126.738574">
      </trkpt>
      <trkpt lat="54.329516" lon="-126.73881899">
      </trkpt>
      <trkpt lat="54.329476" lon="-126.738916">
      </trkpt>
      <trkpt lat="54.329457" lon="-126.73899901">
      </trkpt>
      <trkpt lat="54.329446" lon="-126.739133">
      </trkpt>
      <trkpt lat="54.329423" lon="-126.739219">
      </trkpt>
      <trkpt lat="54.329373" lon="-126.739342">
      </trkpt>
      <trkpt lat="54.329343" lon="-126.73944701">
      </trkpt>
      <trkpt lat="54.329316" lon="-126.739526">
      </trkpt>
      <trkpt lat="54.329278" lon="-126.73959099">
      </trkpt>
      <trkpt lat="54.32924" lon="-126.739631">
      </trkpt>
      <trkpt lat="54.329213" lon="-126.73969201">
      </trkpt>
      <trkpt lat="54.32919" lon="-126.73977201">
      </trkpt>
      <trkpt lat="54.329129" lon="-126.73990199">
      </trkpt>
      <trkpt lat="54.329097" lon="-126.73996999">
      </trkpt>
      <trkpt lat="54.329089" lon="-126.74003501">
      </trkpt>
      <trkpt lat="54.329059" lon="-126.74010001">
      </trkpt>
      <trkpt lat="54.329032" lon="-126.740151">
      </trkpt>
      <trkpt lat="54.329032" lon="-126.740183">
      </trkpt>
      <trkpt lat="54.329019" lon="-126.740295">
      </trkpt>
      <trkpt lat="54.328983" lon="-126.740432">
      </trkpt>
      <trkpt lat="54.328969" lon="-126.74051901">
      </trkpt>
      <trkpt lat="54.328969" lon="-126.740602">
      </trkpt>
      <trkpt lat="54.328969" lon="-126.740692">
      </trkpt>
      <trkpt lat="54.328979" lon="-126.740742">
      </trkpt>
      <trkpt lat="54.328996" lon="-126.740818">
      </trkpt>
      <trkpt lat="54.328996" lon="-126.74088">
      </trkpt>
      <trkpt lat="54.328977" lon="-126.740948">
      </trkpt>
      <trkpt lat="54.328941" lon="-126.74099101">
      </trkpt>
      <trkpt lat="54.328908" lon="-126.74104599">
      </trkpt>
      <trkpt lat="54.328887" lon="-126.74111399">
      </trkpt>
      <trkpt lat="54.328857" lon="-126.741175">
      </trkpt>
      <trkpt lat="54.328834" lon="-126.741222">
      </trkpt>
      <trkpt lat="54.328809" lon="-126.74125101">
      </trkpt>
      <trkpt lat="54.328794" lon="-126.741327">
      </trkpt>
      <trkpt lat="54.328773" lon="-126.74144601">
      </trkpt>
      <trkpt lat="54.328739" lon="-126.741489">
      </trkpt>
      <trkpt lat="54.328718" lon="-126.741511">
      </trkpt>
      <trkpt lat="54.32871" lon="-126.741587">
      </trkpt>
      <trkpt lat="54.328708" lon="-126.74167">
      </trkpt>
      <trkpt lat="54.328693" lon="-126.741706">
      </trkpt>
      <trkpt lat="54.32867" lon="-126.741771">
      </trkpt>
      <trkpt lat="54.328664" lon="-126.741832">
      </trkpt>
      <trkpt lat="54.328672" lon="-126.74191501">
      </trkpt>
      <trkpt lat="54.328664" lon="-126.741977">
      </trkpt>
      <trkpt lat="54.328643" lon="-126.742067">
      </trkpt>
      <trkpt lat="54.328632" lon="-126.74211699">
      </trkpt>
      <trkpt lat="54.328613" lon="-126.742171">
      </trkpt>
      <trkpt lat="54.328586" lon="-126.74219699">
      </trkpt>
      <trkpt lat="54.328539" lon="-126.74222899">
      </trkpt>
      <trkpt lat="54.328516" lon="-126.742258">
      </trkpt>
      <trkpt lat="54.328489" lon="-126.742316">
      </trkpt>
      <trkpt lat="54.32847" lon="-126.742431">
      </trkpt>
      <trkpt lat="54.328453" lon="-126.74250001">
      </trkpt>
      <trkpt lat="54.328441" lon="-126.74254">
      </trkpt>
      <trkpt lat="54.328415" lon="-126.742572">
      </trkpt>
      <trkpt lat="54.328367" lon="-126.74259">
      </trkpt>
      <trkpt lat="54.328266" lon="-126.742651">
      </trkpt>
      <trkpt lat="54.328188" lon="-126.74268">
      </trkpt>
      <trkpt lat="54.328127" lon="-126.742706">
      </trkpt>
      <trkpt lat="54.328072" lon="-126.74276">
      </trkpt>
      <trkpt lat="54.328041" lon="-126.742803">
      </trkpt>
      <trkpt lat="54.328007" lon="-126.74288599">
      </trkpt>
      <trkpt lat="54.327959" lon="-126.74297601">
      </trkpt>
      <trkpt lat="54.327921" lon="-126.743019">
      </trkpt>
      <trkpt lat="54.327898" lon="-126.743056">
      </trkpt>
      <trkpt lat="54.327874" lon="-126.743117">
      </trkpt>
      <trkpt lat="54.327864" lon="-126.743222">
      </trkpt>
      <trkpt lat="54.327832" lon="-126.743344">
      </trkpt>
      <trkpt lat="54.327816" lon="-126.743442">
      </trkpt>
      <trkpt lat="54.32782" lon="-126.74352101">
      </trkpt>
      <trkpt lat="54.327807" lon="-126.74357201">
      </trkpt>
      <trkpt lat="54.327771" lon="-126.743629">
      </trkpt>
      <trkpt lat="54.327746" lon="-126.74368301">
      </trkpt>
      <trkpt lat="54.327738" lon="-126.743759">
      </trkpt>
      <trkpt lat="54.327731" lon="-126.743842">
      </trkpt>
      <trkpt lat="54.327721" lon="-126.743929">
      </trkpt>
      <trkpt lat="54.327708" lon="-126.74402301">
      </trkpt>
      <trkpt lat="54.327683" lon="-126.74412401">
      </trkpt>
      <trkpt lat="54.327677" lon="-126.74423901">
      </trkpt>
      <trkpt lat="54.327677" lon="-126.744333">
      </trkpt>
      <trkpt lat="54.32767" lon="-126.74440501">
      </trkpt>
      <trkpt lat="54.327668" lon="-126.74447">
      </trkpt>
      <trkpt lat="54.327672" lon="-126.744535">
      </trkpt>
      <trkpt lat="54.327685" lon="-126.74460401">
      </trkpt>
      <trkpt lat="54.327693" lon="-126.74468">
      </trkpt>
      <trkpt lat="54.327693" lon="-126.744788">
      </trkpt>
      <trkpt lat="54.327693" lon="-126.744853">
      </trkpt>
      <trkpt lat="54.327687" lon="-126.744939">
      </trkpt>
      <trkpt lat="54.327683" lon="-126.745037">
      </trkpt>
      <trkpt lat="54.327675" lon="-126.74509499">
      </trkpt>
      <trkpt lat="54.32767" lon="-126.745178">
      </trkpt>
      <trkpt lat="54.327666" lon="-126.74528601">
      </trkpt>
      <trkpt lat="54.327639" lon="-126.74535801">
      </trkpt>
      <trkpt lat="54.327658" lon="-126.745484">
      </trkpt>
      <trkpt lat="54.327672" lon="-126.74556">
      </trkpt>
      <trkpt lat="54.327683" lon="-126.745668">
      </trkpt>
      <trkpt lat="54.327689" lon="-126.74573699">
      </trkpt>
      <trkpt lat="54.327715" lon="-126.745795">
      </trkpt>
      <trkpt lat="54.327736" lon="-126.74586">
      </trkpt>
      <trkpt lat="54.327759" lon="-126.74593899">
      </trkpt>
      <trkpt lat="54.327805" lon="-126.74603599">
      </trkpt>
      <trkpt lat="54.327843" lon="-126.746098">
      </trkpt>
      <trkpt lat="54.327923" lon="-126.74617">
      </trkpt>
      <trkpt lat="54.328001" lon="-126.746188">
      </trkpt>
      <trkpt lat="54.328081" lon="-126.746213">
      </trkpt>
      <trkpt lat="54.328116" lon="-126.74622401">
      </trkpt>
      <trkpt lat="54.328171" lon="-126.74621999">
      </trkpt>
      <trkpt lat="54.328188" lon="-126.746213">
      </trkpt>
      <trkpt lat="54.328213" lon="-126.746213">
      </trkpt>
      <trkpt lat="54.328226" lon="-126.746235">
      </trkpt>
      <trkpt lat="54.328228" lon="-126.746257">
      </trkpt>
      <trkpt lat="54.328224" lon="-126.746267">
      </trkpt>
      <trkpt lat="54.328205" lon="-126.74628499">
      </trkpt>
      <trkpt lat="54.328171" lon="-126.746303">
      </trkpt>
      <trkpt lat="54.328125" lon="-126.746368">
      </trkpt>
      <trkpt lat="54.328091" lon="-126.746426">
      </trkpt>
      <trkpt lat="54.32806" lon="-126.74648">
      </trkpt>
      <trkpt lat="54.328022" lon="-126.746495">
      </trkpt>
      <trkpt lat="54.327982" lon="-126.746495">
      </trkpt>
      <trkpt lat="54.327952" lon="-126.746495">
      </trkpt>
      <trkpt lat="54.327912" lon="-126.746538">
      </trkpt>
      <trkpt lat="54.3279" lon="-126.74657">
      </trkpt>
      <trkpt lat="54.327898" lon="-126.746625">
      </trkpt>
      <trkpt lat="54.327881" lon="-126.746682">
      </trkpt>
      <trkpt lat="54.327853" lon="-126.746744">
      </trkpt>
      <trkpt lat="54.32782" lon="-126.746809">
      </trkpt>
      <trkpt lat="54.327803" lon="-126.746845">
      </trkpt>
      <trkpt lat="54.327788" lon="-126.746899">
      </trkpt>
      <trkpt lat="54.32778" lon="-126.746917">
      </trkpt>
      <trkpt lat="54.327767" lon="-126.74694899">
      </trkpt>
      <trkpt lat="54.327769" lon="-126.74698601">
      </trkpt>
      <trkpt lat="54.327782" lon="-126.747029">
      </trkpt>
      <trkpt lat="54.327801" lon="-126.747058">
      </trkpt>
      <trkpt lat="54.327828" lon="-126.747079">
      </trkpt>
      <trkpt lat="54.327847" lon="-126.74709401">
      </trkpt>
      <trkpt lat="54.327853" lon="-126.74712601">
      </trkpt>
      <trkpt lat="54.327851" lon="-126.747155">
      </trkpt>
      <trkpt lat="54.32783" lon="-126.747166">
      </trkpt>
      <trkpt lat="54.327805" lon="-126.747177">
      </trkpt>
      <trkpt lat="54.327784" lon="-126.74718">
      </trkpt>
      <trkpt lat="54.327759" lon="-126.74720599">
      </trkpt>
      <trkpt lat="54.327754" lon="-126.747227">
      </trkpt>
      <trkpt lat="54.327738" lon="-126.747289">
      </trkpt>
      <trkpt lat="54.3277" lon="-126.747379">
      </trkpt>
      <trkpt lat="54.327675" lon="-126.747465">
      </trkpt>
      <trkpt lat="54.327656" lon="-126.74754499">
      </trkpt>
      <trkpt lat="54.327666" lon="-126.747646">
      </trkpt>
      <trkpt lat="54.327664" lon="-126.747751">
      </trkpt>
      <trkpt lat="54.327664" lon="-126.747823">
      </trkpt>
      <trkpt lat="54.327656" lon="-126.74788799">
      </trkpt>
      <trkpt lat="54.327662" lon="-126.74795299">
      </trkpt>
      <trkpt lat="54.327649" lon="-126.74799601">
      </trkpt>
      <trkpt lat="54.327635" lon="-126.748054">
      </trkpt>
      <trkpt lat="54.327613" lon="-126.748086">
      </trkpt>
      <trkpt lat="54.327609" lon="-126.748119">
      </trkpt>
      <trkpt lat="54.327618" lon="-126.74814801">
      </trkpt>
      <trkpt lat="54.327639" lon="-126.748187">
      </trkpt>
      <trkpt lat="54.32766" lon="-126.748231">
      </trkpt>
      <trkpt lat="54.327683" lon="-126.748259">
      </trkpt>
      <trkpt lat="54.327704" lon="-126.748314">
      </trkpt>
      <trkpt lat="54.327738" lon="-126.74835">
      </trkpt>
      <trkpt lat="54.327746" lon="-126.748382">
      </trkpt>
      <trkpt lat="54.327761" lon="-126.748451">
      </trkpt>
      <trkpt lat="54.327771" lon="-126.748498">
      </trkpt>
      <trkpt lat="54.327776" lon="-126.748526">
      </trkpt>
      <trkpt lat="54.327763" lon="-126.74856599">
      </trkpt>
      <trkpt lat="54.327748" lon="-126.748577">
      </trkpt>
      <trkpt lat="54.32774" lon="-126.748609">
      </trkpt>
      <trkpt lat="54.327744" lon="-126.748653">
      </trkpt>
      <trkpt lat="54.327757" lon="-126.748725">
      </trkpt>
      <trkpt lat="54.327799" lon="-126.74881499">
      </trkpt>
      <trkpt lat="54.327839" lon="-126.74888">
      </trkpt>
      <trkpt lat="54.327877" lon="-126.74895901">
      </trkpt>
      <trkpt lat="54.327893" lon="-126.749024">
      </trkpt>
      <trkpt lat="54.327917" lon="-126.74905699">
      </trkpt>
      <trkpt lat="54.32794" lon="-126.749086">
      </trkpt>
      <trkpt lat="54.32795" lon="-126.749118">
      </trkpt>
      <trkpt lat="54.327942" lon="-126.749169">
      </trkpt>
      <trkpt lat="54.327919" lon="-126.749194">
      </trkpt>
      <trkpt lat="54.327895" lon="-126.74918699">
      </trkpt>
    </trkseg>
  </trk>
</gpx>