<?xml version="1.0" encoding="UTF-8"?>
<gpx xmlns="http://www.topografix.com/GPX/1/1" xmlns:xsi="http://www.w3.org/2001/XMLSchema-instance" xsi:schemaLocation="http://www.topografix.com/GPX/1/1 http://www.topografix.com/GPX/1/1/gpx.xsd" version="1.1" creator="gpx.py -- https://github.com/tkrajina/gpxpy">
  <trk>
    <name>Assiniboine Lake</name>
    <trkseg>
      <trkpt lat="50.84090736" lon="-115.67866536">
      </trkpt>
      <trkpt lat="50.84092455" lon="-115.67860406">
      </trkpt>
      <trkpt lat="50.84092976" lon="-115.67845915">
      </trkpt>
      <trkpt lat="50.8409366" lon="-115.67836447">
      </trkpt>
      <trkpt lat="50.84093652" lon="-115.67826086">
      </trkpt>
      <trkpt lat="50.8409201" lon="-115.67812303">
      </trkpt>
      <trkpt lat="50.84089336" lon="-115.67806628">
      </trkpt>
      <trkpt lat="50.84085074" lon="-115.67797585">
      </trkpt>
      <trkpt lat="50.84081156" lon="-115.67793223">
      </trkpt>
      <trkpt lat="50.84078418" lon="-115.67783537">
      </trkpt>
      <trkpt lat="50.84079604" lon="-115.67773722">
      </trkpt>
      <trkpt lat="50.84081703" lon="-115.67767854">
      </trkpt>
      <trkpt lat="50.84085318" lon="-115.67759885">
      </trkpt>
      <trkpt lat="50.84087039" lon="-115.67743484">
      </trkpt>
      <trkpt lat="50.8408673" lon="-115.67733953">
      </trkpt>
      <trkpt lat="50.84086319" lon="-115.6771793">
      </trkpt>
      <trkpt lat="50.84087974" lon="-115.67700744">
      </trkpt>
      <trkpt lat="50.84087643" lon="-115.67688735">
      </trkpt>
      <trkpt lat="50.84089932" lon="-115.67675534">
      </trkpt>
      <trkpt lat="50.84097246" lon="-115.67667974">
      </trkpt>
      <trkpt lat="50.84105179" lon="-115.67666495">
      </trkpt>
      <trkpt lat="50.84118789" lon="-115.67674057">
      </trkpt>
      <trkpt lat="50.84129158" lon="-115.67673667">
      </trkpt>
      <trkpt lat="50.84140348" lon="-115.67672729">
      </trkpt>
      <trkpt lat="50.84150347" lon="-115.67672974">
      </trkpt>
      <trkpt lat="50.84158456" lon="-115.67675464">
      </trkpt>
      <trkpt lat="50.84168669" lon="-115.67676149">
      </trkpt>
      <trkpt lat="50.84181504" lon="-115.67680658">
      </trkpt>
      <trkpt lat="50.8418899" lon="-115.67689651">
      </trkpt>
      <trkpt lat="50.84199315" lon="-115.67695904">
      </trkpt>
      <trkpt lat="50.84208704" lon="-115.67696858">
      </trkpt>
      <trkpt lat="50.84217824" lon="-115.67697782">
      </trkpt>
      <trkpt lat="50.84228041" lon="-115.67693142">
      </trkpt>
      <trkpt lat="50.84237679" lon="-115.67687934">
      </trkpt>
      <trkpt lat="50.84242032" lon="-115.67679277">
      </trkpt>
      <trkpt lat="50.84245137" lon="-115.67672549">
      </trkpt>
      <trkpt lat="50.84250842" lon="-115.67669109">
      </trkpt>
      <trkpt lat="50.84255789" lon="-115.67666497">
      </trkpt>
      <trkpt lat="50.84261807" lon="-115.67663115">
      </trkpt>
      <trkpt lat="50.84271109" lon="-115.67655977">
      </trkpt>
      <trkpt lat="50.84275961" lon="-115.67648821">
      </trkpt>
      <trkpt lat="50.84275652" lon="-115.67643513">
      </trkpt>
      <trkpt lat="50.84272901" lon="-115.67636143">
      </trkpt>
      <trkpt lat="50.84270947" lon="-115.67630908">
      </trkpt>
      <trkpt lat="50.84273783" lon="-115.67621838">
      </trkpt>
      <trkpt lat="50.84279499" lon="-115.67613044">
      </trkpt>
      <trkpt lat="50.84282382" lon="-115.67606816">
      </trkpt>
      <trkpt lat="50.84283832" lon="-115.67598651">
      </trkpt>
      <trkpt lat="50.84287613" lon="-115.67592985">
      </trkpt>
      <trkpt lat="50.84294392" lon="-115.67590862">
      </trkpt>
      <trkpt lat="50.84299151" lon="-115.6759125">
      </trkpt>
      <trkpt lat="50.84304301" lon="-115.67593825">
      </trkpt>
      <trkpt lat="50.84305787" lon="-115.67598594">
      </trkpt>
      <trkpt lat="50.84309694" lon="-115.67600974">
      </trkpt>
      <trkpt lat="50.84313261" lon="-115.67600896">
      </trkpt>
      <trkpt lat="50.8431574" lon="-115.6760423">
      </trkpt>
      <trkpt lat="50.84318307" lon="-115.67605591">
      </trkpt>
      <trkpt lat="50.84325545" lon="-115.67614177">
      </trkpt>
      <trkpt lat="50.84332296" lon="-115.67616647">
      </trkpt>
      <trkpt lat="50.84336434" lon="-115.67616412">
      </trkpt>
    </trkseg>
    <trkseg>
      <trkpt lat="50.79541258" lon="-115.65648357">
      </trkpt>
      <trkpt lat="50.79543022" lon="-115.65647131">
      </trkpt>
      <trkpt lat="50.79559999" lon="-115.656365">
      </trkpt>
      <trkpt lat="50.79580673" lon="-115.65625846">
      </trkpt>
      <trkpt lat="50.7959736" lon="-115.65617787">
      </trkpt>
      <trkpt lat="50.79615311" lon="-115.65611942">
      </trkpt>
      <trkpt lat="50.79636137" lon="-115.65602922">
      </trkpt>
      <trkpt lat="50.79646542" lon="-115.6559549">
      </trkpt>
      <trkpt lat="50.79665207" lon="-115.65580291">
      </trkpt>
      <trkpt lat="50.79684678" lon="-115.65562398">
      </trkpt>
      <trkpt lat="50.79699723" lon="-115.65548041">
      </trkpt>
      <trkpt lat="50.79712562" lon="-115.65538372">
      </trkpt>
      <trkpt lat="50.79724671" lon="-115.65532215">
      </trkpt>
      <trkpt lat="50.7973821" lon="-115.65535746">
      </trkpt>
      <trkpt lat="50.79747688" lon="-115.65541059">
      </trkpt>
      <trkpt lat="50.79758642" lon="-115.65545193">
      </trkpt>
      <trkpt lat="50.79767374" lon="-115.65548172">
      </trkpt>
      <trkpt lat="50.79786071" lon="-115.65544658">
      </trkpt>
      <trkpt lat="50.79799715" lon="-115.65532296">
      </trkpt>
      <trkpt lat="50.79818152" lon="-115.65514644">
      </trkpt>
      <trkpt lat="50.79830534" lon="-115.6550007">
      </trkpt>
      <trkpt lat="50.79846597" lon="-115.65479628">
      </trkpt>
      <trkpt lat="50.79862006" lon="-115.65463514">
      </trkpt>
      <trkpt lat="50.79875118" lon="-115.65445429">
      </trkpt>
      <trkpt lat="50.79889052" lon="-115.65430493">
      </trkpt>
      <trkpt lat="50.79903442" lon="-115.65420463">
      </trkpt>
      <trkpt lat="50.79917255" lon="-115.65415579">
      </trkpt>
      <trkpt lat="50.79937579" lon="-115.65412521">
      </trkpt>
      <trkpt lat="50.79952061" lon="-115.65409151">
      </trkpt>
      <trkpt lat="50.79971427" lon="-115.65407152">
      </trkpt>
      <trkpt lat="50.79994702" lon="-115.65401737">
      </trkpt>
      <trkpt lat="50.80011755" lon="-115.65391922">
      </trkpt>
      <trkpt lat="50.80025643" lon="-115.65387855">
      </trkpt>
      <trkpt lat="50.8004836" lon="-115.65381583">
      </trkpt>
      <trkpt lat="50.80060069" lon="-115.65377339">
      </trkpt>
      <trkpt lat="50.8007338" lon="-115.65378418">
      </trkpt>
      <trkpt lat="50.80087741" lon="-115.653851">
      </trkpt>
      <trkpt lat="50.80097889" lon="-115.65391927">
      </trkpt>
      <trkpt lat="50.80112251" lon="-115.65398609">
      </trkpt>
      <trkpt lat="50.8012579" lon="-115.65402142">
      </trkpt>
      <trkpt lat="50.80139694" lon="-115.65403917">
      </trkpt>
      <trkpt lat="50.80152701" lon="-115.65401726">
      </trkpt>
      <trkpt lat="50.80170728" lon="-115.65396697">
      </trkpt>
      <trkpt lat="50.80183719" lon="-115.65388663">
      </trkpt>
      <trkpt lat="50.80197227" lon="-115.65380507">
      </trkpt>
      <trkpt lat="50.80205699" lon="-115.65369347">
      </trkpt>
      <trkpt lat="50.80216742" lon="-115.65351742">
      </trkpt>
      <trkpt lat="50.80224514" lon="-115.6532738">
      </trkpt>
      <trkpt lat="50.80229775" lon="-115.65304437">
      </trkpt>
      <trkpt lat="50.8023458" lon="-115.65276589">
      </trkpt>
      <trkpt lat="50.80236859" lon="-115.65244315">
      </trkpt>
      <trkpt lat="50.80236142" lon="-115.65225271">
      </trkpt>
      <trkpt lat="50.80240292" lon="-115.6520175">
      </trkpt>
      <trkpt lat="50.80245706" lon="-115.65180442">
      </trkpt>
      <trkpt lat="50.80249932" lon="-115.6515774">
      </trkpt>
      <trkpt lat="50.80254982" lon="-115.65138187">
      </trkpt>
      <trkpt lat="50.80260623" lon="-115.65119332">
      </trkpt>
      <trkpt lat="50.80267604" lon="-115.65103507">
      </trkpt>
      <trkpt lat="50.80284168" lon="-115.65077098">
      </trkpt>
      <trkpt lat="50.8029232" lon="-115.65056823">
      </trkpt>
      <trkpt lat="50.80300471" lon="-115.65036548">
      </trkpt>
      <trkpt lat="50.8030768" lon="-115.65023175">
      </trkpt>
      <trkpt lat="50.80314509" lon="-115.65005714">
      </trkpt>
      <trkpt lat="50.8032126" lon="-115.64987434">
      </trkpt>
      <trkpt lat="50.8033031" lon="-115.64971127">
      </trkpt>
      <trkpt lat="50.80344897" lon="-115.6495186">
      </trkpt>
      <trkpt lat="50.80359559" lon="-115.64933411">
      </trkpt>
      <trkpt lat="50.80373128" lon="-115.64920228">
      </trkpt>
      <trkpt lat="50.80384992" lon="-115.64905771">
      </trkpt>
      <trkpt lat="50.8039678" lon="-115.64890495">
      </trkpt>
      <trkpt lat="50.80407092" lon="-115.64876399">
      </trkpt>
      <trkpt lat="50.80418439" lon="-115.64862063">
      </trkpt>
      <trkpt lat="50.80428675" lon="-115.64847149">
      </trkpt>
      <trkpt lat="50.80438044" lon="-115.64839955">
      </trkpt>
      <trkpt lat="50.80447796" lon="-115.6483685">
      </trkpt>
      <trkpt lat="50.8045385" lon="-115.64833769">
      </trkpt>
      <trkpt lat="50.80463997" lon="-115.64840596">
      </trkpt>
      <trkpt lat="50.80477553" lon="-115.6484997">
      </trkpt>
      <trkpt lat="50.80490303" lon="-115.64862039">
      </trkpt>
      <trkpt lat="50.8049677" lon="-115.64874735">
      </trkpt>
      <trkpt lat="50.80497913" lon="-115.64886999">
      </trkpt>
      <trkpt lat="50.80495968" lon="-115.6490583">
      </trkpt>
      <trkpt lat="50.80492183" lon="-115.64927596">
      </trkpt>
      <trkpt lat="50.80491196" lon="-115.64945369">
      </trkpt>
      <trkpt lat="50.80493024" lon="-115.64964993">
      </trkpt>
      <trkpt lat="50.80500117" lon="-115.64990074">
      </trkpt>
      <trkpt lat="50.8050587" lon="-115.65012125">
      </trkpt>
      <trkpt lat="50.80511013" lon="-115.65027636">
      </trkpt>
      <trkpt lat="50.80520006" lon="-115.65044756">
      </trkpt>
      <trkpt lat="50.80527202" lon="-115.65053941">
      </trkpt>
      <trkpt lat="50.80545048" lon="-115.65063988">
      </trkpt>
      <trkpt lat="50.80563275" lon="-115.65078124">
      </trkpt>
      <trkpt lat="50.80576602" lon="-115.65085046">
      </trkpt>
      <trkpt lat="50.80597703" lon="-115.65096008">
      </trkpt>
      <trkpt lat="50.8061777" lon="-115.6510721">
      </trkpt>
      <trkpt lat="50.80632419" lon="-115.65111317">
      </trkpt>
      <trkpt lat="50.80653141" lon="-115.65118191">
      </trkpt>
      <trkpt lat="50.80664306" lon="-115.65118933">
      </trkpt>
      <trkpt lat="50.80667497" lon="-115.65114153">
      </trkpt>
      <trkpt lat="50.80673768" lon="-115.65123546">
      </trkpt>
      <trkpt lat="50.80677832" lon="-115.651359">
      </trkpt>
      <trkpt lat="50.80683274" lon="-115.65149385">
      </trkpt>
      <trkpt lat="50.80693669" lon="-115.65175467">
      </trkpt>
      <trkpt lat="50.80698374" lon="-115.6519255">
      </trkpt>
      <trkpt lat="50.80705113" lon="-115.65219227">
      </trkpt>
      <trkpt lat="50.8071552" lon="-115.65246792">
      </trkpt>
      <trkpt lat="50.80722553" lon="-115.65270284">
      </trkpt>
      <trkpt lat="50.8072968" lon="-115.65293867">
      </trkpt>
      <trkpt lat="50.80736433" lon="-115.65315005">
      </trkpt>
      <trkpt lat="50.80739876" lon="-115.65338467">
      </trkpt>
      <trkpt lat="50.80742994" lon="-115.65372991">
      </trkpt>
      <trkpt lat="50.80742964" lon="-115.65398672">
      </trkpt>
      <trkpt lat="50.80739761" lon="-115.654218">
      </trkpt>
      <trkpt lat="50.80737994" lon="-115.65443613">
      </trkpt>
      <trkpt lat="50.80741265" lon="-115.65461254">
      </trkpt>
      <trkpt lat="50.80746448" lon="-115.65477801">
      </trkpt>
      <trkpt lat="50.80752796" lon="-115.65504053">
      </trkpt>
      <trkpt lat="50.80757438" lon="-115.65514841">
      </trkpt>
      <trkpt lat="50.80764845" lon="-115.65527107">
      </trkpt>
      <trkpt lat="50.8076092" lon="-115.65542896">
      </trkpt>
      <trkpt lat="50.80755616" lon="-115.6554582">
      </trkpt>
      <trkpt lat="50.80756836" lon="-115.65559671">
      </trkpt>
      <trkpt lat="50.80761899" lon="-115.65579146">
      </trkpt>
      <trkpt lat="50.80770903" lon="-115.65581055">
      </trkpt>
      <trkpt lat="50.80778463" lon="-115.65586863">
      </trkpt>
      <trkpt lat="50.80783368" lon="-115.65603935">
      </trkpt>
      <trkpt lat="50.8079097" lon="-115.65621685">
      </trkpt>
      <trkpt lat="50.80797188" lon="-115.65629773">
      </trkpt>
      <trkpt lat="50.8081061" lon="-115.6564303">
      </trkpt>
      <trkpt lat="50.80818187" lon="-115.65650483">
      </trkpt>
      <trkpt lat="50.80824247" lon="-115.65655939">
      </trkpt>
      <trkpt lat="50.80831676" lon="-115.65665296">
      </trkpt>
      <trkpt lat="50.80838827" lon="-115.65670183">
      </trkpt>
      <trkpt lat="50.80847405" lon="-115.65675349">
      </trkpt>
      <trkpt lat="50.80854941" lon="-115.6567447">
      </trkpt>
      <trkpt lat="50.80858187" lon="-115.65679134">
      </trkpt>
      <trkpt lat="50.80863062" lon="-115.65692482">
      </trkpt>
      <trkpt lat="50.80867293" lon="-115.65698862">
      </trkpt>
      <trkpt lat="50.80875312" lon="-115.6569394">
      </trkpt>
      <trkpt lat="50.80881209" lon="-115.65692002">
      </trkpt>
      <trkpt lat="50.8088646" lon="-115.65704333">
      </trkpt>
      <trkpt lat="50.80890627" lon="-115.65713929">
      </trkpt>
      <trkpt lat="50.80894556" lon="-115.65719556">
      </trkpt>
      <trkpt lat="50.80896988" lon="-115.65738072">
      </trkpt>
      <trkpt lat="50.80901612" lon="-115.65744902">
      </trkpt>
      <trkpt lat="50.80907453" lon="-115.65750865">
      </trkpt>
      <trkpt lat="50.80915005" lon="-115.65754474">
      </trkpt>
      <trkpt lat="50.80921528" lon="-115.65762953">
      </trkpt>
      <trkpt lat="50.80925288" lon="-115.65771586">
      </trkpt>
      <trkpt lat="50.80930247" lon="-115.65772535">
      </trkpt>
      <trkpt lat="50.80932207" lon="-115.65771627">
      </trkpt>
      <trkpt lat="50.80936525" lon="-115.65783588">
      </trkpt>
      <trkpt lat="50.80941559" lon="-115.65793918">
      </trkpt>
      <trkpt lat="50.8094804" lon="-115.65807402">
      </trkpt>
      <trkpt lat="50.80954804" lon="-115.65811493">
      </trkpt>
      <trkpt lat="50.80958472" lon="-115.65820192">
      </trkpt>
      <trkpt lat="50.80961205" lon="-115.65826903">
      </trkpt>
      <trkpt lat="50.80965743" lon="-115.65836836">
      </trkpt>
      <trkpt lat="50.80969979" lon="-115.65848138">
      </trkpt>
      <trkpt lat="50.80971167" lon="-115.6585581">
      </trkpt>
      <trkpt lat="50.80972692" lon="-115.65870209">
      </trkpt>
      <trkpt lat="50.80975692" lon="-115.65884609">
      </trkpt>
      <trkpt lat="50.80980897" lon="-115.65901735">
      </trkpt>
      <trkpt lat="50.80986962" lon="-115.65920566">
      </trkpt>
      <trkpt lat="50.80993606" lon="-115.65935373">
      </trkpt>
      <trkpt lat="50.80999002" lon="-115.6595348">
      </trkpt>
      <trkpt lat="50.81001653" lon="-115.65961426">
      </trkpt>
      <trkpt lat="50.81007379" lon="-115.65975008">
      </trkpt>
      <trkpt lat="50.81012754" lon="-115.65986117">
      </trkpt>
      <trkpt lat="50.81014166" lon="-115.65995997">
      </trkpt>
      <trkpt lat="50.81016934" lon="-115.66007349">
      </trkpt>
      <trkpt lat="50.81023606" lon="-115.6602047">
      </trkpt>
      <trkpt lat="50.81028677" lon="-115.66029575">
      </trkpt>
      <trkpt lat="50.81034086" lon="-115.66031393">
      </trkpt>
      <trkpt lat="50.81035156" lon="-115.66034115">
      </trkpt>
      <trkpt lat="50.81034479" lon="-115.66043671">
      </trkpt>
      <trkpt lat="50.81037965" lon="-115.66052524">
      </trkpt>
      <trkpt lat="50.81045556" lon="-115.66064989">
      </trkpt>
      <trkpt lat="50.81051776" lon="-115.66070841">
      </trkpt>
      <trkpt lat="50.81054967" lon="-115.66078003">
      </trkpt>
      <trkpt lat="50.8105276" lon="-115.66083869">
      </trkpt>
      <trkpt lat="50.81054361" lon="-115.66094561">
      </trkpt>
      <trkpt lat="50.81057914" lon="-115.66097527">
      </trkpt>
      <trkpt lat="50.81061756" lon="-115.66098615">
      </trkpt>
      <trkpt lat="50.81066445" lon="-115.66101163">
      </trkpt>
      <trkpt lat="50.8106997" lon="-115.6610177">
      </trkpt>
      <trkpt lat="50.81074067" lon="-115.66105822">
      </trkpt>
      <trkpt lat="50.81068172" lon="-115.66104225">
      </trkpt>
      <trkpt lat="50.81065603" lon="-115.66105266">
      </trkpt>
      <trkpt lat="50.81062572" lon="-115.66108553">
      </trkpt>
      <trkpt lat="50.81059571" lon="-115.66113973">
      </trkpt>
      <trkpt lat="50.81056608" lon="-115.66120013">
      </trkpt>
      <trkpt lat="50.81053685" lon="-115.6613217">
      </trkpt>
      <trkpt lat="50.81053365" lon="-115.66141872">
      </trkpt>
      <trkpt lat="50.81056442" lon="-115.66154605">
      </trkpt>
      <trkpt lat="50.81059956" lon="-115.66171184">
      </trkpt>
      <trkpt lat="50.81062838" lon="-115.66184829">
      </trkpt>
      <trkpt lat="50.81064841" lon="-115.66199783">
      </trkpt>
      <trkpt lat="50.81068583" lon="-115.66213554">
      </trkpt>
      <trkpt lat="50.81071678" lon="-115.6622503">
      </trkpt>
      <trkpt lat="50.8107374" lon="-115.6622936">
      </trkpt>
      <trkpt lat="50.81076985" lon="-115.6623896">
      </trkpt>
      <trkpt lat="50.81081449" lon="-115.66246389">
      </trkpt>
      <trkpt lat="50.81085277" lon="-115.66253287">
      </trkpt>
      <trkpt lat="50.81089231" lon="-115.662561">
      </trkpt>
      <trkpt lat="50.81091452" lon="-115.66261914">
      </trkpt>
      <trkpt lat="50.81093643" lon="-115.66266952">
      </trkpt>
      <trkpt lat="50.81097705" lon="-115.66266616">
      </trkpt>
      <trkpt lat="50.8109936" lon="-115.66260527">
      </trkpt>
      <trkpt lat="50.81103614" lon="-115.66264475">
      </trkpt>
      <trkpt lat="50.81109689" lon="-115.66269133">
      </trkpt>
      <trkpt lat="50.81115472" lon="-115.66278192">
      </trkpt>
      <trkpt lat="50.81118749" lon="-115.66286945">
      </trkpt>
      <trkpt lat="50.8112356" lon="-115.66299214">
      </trkpt>
      <trkpt lat="50.8112944" lon="-115.66306407">
      </trkpt>
      <trkpt lat="50.81135658" lon="-115.66310653">
      </trkpt>
      <trkpt lat="50.81142955" lon="-115.66313855">
      </trkpt>
      <trkpt lat="50.81147827" lon="-115.66314778">
      </trkpt>
      <trkpt lat="50.81153645" lon="-115.66325691">
      </trkpt>
      <trkpt lat="50.81160473" lon="-115.663404">
      </trkpt>
      <trkpt lat="50.81167812" lon="-115.66363803">
      </trkpt>
      <trkpt lat="50.81173059" lon="-115.66379913">
      </trkpt>
      <trkpt lat="50.81178485" lon="-115.66392566">
      </trkpt>
      <trkpt lat="50.81183053" lon="-115.66403305">
      </trkpt>
      <trkpt lat="50.81189582" lon="-115.66410686">
      </trkpt>
      <trkpt lat="50.81195207" lon="-115.66416604">
      </trkpt>
      <trkpt lat="50.81200215" lon="-115.66421718">
      </trkpt>
      <trkpt lat="50.81203673" lon="-115.66426982">
      </trkpt>
      <trkpt lat="50.81207086" lon="-115.66433243">
      </trkpt>
      <trkpt lat="50.81210251" lon="-115.66439559">
      </trkpt>
      <trkpt lat="50.81214647" lon="-115.66442044">
      </trkpt>
      <trkpt lat="50.81219054" lon="-115.66447312">
      </trkpt>
      <trkpt lat="50.81226271" lon="-115.66457982">
      </trkpt>
      <trkpt lat="50.81230397" lon="-115.66468203">
      </trkpt>
      <trkpt lat="50.81234827" lon="-115.6647773">
      </trkpt>
      <trkpt lat="50.81241922" lon="-115.66492692">
      </trkpt>
      <trkpt lat="50.81248455" lon="-115.66507429">
      </trkpt>
      <trkpt lat="50.81252884" lon="-115.66519319">
      </trkpt>
      <trkpt lat="50.81257298" lon="-115.66531307">
      </trkpt>
      <trkpt lat="50.81261419" lon="-115.6653897">
      </trkpt>
      <trkpt lat="50.81267173" lon="-115.66549928">
      </trkpt>
      <trkpt lat="50.81272049" lon="-115.66558839">
      </trkpt>
      <trkpt lat="50.81277477" lon="-115.66570208">
      </trkpt>
      <trkpt lat="50.81283557" lon="-115.66576979">
      </trkpt>
      <trkpt lat="50.8128732" lon="-115.66586763">
      </trkpt>
      <trkpt lat="50.81289335" lon="-115.6659522">
      </trkpt>
      <trkpt lat="50.8129421" lon="-115.66601678">
      </trkpt>
      <trkpt lat="50.8129844" lon="-115.66602313">
      </trkpt>
      <trkpt lat="50.81302618" lon="-115.6660227">
      </trkpt>
      <trkpt lat="50.81304859" lon="-115.66588549">
      </trkpt>
      <trkpt lat="50.81308682" lon="-115.66579971">
      </trkpt>
      <trkpt lat="50.81314205" lon="-115.66573188">
      </trkpt>
      <trkpt lat="50.81319476" lon="-115.6657134">
      </trkpt>
      <trkpt lat="50.81321438" lon="-115.66574867">
      </trkpt>
      <trkpt lat="50.81321002" lon="-115.66577826">
      </trkpt>
      <trkpt lat="50.81320261" lon="-115.66582846">
      </trkpt>
      <trkpt lat="50.81319819" lon="-115.66585839">
      </trkpt>
      <trkpt lat="50.81321578" lon="-115.6658803">
      </trkpt>
      <trkpt lat="50.81325801" lon="-115.66590954">
      </trkpt>
      <trkpt lat="50.81329987" lon="-115.66585706">
      </trkpt>
      <trkpt lat="50.81333422" lon="-115.66584169">
      </trkpt>
      <trkpt lat="50.81336567" lon="-115.66588827">
      </trkpt>
      <trkpt lat="50.81339681" lon="-115.6659345">
      </trkpt>
      <trkpt lat="50.81343996" lon="-115.6659798">
      </trkpt>
      <trkpt lat="50.81343086" lon="-115.66608225">
      </trkpt>
      <trkpt lat="50.81341235" lon="-115.66612752">
      </trkpt>
      <trkpt lat="50.8134271" lon="-115.66625969">
      </trkpt>
      <trkpt lat="50.81341391" lon="-115.66635726">
      </trkpt>
      <trkpt lat="50.81339922" lon="-115.66645795">
      </trkpt>
      <trkpt lat="50.81341273" lon="-115.6665187">
      </trkpt>
      <trkpt lat="50.8134564" lon="-115.66658731">
      </trkpt>
      <trkpt lat="50.81347344" lon="-115.66670063">
      </trkpt>
      <trkpt lat="50.81348929" lon="-115.66680317">
      </trkpt>
      <trkpt lat="50.81353017" lon="-115.66687898">
      </trkpt>
      <trkpt lat="50.81354752" lon="-115.66697738">
      </trkpt>
      <trkpt lat="50.8135641" lon="-115.6670761">
      </trkpt>
      <trkpt lat="50.81357974" lon="-115.66718201">
      </trkpt>
      <trkpt lat="50.81360686" lon="-115.66721275">
      </trkpt>
      <trkpt lat="50.81365288" lon="-115.66726083">
      </trkpt>
      <trkpt lat="50.8136879" lon="-115.66729621">
      </trkpt>
      <trkpt lat="50.81374987" lon="-115.66737072">
      </trkpt>
      <trkpt lat="50.8137913" lon="-115.66746307">
      </trkpt>
      <trkpt lat="50.81383377" lon="-115.66754738">
      </trkpt>
      <trkpt lat="50.81388844" lon="-115.66756151">
      </trkpt>
      <trkpt lat="50.81396961" lon="-115.66758491">
      </trkpt>
      <trkpt lat="50.81401343" lon="-115.66761298">
      </trkpt>
      <trkpt lat="50.81405642" lon="-115.66774542">
      </trkpt>
      <trkpt lat="50.81417642" lon="-115.66782517">
      </trkpt>
      <trkpt lat="50.81427682" lon="-115.66786941">
      </trkpt>
      <trkpt lat="50.81435199" lon="-115.66790448">
      </trkpt>
      <trkpt lat="50.8144381" lon="-115.66794118">
      </trkpt>
      <trkpt lat="50.81451448" lon="-115.66791099">
      </trkpt>
      <trkpt lat="50.81461508" lon="-115.66796066">
      </trkpt>
      <trkpt lat="50.81471821" lon="-115.66804281">
      </trkpt>
      <trkpt lat="50.81482152" lon="-115.66806446">
      </trkpt>
      <trkpt lat="50.81493331" lon="-115.66811565">
      </trkpt>
      <trkpt lat="50.81502045" lon="-115.66817473">
      </trkpt>
      <trkpt lat="50.81505343" lon="-115.66820055">
      </trkpt>
      <trkpt lat="50.81507791" lon="-115.66821972">
      </trkpt>
      <trkpt lat="50.81511813" lon="-115.66830653">
      </trkpt>
      <trkpt lat="50.81518147" lon="-115.66839607">
      </trkpt>
      <trkpt lat="50.81525696" lon="-115.66843586">
      </trkpt>
      <trkpt lat="50.81534526" lon="-115.66847789">
      </trkpt>
      <trkpt lat="50.81540853" lon="-115.66852241">
      </trkpt>
      <trkpt lat="50.81546494" lon="-115.66858554">
      </trkpt>
      <trkpt lat="50.81550837" lon="-115.6686687">
      </trkpt>
      <trkpt lat="50.81555861" lon="-115.66875965">
      </trkpt>
      <trkpt lat="50.81562797" lon="-115.66881926">
      </trkpt>
      <trkpt lat="50.81572532" lon="-115.66884791">
      </trkpt>
      <trkpt lat="50.81577953" lon="-115.66890554">
      </trkpt>
      <trkpt lat="50.81583371" lon="-115.66902936">
      </trkpt>
      <trkpt lat="50.81585426" lon="-115.66913323">
      </trkpt>
      <trkpt lat="50.81588449" lon="-115.66924116">
      </trkpt>
      <trkpt lat="50.81593658" lon="-115.66938886">
      </trkpt>
      <trkpt lat="50.81599949" lon="-115.66950814">
      </trkpt>
      <trkpt lat="50.81605584" lon="-115.66962857">
      </trkpt>
      <trkpt lat="50.81612566" lon="-115.66972306">
      </trkpt>
      <trkpt lat="50.81619698" lon="-115.66985659">
      </trkpt>
      <trkpt lat="50.81630317" lon="-115.6698888">
      </trkpt>
      <trkpt lat="50.81641075" lon="-115.66995712">
      </trkpt>
      <trkpt lat="50.81652285" lon="-115.67002924">
      </trkpt>
      <trkpt lat="50.81658721" lon="-115.67006525">
      </trkpt>
      <trkpt lat="50.81664318" lon="-115.67011343">
      </trkpt>
      <trkpt lat="50.81669741" lon="-115.67016645">
      </trkpt>
      <trkpt lat="50.81676631" lon="-115.67024804">
      </trkpt>
      <trkpt lat="50.81684566" lon="-115.67028761">
      </trkpt>
      <trkpt lat="50.81693104" lon="-115.67032246">
      </trkpt>
      <trkpt lat="50.8170218" lon="-115.67037961">
      </trkpt>
      <trkpt lat="50.81709275" lon="-115.67044522">
      </trkpt>
      <trkpt lat="50.81715063" lon="-115.67053541">
      </trkpt>
      <trkpt lat="50.81721549" lon="-115.67064802">
      </trkpt>
      <trkpt lat="50.8173071" lon="-115.67078885">
      </trkpt>
      <trkpt lat="50.81742761" lon="-115.670967">
      </trkpt>
      <trkpt lat="50.81750504" lon="-115.67103371">
      </trkpt>
      <trkpt lat="50.81757725" lon="-115.67110083">
      </trkpt>
      <trkpt lat="50.8176922" lon="-115.67116391">
      </trkpt>
      <trkpt lat="50.81783991" lon="-115.67123649">
      </trkpt>
      <trkpt lat="50.81794087" lon="-115.67133238">
      </trkpt>
      <trkpt lat="50.81801724" lon="-115.67145135">
      </trkpt>
      <trkpt lat="50.81805606" lon="-115.6715511">
      </trkpt>
      <trkpt lat="50.81813154" lon="-115.67160434">
      </trkpt>
      <trkpt lat="50.81819834" lon="-115.67165841">
      </trkpt>
      <trkpt lat="50.81824184" lon="-115.671698">
      </trkpt>
      <trkpt lat="50.81829519" lon="-115.67170223">
      </trkpt>
      <trkpt lat="50.81835159" lon="-115.67172225">
      </trkpt>
      <trkpt lat="50.81840114" lon="-115.67178732">
      </trkpt>
      <trkpt lat="50.81845824" lon="-115.67183975">
      </trkpt>
      <trkpt lat="50.81849197" lon="-115.67192897">
      </trkpt>
      <trkpt lat="50.81853807" lon="-115.67202371">
      </trkpt>
      <trkpt lat="50.81859866" lon="-115.67207866">
      </trkpt>
      <trkpt lat="50.81864016" lon="-115.67221327">
      </trkpt>
      <trkpt lat="50.81873834" lon="-115.67232095">
      </trkpt>
      <trkpt lat="50.81881915" lon="-115.67238396">
      </trkpt>
      <trkpt lat="50.81895564" lon="-115.67246845">
      </trkpt>
      <trkpt lat="50.81903591" lon="-115.6725273">
      </trkpt>
      <trkpt lat="50.8190849" lon="-115.67261153">
      </trkpt>
      <trkpt lat="50.81914938" lon="-115.67269788">
      </trkpt>
      <trkpt lat="50.81921942" lon="-115.67279207">
      </trkpt>
      <trkpt lat="50.81924741" lon="-115.67288141">
      </trkpt>
      <trkpt lat="50.8193027" lon="-115.67307627">
      </trkpt>
      <trkpt lat="50.81938318" lon="-115.67314814">
      </trkpt>
      <trkpt lat="50.81945076" lon="-115.67320005">
      </trkpt>
      <trkpt lat="50.81951155" lon="-115.6732767">
      </trkpt>
      <trkpt lat="50.81960459" lon="-115.67337506">
      </trkpt>
      <trkpt lat="50.81968687" lon="-115.67347666">
      </trkpt>
      <trkpt lat="50.81973932" lon="-115.6735493">
      </trkpt>
      <trkpt lat="50.81978106" lon="-115.67364526">
      </trkpt>
      <trkpt lat="50.81984874" lon="-115.67372728">
      </trkpt>
      <trkpt lat="50.81990245" lon="-115.67383392">
      </trkpt>
      <trkpt lat="50.81995462" lon="-115.67390589">
      </trkpt>
      <trkpt lat="50.82006334" lon="-115.67397254">
      </trkpt>
      <trkpt lat="50.82014859" lon="-115.67403255">
      </trkpt>
      <trkpt lat="50.82020459" lon="-115.67411414">
      </trkpt>
      <trkpt lat="50.82024968" lon="-115.67423666">
      </trkpt>
      <trkpt lat="50.82033462" lon="-115.6744017">
      </trkpt>
      <trkpt lat="50.82043084" lon="-115.67455769">
      </trkpt>
      <trkpt lat="50.82052058" lon="-115.67475081">
      </trkpt>
      <trkpt lat="50.82059941" lon="-115.67489682">
      </trkpt>
      <trkpt lat="50.82061892" lon="-115.67502031">
      </trkpt>
      <trkpt lat="50.82063233" lon="-115.67512287">
      </trkpt>
      <trkpt lat="50.8206697" lon="-115.67519362">
      </trkpt>
      <trkpt lat="50.82068236" lon="-115.67525803">
      </trkpt>
      <trkpt lat="50.82069436" lon="-115.67543863">
      </trkpt>
      <trkpt lat="50.82072038" lon="-115.67558174">
      </trkpt>
      <trkpt lat="50.82071978" lon="-115.67567602">
      </trkpt>
      <trkpt lat="50.82075567" lon="-115.67581893">
      </trkpt>
      <trkpt lat="50.82080764" lon="-115.67592404">
      </trkpt>
      <trkpt lat="50.82086804" lon="-115.67603943">
      </trkpt>
      <trkpt lat="50.82093909" lon="-115.67613562">
      </trkpt>
      <trkpt lat="50.82101209" lon="-115.67616782">
      </trkpt>
      <trkpt lat="50.82108326" lon="-115.67620888">
      </trkpt>
      <trkpt lat="50.82114295" lon="-115.67624914">
      </trkpt>
      <trkpt lat="50.82120266" lon="-115.67633104">
      </trkpt>
      <trkpt lat="50.82128406" lon="-115.67632222">
      </trkpt>
      <trkpt lat="50.82134678" lon="-115.67634182">
      </trkpt>
      <trkpt lat="50.82140445" lon="-115.67649677">
      </trkpt>
      <trkpt lat="50.82147552" lon="-115.67658589">
      </trkpt>
      <trkpt lat="50.8215496" lon="-115.67669078">
      </trkpt>
      <trkpt lat="50.82163887" lon="-115.67679147">
      </trkpt>
      <trkpt lat="50.82170129" lon="-115.67683656">
      </trkpt>
      <trkpt lat="50.82177477" lon="-115.6769288">
      </trkpt>
      <trkpt lat="50.82184046" lon="-115.67701863">
      </trkpt>
      <trkpt lat="50.8219097" lon="-115.67707555">
      </trkpt>
      <trkpt lat="50.8220249" lon="-115.67709946">
      </trkpt>
      <trkpt lat="50.82215622" lon="-115.67707717">
      </trkpt>
      <trkpt lat="50.822262" lon="-115.67705521">
      </trkpt>
      <trkpt lat="50.82236547" lon="-115.67704291">
      </trkpt>
      <trkpt lat="50.8224622" lon="-115.67708509">
      </trkpt>
      <trkpt lat="50.82249934" lon="-115.67709557">
      </trkpt>
      <trkpt lat="50.82258434" lon="-115.67707619">
      </trkpt>
      <trkpt lat="50.82265141" lon="-115.6770586">
      </trkpt>
      <trkpt lat="50.82272759" lon="-115.67710482">
      </trkpt>
      <trkpt lat="50.82277638" lon="-115.67715888">
      </trkpt>
      <trkpt lat="50.82285948" lon="-115.67724955">
      </trkpt>
      <trkpt lat="50.82295558" lon="-115.67730009">
      </trkpt>
      <trkpt lat="50.82302019" lon="-115.6773679">
      </trkpt>
      <trkpt lat="50.82309203" lon="-115.67744564">
      </trkpt>
      <trkpt lat="50.82320177" lon="-115.67757239">
      </trkpt>
      <trkpt lat="50.82329096" lon="-115.67762387">
      </trkpt>
      <trkpt lat="50.82335882" lon="-115.67766094">
      </trkpt>
      <trkpt lat="50.82350571" lon="-115.67778247">
      </trkpt>
      <trkpt lat="50.8235749" lon="-115.67788296">
      </trkpt>
      <trkpt lat="50.82363897" lon="-115.67798398">
      </trkpt>
      <trkpt lat="50.82369743" lon="-115.67808045">
      </trkpt>
      <trkpt lat="50.82378734" lon="-115.67814105">
      </trkpt>
      <trkpt lat="50.82382282" lon="-115.67828299">
      </trkpt>
      <trkpt lat="50.82387166" lon="-115.67838153">
      </trkpt>
      <trkpt lat="50.8239575" lon="-115.67841328">
      </trkpt>
      <trkpt lat="50.82400189" lon="-115.67842135">
      </trkpt>
      <trkpt lat="50.82409705" lon="-115.67840115">
      </trkpt>
      <trkpt lat="50.82417068" lon="-115.67840422">
      </trkpt>
      <trkpt lat="50.82426281" lon="-115.67842972">
      </trkpt>
      <trkpt lat="50.82434024" lon="-115.67847746">
      </trkpt>
      <trkpt lat="50.82452225" lon="-115.67845245">
      </trkpt>
      <trkpt lat="50.8246323" lon="-115.67845801">
      </trkpt>
      <trkpt lat="50.82471459" lon="-115.67851023">
      </trkpt>
      <trkpt lat="50.82487284" lon="-115.67856262">
      </trkpt>
      <trkpt lat="50.82498125" lon="-115.67860518">
      </trkpt>
      <trkpt lat="50.82509089" lon="-115.67862377">
      </trkpt>
      <trkpt lat="50.82519673" lon="-115.67870008">
      </trkpt>
      <trkpt lat="50.82527545" lon="-115.67880048">
      </trkpt>
      <trkpt lat="50.82532899" lon="-115.67892732">
      </trkpt>
      <trkpt lat="50.82538628" lon="-115.67900049">
      </trkpt>
      <trkpt lat="50.82544666" lon="-115.67904865">
      </trkpt>
      <trkpt lat="50.82551749" lon="-115.67911576">
      </trkpt>
      <trkpt lat="50.82557279" lon="-115.67919908">
      </trkpt>
      <trkpt lat="50.82566687" lon="-115.67922849">
      </trkpt>
      <trkpt lat="50.82576396" lon="-115.6792489">
      </trkpt>
      <trkpt lat="50.82585613" lon="-115.67928936">
      </trkpt>
      <trkpt lat="50.82599915" lon="-115.67930937">
      </trkpt>
      <trkpt lat="50.82610878" lon="-115.67930329">
      </trkpt>
      <trkpt lat="50.82628071" lon="-115.67930118">
      </trkpt>
      <trkpt lat="50.82634494" lon="-115.67930482">
      </trkpt>
      <trkpt lat="50.82646677" lon="-115.67944179">
      </trkpt>
      <trkpt lat="50.82656869" lon="-115.67956159">
      </trkpt>
      <trkpt lat="50.82664551" lon="-115.67963063">
      </trkpt>
      <trkpt lat="50.82672181" lon="-115.67968051">
      </trkpt>
      <trkpt lat="50.82679562" lon="-115.67973204">
      </trkpt>
      <trkpt lat="50.82685447" lon="-115.6797673">
      </trkpt>
      <trkpt lat="50.82696914" lon="-115.67980897">
      </trkpt>
      <trkpt lat="50.82705343" lon="-115.67982063">
      </trkpt>
      <trkpt lat="50.82717791" lon="-115.67986217">
      </trkpt>
      <trkpt lat="50.82724761" lon="-115.67990681">
      </trkpt>
      <trkpt lat="50.82732836" lon="-115.67997566">
      </trkpt>
      <trkpt lat="50.82743096" lon="-115.68001134">
      </trkpt>
      <trkpt lat="50.82751244" lon="-115.68001038">
      </trkpt>
      <trkpt lat="50.8276345" lon="-115.68002372">
      </trkpt>
      <trkpt lat="50.82773955" lon="-115.68003678">
      </trkpt>
      <trkpt lat="50.8278078" lon="-115.67998151">
      </trkpt>
      <trkpt lat="50.82787166" lon="-115.68001299">
      </trkpt>
      <trkpt lat="50.82792629" lon="-115.68008919">
      </trkpt>
      <trkpt lat="50.8279623" lon="-115.68022101">
      </trkpt>
      <trkpt lat="50.8280088" lon="-115.68025905">
      </trkpt>
      <trkpt lat="50.82805478" lon="-115.68033363">
      </trkpt>
      <trkpt lat="50.82811234" lon="-115.6803915">
      </trkpt>
      <trkpt lat="50.82819477" lon="-115.68041998">
      </trkpt>
      <trkpt lat="50.82829431" lon="-115.68041346">
      </trkpt>
      <trkpt lat="50.82835372" lon="-115.68044388">
      </trkpt>
      <trkpt lat="50.82846413" lon="-115.68054582">
      </trkpt>
      <trkpt lat="50.82858951" lon="-115.6806388">
      </trkpt>
      <trkpt lat="50.82864508" lon="-115.68066523">
      </trkpt>
      <trkpt lat="50.82871649" lon="-115.68066039">
      </trkpt>
      <trkpt lat="50.82880367" lon="-115.68069233">
      </trkpt>
      <trkpt lat="50.82887454" lon="-115.68073401">
      </trkpt>
      <trkpt lat="50.82895165" lon="-115.68079682">
      </trkpt>
      <trkpt lat="50.82906165" lon="-115.68087295">
      </trkpt>
      <trkpt lat="50.82920632" lon="-115.68097834">
      </trkpt>
      <trkpt lat="50.82932593" lon="-115.68103263">
      </trkpt>
      <trkpt lat="50.82947016" lon="-115.68127407">
      </trkpt>
      <trkpt lat="50.82952276" lon="-115.6813715">
      </trkpt>
      <trkpt lat="50.82957703" lon="-115.681483">
      </trkpt>
      <trkpt lat="50.82967394" lon="-115.68160322">
      </trkpt>
      <trkpt lat="50.82975398" lon="-115.68168544">
      </trkpt>
      <trkpt lat="50.82981655" lon="-115.68180209">
      </trkpt>
      <trkpt lat="50.82988498" lon="-115.68185435">
      </trkpt>
      <trkpt lat="50.82995183" lon="-115.68187177">
      </trkpt>
      <trkpt lat="50.82998776" lon="-115.68194267">
      </trkpt>
      <trkpt lat="50.83003399" lon="-115.68202386">
      </trkpt>
      <trkpt lat="50.83009996" lon="-115.68214249">
      </trkpt>
      <trkpt lat="50.83016803" lon="-115.68225257">
      </trkpt>
      <trkpt lat="50.83023159" lon="-115.68230901">
      </trkpt>
      <trkpt lat="50.83033895" lon="-115.68230505">
      </trkpt>
      <trkpt lat="50.83044029" lon="-115.68236582">
      </trkpt>
      <trkpt lat="50.8304882" lon="-115.68237659">
      </trkpt>
      <trkpt lat="50.83046475" lon="-115.68230806">
      </trkpt>
      <trkpt lat="50.83046717" lon="-115.68224426">
      </trkpt>
      <trkpt lat="50.83051336" lon="-115.68221841">
      </trkpt>
      <trkpt lat="50.83058948" lon="-115.68224503">
      </trkpt>
      <trkpt lat="50.83067579" lon="-115.6822536">
      </trkpt>
      <trkpt lat="50.83077649" lon="-115.68227456">
      </trkpt>
      <trkpt lat="50.83088819" lon="-115.68231779">
      </trkpt>
      <trkpt lat="50.83096484" lon="-115.68235482">
      </trkpt>
      <trkpt lat="50.83107185" lon="-115.68241934">
      </trkpt>
      <trkpt lat="50.83117135" lon="-115.68245231">
      </trkpt>
      <trkpt lat="50.83126834" lon="-115.68241923">
      </trkpt>
      <trkpt lat="50.83134407" lon="-115.68238998">
      </trkpt>
      <trkpt lat="50.83142588" lon="-115.68246589">
      </trkpt>
      <trkpt lat="50.83152426" lon="-115.6825588">
      </trkpt>
      <trkpt lat="50.83164495" lon="-115.68265856">
      </trkpt>
      <trkpt lat="50.83176166" lon="-115.68265079">
      </trkpt>
      <trkpt lat="50.83185906" lon="-115.68263004">
      </trkpt>
      <trkpt lat="50.83192803" lon="-115.68265723">
      </trkpt>
      <trkpt lat="50.83198822" lon="-115.68268227">
      </trkpt>
      <trkpt lat="50.83205768" lon="-115.68273087">
      </trkpt>
      <trkpt lat="50.83213795" lon="-115.68275886">
      </trkpt>
      <trkpt lat="50.83225303" lon="-115.68276024">
      </trkpt>
      <trkpt lat="50.83234893" lon="-115.68274966">
      </trkpt>
      <trkpt lat="50.83242881" lon="-115.68272817">
      </trkpt>
      <trkpt lat="50.83250841" lon="-115.68279701">
      </trkpt>
      <trkpt lat="50.83262582" lon="-115.68285692">
      </trkpt>
      <trkpt lat="50.83273365" lon="-115.6829301">
      </trkpt>
      <trkpt lat="50.83281848" lon="-115.68299918">
      </trkpt>
      <trkpt lat="50.83290218" lon="-115.68304703">
      </trkpt>
      <trkpt lat="50.8329993" lon="-115.68308489">
      </trkpt>
      <trkpt lat="50.83309825" lon="-115.6830971">
      </trkpt>
      <trkpt lat="50.83316801" lon="-115.68307435">
      </trkpt>
      <trkpt lat="50.83322221" lon="-115.68303428">
      </trkpt>
      <trkpt lat="50.83327351" lon="-115.68302002">
      </trkpt>
      <trkpt lat="50.83333389" lon="-115.68296338">
      </trkpt>
      <trkpt lat="50.83340378" lon="-115.68288056">
      </trkpt>
      <trkpt lat="50.83344562" lon="-115.68280887">
      </trkpt>
      <trkpt lat="50.83347873" lon="-115.68272147">
      </trkpt>
      <trkpt lat="50.83352781" lon="-115.68264032">
      </trkpt>
      <trkpt lat="50.83360792" lon="-115.68261689">
      </trkpt>
      <trkpt lat="50.83371874" lon="-115.6825579">
      </trkpt>
      <trkpt lat="50.83380959" lon="-115.68247583">
      </trkpt>
      <trkpt lat="50.83387636" lon="-115.68239774">
      </trkpt>
      <trkpt lat="50.83392712" lon="-115.6823553">
      </trkpt>
      <trkpt lat="50.83401434" lon="-115.68234598">
      </trkpt>
      <trkpt lat="50.83407679" lon="-115.68237876">
      </trkpt>
      <trkpt lat="50.83411044" lon="-115.68241769">
      </trkpt>
      <trkpt lat="50.83419575" lon="-115.68233187">
      </trkpt>
      <trkpt lat="50.83426134" lon="-115.68229356">
      </trkpt>
      <trkpt lat="50.83435074" lon="-115.68235164">
      </trkpt>
      <trkpt lat="50.83446489" lon="-115.68234664">
      </trkpt>
      <trkpt lat="50.83452548" lon="-115.68234802">
      </trkpt>
      <trkpt lat="50.83463196" lon="-115.68232791">
      </trkpt>
      <trkpt lat="50.8346909" lon="-115.68232785">
      </trkpt>
      <trkpt lat="50.83475501" lon="-115.68228426">
      </trkpt>
      <trkpt lat="50.83479738" lon="-115.68230907">
      </trkpt>
      <trkpt lat="50.83486823" lon="-115.68231507">
      </trkpt>
      <trkpt lat="50.83494745" lon="-115.68229934">
      </trkpt>
      <trkpt lat="50.83502204" lon="-115.68229505">
      </trkpt>
      <trkpt lat="50.83510973" lon="-115.6822849">
      </trkpt>
      <trkpt lat="50.83520761" lon="-115.68221767">
      </trkpt>
      <trkpt lat="50.83528662" lon="-115.68219392">
      </trkpt>
      <trkpt lat="50.83537224" lon="-115.68215333">
      </trkpt>
      <trkpt lat="50.83547083" lon="-115.68209896">
      </trkpt>
      <trkpt lat="50.83556321" lon="-115.68204863">
      </trkpt>
      <trkpt lat="50.83562609" lon="-115.68201076">
      </trkpt>
      <trkpt lat="50.83569013" lon="-115.68203515">
      </trkpt>
      <trkpt lat="50.83577863" lon="-115.682079">
      </trkpt>
      <trkpt lat="50.83583134" lon="-115.68209787">
      </trkpt>
      <trkpt lat="50.8358592" lon="-115.68210783">
      </trkpt>
      <trkpt lat="50.8359264" lon="-115.68210141">
      </trkpt>
      <trkpt lat="50.83603986" lon="-115.68206223">
      </trkpt>
      <trkpt lat="50.83611604" lon="-115.68201746">
      </trkpt>
      <trkpt lat="50.83619723" lon="-115.68193077">
      </trkpt>
      <trkpt lat="50.83628349" lon="-115.68186935">
      </trkpt>
      <trkpt lat="50.83634838" lon="-115.68177191">
      </trkpt>
      <trkpt lat="50.83641358" lon="-115.68170633">
      </trkpt>
      <trkpt lat="50.83651743" lon="-115.68166086">
      </trkpt>
      <trkpt lat="50.83661531" lon="-115.6815979">
      </trkpt>
      <trkpt lat="50.83670549" lon="-115.68156421">
      </trkpt>
      <trkpt lat="50.83685078" lon="-115.68149886">
      </trkpt>
      <trkpt lat="50.83696193" lon="-115.68144221">
      </trkpt>
      <trkpt lat="50.83705119" lon="-115.68140178">
      </trkpt>
      <trkpt lat="50.83719314" lon="-115.68133301">
      </trkpt>
      <trkpt lat="50.8373072" lon="-115.68129198">
      </trkpt>
      <trkpt lat="50.83739057" lon="-115.68126394">
      </trkpt>
      <trkpt lat="50.83748669" lon="-115.68125684">
      </trkpt>
      <trkpt lat="50.83755789" lon="-115.68127575">
      </trkpt>
      <trkpt lat="50.83763467" lon="-115.68124403">
      </trkpt>
      <trkpt lat="50.83771924" lon="-115.68115477">
      </trkpt>
      <trkpt lat="50.83778125" lon="-115.68107907">
      </trkpt>
      <trkpt lat="50.83785231" lon="-115.68096357">
      </trkpt>
      <trkpt lat="50.83792924" lon="-115.68088245">
      </trkpt>
      <trkpt lat="50.83795065" lon="-115.68080048">
      </trkpt>
      <trkpt lat="50.83800957" lon="-115.68075629">
      </trkpt>
      <trkpt lat="50.83810368" lon="-115.68073257">
      </trkpt>
      <trkpt lat="50.83818035" lon="-115.68075224">
      </trkpt>
      <trkpt lat="50.8382424" lon="-115.68071023">
      </trkpt>
      <trkpt lat="50.83835072" lon="-115.68068194">
      </trkpt>
      <trkpt lat="50.83840858" lon="-115.68057992">
      </trkpt>
      <trkpt lat="50.83848194" lon="-115.68055453">
      </trkpt>
      <trkpt lat="50.8385543" lon="-115.68051785">
      </trkpt>
      <trkpt lat="50.83862762" lon="-115.68050602">
      </trkpt>
      <trkpt lat="50.83872546" lon="-115.68046324">
      </trkpt>
      <trkpt lat="50.83878418" lon="-115.68041265">
      </trkpt>
      <trkpt lat="50.83887041" lon="-115.68037142">
      </trkpt>
      <trkpt lat="50.83899582" lon="-115.68035327">
      </trkpt>
      <trkpt lat="50.8391114" lon="-115.68032277">
      </trkpt>
      <trkpt lat="50.8391897" lon="-115.68028162">
      </trkpt>
      <trkpt lat="50.83928015" lon="-115.68024856">
      </trkpt>
      <trkpt lat="50.83938911" lon="-115.68022457">
      </trkpt>
      <trkpt lat="50.83947292" lon="-115.68021699">
      </trkpt>
      <trkpt lat="50.83955374" lon="-115.68015911">
      </trkpt>
      <trkpt lat="50.83964685" lon="-115.68009569">
      </trkpt>
      <trkpt lat="50.83973315" lon="-115.68007786">
      </trkpt>
      <trkpt lat="50.83979427" lon="-115.68005276">
      </trkpt>
      <trkpt lat="50.8398732" lon="-115.68001347">
      </trkpt>
      <trkpt lat="50.83992562" lon="-115.67992227">
      </trkpt>
      <trkpt lat="50.8399552" lon="-115.67979811">
      </trkpt>
      <trkpt lat="50.83999373" lon="-115.67969301">
      </trkpt>
      <trkpt lat="50.84005141" lon="-115.67962403">
      </trkpt>
      <trkpt lat="50.84012524" lon="-115.67951956">
      </trkpt>
      <trkpt lat="50.84019439" lon="-115.67943967">
      </trkpt>
      <trkpt lat="50.84024531" lon="-115.67936572">
      </trkpt>
      <trkpt lat="50.84027469" lon="-115.67923528">
      </trkpt>
      <trkpt lat="50.84032694" lon="-115.67913363">
      </trkpt>
      <trkpt lat="50.84040747" lon="-115.67906255">
      </trkpt>
      <trkpt lat="50.84047219" lon="-115.67899237">
      </trkpt>
      <trkpt lat="50.84055231" lon="-115.6789552">
      </trkpt>
      <trkpt lat="50.84062796" lon="-115.67891374">
      </trkpt>
      <trkpt lat="50.84067542" lon="-115.67888746">
      </trkpt>
      <trkpt lat="50.84072392" lon="-115.67882108">
      </trkpt>
      <trkpt lat="50.84077536" lon="-115.67875833">
      </trkpt>
      <trkpt lat="50.84082651" lon="-115.67871676">
      </trkpt>
      <trkpt lat="50.84087088" lon="-115.67868833">
      </trkpt>
      <trkpt lat="50.84089359" lon="-115.67867808">
      </trkpt>
      <trkpt lat="50.84090126" lon="-115.67867271">
      </trkpt>
      <trkpt lat="50.84090736" lon="-115.67866536">
      </trkpt>
      <trkpt lat="50.84094" lon="-115.67866834">
      </trkpt>
      <trkpt lat="50.84097108" lon="-115.67868443">
      </trkpt>
      <trkpt lat="50.84103454" lon="-115.67871728">
      </trkpt>
      <trkpt lat="50.84109055" lon="-115.67873516">
      </trkpt>
      <trkpt lat="50.84116975" lon="-115.67876441">
      </trkpt>
      <trkpt lat="50.84122921" lon="-115.67876816">
      </trkpt>
      <trkpt lat="50.84127344" lon="-115.67877348">
      </trkpt>
      <trkpt lat="50.84136723" lon="-115.67882214">
      </trkpt>
      <trkpt lat="50.84141223" lon="-115.67883752">
      </trkpt>
      <trkpt lat="50.84147405" lon="-115.67884532">
      </trkpt>
      <trkpt lat="50.84150989" lon="-115.67879111">
      </trkpt>
      <trkpt lat="50.84155947" lon="-115.67871727">
      </trkpt>
      <trkpt lat="50.84161239" lon="-115.67870529">
      </trkpt>
      <trkpt lat="50.84168542" lon="-115.67870365">
      </trkpt>
      <trkpt lat="50.84173529" lon="-115.67870467">
      </trkpt>
      <trkpt lat="50.84180108" lon="-115.67870767">
      </trkpt>
      <trkpt lat="50.84189273" lon="-115.67867618">
      </trkpt>
      <trkpt lat="50.84196057" lon="-115.67866127">
      </trkpt>
      <trkpt lat="50.84201485" lon="-115.67858214">
      </trkpt>
      <trkpt lat="50.8420159" lon="-115.67866536">
      </trkpt>
      <trkpt lat="50.84201655" lon="-115.6787174">
      </trkpt>
      <trkpt lat="50.84204141" lon="-115.67876563">
      </trkpt>
      <trkpt lat="50.84210078" lon="-115.67879456">
      </trkpt>
      <trkpt lat="50.84216277" lon="-115.67882777">
      </trkpt>
      <trkpt lat="50.84221322" lon="-115.67885742">
      </trkpt>
      <trkpt lat="50.84227105" lon="-115.67887459">
      </trkpt>
      <trkpt lat="50.84231559" lon="-115.67888789">
      </trkpt>
      <trkpt lat="50.84234061" lon="-115.67887371">
      </trkpt>
      <trkpt lat="50.8423654" lon="-115.67885646">
      </trkpt>
      <trkpt lat="50.84239999" lon="-115.67892592">
      </trkpt>
      <trkpt lat="50.84242808" lon="-115.67900336">
      </trkpt>
      <trkpt lat="50.84244499" lon="-115.67909336">
      </trkpt>
      <trkpt lat="50.84249014" lon="-115.67914573">
      </trkpt>
      <trkpt lat="50.84254374" lon="-115.67919203">
      </trkpt>
      <trkpt lat="50.8426091" lon="-115.6792264">
      </trkpt>
      <trkpt lat="50.84268058" lon="-115.67927297">
      </trkpt>
      <trkpt lat="50.84275513" lon="-115.67930619">
      </trkpt>
      <trkpt lat="50.84281971" lon="-115.67930713">
      </trkpt>
      <trkpt lat="50.84288718" lon="-115.67930252">
      </trkpt>
      <trkpt lat="50.84297014" lon="-115.67929087">
      </trkpt>
      <trkpt lat="50.84305578" lon="-115.67927985">
      </trkpt>
      <trkpt lat="50.84309194" lon="-115.6792752">
      </trkpt>
      <trkpt lat="50.84312889" lon="-115.67927894">
      </trkpt>
      <trkpt lat="50.84318818" lon="-115.67930795">
      </trkpt>
      <trkpt lat="50.8432523" lon="-115.6793393">
      </trkpt>
      <trkpt lat="50.84330451" lon="-115.67934099">
      </trkpt>
      <trkpt lat="50.84337385" lon="-115.67930595">
      </trkpt>
      <trkpt lat="50.84346313" lon="-115.67926945">
      </trkpt>
      <trkpt lat="50.84353508" lon="-115.67925289">
      </trkpt>
      <trkpt lat="50.84357845" lon="-115.67923845">
      </trkpt>
      <trkpt lat="50.84363584" lon="-115.67919788">
      </trkpt>
      <trkpt lat="50.84373396" lon="-115.6791412">
      </trkpt>
      <trkpt lat="50.84381485" lon="-115.67912304">
      </trkpt>
      <trkpt lat="50.84389585" lon="-115.67912062">
      </trkpt>
      <trkpt lat="50.84395541" lon="-115.67912004">
      </trkpt>
      <trkpt lat="50.84399472" lon="-115.67911966">
      </trkpt>
      <trkpt lat="50.84403128" lon="-115.67910852">
      </trkpt>
      <trkpt lat="50.84409953" lon="-115.6790493">
      </trkpt>
      <trkpt lat="50.84417971" lon="-115.67898657">
      </trkpt>
      <trkpt lat="50.84425214" lon="-115.67894855">
      </trkpt>
      <trkpt lat="50.84430153" lon="-115.67892262">
      </trkpt>
      <trkpt lat="50.84434269" lon="-115.67889874">
      </trkpt>
      <trkpt lat="50.84442214" lon="-115.6788368">
      </trkpt>
      <trkpt lat="50.84450253" lon="-115.67873827">
      </trkpt>
      <trkpt lat="50.84455519" lon="-115.67866423">
      </trkpt>
      <trkpt lat="50.84461397" lon="-115.67857955">
      </trkpt>
      <trkpt lat="50.84470149" lon="-115.67848638">
      </trkpt>
      <trkpt lat="50.84478511" lon="-115.67842037">
      </trkpt>
      <trkpt lat="50.84489335" lon="-115.67836823">
      </trkpt>
      <trkpt lat="50.84502081" lon="-115.67829378">
      </trkpt>
      <trkpt lat="50.84508345" lon="-115.67822561">
      </trkpt>
      <trkpt lat="50.84514941" lon="-115.67815023">
      </trkpt>
      <trkpt lat="50.8451722" lon="-115.67808858">
      </trkpt>
      <trkpt lat="50.84521308" lon="-115.67794988">
      </trkpt>
      <trkpt lat="50.84525908" lon="-115.67788247">
      </trkpt>
      <trkpt lat="50.84537679" lon="-115.67784867">
      </trkpt>
      <trkpt lat="50.84545898" lon="-115.6778532">
      </trkpt>
      <trkpt lat="50.84550908" lon="-115.67785596">
      </trkpt>
      <trkpt lat="50.84555427" lon="-115.6778051">
      </trkpt>
      <trkpt lat="50.84557481" lon="-115.67777361">
      </trkpt>
      <trkpt lat="50.84564668" lon="-115.67772808">
      </trkpt>
      <trkpt lat="50.84570482" lon="-115.67766661">
      </trkpt>
      <trkpt lat="50.84574761" lon="-115.67763205">
      </trkpt>
      <trkpt lat="50.84580789" lon="-115.67760685">
      </trkpt>
      <trkpt lat="50.84586857" lon="-115.67758887">
      </trkpt>
      <trkpt lat="50.84595201" lon="-115.67757331">
      </trkpt>
      <trkpt lat="50.84604176" lon="-115.67752508">
      </trkpt>
      <trkpt lat="50.8461322" lon="-115.67749148">
      </trkpt>
      <trkpt lat="50.84624589" lon="-115.6774441">
      </trkpt>
      <trkpt lat="50.84631435" lon="-115.67739216">
      </trkpt>
      <trkpt lat="50.84638687" lon="-115.67734339">
      </trkpt>
      <trkpt lat="50.846499" lon="-115.67730134">
      </trkpt>
      <trkpt lat="50.84657424" lon="-115.67728693">
      </trkpt>
      <trkpt lat="50.84663668" lon="-115.67729164">
      </trkpt>
      <trkpt lat="50.84667733" lon="-115.67729472">
      </trkpt>
      <trkpt lat="50.84669529" lon="-115.67725496">
      </trkpt>
      <trkpt lat="50.84671036" lon="-115.67720139">
      </trkpt>
      <trkpt lat="50.8467449" lon="-115.6772051">
      </trkpt>
      <trkpt lat="50.84679766" lon="-115.67721075">
      </trkpt>
      <trkpt lat="50.84686839" lon="-115.67721564">
      </trkpt>
      <trkpt lat="50.84692434" lon="-115.67717566">
      </trkpt>
      <trkpt lat="50.84699517" lon="-115.67712654">
      </trkpt>
      <trkpt lat="50.84710527" lon="-115.67711876">
      </trkpt>
      <trkpt lat="50.84721376" lon="-115.67713325">
      </trkpt>
      <trkpt lat="50.84736863" lon="-115.67717136">
      </trkpt>
      <trkpt lat="50.84745683" lon="-115.67718409">
      </trkpt>
      <trkpt lat="50.84756361" lon="-115.67717601">
      </trkpt>
      <trkpt lat="50.84763824" lon="-115.67711628">
      </trkpt>
      <trkpt lat="50.84769945" lon="-115.67717972">
      </trkpt>
      <trkpt lat="50.84776009" lon="-115.67724309">
      </trkpt>
      <trkpt lat="50.84784598" lon="-115.67731456">
      </trkpt>
      <trkpt lat="50.84790162" lon="-115.67734452">
      </trkpt>
      <trkpt lat="50.84798281" lon="-115.67736217">
      </trkpt>
      <trkpt lat="50.84806402" lon="-115.67738915">
      </trkpt>
      <trkpt lat="50.84812629" lon="-115.67739201">
      </trkpt>
      <trkpt lat="50.84819845" lon="-115.67737425">
      </trkpt>
      <trkpt lat="50.84826162" lon="-115.67731279">
      </trkpt>
      <trkpt lat="50.84838274" lon="-115.6773353">
      </trkpt>
      <trkpt lat="50.84850908" lon="-115.67730041">
      </trkpt>
      <trkpt lat="50.84861845" lon="-115.67726695">
      </trkpt>
      <trkpt lat="50.84874449" lon="-115.67723784">
      </trkpt>
      <trkpt lat="50.84884283" lon="-115.67723829">
      </trkpt>
      <trkpt lat="50.84901954" lon="-115.67723918">
      </trkpt>
      <trkpt lat="50.84912358" lon="-115.67725974">
      </trkpt>
      <trkpt lat="50.84920041" lon="-115.67727185">
      </trkpt>
      <trkpt lat="50.84929029" lon="-115.67727623">
      </trkpt>
      <trkpt lat="50.84937318" lon="-115.67727383">
      </trkpt>
      <trkpt lat="50.84949771" lon="-115.67726295">
      </trkpt>
      <trkpt lat="50.84963981" lon="-115.67725997">
      </trkpt>
      <trkpt lat="50.84976325" lon="-115.67725418">
      </trkpt>
      <trkpt lat="50.84986313" lon="-115.6772309">
      </trkpt>
      <trkpt lat="50.84996831" lon="-115.6772458">
      </trkpt>
      <trkpt lat="50.8500329" lon="-115.67726703">
      </trkpt>
      <trkpt lat="50.8501253" lon="-115.6773303">
      </trkpt>
      <trkpt lat="50.85024069" lon="-115.67740671">
      </trkpt>
      <trkpt lat="50.85035733" lon="-115.67746316">
      </trkpt>
      <trkpt lat="50.85045886" lon="-115.6774636">
      </trkpt>
      <trkpt lat="50.85052337" lon="-115.67743812">
      </trkpt>
      <trkpt lat="50.85066987" lon="-115.6774634">
      </trkpt>
      <trkpt lat="50.85078152" lon="-115.67742767">
      </trkpt>
      <trkpt lat="50.85087162" lon="-115.67742375">
      </trkpt>
      <trkpt lat="50.85097329" lon="-115.67745005">
      </trkpt>
      <trkpt lat="50.85102826" lon="-115.67743726">
      </trkpt>
      <trkpt lat="50.85108609" lon="-115.67740645">
      </trkpt>
      <trkpt lat="50.85114765" lon="-115.67741872">
      </trkpt>
      <trkpt lat="50.85119315" lon="-115.67742499">
      </trkpt>
      <trkpt lat="50.8512158" lon="-115.6774272">
      </trkpt>
      <trkpt lat="50.85125871" lon="-115.67743665">
      </trkpt>
      <trkpt lat="50.85127731" lon="-115.67735907">
      </trkpt>
      <trkpt lat="50.85129029" lon="-115.67729017">
      </trkpt>
      <trkpt lat="50.85134117" lon="-115.67725477">
      </trkpt>
      <trkpt lat="50.85144785" lon="-115.67723704">
      </trkpt>
      <trkpt lat="50.8515097" lon="-115.67722998">
      </trkpt>
      <trkpt lat="50.85158528" lon="-115.67721947">
      </trkpt>
      <trkpt lat="50.85164532" lon="-115.67724421">
      </trkpt>
      <trkpt lat="50.85169018" lon="-115.67726271">
      </trkpt>
      <trkpt lat="50.85175893" lon="-115.67726348">
      </trkpt>
      <trkpt lat="50.8517904" lon="-115.67724883">
      </trkpt>
      <trkpt lat="50.85180976" lon="-115.67726475">
      </trkpt>
    </trkseg>
  </trk>
</gpx>