<?xml version="1.0" encoding="UTF-8"?>
<gpx xmlns="http://www.topografix.com/GPX/1/1" xmlns:xsi="http://www.w3.org/2001/XMLSchema-instance" xsi:schemaLocation="http://www.topografix.com/GPX/1/1 http://www.topografix.com/GPX/1/1/gpx.xsd" version="1.1" creator="gpx.py -- https://github.com/tkrajina/gpxpy">
  <trk>
    <name>Salisbury Hiking Trail</name>
    <trkseg>
      <trkpt lat="50.132079" lon="-116.838645">
      </trkpt>
      <trkpt lat="50.13208" lon="-116.838642">
      </trkpt>
      <trkpt lat="50.132155" lon="-116.83860801">
      </trkpt>
      <trkpt lat="50.132226" lon="-116.838587">
      </trkpt>
      <trkpt lat="50.132263" lon="-116.83858">
      </trkpt>
      <trkpt lat="50.132321" lon="-116.83857499">
      </trkpt>
      <trkpt lat="50.132342" lon="-116.8386">
      </trkpt>
      <trkpt lat="50.132357" lon="-116.83861099">
      </trkpt>
      <trkpt lat="50.132447" lon="-116.838654">
      </trkpt>
      <trkpt lat="50.13242" lon="-116.838727">
      </trkpt>
      <trkpt lat="50.132443" lon="-116.83875201">
      </trkpt>
      <trkpt lat="50.132447" lon="-116.838789">
      </trkpt>
      <trkpt lat="50.132451" lon="-116.838895">
      </trkpt>
      <trkpt lat="50.132392" lon="-116.838973">
      </trkpt>
      <trkpt lat="50.132315" lon="-116.83906">
      </trkpt>
      <trkpt lat="50.132295" lon="-116.839113">
      </trkpt>
      <trkpt lat="50.132278" lon="-116.83916">
      </trkpt>
      <trkpt lat="50.132359" lon="-116.839241">
      </trkpt>
      <trkpt lat="50.132382" lon="-116.839308">
      </trkpt>
      <trkpt lat="50.132383" lon="-116.83933901">
      </trkpt>
      <trkpt lat="50.132417" lon="-116.83935899">
      </trkpt>
      <trkpt lat="50.132367" lon="-116.839438">
      </trkpt>
      <trkpt lat="50.132261" lon="-116.839531">
      </trkpt>
      <trkpt lat="50.132269" lon="-116.839567">
      </trkpt>
      <trkpt lat="50.132226" lon="-116.839599">
      </trkpt>
      <trkpt lat="50.132208" lon="-116.839679">
      </trkpt>
      <trkpt lat="50.132199" lon="-116.839689">
      </trkpt>
      <trkpt lat="50.132175" lon="-116.83970401">
      </trkpt>
      <trkpt lat="50.132147" lon="-116.839699">
      </trkpt>
      <trkpt lat="50.132108" lon="-116.83977999">
      </trkpt>
      <trkpt lat="50.132104" lon="-116.83979">
      </trkpt>
      <trkpt lat="50.132076" lon="-116.83984901">
      </trkpt>
      <trkpt lat="50.132073" lon="-116.839847">
      </trkpt>
      <trkpt lat="50.132063" lon="-116.839882">
      </trkpt>
      <trkpt lat="50.132129" lon="-116.83999">
      </trkpt>
      <trkpt lat="50.13217" lon="-116.84004">
      </trkpt>
      <trkpt lat="50.132214" lon="-116.840037">
      </trkpt>
      <trkpt lat="50.132238" lon="-116.840048">
      </trkpt>
      <trkpt lat="50.132327" lon="-116.84005001">
      </trkpt>
      <trkpt lat="50.132378" lon="-116.84006001">
      </trkpt>
      <trkpt lat="50.132398" lon="-116.840075">
      </trkpt>
      <trkpt lat="50.132462" lon="-116.840125">
      </trkpt>
      <trkpt lat="50.13246" lon="-116.84012401">
      </trkpt>
      <trkpt lat="50.132468" lon="-116.84019">
      </trkpt>
      <trkpt lat="50.132486" lon="-116.840203">
      </trkpt>
      <trkpt lat="50.132503" lon="-116.840257">
      </trkpt>
      <trkpt lat="50.13252" lon="-116.84026201">
      </trkpt>
      <trkpt lat="50.132576" lon="-116.84031">
      </trkpt>
      <trkpt lat="50.132639" lon="-116.84030101">
      </trkpt>
      <trkpt lat="50.132651" lon="-116.84031101">
      </trkpt>
      <trkpt lat="50.132694" lon="-116.840318">
      </trkpt>
      <trkpt lat="50.132713" lon="-116.840324">
      </trkpt>
      <trkpt lat="50.132791" lon="-116.84037299">
      </trkpt>
      <trkpt lat="50.132833" lon="-116.840396">
      </trkpt>
      <trkpt lat="50.132919" lon="-116.84047401">
      </trkpt>
      <trkpt lat="50.132977" lon="-116.84050601">
      </trkpt>
      <trkpt lat="50.13305" lon="-116.84057701">
      </trkpt>
      <trkpt lat="50.133078" lon="-116.840607">
      </trkpt>
      <trkpt lat="50.133099" lon="-116.840641">
      </trkpt>
      <trkpt lat="50.133145" lon="-116.840713">
      </trkpt>
      <trkpt lat="50.133156" lon="-116.840748">
      </trkpt>
      <trkpt lat="50.133175" lon="-116.840802">
      </trkpt>
      <trkpt lat="50.133233" lon="-116.840891">
      </trkpt>
      <trkpt lat="50.133287" lon="-116.840961">
      </trkpt>
      <trkpt lat="50.133307" lon="-116.840969">
      </trkpt>
      <trkpt lat="50.133334" lon="-116.841051">
      </trkpt>
      <trkpt lat="50.133358" lon="-116.841087">
      </trkpt>
      <trkpt lat="50.133384" lon="-116.841185">
      </trkpt>
      <trkpt lat="50.133402" lon="-116.841232">
      </trkpt>
      <trkpt lat="50.133421" lon="-116.841296">
      </trkpt>
      <trkpt lat="50.133464" lon="-116.8414">
      </trkpt>
      <trkpt lat="50.133499" lon="-116.841512">
      </trkpt>
      <trkpt lat="50.133554" lon="-116.84157599">
      </trkpt>
      <trkpt lat="50.133611" lon="-116.841682">
      </trkpt>
      <trkpt lat="50.133648" lon="-116.841805">
      </trkpt>
      <trkpt lat="50.133695" lon="-116.84192001">
      </trkpt>
      <trkpt lat="50.13374" lon="-116.84203">
      </trkpt>
      <trkpt lat="50.133801" lon="-116.842135">
      </trkpt>
      <trkpt lat="50.133807" lon="-116.84216">
      </trkpt>
      <trkpt lat="50.133845" lon="-116.84221">
      </trkpt>
      <trkpt lat="50.133879" lon="-116.842278">
      </trkpt>
      <trkpt lat="50.13392" lon="-116.842366">
      </trkpt>
      <trkpt lat="50.133927" lon="-116.84240099">
      </trkpt>
      <trkpt lat="50.13394" lon="-116.84245899">
      </trkpt>
      <trkpt lat="50.133951" lon="-116.842548">
      </trkpt>
      <trkpt lat="50.133947" lon="-116.842591">
      </trkpt>
      <trkpt lat="50.133929" lon="-116.84270199">
      </trkpt>
      <trkpt lat="50.133931" lon="-116.842738">
      </trkpt>
      <trkpt lat="50.133937" lon="-116.842772">
      </trkpt>
      <trkpt lat="50.133938" lon="-116.84284599">
      </trkpt>
      <trkpt lat="50.133949" lon="-116.84305899">
      </trkpt>
      <trkpt lat="50.133947" lon="-116.84308">
      </trkpt>
      <trkpt lat="50.133933" lon="-116.843121">
      </trkpt>
      <trkpt lat="50.133909" lon="-116.84321999">
      </trkpt>
      <trkpt lat="50.133918" lon="-116.843251">
      </trkpt>
      <trkpt lat="50.133939" lon="-116.843379">
      </trkpt>
      <trkpt lat="50.134026" lon="-116.843428">
      </trkpt>
      <trkpt lat="50.134062" lon="-116.84351801">
      </trkpt>
      <trkpt lat="50.134027" lon="-116.843558">
      </trkpt>
      <trkpt lat="50.134086" lon="-116.84362801">
      </trkpt>
      <trkpt lat="50.134" lon="-116.843688">
      </trkpt>
      <trkpt lat="50.133986" lon="-116.843708">
      </trkpt>
      <trkpt lat="50.133926" lon="-116.843796">
      </trkpt>
      <trkpt lat="50.133859" lon="-116.84393">
      </trkpt>
      <trkpt lat="50.13382" lon="-116.844063">
      </trkpt>
      <trkpt lat="50.13377" lon="-116.844242">
      </trkpt>
      <trkpt lat="50.133768" lon="-116.844249">
      </trkpt>
      <trkpt lat="50.133759" lon="-116.844373">
      </trkpt>
      <trkpt lat="50.133752" lon="-116.844492">
      </trkpt>
      <trkpt lat="50.133749" lon="-116.84451901">
      </trkpt>
      <trkpt lat="50.133768" lon="-116.844602">
      </trkpt>
      <trkpt lat="50.133787" lon="-116.844659">
      </trkpt>
      <trkpt lat="50.133793" lon="-116.84472999">
      </trkpt>
      <trkpt lat="50.133813" lon="-116.844905">
      </trkpt>
      <trkpt lat="50.133813" lon="-116.845018">
      </trkpt>
      <trkpt lat="50.133838" lon="-116.845114">
      </trkpt>
      <trkpt lat="50.133865" lon="-116.84519501">
      </trkpt>
      <trkpt lat="50.133906" lon="-116.845283">
      </trkpt>
      <trkpt lat="50.133948" lon="-116.845387">
      </trkpt>
      <trkpt lat="50.133978" lon="-116.84544701">
      </trkpt>
      <trkpt lat="50.134004" lon="-116.84546599">
      </trkpt>
      <trkpt lat="50.134009" lon="-116.845487">
      </trkpt>
      <trkpt lat="50.134037" lon="-116.845527">
      </trkpt>
      <trkpt lat="50.134115" lon="-116.84559499">
      </trkpt>
      <trkpt lat="50.134169" lon="-116.845633">
      </trkpt>
      <trkpt lat="50.134185" lon="-116.845671">
      </trkpt>
      <trkpt lat="50.134267" lon="-116.845836">
      </trkpt>
      <trkpt lat="50.134273" lon="-116.84585999">
      </trkpt>
      <trkpt lat="50.134249" lon="-116.84593">
      </trkpt>
      <trkpt lat="50.134245" lon="-116.84598701">
      </trkpt>
      <trkpt lat="50.134215" lon="-116.846067">
      </trkpt>
      <trkpt lat="50.134204" lon="-116.846104">
      </trkpt>
      <trkpt lat="50.134166" lon="-116.84619099">
      </trkpt>
      <trkpt lat="50.134167" lon="-116.84626401">
      </trkpt>
      <trkpt lat="50.134174" lon="-116.846362">
      </trkpt>
      <trkpt lat="50.134168" lon="-116.846391">
      </trkpt>
      <trkpt lat="50.134145" lon="-116.846488">
      </trkpt>
      <trkpt lat="50.134137" lon="-116.846526">
      </trkpt>
      <trkpt lat="50.134107" lon="-116.846587">
      </trkpt>
      <trkpt lat="50.134058" lon="-116.846683">
      </trkpt>
      <trkpt lat="50.134051" lon="-116.84674999">
      </trkpt>
      <trkpt lat="50.134028" lon="-116.84677599">
      </trkpt>
      <trkpt lat="50.134005" lon="-116.846783">
      </trkpt>
      <trkpt lat="50.133958" lon="-116.846765">
      </trkpt>
      <trkpt lat="50.133925" lon="-116.846632">
      </trkpt>
      <trkpt lat="50.133914" lon="-116.846597">
      </trkpt>
      <trkpt lat="50.133866" lon="-116.84654">
      </trkpt>
      <trkpt lat="50.133851" lon="-116.84652599">
      </trkpt>
      <trkpt lat="50.133844" lon="-116.846525">
      </trkpt>
      <trkpt lat="50.133837" lon="-116.84654499">
      </trkpt>
      <trkpt lat="50.13385" lon="-116.84660299">
      </trkpt>
      <trkpt lat="50.133778" lon="-116.84664199">
      </trkpt>
      <trkpt lat="50.133754" lon="-116.846616">
      </trkpt>
      <trkpt lat="50.133718" lon="-116.846596">
      </trkpt>
      <trkpt lat="50.133699" lon="-116.846583">
      </trkpt>
      <trkpt lat="50.133651" lon="-116.846523">
      </trkpt>
      <trkpt lat="50.133645" lon="-116.846505">
      </trkpt>
      <trkpt lat="50.133643" lon="-116.84651099">
      </trkpt>
      <trkpt lat="50.133589" lon="-116.84653299">
      </trkpt>
      <trkpt lat="50.133561" lon="-116.846505">
      </trkpt>
      <trkpt lat="50.133526" lon="-116.84642599">
      </trkpt>
      <trkpt lat="50.133513" lon="-116.846384">
      </trkpt>
      <trkpt lat="50.133508" lon="-116.846358">
      </trkpt>
      <trkpt lat="50.13351" lon="-116.846319">
      </trkpt>
      <trkpt lat="50.13348877" lon="-116.84623889">
      </trkpt>
      <trkpt lat="50.13348" lon="-116.846244">
      </trkpt>
      <trkpt lat="50.133473" lon="-116.846283">
      </trkpt>
      <trkpt lat="50.13347" lon="-116.84634">
      </trkpt>
      <trkpt lat="50.133452" lon="-116.8464">
      </trkpt>
      <trkpt lat="50.133417" lon="-116.846423">
      </trkpt>
      <trkpt lat="50.133412" lon="-116.84642399">
      </trkpt>
      <trkpt lat="50.133395" lon="-116.846652">
      </trkpt>
      <trkpt lat="50.133359" lon="-116.846696">
      </trkpt>
      <trkpt lat="50.133304" lon="-116.846754">
      </trkpt>
      <trkpt lat="50.133288" lon="-116.84676999">
      </trkpt>
      <trkpt lat="50.133213" lon="-116.846806">
      </trkpt>
      <trkpt lat="50.133212" lon="-116.84683">
      </trkpt>
      <trkpt lat="50.133211" lon="-116.846976">
      </trkpt>
      <trkpt lat="50.133197" lon="-116.847025">
      </trkpt>
      <trkpt lat="50.13319" lon="-116.84705301">
      </trkpt>
      <trkpt lat="50.133154" lon="-116.847215">
      </trkpt>
      <trkpt lat="50.133147" lon="-116.847251">
      </trkpt>
      <trkpt lat="50.133133" lon="-116.847332">
      </trkpt>
      <trkpt lat="50.133106" lon="-116.847366">
      </trkpt>
      <trkpt lat="50.133093" lon="-116.8474">
      </trkpt>
      <trkpt lat="50.133047" lon="-116.847481">
      </trkpt>
      <trkpt lat="50.133029" lon="-116.847557">
      </trkpt>
      <trkpt lat="50.133027" lon="-116.847614">
      </trkpt>
      <trkpt lat="50.132971" lon="-116.847617">
      </trkpt>
      <trkpt lat="50.132915" lon="-116.847662">
      </trkpt>
      <trkpt lat="50.132824" lon="-116.847664">
      </trkpt>
      <trkpt lat="50.132762" lon="-116.84767">
      </trkpt>
      <trkpt lat="50.132688" lon="-116.847592">
      </trkpt>
      <trkpt lat="50.132668" lon="-116.847572">
      </trkpt>
      <trkpt lat="50.132625" lon="-116.847544">
      </trkpt>
      <trkpt lat="50.132615" lon="-116.84758799">
      </trkpt>
      <trkpt lat="50.132541" lon="-116.84757301">
      </trkpt>
      <trkpt lat="50.132525" lon="-116.847648">
      </trkpt>
      <trkpt lat="50.132515" lon="-116.84767601">
      </trkpt>
      <trkpt lat="50.132523" lon="-116.847731">
      </trkpt>
      <trkpt lat="50.132522" lon="-116.847742">
      </trkpt>
      <trkpt lat="50.132438" lon="-116.84779">
      </trkpt>
      <trkpt lat="50.132364" lon="-116.84776101">
      </trkpt>
      <trkpt lat="50.13231" lon="-116.847769">
      </trkpt>
      <trkpt lat="50.132285" lon="-116.847793">
      </trkpt>
      <trkpt lat="50.132255" lon="-116.847809">
      </trkpt>
      <trkpt lat="50.132231" lon="-116.847816">
      </trkpt>
      <trkpt lat="50.132221" lon="-116.847821">
      </trkpt>
      <trkpt lat="50.132153" lon="-116.847874">
      </trkpt>
      <trkpt lat="50.132144" lon="-116.847881">
      </trkpt>
      <trkpt lat="50.132123" lon="-116.8479">
      </trkpt>
      <trkpt lat="50.1321" lon="-116.848041">
      </trkpt>
      <trkpt lat="50.132101" lon="-116.84816501">
      </trkpt>
      <trkpt lat="50.132087" lon="-116.848212">
      </trkpt>
      <trkpt lat="50.132086" lon="-116.84828599">
      </trkpt>
      <trkpt lat="50.132067" lon="-116.848332">
      </trkpt>
      <trkpt lat="50.132045" lon="-116.848379">
      </trkpt>
      <trkpt lat="50.132002" lon="-116.848452">
      </trkpt>
      <trkpt lat="50.131982" lon="-116.848485">
      </trkpt>
      <trkpt lat="50.13195" lon="-116.848498">
      </trkpt>
      <trkpt lat="50.13191" lon="-116.848584">
      </trkpt>
      <trkpt lat="50.131883" lon="-116.84854999">
      </trkpt>
      <trkpt lat="50.131868" lon="-116.848544">
      </trkpt>
      <trkpt lat="50.131822" lon="-116.84855">
      </trkpt>
      <trkpt lat="50.131809" lon="-116.848561">
      </trkpt>
      <trkpt lat="50.131796" lon="-116.848593">
      </trkpt>
      <trkpt lat="50.131758" lon="-116.848661">
      </trkpt>
      <trkpt lat="50.131669" lon="-116.848672">
      </trkpt>
      <trkpt lat="50.131587" lon="-116.848682">
      </trkpt>
      <trkpt lat="50.131563" lon="-116.848742">
      </trkpt>
      <trkpt lat="50.131557" lon="-116.84875101">
      </trkpt>
      <trkpt lat="50.131523" lon="-116.848823">
      </trkpt>
      <trkpt lat="50.131516" lon="-116.848907">
      </trkpt>
      <trkpt lat="50.131485" lon="-116.848957">
      </trkpt>
      <trkpt lat="50.131443" lon="-116.849128">
      </trkpt>
      <trkpt lat="50.131408" lon="-116.849235">
      </trkpt>
      <trkpt lat="50.1314" lon="-116.849294">
      </trkpt>
      <trkpt lat="50.131376" lon="-116.849335">
      </trkpt>
      <trkpt lat="50.13135" lon="-116.849395">
      </trkpt>
      <trkpt lat="50.131257" lon="-116.84951699">
      </trkpt>
      <trkpt lat="50.131226" lon="-116.849665">
      </trkpt>
      <trkpt lat="50.131096" lon="-116.849821">
      </trkpt>
      <trkpt lat="50.131024" lon="-116.849942">
      </trkpt>
      <trkpt lat="50.130973" lon="-116.85001701">
      </trkpt>
      <trkpt lat="50.130897" lon="-116.85024601">
      </trkpt>
      <trkpt lat="50.130834" lon="-116.850388">
      </trkpt>
      <trkpt lat="50.130832" lon="-116.850428">
      </trkpt>
      <trkpt lat="50.130805" lon="-116.85047099">
      </trkpt>
      <trkpt lat="50.130789" lon="-116.850614">
      </trkpt>
      <trkpt lat="50.130792" lon="-116.850643">
      </trkpt>
      <trkpt lat="50.130754" lon="-116.850738">
      </trkpt>
      <trkpt lat="50.130743" lon="-116.850772">
      </trkpt>
      <trkpt lat="50.130737" lon="-116.85080001">
      </trkpt>
      <trkpt lat="50.130701" lon="-116.850927">
      </trkpt>
      <trkpt lat="50.130683" lon="-116.85101">
      </trkpt>
      <trkpt lat="50.130674" lon="-116.851171">
      </trkpt>
      <trkpt lat="50.130686" lon="-116.851249">
      </trkpt>
      <trkpt lat="50.13065" lon="-116.851319">
      </trkpt>
      <trkpt lat="50.130606" lon="-116.851485">
      </trkpt>
      <trkpt lat="50.130602" lon="-116.851503">
      </trkpt>
      <trkpt lat="50.130591" lon="-116.851534">
      </trkpt>
      <trkpt lat="50.130585" lon="-116.851652">
      </trkpt>
      <trkpt lat="50.130582" lon="-116.851662">
      </trkpt>
      <trkpt lat="50.130562" lon="-116.851838">
      </trkpt>
      <trkpt lat="50.130572" lon="-116.851857">
      </trkpt>
      <trkpt lat="50.130616" lon="-116.851961">
      </trkpt>
      <trkpt lat="50.130607" lon="-116.852002">
      </trkpt>
      <trkpt lat="50.130638" lon="-116.852149">
      </trkpt>
      <trkpt lat="50.130633" lon="-116.852233">
      </trkpt>
      <trkpt lat="50.130647" lon="-116.85235899">
      </trkpt>
      <trkpt lat="50.130651" lon="-116.85244799">
      </trkpt>
      <trkpt lat="50.130641" lon="-116.85247299">
      </trkpt>
      <trkpt lat="50.130645" lon="-116.852541">
      </trkpt>
      <trkpt lat="50.130648" lon="-116.852586">
      </trkpt>
      <trkpt lat="50.130662" lon="-116.852619">
      </trkpt>
      <trkpt lat="50.130664" lon="-116.852751">
      </trkpt>
      <trkpt lat="50.130626" lon="-116.852924">
      </trkpt>
      <trkpt lat="50.130598" lon="-116.853034">
      </trkpt>
      <trkpt lat="50.130544" lon="-116.853127">
      </trkpt>
      <trkpt lat="50.130531" lon="-116.853238">
      </trkpt>
      <trkpt lat="50.130526" lon="-116.853283">
      </trkpt>
      <trkpt lat="50.130506" lon="-116.853328">
      </trkpt>
      <trkpt lat="50.130464" lon="-116.853424">
      </trkpt>
      <trkpt lat="50.130497" lon="-116.85359101">
      </trkpt>
      <trkpt lat="50.13048" lon="-116.85362299">
      </trkpt>
      <trkpt lat="50.130485" lon="-116.853671">
      </trkpt>
      <trkpt lat="50.130489" lon="-116.853768">
      </trkpt>
      <trkpt lat="50.130468" lon="-116.853895">
      </trkpt>
      <trkpt lat="50.13046" lon="-116.854039">
      </trkpt>
      <trkpt lat="50.130462" lon="-116.854055">
      </trkpt>
      <trkpt lat="50.130396" lon="-116.85419401">
      </trkpt>
      <trkpt lat="50.130368" lon="-116.854225">
      </trkpt>
      <trkpt lat="50.13038" lon="-116.854232">
      </trkpt>
      <trkpt lat="50.130373" lon="-116.854256">
      </trkpt>
      <trkpt lat="50.130377" lon="-116.854312">
      </trkpt>
      <trkpt lat="50.130405" lon="-116.854345">
      </trkpt>
      <trkpt lat="50.130412" lon="-116.854371">
      </trkpt>
      <trkpt lat="50.13040732" lon="-116.85439438">
      </trkpt>
      <trkpt lat="50.13040661" lon="-116.85439797">
      </trkpt>
      <trkpt lat="50.130406" lon="-116.854401">
      </trkpt>
      <trkpt lat="50.13041421" lon="-116.85440305">
      </trkpt>
      <trkpt lat="50.130443" lon="-116.854469">
      </trkpt>
      <trkpt lat="50.13047" lon="-116.854566">
      </trkpt>
      <trkpt lat="50.130482" lon="-116.854585">
      </trkpt>
      <trkpt lat="50.130517" lon="-116.854611">
      </trkpt>
      <trkpt lat="50.130582" lon="-116.85468">
      </trkpt>
      <trkpt lat="50.130615" lon="-116.854733">
      </trkpt>
      <trkpt lat="50.13065" lon="-116.85477">
      </trkpt>
      <trkpt lat="50.130696" lon="-116.85484699">
      </trkpt>
      <trkpt lat="50.130706" lon="-116.855101">
      </trkpt>
      <trkpt lat="50.130674" lon="-116.85520599">
      </trkpt>
      <trkpt lat="50.130654" lon="-116.855366">
      </trkpt>
      <trkpt lat="50.130647" lon="-116.855401">
      </trkpt>
      <trkpt lat="50.130662" lon="-116.855437">
      </trkpt>
      <trkpt lat="50.130614" lon="-116.85549199">
      </trkpt>
      <trkpt lat="50.13053" lon="-116.85556001">
      </trkpt>
      <trkpt lat="50.130486" lon="-116.85564199">
      </trkpt>
      <trkpt lat="50.130454" lon="-116.855736">
      </trkpt>
      <trkpt lat="50.130395" lon="-116.855796">
      </trkpt>
      <trkpt lat="50.130401" lon="-116.85586099">
      </trkpt>
      <trkpt lat="50.130385" lon="-116.855891">
      </trkpt>
      <trkpt lat="50.130344" lon="-116.855932">
      </trkpt>
      <trkpt lat="50.130338" lon="-116.855935">
      </trkpt>
      <trkpt lat="50.130212" lon="-116.856075">
      </trkpt>
      <trkpt lat="50.130129" lon="-116.856194">
      </trkpt>
      <trkpt lat="50.13013" lon="-116.856246">
      </trkpt>
      <trkpt lat="50.130097" lon="-116.856345">
      </trkpt>
      <trkpt lat="50.130086" lon="-116.856424">
      </trkpt>
      <trkpt lat="50.130058" lon="-116.856419">
      </trkpt>
      <trkpt lat="50.129978" lon="-116.856464">
      </trkpt>
      <trkpt lat="50.129943" lon="-116.856508">
      </trkpt>
      <trkpt lat="50.129922" lon="-116.856621">
      </trkpt>
      <trkpt lat="50.129918" lon="-116.856649">
      </trkpt>
      <trkpt lat="50.129917" lon="-116.85663301">
      </trkpt>
      <trkpt lat="50.129914" lon="-116.856628">
      </trkpt>
      <trkpt lat="50.129915" lon="-116.85664699">
      </trkpt>
      <trkpt lat="50.12992" lon="-116.856689">
      </trkpt>
      <trkpt lat="50.129947" lon="-116.856769">
      </trkpt>
      <trkpt lat="50.129962" lon="-116.85679401">
      </trkpt>
      <trkpt lat="50.129982" lon="-116.856885">
      </trkpt>
      <trkpt lat="50.13002" lon="-116.856917">
      </trkpt>
      <trkpt lat="50.130034" lon="-116.85695599">
      </trkpt>
      <trkpt lat="50.130045" lon="-116.85704701">
      </trkpt>
      <trkpt lat="50.130057" lon="-116.857087">
      </trkpt>
      <trkpt lat="50.13008" lon="-116.85713">
      </trkpt>
      <trkpt lat="50.130083" lon="-116.85714">
      </trkpt>
      <trkpt lat="50.130108" lon="-116.857163">
      </trkpt>
      <trkpt lat="50.130118" lon="-116.857196">
      </trkpt>
      <trkpt lat="50.13017" lon="-116.857293">
      </trkpt>
      <trkpt lat="50.130184" lon="-116.857347">
      </trkpt>
      <trkpt lat="50.130191" lon="-116.857474">
      </trkpt>
      <trkpt lat="50.130201" lon="-116.857554">
      </trkpt>
      <trkpt lat="50.130214" lon="-116.857667">
      </trkpt>
      <trkpt lat="50.130231" lon="-116.857753">
      </trkpt>
      <trkpt lat="50.130239" lon="-116.857848">
      </trkpt>
      <trkpt lat="50.130249" lon="-116.857941">
      </trkpt>
      <trkpt lat="50.130237" lon="-116.85797">
      </trkpt>
      <trkpt lat="50.130248" lon="-116.85800299">
      </trkpt>
      <trkpt lat="50.130247" lon="-116.858034">
      </trkpt>
      <trkpt lat="50.130253" lon="-116.858092">
      </trkpt>
      <trkpt lat="50.130252" lon="-116.858162">
      </trkpt>
      <trkpt lat="50.130276" lon="-116.858258">
      </trkpt>
      <trkpt lat="50.130271" lon="-116.858327">
      </trkpt>
      <trkpt lat="50.130275" lon="-116.858409">
      </trkpt>
      <trkpt lat="50.130235" lon="-116.858617">
      </trkpt>
      <trkpt lat="50.130235" lon="-116.858652">
      </trkpt>
      <trkpt lat="50.13024" lon="-116.858748">
      </trkpt>
      <trkpt lat="50.13024" lon="-116.858883">
      </trkpt>
      <trkpt lat="50.130208" lon="-116.858959">
      </trkpt>
      <trkpt lat="50.13021" lon="-116.859062">
      </trkpt>
      <trkpt lat="50.130208" lon="-116.85914">
      </trkpt>
      <trkpt lat="50.130129" lon="-116.85928301">
      </trkpt>
      <trkpt lat="50.130125" lon="-116.859322">
      </trkpt>
      <trkpt lat="50.130095" lon="-116.85943699">
      </trkpt>
      <trkpt lat="50.130108" lon="-116.859522">
      </trkpt>
      <trkpt lat="50.130126" lon="-116.859643">
      </trkpt>
      <trkpt lat="50.130187" lon="-116.859825">
      </trkpt>
      <trkpt lat="50.130204" lon="-116.859915">
      </trkpt>
      <trkpt lat="50.130212" lon="-116.859949">
      </trkpt>
      <trkpt lat="50.130214" lon="-116.86002901">
      </trkpt>
      <trkpt lat="50.130221" lon="-116.86006001">
      </trkpt>
      <trkpt lat="50.130298" lon="-116.860255">
      </trkpt>
      <trkpt lat="50.130355" lon="-116.860494">
      </trkpt>
      <trkpt lat="50.130356" lon="-116.86053701">
      </trkpt>
      <trkpt lat="50.130319" lon="-116.86064499">
      </trkpt>
      <trkpt lat="50.130316" lon="-116.86073101">
      </trkpt>
      <trkpt lat="50.130332" lon="-116.860845">
      </trkpt>
      <trkpt lat="50.130348" lon="-116.860958">
      </trkpt>
      <trkpt lat="50.130337" lon="-116.86100899">
      </trkpt>
      <trkpt lat="50.130333" lon="-116.861091">
      </trkpt>
      <trkpt lat="50.130344" lon="-116.861239">
      </trkpt>
      <trkpt lat="50.130345" lon="-116.861344">
      </trkpt>
      <trkpt lat="50.130349" lon="-116.86135399">
      </trkpt>
      <trkpt lat="50.130376" lon="-116.86143">
      </trkpt>
      <trkpt lat="50.130359" lon="-116.861551">
      </trkpt>
      <trkpt lat="50.1303" lon="-116.861599">
      </trkpt>
      <trkpt lat="50.130232" lon="-116.86156999">
      </trkpt>
      <trkpt lat="50.130176" lon="-116.861543">
      </trkpt>
      <trkpt lat="50.130129" lon="-116.861527">
      </trkpt>
      <trkpt lat="50.130118" lon="-116.86150599">
      </trkpt>
      <trkpt lat="50.130091" lon="-116.861491">
      </trkpt>
      <trkpt lat="50.129999" lon="-116.86146499">
      </trkpt>
      <trkpt lat="50.129981" lon="-116.861449">
      </trkpt>
      <trkpt lat="50.129947" lon="-116.86151501">
      </trkpt>
      <trkpt lat="50.129943" lon="-116.86153201">
      </trkpt>
      <trkpt lat="50.129959" lon="-116.86154">
      </trkpt>
      <trkpt lat="50.129953" lon="-116.86158399">
      </trkpt>
      <trkpt lat="50.13" lon="-116.861675">
      </trkpt>
      <trkpt lat="50.130001" lon="-116.861688">
      </trkpt>
      <trkpt lat="50.129971" lon="-116.861743">
      </trkpt>
      <trkpt lat="50.129928" lon="-116.86182401">
      </trkpt>
      <trkpt lat="50.12994" lon="-116.86188199">
      </trkpt>
      <trkpt lat="50.129903" lon="-116.86193001">
      </trkpt>
      <trkpt lat="50.1299" lon="-116.86195001">
      </trkpt>
      <trkpt lat="50.129897" lon="-116.861993">
      </trkpt>
      <trkpt lat="50.129897" lon="-116.862054">
      </trkpt>
      <trkpt lat="50.129897" lon="-116.862112">
      </trkpt>
      <trkpt lat="50.129974" lon="-116.862194">
      </trkpt>
      <trkpt lat="50.129945" lon="-116.86222601">
      </trkpt>
      <trkpt lat="50.129887" lon="-116.86231">
      </trkpt>
      <trkpt lat="50.129883" lon="-116.862359">
      </trkpt>
      <trkpt lat="50.129867" lon="-116.862425">
      </trkpt>
      <trkpt lat="50.129861" lon="-116.862533">
      </trkpt>
      <trkpt lat="50.129854" lon="-116.86256599">
      </trkpt>
      <trkpt lat="50.129884" lon="-116.86259999">
      </trkpt>
      <trkpt lat="50.129868" lon="-116.862659">
      </trkpt>
      <trkpt lat="50.129876" lon="-116.86270199">
      </trkpt>
      <trkpt lat="50.129878" lon="-116.862714">
      </trkpt>
      <trkpt lat="50.129871" lon="-116.86274399">
      </trkpt>
      <trkpt lat="50.129864" lon="-116.86281801">
      </trkpt>
      <trkpt lat="50.129859" lon="-116.86284">
      </trkpt>
      <trkpt lat="50.129841" lon="-116.862851">
      </trkpt>
      <trkpt lat="50.129867" lon="-116.862999">
      </trkpt>
      <trkpt lat="50.129872" lon="-116.86303801">
      </trkpt>
      <trkpt lat="50.129873" lon="-116.863085">
      </trkpt>
      <trkpt lat="50.129881" lon="-116.863165">
      </trkpt>
      <trkpt lat="50.129875" lon="-116.86319301">
      </trkpt>
      <trkpt lat="50.129868" lon="-116.863448">
      </trkpt>
      <trkpt lat="50.129869" lon="-116.86347">
      </trkpt>
      <trkpt lat="50.129857" lon="-116.86353">
      </trkpt>
      <trkpt lat="50.129853" lon="-116.86356299">
      </trkpt>
      <trkpt lat="50.12985" lon="-116.863619">
      </trkpt>
      <trkpt lat="50.129844" lon="-116.863663">
      </trkpt>
      <trkpt lat="50.129838" lon="-116.863679">
      </trkpt>
      <trkpt lat="50.129848" lon="-116.863715">
      </trkpt>
      <trkpt lat="50.129856" lon="-116.86376">
      </trkpt>
      <trkpt lat="50.129883" lon="-116.863818">
      </trkpt>
      <trkpt lat="50.129876" lon="-116.86385601">
      </trkpt>
      <trkpt lat="50.129872" lon="-116.86387499">
      </trkpt>
      <trkpt lat="50.129878" lon="-116.863891">
      </trkpt>
      <trkpt lat="50.129908" lon="-116.863945">
      </trkpt>
      <trkpt lat="50.129912" lon="-116.864003">
      </trkpt>
      <trkpt lat="50.129947" lon="-116.864083">
      </trkpt>
      <trkpt lat="50.129945" lon="-116.864163">
      </trkpt>
      <trkpt lat="50.129893" lon="-116.86439599">
      </trkpt>
      <trkpt lat="50.129845" lon="-116.864535">
      </trkpt>
      <trkpt lat="50.129864" lon="-116.864597">
      </trkpt>
      <trkpt lat="50.129903" lon="-116.86472799">
      </trkpt>
      <trkpt lat="50.129924" lon="-116.864827">
      </trkpt>
      <trkpt lat="50.129904" lon="-116.86489601">
      </trkpt>
      <trkpt lat="50.12989" lon="-116.86494001">
      </trkpt>
      <trkpt lat="50.129831" lon="-116.865079">
      </trkpt>
      <trkpt lat="50.129799" lon="-116.865184">
      </trkpt>
      <trkpt lat="50.129784" lon="-116.865254">
      </trkpt>
      <trkpt lat="50.129696" lon="-116.86533801">
      </trkpt>
      <trkpt lat="50.129659" lon="-116.865395">
      </trkpt>
      <trkpt lat="50.129649" lon="-116.865436">
      </trkpt>
      <trkpt lat="50.129636" lon="-116.865481">
      </trkpt>
      <trkpt lat="50.129629" lon="-116.865498">
      </trkpt>
      <trkpt lat="50.129625" lon="-116.86555099">
      </trkpt>
      <trkpt lat="50.12963" lon="-116.86561499">
      </trkpt>
      <trkpt lat="50.12963" lon="-116.865642">
      </trkpt>
      <trkpt lat="50.129596" lon="-116.865722">
      </trkpt>
      <trkpt lat="50.129583" lon="-116.865857">
      </trkpt>
      <trkpt lat="50.129577" lon="-116.865898">
      </trkpt>
      <trkpt lat="50.129579" lon="-116.86592">
      </trkpt>
      <trkpt lat="50.129569" lon="-116.865953">
      </trkpt>
      <trkpt lat="50.129531" lon="-116.865973">
      </trkpt>
      <trkpt lat="50.12949" lon="-116.86610399">
      </trkpt>
      <trkpt lat="50.129494" lon="-116.86611699">
      </trkpt>
      <trkpt lat="50.129423" lon="-116.866285">
      </trkpt>
      <trkpt lat="50.129423" lon="-116.866352">
      </trkpt>
      <trkpt lat="50.129395" lon="-116.866376">
      </trkpt>
      <trkpt lat="50.129385" lon="-116.866538">
      </trkpt>
      <trkpt lat="50.129133" lon="-116.866748">
      </trkpt>
      <trkpt lat="50.128924" lon="-116.866896">
      </trkpt>
      <trkpt lat="50.128834" lon="-116.866955">
      </trkpt>
      <trkpt lat="50.128804" lon="-116.86697399">
      </trkpt>
      <trkpt lat="50.128773" lon="-116.86698599">
      </trkpt>
      <trkpt lat="50.128712" lon="-116.867017">
      </trkpt>
      <trkpt lat="50.128689" lon="-116.867021">
      </trkpt>
      <trkpt lat="50.128637" lon="-116.867044">
      </trkpt>
      <trkpt lat="50.128575" lon="-116.867089">
      </trkpt>
      <trkpt lat="50.128496" lon="-116.867132">
      </trkpt>
      <trkpt lat="50.128433" lon="-116.867167">
      </trkpt>
      <trkpt lat="50.128303" lon="-116.86717601">
      </trkpt>
      <trkpt lat="50.128229" lon="-116.867198">
      </trkpt>
      <trkpt lat="50.12821" lon="-116.86725601">
      </trkpt>
      <trkpt lat="50.128194" lon="-116.86727601">
      </trkpt>
      <trkpt lat="50.12816" lon="-116.867293">
      </trkpt>
      <trkpt lat="50.128141" lon="-116.867308">
      </trkpt>
      <trkpt lat="50.12805" lon="-116.867339">
      </trkpt>
      <trkpt lat="50.128026" lon="-116.86735101">
      </trkpt>
      <trkpt lat="50.128018" lon="-116.86737">
      </trkpt>
      <trkpt lat="50.127881" lon="-116.867424">
      </trkpt>
      <trkpt lat="50.127867" lon="-116.86745699">
      </trkpt>
      <trkpt lat="50.12787" lon="-116.86750699">
      </trkpt>
      <trkpt lat="50.127862" lon="-116.86756299">
      </trkpt>
      <trkpt lat="50.127844" lon="-116.867619">
      </trkpt>
      <trkpt lat="50.127791" lon="-116.86766299">
      </trkpt>
      <trkpt lat="50.127781" lon="-116.867678">
      </trkpt>
      <trkpt lat="50.127734" lon="-116.86774">
      </trkpt>
      <trkpt lat="50.127716" lon="-116.867774">
      </trkpt>
      <trkpt lat="50.127648" lon="-116.867809">
      </trkpt>
      <trkpt lat="50.127608" lon="-116.867869">
      </trkpt>
      <trkpt lat="50.127481" lon="-116.867956">
      </trkpt>
      <trkpt lat="50.127454" lon="-116.867968">
      </trkpt>
      <trkpt lat="50.127368" lon="-116.868057">
      </trkpt>
      <trkpt lat="50.127242" lon="-116.868093">
      </trkpt>
      <trkpt lat="50.127216" lon="-116.868104">
      </trkpt>
      <trkpt lat="50.127099" lon="-116.868153">
      </trkpt>
      <trkpt lat="50.12707" lon="-116.868163">
      </trkpt>
      <trkpt lat="50.127028" lon="-116.868179">
      </trkpt>
      <trkpt lat="50.127016" lon="-116.868181">
      </trkpt>
      <trkpt lat="50.126943" lon="-116.86822299">
      </trkpt>
      <trkpt lat="50.126933" lon="-116.868233">
      </trkpt>
      <trkpt lat="50.126905" lon="-116.868197">
      </trkpt>
      <trkpt lat="50.12687" lon="-116.868228">
      </trkpt>
      <trkpt lat="50.126804" lon="-116.868237">
      </trkpt>
      <trkpt lat="50.126739" lon="-116.868216">
      </trkpt>
      <trkpt lat="50.126672" lon="-116.868209">
      </trkpt>
      <trkpt lat="50.126644" lon="-116.868219">
      </trkpt>
      <trkpt lat="50.126626" lon="-116.868226">
      </trkpt>
      <trkpt lat="50.126549" lon="-116.868242">
      </trkpt>
      <trkpt lat="50.126489" lon="-116.868225">
      </trkpt>
      <trkpt lat="50.126455" lon="-116.86824">
      </trkpt>
      <trkpt lat="50.126433" lon="-116.868236">
      </trkpt>
      <trkpt lat="50.126356" lon="-116.86826001">
      </trkpt>
      <trkpt lat="50.12632" lon="-116.86827999">
      </trkpt>
      <trkpt lat="50.12629" lon="-116.868403">
      </trkpt>
      <trkpt lat="50.126295" lon="-116.868441">
      </trkpt>
      <trkpt lat="50.126315" lon="-116.868544">
      </trkpt>
      <trkpt lat="50.126312" lon="-116.86858499">
      </trkpt>
      <trkpt lat="50.126305" lon="-116.868643">
      </trkpt>
      <trkpt lat="50.126292" lon="-116.868689">
      </trkpt>
      <trkpt lat="50.12625" lon="-116.86881901">
      </trkpt>
      <trkpt lat="50.126183" lon="-116.868954">
      </trkpt>
      <trkpt lat="50.126077" lon="-116.86906499">
      </trkpt>
      <trkpt lat="50.125984" lon="-116.86916099">
      </trkpt>
      <trkpt lat="50.125881" lon="-116.869351">
      </trkpt>
      <trkpt lat="50.125856" lon="-116.86937399">
      </trkpt>
      <trkpt lat="50.125851" lon="-116.86945199">
      </trkpt>
      <trkpt lat="50.125848" lon="-116.869459">
      </trkpt>
      <trkpt lat="50.125806" lon="-116.86953401">
      </trkpt>
      <trkpt lat="50.125805" lon="-116.869622">
      </trkpt>
      <trkpt lat="50.125795" lon="-116.869649">
      </trkpt>
      <trkpt lat="50.125817" lon="-116.869688">
      </trkpt>
      <trkpt lat="50.125849" lon="-116.869743">
      </trkpt>
      <trkpt lat="50.125941" lon="-116.869941">
      </trkpt>
      <trkpt lat="50.125915" lon="-116.86995999">
      </trkpt>
      <trkpt lat="50.125946" lon="-116.87009901">
      </trkpt>
      <trkpt lat="50.125961" lon="-116.870161">
      </trkpt>
      <trkpt lat="50.125985" lon="-116.870202">
      </trkpt>
      <trkpt lat="50.125994" lon="-116.87031501">
      </trkpt>
      <trkpt lat="50.126025" lon="-116.870484">
      </trkpt>
      <trkpt lat="50.126023" lon="-116.870605">
      </trkpt>
      <trkpt lat="50.126012" lon="-116.870646">
      </trkpt>
      <trkpt lat="50.126027" lon="-116.87069201">
      </trkpt>
      <trkpt lat="50.126041" lon="-116.870826">
      </trkpt>
      <trkpt lat="50.126005" lon="-116.87103801">
      </trkpt>
      <trkpt lat="50.125983" lon="-116.871068">
      </trkpt>
      <trkpt lat="50.125957" lon="-116.871141">
      </trkpt>
      <trkpt lat="50.125949" lon="-116.871181">
      </trkpt>
      <trkpt lat="50.125905" lon="-116.871246">
      </trkpt>
      <trkpt lat="50.125869" lon="-116.87128201">
      </trkpt>
      <trkpt lat="50.125848" lon="-116.871313">
      </trkpt>
      <trkpt lat="50.125816" lon="-116.871337">
      </trkpt>
      <trkpt lat="50.125801" lon="-116.87142199">
      </trkpt>
      <trkpt lat="50.125738" lon="-116.87158601">
      </trkpt>
      <trkpt lat="50.125701" lon="-116.871723">
      </trkpt>
      <trkpt lat="50.125647" lon="-116.871865">
      </trkpt>
      <trkpt lat="50.125636" lon="-116.871924">
      </trkpt>
      <trkpt lat="50.125589" lon="-116.872047">
      </trkpt>
      <trkpt lat="50.125488" lon="-116.872132">
      </trkpt>
      <trkpt lat="50.125474" lon="-116.872168">
      </trkpt>
      <trkpt lat="50.125371" lon="-116.872319">
      </trkpt>
      <trkpt lat="50.125355" lon="-116.872361">
      </trkpt>
      <trkpt lat="50.125338" lon="-116.872394">
      </trkpt>
      <trkpt lat="50.125419" lon="-116.872439">
      </trkpt>
      <trkpt lat="50.125418" lon="-116.87248501">
      </trkpt>
      <trkpt lat="50.12539" lon="-116.872518">
      </trkpt>
      <trkpt lat="50.125317" lon="-116.87257301">
      </trkpt>
      <trkpt lat="50.125165" lon="-116.872535">
      </trkpt>
      <trkpt lat="50.125138" lon="-116.872536">
      </trkpt>
      <trkpt lat="50.125102" lon="-116.87258099">
      </trkpt>
      <trkpt lat="50.125052" lon="-116.872608">
      </trkpt>
      <trkpt lat="50.125026" lon="-116.872613">
      </trkpt>
      <trkpt lat="50.125014" lon="-116.872618">
      </trkpt>
      <trkpt lat="50.124942" lon="-116.87263899">
      </trkpt>
      <trkpt lat="50.124895" lon="-116.87269999">
      </trkpt>
      <trkpt lat="50.12488" lon="-116.872861">
      </trkpt>
      <trkpt lat="50.12485" lon="-116.87294799">
      </trkpt>
      <trkpt lat="50.124808" lon="-116.873005">
      </trkpt>
      <trkpt lat="50.124631" lon="-116.873078">
      </trkpt>
      <trkpt lat="50.124552" lon="-116.873065">
      </trkpt>
      <trkpt lat="50.124515" lon="-116.873043">
      </trkpt>
      <trkpt lat="50.124508" lon="-116.873044">
      </trkpt>
      <trkpt lat="50.124493" lon="-116.873038">
      </trkpt>
      <trkpt lat="50.124492" lon="-116.87303899">
      </trkpt>
    </trkseg>
  </trk>
</gpx>