<?xml version="1.0" encoding="UTF-8"?>
<gpx xmlns="http://www.topografix.com/GPX/1/1" xmlns:xsi="http://www.w3.org/2001/XMLSchema-instance" xsi:schemaLocation="http://www.topografix.com/GPX/1/1 http://www.topografix.com/GPX/1/1/gpx.xsd" version="1.1" creator="gpx.py -- https://github.com/tkrajina/gpxpy">
  <trk>
    <name>Ski tour near Nak Peak</name>
    <trkseg>
      <trkpt lat="49.593427" lon="-121.0891221">
      </trkpt>
      <trkpt lat="49.5938396" lon="-121.0889423">
      </trkpt>
      <trkpt lat="49.594045" lon="-121.088779">
      </trkpt>
      <trkpt lat="49.5941944" lon="-121.0894512">
      </trkpt>
      <trkpt lat="49.5947234" lon="-121.0893408">
      </trkpt>
      <trkpt lat="49.5950627" lon="-121.0898593">
      </trkpt>
      <trkpt lat="49.5954921" lon="-121.0896193">
      </trkpt>
      <trkpt lat="49.5959901" lon="-121.0901522">
      </trkpt>
      <trkpt lat="49.5962204" lon="-121.0900466">
      </trkpt>
      <trkpt lat="49.5966623" lon="-121.0903539">
      </trkpt>
      <trkpt lat="49.5976519" lon="-121.0906419">
      </trkpt>
      <trkpt lat="49.5982649" lon="-121.0908244">
      </trkpt>
      <trkpt lat="49.5987909" lon="-121.0905843">
      </trkpt>
      <trkpt lat="49.5992701" lon="-121.0906323">
      </trkpt>
      <trkpt lat="49.599966" lon="-121.0910659">
      </trkpt>
      <trkpt lat="49.6004732" lon="-121.0909362">
      </trkpt>
      <trkpt lat="49.6009649" lon="-121.0913683">
      </trkpt>
      <trkpt lat="49.6016713" lon="-121.0920693">
      </trkpt>
      <trkpt lat="49.6020758" lon="-121.0923046">
      </trkpt>
      <trkpt lat="49.6027448" lon="-121.0925831">
      </trkpt>
      <trkpt lat="49.6031275" lon="-121.0927943">
      </trkpt>
      <trkpt lat="49.603588" lon="-121.0927847">
      </trkpt>
      <trkpt lat="49.6039272" lon="-121.0927751">
      </trkpt>
      <trkpt lat="49.6041606" lon="-121.0927751">
      </trkpt>
      <trkpt lat="49.6046864" lon="-121.093068">
      </trkpt>
      <trkpt lat="49.6053398" lon="-121.0933753">
      </trkpt>
      <trkpt lat="49.6059652" lon="-121.093673">
      </trkpt>
      <trkpt lat="49.6063355" lon="-121.093745">
      </trkpt>
      <trkpt lat="49.6065066" lon="-121.0936778">
      </trkpt>
      <trkpt lat="49.6065751" lon="-121.0934569">
      </trkpt>
      <trkpt lat="49.6067711" lon="-121.0934185">
      </trkpt>
      <trkpt lat="49.6068924" lon="-121.0934185">
      </trkpt>
      <trkpt lat="49.6070418" lon="-121.0931016">
      </trkpt>
      <trkpt lat="49.6072952" lon="-121.0925855">
      </trkpt>
    </trkseg>
  </trk>
</gpx>