<?xml version="1.0" encoding="UTF-8"?>
<gpx xmlns="http://www.topografix.com/GPX/1/1" xmlns:xsi="http://www.w3.org/2001/XMLSchema-instance" xsi:schemaLocation="http://www.topografix.com/GPX/1/1 http://www.topografix.com/GPX/1/1/gpx.xsd" version="1.1" creator="gpx.py -- https://github.com/tkrajina/gpxpy">
  <trk>
    <name>Zoa Peak</name>
    <trkseg>
      <trkpt lat="49.62529" lon="-121.0697585">
      </trkpt>
      <trkpt lat="49.6253975" lon="-121.0700669">
      </trkpt>
      <trkpt lat="49.6254078" lon="-121.0705177">
      </trkpt>
      <trkpt lat="49.6253412" lon="-121.0706838">
      </trkpt>
      <trkpt lat="49.6251158" lon="-121.0707075">
      </trkpt>
      <trkpt lat="49.6249313" lon="-121.0711346">
      </trkpt>
      <trkpt lat="49.6248186" lon="-121.0713481">
      </trkpt>
      <trkpt lat="49.624752" lon="-121.0717989">
      </trkpt>
      <trkpt lat="49.624624" lon="-121.0721864">
      </trkpt>
      <trkpt lat="49.624624" lon="-121.0727163">
      </trkpt>
      <trkpt lat="49.624957" lon="-121.073001">
      </trkpt>
      <trkpt lat="49.625126" lon="-121.0732936">
      </trkpt>
      <trkpt lat="49.625236" lon="-121.0737886">
      </trkpt>
      <trkpt lat="49.6252283" lon="-121.0740224">
      </trkpt>
      <trkpt lat="49.6251803" lon="-121.0743556">
      </trkpt>
      <trkpt lat="49.6253876" lon="-121.0748461">
      </trkpt>
      <trkpt lat="49.6254992" lon="-121.0752858">
      </trkpt>
      <trkpt lat="49.6255052" lon="-121.0757929">
      </trkpt>
      <trkpt lat="49.6255686" lon="-121.0760506">
      </trkpt>
      <trkpt lat="49.6255609" lon="-121.0763899">
      </trkpt>
      <trkpt lat="49.6255939" lon="-121.0769005">
      </trkpt>
      <trkpt lat="49.6256257" lon="-121.0771341">
      </trkpt>
      <trkpt lat="49.6256881" lon="-121.0773229">
      </trkpt>
      <trkpt lat="49.6256648" lon="-121.077456">
      </trkpt>
      <trkpt lat="49.6256226" lon="-121.0776905">
      </trkpt>
      <trkpt lat="49.6255045" lon="-121.077938">
      </trkpt>
      <trkpt lat="49.6256226" lon="-121.0783418">
      </trkpt>
      <trkpt lat="49.6258589" lon="-121.0785763">
      </trkpt>
      <trkpt lat="49.626017" lon="-121.0787187">
      </trkpt>
      <trkpt lat="49.6260517" lon="-121.0786858">
      </trkpt>
      <trkpt lat="49.6260918" lon="-121.0786344">
      </trkpt>
      <trkpt lat="49.6261593" lon="-121.078684">
      </trkpt>
      <trkpt lat="49.6262095" lon="-121.078817">
      </trkpt>
      <trkpt lat="49.6262422" lon="-121.0789694">
      </trkpt>
      <trkpt lat="49.6263001" lon="-121.0790431">
      </trkpt>
      <trkpt lat="49.6263199" lon="-121.0792037">
      </trkpt>
      <trkpt lat="49.6263294" lon="-121.0795731">
      </trkpt>
      <trkpt lat="49.6262846" lon="-121.0798965">
      </trkpt>
      <trkpt lat="49.6262957" lon="-121.080104">
      </trkpt>
      <trkpt lat="49.6262812" lon="-121.0803224">
      </trkpt>
      <trkpt lat="49.6263025" lon="-121.0804472">
      </trkpt>
      <trkpt lat="49.6263242" lon="-121.0805168">
      </trkpt>
      <trkpt lat="49.626396" lon="-121.0806588">
      </trkpt>
      <trkpt lat="49.6265742" lon="-121.0808455">
      </trkpt>
      <trkpt lat="49.6266867" lon="-121.0809812">
      </trkpt>
      <trkpt lat="49.626849" lon="-121.0812626">
      </trkpt>
      <trkpt lat="49.6269026" lon="-121.0815094">
      </trkpt>
      <trkpt lat="49.6268969" lon="-121.0818601">
      </trkpt>
      <trkpt lat="49.6268248" lon="-121.082055">
      </trkpt>
      <trkpt lat="49.6266771" lon="-121.082243">
      </trkpt>
      <trkpt lat="49.6265321" lon="-121.0826215">
      </trkpt>
      <trkpt lat="49.6264951" lon="-121.0830843">
      </trkpt>
      <trkpt lat="49.6265638" lon="-121.083657">
      </trkpt>
      <trkpt lat="49.6266285" lon="-121.0840747">
      </trkpt>
      <trkpt lat="49.6266207" lon="-121.084369">
      </trkpt>
      <trkpt lat="49.6265967" lon="-121.0845325">
      </trkpt>
      <trkpt lat="49.6266784" lon="-121.0846879">
      </trkpt>
      <trkpt lat="49.6268492" lon="-121.0848324">
      </trkpt>
      <trkpt lat="49.6270059" lon="-121.0849954">
      </trkpt>
      <trkpt lat="49.6271476" lon="-121.0851413">
      </trkpt>
      <trkpt lat="49.6272541" lon="-121.0853232">
      </trkpt>
      <trkpt lat="49.6274006" lon="-121.0857035">
      </trkpt>
      <trkpt lat="49.6274078" lon="-121.0857945">
      </trkpt>
      <trkpt lat="49.627429" lon="-121.0858634">
      </trkpt>
      <trkpt lat="49.627428" lon="-121.0860535">
      </trkpt>
      <trkpt lat="49.6274613" lon="-121.0861538">
      </trkpt>
      <trkpt lat="49.6274563" lon="-121.0862669">
      </trkpt>
      <trkpt lat="49.627437" lon="-121.0863235">
      </trkpt>
      <trkpt lat="49.627383" lon="-121.0865279">
      </trkpt>
      <trkpt lat="49.6274322" lon="-121.0868131">
      </trkpt>
      <trkpt lat="49.62741" lon="-121.0870226">
      </trkpt>
      <trkpt lat="49.6271788" lon="-121.0873364">
      </trkpt>
      <trkpt lat="49.6271997" lon="-121.0876583">
      </trkpt>
      <trkpt lat="49.6271858" lon="-121.0880445">
      </trkpt>
      <trkpt lat="49.6272622" lon="-121.0883449">
      </trkpt>
      <trkpt lat="49.627242" lon="-121.0885965">
      </trkpt>
      <trkpt lat="49.6272296" lon="-121.088747">
      </trkpt>
      <trkpt lat="49.6272683" lon="-121.0888533">
      </trkpt>
      <trkpt lat="49.6273416" lon="-121.0889155">
      </trkpt>
      <trkpt lat="49.6274545" lon="-121.0891906">
      </trkpt>
      <trkpt lat="49.6275389" lon="-121.0893143">
      </trkpt>
      <trkpt lat="49.6275389" lon="-121.0894446">
      </trkpt>
      <trkpt lat="49.6275178" lon="-121.0896465">
      </trkpt>
      <trkpt lat="49.6275136" lon="-121.0897833">
      </trkpt>
      <trkpt lat="49.6274419" lon="-121.0900048">
      </trkpt>
      <trkpt lat="49.6272689" lon="-121.0902197">
      </trkpt>
      <trkpt lat="49.6272562" lon="-121.0903239">
      </trkpt>
      <trkpt lat="49.62729" lon="-121.0905258">
      </trkpt>
      <trkpt lat="49.6272731" lon="-121.0906822">
      </trkpt>
      <trkpt lat="49.6273153" lon="-121.0908841">
      </trkpt>
      <trkpt lat="49.6273153" lon="-121.0910599">
      </trkpt>
      <trkpt lat="49.627252" lon="-121.0911446">
      </trkpt>
      <trkpt lat="49.6270537" lon="-121.0911967">
      </trkpt>
    </trkseg>
    <trkseg>
      <trkpt lat="49.6248504" lon="-121.0620476">
      </trkpt>
      <trkpt lat="49.6248742" lon="-121.0622455">
      </trkpt>
      <trkpt lat="49.6249413" lon="-121.0627722">
      </trkpt>
      <trkpt lat="49.6248286" lon="-121.0628434">
      </trkpt>
      <trkpt lat="49.624803" lon="-121.0630094">
      </trkpt>
      <trkpt lat="49.6248389" lon="-121.0632071">
      </trkpt>
      <trkpt lat="49.6248747" lon="-121.0635077">
      </trkpt>
      <trkpt lat="49.6249208" lon="-121.0641562">
      </trkpt>
      <trkpt lat="49.6248799" lon="-121.0642432">
      </trkpt>
      <trkpt lat="49.6248649" lon="-121.0642951">
      </trkpt>
      <trkpt lat="49.6249105" lon="-121.0643829">
      </trkpt>
      <trkpt lat="49.6248933" lon="-121.0646872">
      </trkpt>
      <trkpt lat="49.6248215" lon="-121.0649451">
      </trkpt>
      <trkpt lat="49.6247573" lon="-121.065155">
      </trkpt>
      <trkpt lat="49.6247969" lon="-121.0653066">
      </trkpt>
      <trkpt lat="49.6249461" lon="-121.0654202">
      </trkpt>
      <trkpt lat="49.6250084" lon="-121.0655397">
      </trkpt>
      <trkpt lat="49.6251028" lon="-121.0655456">
      </trkpt>
      <trkpt lat="49.6250631" lon="-121.0658079">
      </trkpt>
      <trkpt lat="49.6249291" lon="-121.0661431">
      </trkpt>
      <trkpt lat="49.6250292" lon="-121.0663326">
      </trkpt>
      <trkpt lat="49.6250505" lon="-121.0666279">
      </trkpt>
      <trkpt lat="49.6251065" lon="-121.0666855">
      </trkpt>
      <trkpt lat="49.6252309" lon="-121.0668343">
      </trkpt>
      <trkpt lat="49.6252464" lon="-121.0669207">
      </trkpt>
      <trkpt lat="49.6251438" lon="-121.067132">
      </trkpt>
      <trkpt lat="49.6250692" lon="-121.0673721">
      </trkpt>
      <trkpt lat="49.6251625" lon="-121.0676505">
      </trkpt>
      <trkpt lat="49.6253335" lon="-121.0679482">
      </trkpt>
      <trkpt lat="49.6253522" lon="-121.0682603">
      </trkpt>
      <trkpt lat="49.6253771" lon="-121.0688413">
      </trkpt>
      <trkpt lat="49.6254237" lon="-121.0691437">
      </trkpt>
      <trkpt lat="49.6254175" lon="-121.0693406">
      </trkpt>
      <trkpt lat="49.6253304" lon="-121.0694702">
      </trkpt>
      <trkpt lat="49.62529" lon="-121.0697585">
      </trkpt>
    </trkseg>
    <trkseg>
      <trkpt lat="49.6216523" lon="-121.0621085">
      </trkpt>
      <trkpt lat="49.6220536" lon="-121.0620024">
      </trkpt>
      <trkpt lat="49.6225285" lon="-121.0619308">
      </trkpt>
      <trkpt lat="49.6227379" lon="-121.0619802">
      </trkpt>
      <trkpt lat="49.6230657" lon="-121.0619802">
      </trkpt>
      <trkpt lat="49.6233183" lon="-121.0619308">
      </trkpt>
      <trkpt lat="49.6237129" lon="-121.0619507">
      </trkpt>
      <trkpt lat="49.6241573" lon="-121.0619847">
      </trkpt>
      <trkpt lat="49.6244181" lon="-121.0619677">
      </trkpt>
      <trkpt lat="49.6248504" lon="-121.0620476">
      </trkpt>
    </trkseg>
    <trkseg>
      <trkpt lat="49.6211372" lon="-121.0625704">
      </trkpt>
      <trkpt lat="49.6216523" lon="-121.0621085">
      </trkpt>
    </trkseg>
    <trkseg>
      <trkpt lat="49.6146105" lon="-121.0656678">
      </trkpt>
      <trkpt lat="49.6147312" lon="-121.0656549">
      </trkpt>
      <trkpt lat="49.6149548" lon="-121.0656362">
      </trkpt>
      <trkpt lat="49.6152638" lon="-121.0655889">
      </trkpt>
      <trkpt lat="49.6159318" lon="-121.0655437">
      </trkpt>
      <trkpt lat="49.6162208" lon="-121.0655074">
      </trkpt>
      <trkpt lat="49.6168297" lon="-121.0653309">
      </trkpt>
      <trkpt lat="49.6170883" lon="-121.0652949">
      </trkpt>
      <trkpt lat="49.6173953" lon="-121.0652056">
      </trkpt>
      <trkpt lat="49.6179199" lon="-121.0650225">
      </trkpt>
      <trkpt lat="49.6184361" lon="-121.0647762">
      </trkpt>
      <trkpt lat="49.6190087" lon="-121.0643585">
      </trkpt>
      <trkpt lat="49.6198137" lon="-121.0639382">
      </trkpt>
      <trkpt lat="49.6199381" lon="-121.06385">
      </trkpt>
      <trkpt lat="49.6200771" lon="-121.0637221">
      </trkpt>
      <trkpt lat="49.6203173" lon="-121.063369">
      </trkpt>
      <trkpt lat="49.6207554" lon="-121.0628874">
      </trkpt>
      <trkpt lat="49.6211372" lon="-121.0625704">
      </trkpt>
    </trkseg>
    <trkseg>
      <trkpt lat="49.6127492" lon="-121.0649837">
      </trkpt>
      <trkpt lat="49.6133124" lon="-121.0653892">
      </trkpt>
      <trkpt lat="49.6141098" lon="-121.065671">
      </trkpt>
      <trkpt lat="49.6146105" lon="-121.0656678">
      </trkpt>
    </trkseg>
    <trkseg>
      <trkpt lat="49.6122936" lon="-121.065023">
      </trkpt>
      <trkpt lat="49.6123515" lon="-121.0650295">
      </trkpt>
      <trkpt lat="49.6124875" lon="-121.0650086">
      </trkpt>
      <trkpt lat="49.6127492" lon="-121.0649837">
      </trkpt>
    </trkseg>
    <trkseg>
      <trkpt lat="49.6122936" lon="-121.065023">
      </trkpt>
      <trkpt lat="49.6121947" lon="-121.0650228">
      </trkpt>
      <trkpt lat="49.6120837" lon="-121.0649413">
      </trkpt>
      <trkpt lat="49.612063" lon="-121.0647785">
      </trkpt>
      <trkpt lat="49.6120231" lon="-121.0645314">
      </trkpt>
      <trkpt lat="49.6120485" lon="-121.0643134">
      </trkpt>
      <trkpt lat="49.6120937" lon="-121.0641573">
      </trkpt>
      <trkpt lat="49.6121183" lon="-121.0640014">
      </trkpt>
      <trkpt lat="49.6121151" lon="-121.0638059">
      </trkpt>
      <trkpt lat="49.6120527" lon="-121.0636051">
      </trkpt>
      <trkpt lat="49.6119253" lon="-121.0631581">
      </trkpt>
      <trkpt lat="49.6118916" lon="-121.0627602">
      </trkpt>
      <trkpt lat="49.6119141" lon="-121.0623622">
      </trkpt>
      <trkpt lat="49.6118834" lon="-121.0620958">
      </trkpt>
      <trkpt lat="49.6114935" lon="-121.0613429">
      </trkpt>
      <trkpt lat="49.6113527" lon="-121.0609288">
      </trkpt>
      <trkpt lat="49.6112189" lon="-121.0602817">
      </trkpt>
      <trkpt lat="49.6109646" lon="-121.0597091">
      </trkpt>
      <trkpt lat="49.6109571" lon="-121.0592954">
      </trkpt>
      <trkpt lat="49.6108854" lon="-121.058187">
      </trkpt>
      <trkpt lat="49.6109476" lon="-121.0576351">
      </trkpt>
      <trkpt lat="49.610913" lon="-121.057316">
      </trkpt>
      <trkpt lat="49.6107071" lon="-121.0569926">
      </trkpt>
      <trkpt lat="49.6103506" lon="-121.0566426">
      </trkpt>
      <trkpt lat="49.6102048" lon="-121.0562595">
      </trkpt>
      <trkpt lat="49.61022" lon="-121.0557087">
      </trkpt>
      <trkpt lat="49.6105445" lon="-121.0549296">
      </trkpt>
      <trkpt lat="49.6105878" lon="-121.0546962">
      </trkpt>
      <trkpt lat="49.6105858" lon="-121.0544185">
      </trkpt>
      <trkpt lat="49.6105139" lon="-121.0541802">
      </trkpt>
      <trkpt lat="49.6104172" lon="-121.053942">
      </trkpt>
      <trkpt lat="49.6100979" lon="-121.0534816">
      </trkpt>
    </trkseg>
  </trk>
</gpx>