<?xml version="1.0" encoding="UTF-8"?>
<gpx xmlns="http://www.topografix.com/GPX/1/1" xmlns:xsi="http://www.w3.org/2001/XMLSchema-instance" xsi:schemaLocation="http://www.topografix.com/GPX/1/1 http://www.topografix.com/GPX/1/1/gpx.xsd" version="1.1" creator="gpx.py -- https://github.com/tkrajina/gpxpy">
  <trk>
    <name>Linda Lake to O'Hara Road</name>
    <trkseg>
      <trkpt lat="51.3749721" lon="-116.3552448">
      </trkpt>
      <trkpt lat="51.3750173" lon="-116.355194">
      </trkpt>
      <trkpt lat="51.3750587" lon="-116.354874">
      </trkpt>
      <trkpt lat="51.3749278" lon="-116.3545651">
      </trkpt>
      <trkpt lat="51.3747556" lon="-116.3540686">
      </trkpt>
      <trkpt lat="51.3746868" lon="-116.3536715">
      </trkpt>
      <trkpt lat="51.3745766" lon="-116.3533184">
      </trkpt>
      <trkpt lat="51.3743631" lon="-116.3529433">
      </trkpt>
      <trkpt lat="51.3741496" lon="-116.352502">
      </trkpt>
      <trkpt lat="51.3739223" lon="-116.3520387">
      </trkpt>
      <trkpt lat="51.3737502" lon="-116.3516856">
      </trkpt>
      <trkpt lat="51.3736331" lon="-116.3515201">
      </trkpt>
      <trkpt lat="51.3734816" lon="-116.351134">
      </trkpt>
      <trkpt lat="51.3734058" lon="-116.3506375">
      </trkpt>
      <trkpt lat="51.3733783" lon="-116.3503727">
      </trkpt>
      <trkpt lat="51.3733025" lon="-116.3499866">
      </trkpt>
      <trkpt lat="51.3732336" lon="-116.349788">
      </trkpt>
      <trkpt lat="51.373311" lon="-116.3497378">
      </trkpt>
    </trkseg>
    <trkseg>
      <trkpt lat="51.370664" lon="-116.362618">
      </trkpt>
      <trkpt lat="51.3706049" lon="-116.3630246">
      </trkpt>
      <trkpt lat="51.3704344" lon="-116.3635239">
      </trkpt>
      <trkpt lat="51.3703273" lon="-116.3639841">
      </trkpt>
      <trkpt lat="51.3703176" lon="-116.3644522">
      </trkpt>
      <trkpt lat="51.3704588" lon="-116.3648579">
      </trkpt>
      <trkpt lat="51.3699864" lon="-116.3651621">
      </trkpt>
      <trkpt lat="51.3696162" lon="-116.3653962">
      </trkpt>
      <trkpt lat="51.3693143" lon="-116.365638">
      </trkpt>
      <trkpt lat="51.3692266" lon="-116.3658018">
      </trkpt>
      <trkpt lat="51.3693873" lon="-116.3663011">
      </trkpt>
      <trkpt lat="51.369699" lon="-116.3669174">
      </trkpt>
      <trkpt lat="51.370001" lon="-116.3672762">
      </trkpt>
      <trkpt lat="51.3703419" lon="-116.3674869">
      </trkpt>
      <trkpt lat="51.3706731" lon="-116.3678067">
      </trkpt>
      <trkpt lat="51.3710383" lon="-116.368306">
      </trkpt>
      <trkpt lat="51.3712867" lon="-116.3687819">
      </trkpt>
      <trkpt lat="51.3715448" lon="-116.3691953">
      </trkpt>
      <trkpt lat="51.3716422" lon="-116.3694996">
      </trkpt>
      <trkpt lat="51.3716373" lon="-116.3697492">
      </trkpt>
      <trkpt lat="51.3717591" lon="-116.3702485">
      </trkpt>
      <trkpt lat="51.3720269" lon="-116.3708024">
      </trkpt>
      <trkpt lat="51.3722023" lon="-116.3709896">
      </trkpt>
      <trkpt lat="51.3722704" lon="-116.371169">
      </trkpt>
      <trkpt lat="51.3723289" lon="-116.3714421">
      </trkpt>
      <trkpt lat="51.3722802" lon="-116.3718165">
      </trkpt>
      <trkpt lat="51.3722412" lon="-116.3721598">
      </trkpt>
      <trkpt lat="51.3719636" lon="-116.3723782">
      </trkpt>
    </trkseg>
    <trkseg>
      <trkpt lat="51.3722412" lon="-116.3721598">
      </trkpt>
      <trkpt lat="51.3723143" lon="-116.3723548">
      </trkpt>
      <trkpt lat="51.3725724" lon="-116.3726278">
      </trkpt>
      <trkpt lat="51.3725772" lon="-116.3728931">
      </trkpt>
      <trkpt lat="51.3726259" lon="-116.3731349">
      </trkpt>
      <trkpt lat="51.3726503" lon="-116.3735406">
      </trkpt>
      <trkpt lat="51.3726552" lon="-116.3737434">
      </trkpt>
      <trkpt lat="51.3726016" lon="-116.3743909">
      </trkpt>
      <trkpt lat="51.3725529" lon="-116.3747654">
      </trkpt>
      <trkpt lat="51.3726844" lon="-116.3750228">
      </trkpt>
      <trkpt lat="51.3726627" lon="-116.3750651">
      </trkpt>
      <trkpt lat="51.3725821" lon="-116.3752256">
      </trkpt>
      <trkpt lat="51.3724068" lon="-116.3752646">
      </trkpt>
      <trkpt lat="51.3720854" lon="-116.3752568">
      </trkpt>
      <trkpt lat="51.3718614" lon="-116.3751242">
      </trkpt>
      <trkpt lat="51.3716714" lon="-116.3750774">
      </trkpt>
      <trkpt lat="51.3715497" lon="-116.375015">
      </trkpt>
      <trkpt lat="51.3713159" lon="-116.375015">
      </trkpt>
      <trkpt lat="51.3711747" lon="-116.3750618">
      </trkpt>
      <trkpt lat="51.3710627" lon="-116.3752178">
      </trkpt>
      <trkpt lat="51.3710627" lon="-116.3754519">
      </trkpt>
      <trkpt lat="51.3709458" lon="-116.3756781">
      </trkpt>
      <trkpt lat="51.3708874" lon="-116.3757405">
      </trkpt>
      <trkpt lat="51.3706828" lon="-116.3755845">
      </trkpt>
      <trkpt lat="51.3705075" lon="-116.3755611">
      </trkpt>
      <trkpt lat="51.3703224" lon="-116.3755923">
      </trkpt>
      <trkpt lat="51.370225" lon="-116.3756001">
      </trkpt>
      <trkpt lat="51.3701325" lon="-116.3757717">
      </trkpt>
      <trkpt lat="51.369962" lon="-116.3757873">
      </trkpt>
      <trkpt lat="51.3698111" lon="-116.3757873">
      </trkpt>
      <trkpt lat="51.3696601" lon="-116.3757561">
      </trkpt>
      <trkpt lat="51.369514" lon="-116.3758185">
      </trkpt>
      <trkpt lat="51.369363" lon="-116.3760136">
      </trkpt>
      <trkpt lat="51.3691974" lon="-116.3762086">
      </trkpt>
      <trkpt lat="51.3690756" lon="-116.3763568">
      </trkpt>
      <trkpt lat="51.3690269" lon="-116.3765908">
      </trkpt>
      <trkpt lat="51.3690464" lon="-116.3769185">
      </trkpt>
      <trkpt lat="51.3691097" lon="-116.3771525">
      </trkpt>
      <trkpt lat="51.3691097" lon="-116.37741">
      </trkpt>
      <trkpt lat="51.3691536" lon="-116.3777688">
      </trkpt>
      <trkpt lat="51.369342" lon="-116.3780318">
      </trkpt>
    </trkseg>
  </trk>
</gpx>