<?xml version="1.0" encoding="UTF-8"?>
<gpx xmlns="http://www.topografix.com/GPX/1/1" xmlns:xsi="http://www.w3.org/2001/XMLSchema-instance" xsi:schemaLocation="http://www.topografix.com/GPX/1/1 http://www.topografix.com/GPX/1/1/gpx.xsd" version="1.1" creator="gpx.py -- https://github.com/tkrajina/gpxpy">
  <trk>
    <name>Lighthouse Country Regional Trail South Loop</name>
    <trkseg>
      <trkpt lat="49.4032463" lon="-124.6336958">
      </trkpt>
      <trkpt lat="49.4032743" lon="-124.633741">
      </trkpt>
      <trkpt lat="49.4033826" lon="-124.638019">
      </trkpt>
      <trkpt lat="49.4033244" lon="-124.6381273">
      </trkpt>
      <trkpt lat="49.4031825" lon="-124.6383611">
      </trkpt>
    </trkseg>
    <trkseg>
      <trkpt lat="49.4031825" lon="-124.6383611">
      </trkpt>
      <trkpt lat="49.4032469" lon="-124.6384388">
      </trkpt>
      <trkpt lat="49.4032836" lon="-124.6387956">
      </trkpt>
      <trkpt lat="49.4035616" lon="-124.639007">
      </trkpt>
      <trkpt lat="49.4038299" lon="-124.6390718">
      </trkpt>
      <trkpt lat="49.4041969" lon="-124.6393798">
      </trkpt>
      <trkpt lat="49.4042908" lon="-124.6396244">
      </trkpt>
      <trkpt lat="49.4044182" lon="-124.6397183">
      </trkpt>
      <trkpt lat="49.4045211" lon="-124.6398979">
      </trkpt>
      <trkpt lat="49.4048339" lon="-124.6401979">
      </trkpt>
      <trkpt lat="49.4050957" lon="-124.6402488">
      </trkpt>
      <trkpt lat="49.4054395" lon="-124.6407129">
      </trkpt>
      <trkpt lat="49.4057639" lon="-124.6408771">
      </trkpt>
      <trkpt lat="49.4058615" lon="-124.6411721">
      </trkpt>
      <trkpt lat="49.4062001" lon="-124.6414108">
      </trkpt>
      <trkpt lat="49.4064274" lon="-124.6414532">
      </trkpt>
      <trkpt lat="49.4068253" lon="-124.6419065">
      </trkpt>
      <trkpt lat="49.4070662" lon="-124.6423731">
      </trkpt>
      <trkpt lat="49.4071827" lon="-124.6424113">
      </trkpt>
      <trkpt lat="49.4073083" lon="-124.6425748">
      </trkpt>
      <trkpt lat="49.4074725" lon="-124.6426232">
      </trkpt>
      <trkpt lat="49.4078233" lon="-124.6429557">
      </trkpt>
      <trkpt lat="49.4078563" lon="-124.6432427">
      </trkpt>
      <trkpt lat="49.4080867" lon="-124.6433526">
      </trkpt>
      <trkpt lat="49.4081966" lon="-124.643527">
      </trkpt>
      <trkpt lat="49.4083834" lon="-124.6435566">
      </trkpt>
      <trkpt lat="49.4088987" lon="-124.6439235">
      </trkpt>
      <trkpt lat="49.4090326" lon="-124.6440554">
      </trkpt>
      <trkpt lat="49.4090988" lon="-124.6442657">
      </trkpt>
      <trkpt lat="49.4093101" lon="-124.644388">
      </trkpt>
      <trkpt lat="49.4093804" lon="-124.6446478">
      </trkpt>
      <trkpt lat="49.4095104" lon="-124.644764">
      </trkpt>
      <trkpt lat="49.409578" lon="-124.6449104">
      </trkpt>
      <trkpt lat="49.4098822" lon="-124.6449899">
      </trkpt>
      <trkpt lat="49.4101066" lon="-124.64514">
      </trkpt>
      <trkpt lat="49.4102169" lon="-124.6454295">
      </trkpt>
      <trkpt lat="49.4103189" lon="-124.6454926">
      </trkpt>
      <trkpt lat="49.4105125" lon="-124.6455188">
      </trkpt>
      <trkpt lat="49.4106792" lon="-124.6457709">
      </trkpt>
      <trkpt lat="49.4109776" lon="-124.6459391">
      </trkpt>
      <trkpt lat="49.4112697" lon="-124.6462619">
      </trkpt>
      <trkpt lat="49.4115543" lon="-124.6464812">
      </trkpt>
      <trkpt lat="49.411742" lon="-124.6466575">
      </trkpt>
      <trkpt lat="49.4119058" lon="-124.6469235">
      </trkpt>
      <trkpt lat="49.4120486" lon="-124.6469447">
      </trkpt>
      <trkpt lat="49.4121018" lon="-124.6470873">
      </trkpt>
      <trkpt lat="49.4121122" lon="-124.647237">
      </trkpt>
      <trkpt lat="49.4125442" lon="-124.6476067">
      </trkpt>
      <trkpt lat="49.4127574" lon="-124.6476407">
      </trkpt>
      <trkpt lat="49.4129882" lon="-124.6480455">
      </trkpt>
      <trkpt lat="49.413229" lon="-124.6483008">
      </trkpt>
      <trkpt lat="49.413264" lon="-124.6484832">
      </trkpt>
      <trkpt lat="49.4135391" lon="-124.6486572">
      </trkpt>
      <trkpt lat="49.4136668" lon="-124.6488494">
      </trkpt>
      <trkpt lat="49.4142893" lon="-124.6491191">
      </trkpt>
      <trkpt lat="49.4145054" lon="-124.6495607">
      </trkpt>
      <trkpt lat="49.4146848" lon="-124.6496359">
      </trkpt>
      <trkpt lat="49.4149031" lon="-124.6500758">
      </trkpt>
      <trkpt lat="49.4153349" lon="-124.6503211">
      </trkpt>
      <trkpt lat="49.4157618" lon="-124.6509055">
      </trkpt>
      <trkpt lat="49.4159103" lon="-124.6509416">
      </trkpt>
      <trkpt lat="49.4161305" lon="-124.6512727">
      </trkpt>
      <trkpt lat="49.4163763" lon="-124.6515999">
      </trkpt>
      <trkpt lat="49.4165316" lon="-124.6516777">
      </trkpt>
      <trkpt lat="49.4167837" lon="-124.6521161">
      </trkpt>
      <trkpt lat="49.4169788" lon="-124.6521215">
      </trkpt>
    </trkseg>
    <trkseg>
      <trkpt lat="49.4169788" lon="-124.6521215">
      </trkpt>
      <trkpt lat="49.4169711" lon="-124.6523702">
      </trkpt>
      <trkpt lat="49.4169314" lon="-124.6525226">
      </trkpt>
      <trkpt lat="49.4168029" lon="-124.6527084">
      </trkpt>
      <trkpt lat="49.4167806" lon="-124.6527275">
      </trkpt>
      <trkpt lat="49.416674" lon="-124.6528">
      </trkpt>
      <trkpt lat="49.41629" lon="-124.652841">
      </trkpt>
      <trkpt lat="49.416021" lon="-124.652841">
      </trkpt>
      <trkpt lat="49.415833" lon="-124.652834">
      </trkpt>
      <trkpt lat="49.415569" lon="-124.652769">
      </trkpt>
      <trkpt lat="49.41516" lon="-124.652794">
      </trkpt>
      <trkpt lat="49.414811" lon="-124.652712">
      </trkpt>
      <trkpt lat="49.414542" lon="-124.652708">
      </trkpt>
      <trkpt lat="49.413838" lon="-124.652548">
      </trkpt>
      <trkpt lat="49.413339" lon="-124.652376">
      </trkpt>
      <trkpt lat="49.412849" lon="-124.652164">
      </trkpt>
      <trkpt lat="49.412585" lon="-124.652013">
      </trkpt>
      <trkpt lat="49.411672" lon="-124.651442">
      </trkpt>
      <trkpt lat="49.4104647" lon="-124.6506566">
      </trkpt>
      <trkpt lat="49.409594" lon="-124.650115">
      </trkpt>
      <trkpt lat="49.40841" lon="-124.649361">
      </trkpt>
      <trkpt lat="49.40792" lon="-124.648983">
      </trkpt>
      <trkpt lat="49.407544" lon="-124.648722">
      </trkpt>
      <trkpt lat="49.407137" lon="-124.648476">
      </trkpt>
      <trkpt lat="49.40641" lon="-124.647955">
      </trkpt>
      <trkpt lat="49.405998" lon="-124.647692">
      </trkpt>
      <trkpt lat="49.405244" lon="-124.647131">
      </trkpt>
      <trkpt lat="49.404421" lon="-124.646571">
      </trkpt>
      <trkpt lat="49.403634" lon="-124.645934">
      </trkpt>
      <trkpt lat="49.403288" lon="-124.645591">
      </trkpt>
      <trkpt lat="49.402844" lon="-124.645109">
      </trkpt>
      <trkpt lat="49.402636" lon="-124.644918">
      </trkpt>
      <trkpt lat="49.40173" lon="-124.643865">
      </trkpt>
      <trkpt lat="49.400042" lon="-124.641989">
      </trkpt>
      <trkpt lat="49.399628" lon="-124.641442">
      </trkpt>
      <trkpt lat="49.399339" lon="-124.641143">
      </trkpt>
      <trkpt lat="49.399125" lon="-124.640877">
      </trkpt>
      <trkpt lat="49.398606" lon="-124.640294">
      </trkpt>
      <trkpt lat="49.3983684" lon="-124.6399624">
      </trkpt>
    </trkseg>
    <trkseg>
      <trkpt lat="49.3983684" lon="-124.6399624">
      </trkpt>
      <trkpt lat="49.3986289" lon="-124.6397312">
      </trkpt>
      <trkpt lat="49.3988188" lon="-124.6391416">
      </trkpt>
      <trkpt lat="49.3988677" lon="-124.6385569">
      </trkpt>
      <trkpt lat="49.3989305" lon="-124.638396">
      </trkpt>
      <trkpt lat="49.3992098" lon="-124.6383692">
      </trkpt>
      <trkpt lat="49.3996168" lon="-124.6383472">
      </trkpt>
      <trkpt lat="49.3999659" lon="-124.6381648">
      </trkpt>
      <trkpt lat="49.4001838" lon="-124.638235">
      </trkpt>
      <trkpt lat="49.4005245" lon="-124.6379663">
      </trkpt>
      <trkpt lat="49.4007179" lon="-124.6379507">
      </trkpt>
      <trkpt lat="49.4009993" lon="-124.6379073">
      </trkpt>
      <trkpt lat="49.4013183" lon="-124.6378864">
      </trkpt>
      <trkpt lat="49.4015229" lon="-124.6376981">
      </trkpt>
      <trkpt lat="49.4017373" lon="-124.6373875">
      </trkpt>
      <trkpt lat="49.4017987" lon="-124.6372045">
      </trkpt>
      <trkpt lat="49.4020396" lon="-124.6374245">
      </trkpt>
      <trkpt lat="49.4021806" lon="-124.6376477">
      </trkpt>
      <trkpt lat="49.4025039" lon="-124.6376498">
      </trkpt>
      <trkpt lat="49.4025873" lon="-124.6377389">
      </trkpt>
      <trkpt lat="49.4026365" lon="-124.6380307">
      </trkpt>
      <trkpt lat="49.4028421" lon="-124.6380527">
      </trkpt>
      <trkpt lat="49.4029332" lon="-124.6383284">
      </trkpt>
      <trkpt lat="49.4030987" lon="-124.6383316">
      </trkpt>
      <trkpt lat="49.4031825" lon="-124.6383611">
      </trkpt>
    </trkseg>
  </trk>
</gpx>