<?xml version="1.0" encoding="UTF-8"?>
<gpx xmlns="http://www.topografix.com/GPX/1/1" xmlns:xsi="http://www.w3.org/2001/XMLSchema-instance" xsi:schemaLocation="http://www.topografix.com/GPX/1/1 http://www.topografix.com/GPX/1/1/gpx.xsd" version="1.1" creator="gpx.py -- https://github.com/tkrajina/gpxpy">
  <trk>
    <name>Hillton Trail</name>
    <trkseg>
      <trkpt lat="49.9153244" lon="-124.1670524">
      </trkpt>
      <trkpt lat="49.915383" lon="-124.1671057">
      </trkpt>
      <trkpt lat="49.9156523" lon="-124.1674177">
      </trkpt>
      <trkpt lat="49.9163458" lon="-124.168717">
      </trkpt>
      <trkpt lat="49.9171223" lon="-124.1697189">
      </trkpt>
      <trkpt lat="49.918553" lon="-124.1713331">
      </trkpt>
      <trkpt lat="49.9190603" lon="-124.1725827">
      </trkpt>
      <trkpt lat="49.9196372" lon="-124.1735568">
      </trkpt>
      <trkpt lat="49.9201668" lon="-124.1742028">
      </trkpt>
      <trkpt lat="49.9206052" lon="-124.1746516">
      </trkpt>
      <trkpt lat="49.9210075" lon="-124.1751665">
      </trkpt>
      <trkpt lat="49.9211296" lon="-124.175262">
      </trkpt>
      <trkpt lat="49.9218772" lon="-124.1762007">
      </trkpt>
      <trkpt lat="49.9220697" lon="-124.1763509">
      </trkpt>
      <trkpt lat="49.9222651" lon="-124.1764005">
      </trkpt>
      <trkpt lat="49.9227982" lon="-124.1764223">
      </trkpt>
      <trkpt lat="49.9229153" lon="-124.1764965">
      </trkpt>
      <trkpt lat="49.9230668" lon="-124.1766914">
      </trkpt>
      <trkpt lat="49.9233292" lon="-124.1774271">
      </trkpt>
      <trkpt lat="49.9233623" lon="-124.1777486">
      </trkpt>
      <trkpt lat="49.9234515" lon="-124.1780966">
      </trkpt>
      <trkpt lat="49.9237538" lon="-124.1787231">
      </trkpt>
      <trkpt lat="49.9237425" lon="-124.1788814">
      </trkpt>
      <trkpt lat="49.9238662" lon="-124.1793572">
      </trkpt>
      <trkpt lat="49.9238603" lon="-124.1809502">
      </trkpt>
      <trkpt lat="49.9239663" lon="-124.181477">
      </trkpt>
      <trkpt lat="49.9240778" lon="-124.1842922">
      </trkpt>
      <trkpt lat="49.9240232" lon="-124.1846316">
      </trkpt>
      <trkpt lat="49.92361" lon="-124.1855622">
      </trkpt>
      <trkpt lat="49.9235189" lon="-124.1857924">
      </trkpt>
      <trkpt lat="49.9234225" lon="-124.1861263">
      </trkpt>
      <trkpt lat="49.9233633" lon="-124.1864658">
      </trkpt>
      <trkpt lat="49.923403" lon="-124.1874687">
      </trkpt>
      <trkpt lat="49.9235502" lon="-124.1882449">
      </trkpt>
      <trkpt lat="49.9237177" lon="-124.1888094">
      </trkpt>
      <trkpt lat="49.9236581" lon="-124.1891662">
      </trkpt>
      <trkpt lat="49.9235533" lon="-124.1895506">
      </trkpt>
      <trkpt lat="49.9232038" lon="-124.1902747">
      </trkpt>
      <trkpt lat="49.9230465" lon="-124.1908477">
      </trkpt>
      <trkpt lat="49.9229937" lon="-124.1912947">
      </trkpt>
      <trkpt lat="49.9230114" lon="-124.1918105">
      </trkpt>
      <trkpt lat="49.9231812" lon="-124.19255">
      </trkpt>
      <trkpt lat="49.9231272" lon="-124.1929324">
      </trkpt>
      <trkpt lat="49.9229776" lon="-124.1934118">
      </trkpt>
      <trkpt lat="49.9226242" lon="-124.1941719">
      </trkpt>
      <trkpt lat="49.9225185" lon="-124.1945061">
      </trkpt>
      <trkpt lat="49.9223986" lon="-124.1953862">
      </trkpt>
      <trkpt lat="49.9222882" lon="-124.1957134">
      </trkpt>
      <trkpt lat="49.9221689" lon="-124.1963494">
      </trkpt>
      <trkpt lat="49.9220123" lon="-124.197812">
      </trkpt>
      <trkpt lat="49.9220414" lon="-124.1993032">
      </trkpt>
      <trkpt lat="49.9220824" lon="-124.1998253">
      </trkpt>
      <trkpt lat="49.9223354" lon="-124.2008413">
      </trkpt>
      <trkpt lat="49.9229727" lon="-124.2024089">
      </trkpt>
      <trkpt lat="49.9230397" lon="-124.2028224">
      </trkpt>
      <trkpt lat="49.9232076" lon="-124.2034544">
      </trkpt>
      <trkpt lat="49.9233294" lon="-124.2041025">
      </trkpt>
      <trkpt lat="49.9235488" lon="-124.2059019">
      </trkpt>
      <trkpt lat="49.9237888" lon="-124.206983">
      </trkpt>
      <trkpt lat="49.9239973" lon="-124.2075488">
      </trkpt>
      <trkpt lat="49.9240776" lon="-124.2079259">
      </trkpt>
      <trkpt lat="49.9241556" lon="-124.2087264">
      </trkpt>
      <trkpt lat="49.9242266" lon="-124.2091039">
      </trkpt>
      <trkpt lat="49.9245664" lon="-124.210052">
      </trkpt>
      <trkpt lat="49.9248127" lon="-124.2109536">
      </trkpt>
      <trkpt lat="49.9248632" lon="-124.2112099">
      </trkpt>
      <trkpt lat="49.9249278" lon="-124.2120468">
      </trkpt>
      <trkpt lat="49.9250835" lon="-124.2127869">
      </trkpt>
      <trkpt lat="49.9251068" lon="-124.2130802">
      </trkpt>
      <trkpt lat="49.9252837" lon="-124.2136975">
      </trkpt>
      <trkpt lat="49.9254153" lon="-124.2138143">
      </trkpt>
    </trkseg>
  </trk>
</gpx>