<?xml version="1.0" encoding="UTF-8"?>
<gpx xmlns="http://www.topografix.com/GPX/1/1" xmlns:xsi="http://www.w3.org/2001/XMLSchema-instance" xsi:schemaLocation="http://www.topografix.com/GPX/1/1 http://www.topografix.com/GPX/1/1/gpx.xsd" version="1.1" creator="gpx.py -- https://github.com/tkrajina/gpxpy">
  <trk>
    <name>Beta Lake Road</name>
    <trkseg>
      <trkpt lat="49.9254153" lon="-124.2138143">
      </trkpt>
      <trkpt lat="49.925502" lon="-124.213732">
      </trkpt>
      <trkpt lat="49.9257568" lon="-124.2134494">
      </trkpt>
      <trkpt lat="49.9258625" lon="-124.213395">
      </trkpt>
      <trkpt lat="49.9261581" lon="-124.2133404">
      </trkpt>
      <trkpt lat="49.9267174" lon="-124.2131614">
      </trkpt>
      <trkpt lat="49.9270522" lon="-124.2130543">
      </trkpt>
      <trkpt lat="49.9279116" lon="-124.2129131">
      </trkpt>
      <trkpt lat="49.9284491" lon="-124.2129208">
      </trkpt>
      <trkpt lat="49.9288537" lon="-124.2130126">
      </trkpt>
      <trkpt lat="49.9290887" lon="-124.2132187">
      </trkpt>
      <trkpt lat="49.9295567" lon="-124.2135089">
      </trkpt>
      <trkpt lat="49.9303496" lon="-124.2138367">
      </trkpt>
      <trkpt lat="49.9310005" lon="-124.2142633">
      </trkpt>
      <trkpt lat="49.9313463" lon="-124.2144436">
      </trkpt>
      <trkpt lat="49.9318109" lon="-124.2145259">
      </trkpt>
      <trkpt lat="49.9324209" lon="-124.2147173">
      </trkpt>
      <trkpt lat="49.933859" lon="-124.2148334">
      </trkpt>
      <trkpt lat="49.9347171" lon="-124.2146132">
      </trkpt>
      <trkpt lat="49.9348318" lon="-124.2145442">
      </trkpt>
      <trkpt lat="49.9348941" lon="-124.214391">
      </trkpt>
      <trkpt lat="49.934919" lon="-124.2142107">
      </trkpt>
      <trkpt lat="49.9348972" lon="-124.2140106">
      </trkpt>
      <trkpt lat="49.9347674" lon="-124.2137214">
      </trkpt>
      <trkpt lat="49.9346309" lon="-124.2135904">
      </trkpt>
      <trkpt lat="49.9341732" lon="-124.2133643">
      </trkpt>
      <trkpt lat="49.9337877" lon="-124.2130206">
      </trkpt>
      <trkpt lat="49.9333955" lon="-124.2125479">
      </trkpt>
      <trkpt lat="49.9329957" lon="-124.212176">
      </trkpt>
      <trkpt lat="49.9324671" lon="-124.2115796">
      </trkpt>
      <trkpt lat="49.932258" lon="-124.2112577">
      </trkpt>
      <trkpt lat="49.9319144" lon="-124.2109419">
      </trkpt>
      <trkpt lat="49.9317782" lon="-124.2108172">
      </trkpt>
      <trkpt lat="49.9313251" lon="-124.2100169">
      </trkpt>
      <trkpt lat="49.9310291" lon="-124.209763">
      </trkpt>
      <trkpt lat="49.9305501" lon="-124.2088058">
      </trkpt>
      <trkpt lat="49.9303563" lon="-124.2082824">
      </trkpt>
      <trkpt lat="49.9297821" lon="-124.207164">
      </trkpt>
      <trkpt lat="49.9294973" lon="-124.2064648">
      </trkpt>
      <trkpt lat="49.9293826" lon="-124.2062541">
      </trkpt>
      <trkpt lat="49.9291035" lon="-124.2053322">
      </trkpt>
      <trkpt lat="49.9288567" lon="-124.2046889">
      </trkpt>
      <trkpt lat="49.9287913" lon="-124.2043758">
      </trkpt>
      <trkpt lat="49.9281784" lon="-124.2028787">
      </trkpt>
      <trkpt lat="49.9280318" lon="-124.2024108">
      </trkpt>
      <trkpt lat="49.9277874" lon="-124.2010715">
      </trkpt>
      <trkpt lat="49.9275748" lon="-124.2005345">
      </trkpt>
      <trkpt lat="49.9274868" lon="-124.1999712">
      </trkpt>
      <trkpt lat="49.9273681" lon="-124.1995166">
      </trkpt>
      <trkpt lat="49.9273323" lon="-124.1990301">
      </trkpt>
      <trkpt lat="49.9273275" lon="-124.1971135">
      </trkpt>
      <trkpt lat="49.9273256" lon="-124.1963683">
      </trkpt>
      <trkpt lat="49.9274438" lon="-124.194821">
      </trkpt>
      <trkpt lat="49.9273493" lon="-124.1944301">
      </trkpt>
      <trkpt lat="49.9273443" lon="-124.1941289">
      </trkpt>
      <trkpt lat="49.9274277" lon="-124.1935659">
      </trkpt>
      <trkpt lat="49.9274459" lon="-124.192984">
      </trkpt>
      <trkpt lat="49.9275089" lon="-124.1925869">
      </trkpt>
      <trkpt lat="49.9275037" lon="-124.1922714">
      </trkpt>
      <trkpt lat="49.9275735" lon="-124.1914506">
      </trkpt>
      <trkpt lat="49.9279342" lon="-124.1902883">
      </trkpt>
      <trkpt lat="49.9279825" lon="-124.1895617">
      </trkpt>
      <trkpt lat="49.9280896" lon="-124.1890336">
      </trkpt>
      <trkpt lat="49.9280264" lon="-124.1882971">
      </trkpt>
      <trkpt lat="49.9280099" lon="-124.1873003">
      </trkpt>
      <trkpt lat="49.9280711" lon="-124.1867956">
      </trkpt>
      <trkpt lat="49.9282266" lon="-124.186115">
      </trkpt>
      <trkpt lat="49.9284208" lon="-124.1855332">
      </trkpt>
      <trkpt lat="49.9284027" lon="-124.1852756">
      </trkpt>
      <trkpt lat="49.9282483" lon="-124.1846288">
      </trkpt>
      <trkpt lat="49.9281976" lon="-124.1840855">
      </trkpt>
      <trkpt lat="49.9281944" lon="-124.1833322">
      </trkpt>
      <trkpt lat="49.928263" lon="-124.18188">
      </trkpt>
      <trkpt lat="49.9284424" lon="-124.1801292">
      </trkpt>
      <trkpt lat="49.9285163" lon="-124.1795522">
      </trkpt>
      <trkpt lat="49.9286226" lon="-124.179261">
      </trkpt>
      <trkpt lat="49.9288603" lon="-124.1782326">
      </trkpt>
      <trkpt lat="49.9290126" lon="-124.177918">
      </trkpt>
      <trkpt lat="49.9291102" lon="-124.1773759">
      </trkpt>
      <trkpt lat="49.9293748" lon="-124.176576">
      </trkpt>
      <trkpt lat="49.9296327" lon="-124.1759271">
      </trkpt>
      <trkpt lat="49.9296713" lon="-124.1754591">
      </trkpt>
      <trkpt lat="49.9297228" lon="-124.1752131">
      </trkpt>
      <trkpt lat="49.9297228" lon="-124.1746606">
      </trkpt>
      <trkpt lat="49.9295579" lon="-124.1736554">
      </trkpt>
      <trkpt lat="49.9295597" lon="-124.1729306">
      </trkpt>
      <trkpt lat="49.9296086" lon="-124.1728066">
      </trkpt>
      <trkpt lat="49.9296995" lon="-124.1727025">
      </trkpt>
      <trkpt lat="49.9298569" lon="-124.1726962">
      </trkpt>
      <trkpt lat="49.9304791" lon="-124.172779">
      </trkpt>
      <trkpt lat="49.9309666" lon="-124.1725657">
      </trkpt>
      <trkpt lat="49.9313634" lon="-124.1721911">
      </trkpt>
      <trkpt lat="49.9317439" lon="-124.1719462">
      </trkpt>
      <trkpt lat="49.9320397" lon="-124.1716258">
      </trkpt>
      <trkpt lat="49.9324637" lon="-124.1709415">
      </trkpt>
      <trkpt lat="49.9327242" lon="-124.1707229">
      </trkpt>
      <trkpt lat="49.9328601" lon="-124.1705381">
      </trkpt>
      <trkpt lat="49.9331748" lon="-124.1699657">
      </trkpt>
      <trkpt lat="49.934207" lon="-124.16991">
      </trkpt>
      <trkpt lat="49.9346399" lon="-124.1697563">
      </trkpt>
      <trkpt lat="49.935997" lon="-124.1686255">
      </trkpt>
      <trkpt lat="49.93664" lon="-124.1674586">
      </trkpt>
      <trkpt lat="49.9371824" lon="-124.1666474">
      </trkpt>
      <trkpt lat="49.9373057" lon="-124.166542">
      </trkpt>
      <trkpt lat="49.9377205" lon="-124.1664105">
      </trkpt>
      <trkpt lat="49.9382805" lon="-124.1661009">
      </trkpt>
      <trkpt lat="49.9386235" lon="-124.165836">
      </trkpt>
      <trkpt lat="49.9397237" lon="-124.1656913">
      </trkpt>
      <trkpt lat="49.9399068" lon="-124.1655619">
      </trkpt>
      <trkpt lat="49.9407821" lon="-124.1647086">
      </trkpt>
      <trkpt lat="49.9409028" lon="-124.1644453">
      </trkpt>
      <trkpt lat="49.9409417" lon="-124.1642787">
      </trkpt>
      <trkpt lat="49.9409165" lon="-124.1641577">
      </trkpt>
      <trkpt lat="49.9408269" lon="-124.164068">
      </trkpt>
      <trkpt lat="49.9406965" lon="-124.1640229">
      </trkpt>
      <trkpt lat="49.9404791" lon="-124.164046">
      </trkpt>
      <trkpt lat="49.9403528" lon="-124.1639882">
      </trkpt>
      <trkpt lat="49.9402423" lon="-124.1637576">
      </trkpt>
      <trkpt lat="49.9401008" lon="-124.1632372">
      </trkpt>
      <trkpt lat="49.939973" lon="-124.1629314">
      </trkpt>
      <trkpt lat="49.9395898" lon="-124.1622877">
      </trkpt>
      <trkpt lat="49.9391859" lon="-124.1618908">
      </trkpt>
      <trkpt lat="49.9388371" lon="-124.161467">
      </trkpt>
      <trkpt lat="49.9386058" lon="-124.1610271">
      </trkpt>
    </trkseg>
  </trk>
</gpx>