<?xml version="1.0" encoding="UTF-8"?>
<gpx xmlns="http://www.topografix.com/GPX/1/1" xmlns:xsi="http://www.w3.org/2001/XMLSchema-instance" xsi:schemaLocation="http://www.topografix.com/GPX/1/1 http://www.topografix.com/GPX/1/1/gpx.xsd" version="1.1" creator="gpx.py -- https://github.com/tkrajina/gpxpy">
  <trk>
    <name>Wensley Snowshoe</name>
    <trkseg>
      <trkpt lat="50.23963992" lon="-117.74306696">
      </trkpt>
      <trkpt lat="50.23962256" lon="-117.74286154">
      </trkpt>
      <trkpt lat="50.23951926" lon="-117.74259114">
      </trkpt>
      <trkpt lat="50.23946926" lon="-117.74246116">
      </trkpt>
      <trkpt lat="50.23946929" lon="-117.74237798">
      </trkpt>
      <trkpt lat="50.23949265" lon="-117.74234163">
      </trkpt>
      <trkpt lat="50.2395527" lon="-117.74234167">
      </trkpt>
      <trkpt lat="50.23962608" lon="-117.74234174">
      </trkpt>
      <trkpt lat="50.23971619" lon="-117.74222746">
      </trkpt>
      <trkpt lat="50.23975958" lon="-117.74214952">
      </trkpt>
      <trkpt lat="50.23978296" lon="-117.74207157">
      </trkpt>
      <trkpt lat="50.23977299" lon="-117.74196761">
      </trkpt>
      <trkpt lat="50.23975638" lon="-117.74175967">
      </trkpt>
      <trkpt lat="50.23967973" lon="-117.74155169">
      </trkpt>
      <trkpt lat="50.23961974" lon="-117.7413905">
      </trkpt>
      <trkpt lat="50.23957977" lon="-117.74123972">
      </trkpt>
      <trkpt lat="50.23956648" lon="-117.74108378">
      </trkpt>
      <trkpt lat="50.23962993" lon="-117.7408811">
      </trkpt>
      <trkpt lat="50.23973339" lon="-117.74070966">
      </trkpt>
      <trkpt lat="50.23980681" lon="-117.74060056">
      </trkpt>
      <trkpt lat="50.23982686" lon="-117.74049661">
      </trkpt>
      <trkpt lat="50.23980692" lon="-117.74028349">
      </trkpt>
      <trkpt lat="50.23980032" lon="-117.74007556">
      </trkpt>
      <trkpt lat="50.23976368" lon="-117.73990919">
      </trkpt>
      <trkpt lat="50.23962369" lon="-117.7395972">
      </trkpt>
      <trkpt lat="50.23948369" lon="-117.73930599">
      </trkpt>
      <trkpt lat="50.23938034" lon="-117.73910839">
      </trkpt>
      <trkpt lat="50.23925368" lon="-117.73882241">
      </trkpt>
      <trkpt lat="50.23912365" lon="-117.73863518">
      </trkpt>
      <trkpt lat="50.23901026" lon="-117.73854152">
      </trkpt>
      <trkpt lat="50.23894024" lon="-117.7384791">
      </trkpt>
      <trkpt lat="50.23889358" lon="-117.73831793">
      </trkpt>
      <trkpt lat="50.23889362" lon="-117.73820357">
      </trkpt>
      <trkpt lat="50.23887365" lon="-117.73807881">
      </trkpt>
      <trkpt lat="50.23883034" lon="-117.73792283">
      </trkpt>
      <trkpt lat="50.23874032" lon="-117.73776683">
      </trkpt>
      <trkpt lat="50.23862029" lon="-117.73759521">
      </trkpt>
      <trkpt lat="50.23850027" lon="-117.73738199">
      </trkpt>
      <trkpt lat="50.23837357" lon="-117.73718959">
      </trkpt>
      <trkpt lat="50.23821018" lon="-117.73701794">
      </trkpt>
      <trkpt lat="50.23802343" lon="-117.73683067">
      </trkpt>
      <trkpt lat="50.23791674" lon="-117.73666946">
      </trkpt>
      <trkpt lat="50.23780671" lon="-117.73651344">
      </trkpt>
      <trkpt lat="50.23776337" lon="-117.73643024">
      </trkpt>
      <trkpt lat="50.23775338" lon="-117.73636787">
      </trkpt>
      <trkpt lat="50.23779008" lon="-117.73636269">
      </trkpt>
      <trkpt lat="50.23792348" lon="-117.73645115">
      </trkpt>
      <trkpt lat="50.23807689" lon="-117.73655522">
      </trkpt>
      <trkpt lat="50.2381803" lon="-117.7365553">
      </trkpt>
      <trkpt lat="50.23831707" lon="-117.73653461">
      </trkpt>
      <trkpt lat="50.23842716" lon="-117.73648792">
      </trkpt>
      <trkpt lat="50.23851055" lon="-117.73651916">
      </trkpt>
      <trkpt lat="50.23857393" lon="-117.73650881">
      </trkpt>
      <trkpt lat="50.23862063" lon="-117.73649325">
      </trkpt>
      <trkpt lat="50.23858396" lon="-117.73639446">
      </trkpt>
      <trkpt lat="50.23843724" lon="-117.73624882">
      </trkpt>
      <trkpt lat="50.23830384" lon="-117.73614477">
      </trkpt>
      <trkpt lat="50.23823386" lon="-117.7359472">
      </trkpt>
      <trkpt lat="50.2381772" lon="-117.73577043">
      </trkpt>
      <trkpt lat="50.23802719" lon="-117.73543766">
      </trkpt>
      <trkpt lat="50.23790055" lon="-117.73506333">
      </trkpt>
      <trkpt lat="50.2378072" lon="-117.73488654">
      </trkpt>
      <trkpt lat="50.23773056" lon="-117.73459541">
      </trkpt>
      <trkpt lat="50.23760718" lon="-117.73443939">
      </trkpt>
      <trkpt lat="50.2374638" lon="-117.73427296">
      </trkpt>
      <trkpt lat="50.23726037" lon="-117.73410129">
      </trkpt>
      <trkpt lat="50.2370236" lon="-117.73386204">
      </trkpt>
      <trkpt lat="50.23682351" lon="-117.73366958">
      </trkpt>
      <trkpt lat="50.23668345" lon="-117.73353955">
      </trkpt>
      <trkpt lat="50.23653669" lon="-117.73349787">
      </trkpt>
      <trkpt lat="50.23642994" lon="-117.73351859">
      </trkpt>
      <trkpt lat="50.23635322" lon="-117.73353412">
      </trkpt>
      <trkpt lat="50.23627985" lon="-117.73349249">
      </trkpt>
      <trkpt lat="50.23620644" lon="-117.73352363">
      </trkpt>
      <trkpt lat="50.23607969" lon="-117.73352874">
      </trkpt>
      <trkpt lat="50.23603299" lon="-117.73350792">
      </trkpt>
      <trkpt lat="50.23594298" lon="-117.73335193">
      </trkpt>
      <trkpt lat="50.23585963" lon="-117.73316997">
      </trkpt>
      <trkpt lat="50.23573959" lon="-117.73303475">
      </trkpt>
      <trkpt lat="50.2356729" lon="-117.73290997">
      </trkpt>
      <trkpt lat="50.23556621" lon="-117.73272796">
      </trkpt>
      <trkpt lat="50.23551284" lon="-117.73273313">
      </trkpt>
      <trkpt lat="50.23546281" lon="-117.73272271">
      </trkpt>
      <trkpt lat="50.2353961" lon="-117.73268108">
      </trkpt>
      <trkpt lat="50.23530605" lon="-117.73264465">
      </trkpt>
      <trkpt lat="50.23523269" lon="-117.73257182">
      </trkpt>
      <trkpt lat="50.23517603" lon="-117.73236909">
      </trkpt>
      <trkpt lat="50.23514606" lon="-117.73219235">
      </trkpt>
      <trkpt lat="50.23508941" lon="-117.73197402">
      </trkpt>
      <trkpt lat="50.2350094" lon="-117.73179205">
      </trkpt>
      <trkpt lat="50.23493604" lon="-117.73167766">
      </trkpt>
      <trkpt lat="50.23493276" lon="-117.73151134">
      </trkpt>
      <trkpt lat="50.23491277" lon="-117.7313814">
      </trkpt>
      <trkpt lat="50.23487276" lon="-117.73133459">
      </trkpt>
      <trkpt lat="50.23474933" lon="-117.73132931">
      </trkpt>
      <trkpt lat="50.23454924" lon="-117.73112648">
      </trkpt>
      <trkpt lat="50.2344759" lon="-117.7310017">
      </trkpt>
      <trkpt lat="50.2344459" lon="-117.73089254">
      </trkpt>
      <trkpt lat="50.2343792" lon="-117.73082494">
      </trkpt>
      <trkpt lat="50.23425925" lon="-117.7303415">
      </trkpt>
      <trkpt lat="50.23420596" lon="-117.72999324">
      </trkpt>
      <trkpt lat="50.23419599" lon="-117.72982692">
      </trkpt>
      <trkpt lat="50.23413263" lon="-117.72974892">
      </trkpt>
      <trkpt lat="50.23402259" lon="-117.72961372">
      </trkpt>
      <trkpt lat="50.2339192" lon="-117.72954609">
      </trkpt>
      <trkpt lat="50.23380917" lon="-117.72932253">
      </trkpt>
      <trkpt lat="50.23360243" lon="-117.72902097">
      </trkpt>
      <trkpt lat="50.23327559" lon="-117.72878171">
      </trkpt>
      <trkpt lat="50.23318555" lon="-117.72870369">
      </trkpt>
      <trkpt lat="50.23303883" lon="-117.72847493">
      </trkpt>
      <trkpt lat="50.23290546" lon="-117.72823578">
      </trkpt>
      <trkpt lat="50.23279541" lon="-117.728085">
      </trkpt>
      <trkpt lat="50.23260866" lon="-117.72786142">
      </trkpt>
      <trkpt lat="50.23244859" lon="-117.72769502">
      </trkpt>
      <trkpt lat="50.23222848" lon="-117.72749739">
      </trkpt>
      <trkpt lat="50.23209841" lon="-117.7273726">
      </trkpt>
      <trkpt lat="50.23199833" lon="-117.72740892">
      </trkpt>
      <trkpt lat="50.23187824" lon="-117.72743484">
      </trkpt>
      <trkpt lat="50.23177481" lon="-117.72754392">
      </trkpt>
      <trkpt lat="50.23171474" lon="-117.72766342">
      </trkpt>
      <trkpt lat="50.23169136" lon="-117.72779334">
      </trkpt>
      <trkpt lat="50.23168464" lon="-117.72799602">
      </trkpt>
      <trkpt lat="50.23171795" lon="-117.72823511">
      </trkpt>
      <trkpt lat="50.23181792" lon="-117.72860936">
      </trkpt>
      <trkpt lat="50.23195792" lon="-117.72903561">
      </trkpt>
      <trkpt lat="50.23211128" lon="-117.72937871">
      </trkpt>
      <trkpt lat="50.23220129" lon="-117.72960744">
      </trkpt>
      <trkpt lat="50.23226462" lon="-117.72985694">
      </trkpt>
      <trkpt lat="50.23226125" lon="-117.72997128">
      </trkpt>
      <trkpt lat="50.23224788" lon="-117.73007002">
      </trkpt>
      <trkpt lat="50.23220783" lon="-117.73013756">
      </trkpt>
      <trkpt lat="50.23208106" lon="-117.73022583">
      </trkpt>
      <trkpt lat="50.23199763" lon="-117.73034531">
      </trkpt>
      <trkpt lat="50.23196425" lon="-117.73042845">
      </trkpt>
      <trkpt lat="50.23200425" lon="-117.73056361">
      </trkpt>
      <trkpt lat="50.23205426" lon="-117.73066238">
      </trkpt>
      <trkpt lat="50.23205425" lon="-117.73069876">
      </trkpt>
      <trkpt lat="50.23203421" lon="-117.7307767">
      </trkpt>
      <trkpt lat="50.23198418" lon="-117.73078188">
      </trkpt>
      <trkpt lat="50.23190414" lon="-117.73069867">
      </trkpt>
      <trkpt lat="50.2318708" lon="-117.73064147">
      </trkpt>
      <trkpt lat="50.23184082" lon="-117.73049074">
      </trkpt>
      <trkpt lat="50.23176746" lon="-117.73040235">
      </trkpt>
      <trkpt lat="50.23168741" lon="-117.73036592">
      </trkpt>
      <trkpt lat="50.23159406" lon="-117.73016837">
      </trkpt>
      <trkpt lat="50.23142734" lon="-117.72990841">
      </trkpt>
      <trkpt lat="50.23132063" lon="-117.72979401">
      </trkpt>
      <trkpt lat="50.2312106" lon="-117.72959126">
      </trkpt>
      <trkpt lat="50.23106388" lon="-117.72934691">
      </trkpt>
      <trkpt lat="50.23094387" lon="-117.72903502">
      </trkpt>
      <trkpt lat="50.23082048" lon="-117.72887904">
      </trkpt>
      <trkpt lat="50.2306971" lon="-117.72877503">
      </trkpt>
      <trkpt lat="50.23063036" lon="-117.72882176">
      </trkpt>
      <trkpt lat="50.23058366" lon="-117.72884251">
      </trkpt>
      <trkpt lat="50.23039353" lon="-117.72880603">
      </trkpt>
      <trkpt lat="50.23018342" lon="-117.72867599">
      </trkpt>
      <trkpt lat="50.23007338" lon="-117.72849403">
      </trkpt>
      <trkpt lat="50.22998" lon="-117.72838484">
      </trkpt>
      <trkpt lat="50.22985659" lon="-117.72835359">
      </trkpt>
      <trkpt lat="50.2297432" lon="-117.72827557">
      </trkpt>
      <trkpt lat="50.22966985" lon="-117.72808844">
      </trkpt>
      <trkpt lat="50.22960983" lon="-117.72798966">
      </trkpt>
      <trkpt lat="50.22957648" lon="-117.72800005">
      </trkpt>
      <trkpt lat="50.2294897" lon="-117.72818707">
      </trkpt>
      <trkpt lat="50.22936619" lon="-117.72855599">
      </trkpt>
      <trkpt lat="50.22927279" lon="-117.72859231">
      </trkpt>
      <trkpt lat="50.22913604" lon="-117.7284987">
      </trkpt>
      <trkpt lat="50.22906269" lon="-117.72838432">
      </trkpt>
      <trkpt lat="50.228986" lon="-117.72825435">
      </trkpt>
      <trkpt lat="50.22894934" lon="-117.72808284">
      </trkpt>
      <trkpt lat="50.22891602" lon="-117.72792692">
      </trkpt>
      <trkpt lat="50.22884265" lon="-117.72786971">
      </trkpt>
      <trkpt lat="50.22870923" lon="-117.72782286">
      </trkpt>
      <trkpt lat="50.22862253" lon="-117.72773447">
      </trkpt>
      <trkpt lat="50.22849579" lon="-117.72765126">
      </trkpt>
      <trkpt lat="50.22837241" lon="-117.7274589">
      </trkpt>
      <trkpt lat="50.22821898" lon="-117.72739646">
      </trkpt>
      <trkpt lat="50.22811892" lon="-117.72736002">
      </trkpt>
      <trkpt lat="50.22803222" lon="-117.72725084">
      </trkpt>
      <trkpt lat="50.22797219" lon="-117.72718326">
      </trkpt>
      <trkpt lat="50.22789545" lon="-117.7272196">
      </trkpt>
      <trkpt lat="50.22779873" lon="-117.72716757">
      </trkpt>
      <trkpt lat="50.22773872" lon="-117.72704802">
      </trkpt>
      <trkpt lat="50.22774877" lon="-117.72684015">
      </trkpt>
      <trkpt lat="50.22767542" lon="-117.72667381">
      </trkpt>
      <trkpt lat="50.22760206" lon="-117.72657504">
      </trkpt>
      <trkpt lat="50.22758541" lon="-117.72639315">
      </trkpt>
      <trkpt lat="50.22756208" lon="-117.72630479">
      </trkpt>
      <trkpt lat="50.22749875" lon="-117.72613328">
      </trkpt>
      <trkpt lat="50.22742467" lon="-117.72598463">
      </trkpt>
      <trkpt lat="50.22734437" lon="-117.72596823">
      </trkpt>
      <trkpt lat="50.22708983" lon="-117.72601316">
      </trkpt>
      <trkpt lat="50.22703005" lon="-117.72604166">
      </trkpt>
      <trkpt lat="50.22694064" lon="-117.72591417">
      </trkpt>
      <trkpt lat="50.2268698" lon="-117.72582779">
      </trkpt>
      <trkpt lat="50.22677682" lon="-117.72575907">
      </trkpt>
      <trkpt lat="50.22670263" lon="-117.72573065">
      </trkpt>
      <trkpt lat="50.22658647" lon="-117.72571907">
      </trkpt>
      <trkpt lat="50.22647654" lon="-117.72571739">
      </trkpt>
      <trkpt lat="50.22639373" lon="-117.72571614">
      </trkpt>
      <trkpt lat="50.22633121" lon="-117.72566846">
      </trkpt>
      <trkpt lat="50.22629494" lon="-117.72557053">
      </trkpt>
      <trkpt lat="50.2262956" lon="-117.72548941">
      </trkpt>
      <trkpt lat="50.22625803" lon="-117.72532717">
      </trkpt>
      <trkpt lat="50.22619133" lon="-117.72525957">
      </trkpt>
      <trkpt lat="50.22607459" lon="-117.72522833">
      </trkpt>
      <trkpt lat="50.22596453" lon="-117.72515033">
      </trkpt>
      <trkpt lat="50.22592785" lon="-117.72505677">
      </trkpt>
      <trkpt lat="50.22596459" lon="-117.72487492">
      </trkpt>
      <trkpt lat="50.22591459" lon="-117.72467223">
      </trkpt>
      <trkpt lat="50.22582457" lon="-117.72445912">
      </trkpt>
      <trkpt lat="50.22574786" lon="-117.72437075">
      </trkpt>
      <trkpt lat="50.22572789" lon="-117.72418366">
      </trkpt>
      <trkpt lat="50.22561782" lon="-117.72413165">
      </trkpt>
      <trkpt lat="50.22548777" lon="-117.72393932">
      </trkpt>
      <trkpt lat="50.22542108" lon="-117.72380937">
      </trkpt>
      <trkpt lat="50.22536105" lon="-117.72369502">
      </trkpt>
      <trkpt lat="50.2253077" lon="-117.72358068">
      </trkpt>
      <trkpt lat="50.22529105" lon="-117.72345596">
      </trkpt>
      <trkpt lat="50.22525436" lon="-117.72339358">
      </trkpt>
      <trkpt lat="50.22523438" lon="-117.72327926">
      </trkpt>
      <trkpt lat="50.22523439" lon="-117.72318572">
      </trkpt>
      <trkpt lat="50.2252511" lon="-117.72301944">
      </trkpt>
      <trkpt lat="50.22523111" lon="-117.72289991">
      </trkpt>
      <trkpt lat="50.22521114" lon="-117.72267126">
      </trkpt>
      <trkpt lat="50.22523452" lon="-117.72251537">
      </trkpt>
      <trkpt lat="50.2252312" lon="-117.72241665">
      </trkpt>
      <trkpt lat="50.22517119" lon="-117.72224513">
      </trkpt>
      <trkpt lat="50.22515788" lon="-117.72207884">
      </trkpt>
      <trkpt lat="50.22505115" lon="-117.72195408">
      </trkpt>
      <trkpt lat="50.22496111" lon="-117.72181893">
      </trkpt>
      <trkpt lat="50.22484105" lon="-117.72172015">
      </trkpt>
      <trkpt lat="50.22468095" lon="-117.72160576">
      </trkpt>
      <trkpt lat="50.22459756" lon="-117.72158494">
      </trkpt>
      <trkpt lat="50.22449078" lon="-117.72180315">
      </trkpt>
      <trkpt lat="50.22436401" lon="-117.72192261">
      </trkpt>
      <trkpt lat="50.22426393" lon="-117.72194855">
      </trkpt>
      <trkpt lat="50.22402043" lon="-117.72189648">
      </trkpt>
      <trkpt lat="50.22388031" lon="-117.72201074">
      </trkpt>
      <trkpt lat="50.22383027" lon="-117.7220263">
      </trkpt>
      <trkpt lat="50.22367353" lon="-117.72180279">
      </trkpt>
      <trkpt lat="50.2235668" lon="-117.72174039">
      </trkpt>
      <trkpt lat="50.22347677" lon="-117.72156369">
      </trkpt>
      <trkpt lat="50.22339672" lon="-117.72148051">
      </trkpt>
      <trkpt lat="50.22323663" lon="-117.72139731">
      </trkpt>
      <trkpt lat="50.22316658" lon="-117.7213713">
      </trkpt>
      <trkpt lat="50.22301317" lon="-117.72119456">
      </trkpt>
      <trkpt lat="50.22277302" lon="-117.72103337">
      </trkpt>
      <trkpt lat="50.22264295" lon="-117.7209294">
      </trkpt>
      <trkpt lat="50.2224862" lon="-117.72074228">
      </trkpt>
      <trkpt lat="50.22239615" lon="-117.72065391">
      </trkpt>
      <trkpt lat="50.22225271" lon="-117.72068502">
      </trkpt>
      <trkpt lat="50.22220602" lon="-117.72063824">
      </trkpt>
      <trkpt lat="50.22209263" lon="-117.72046672">
      </trkpt>
      <trkpt lat="50.22199925" lon="-117.72040952">
      </trkpt>
      <trkpt lat="50.221649" lon="-117.72034185">
      </trkpt>
      <trkpt lat="50.22143886" lon="-117.72026382">
      </trkpt>
      <trkpt lat="50.22131545" lon="-117.72027416">
      </trkpt>
      <trkpt lat="50.22123678" lon="-117.72025661">
      </trkpt>
      <trkpt lat="50.22113941" lon="-117.72022547">
      </trkpt>
      <trkpt lat="50.22110148" lon="-117.72020264">
      </trkpt>
      <trkpt lat="50.22106366" lon="-117.72012632">
      </trkpt>
      <trkpt lat="50.22099666" lon="-117.71990532">
      </trkpt>
      <trkpt lat="50.22088066" lon="-117.71950932">
      </trkpt>
      <trkpt lat="50.22081597" lon="-117.71939485">
      </trkpt>
      <trkpt lat="50.22075181" lon="-117.71930487">
      </trkpt>
      <trkpt lat="50.22073129" lon="-117.71923631">
      </trkpt>
      <trkpt lat="50.22070711" lon="-117.71914397">
      </trkpt>
      <trkpt lat="50.22068274" lon="-117.71908425">
      </trkpt>
      <trkpt lat="50.22065244" lon="-117.71905709">
      </trkpt>
      <trkpt lat="50.22058785" lon="-117.71903536">
      </trkpt>
      <trkpt lat="50.22049258" lon="-117.71904877">
      </trkpt>
      <trkpt lat="50.22034545" lon="-117.71913853">
      </trkpt>
      <trkpt lat="50.22025541" lon="-117.71922916">
      </trkpt>
      <trkpt lat="50.22015201" lon="-117.71932552">
      </trkpt>
      <trkpt lat="50.22012903" lon="-117.71934891">
      </trkpt>
      <trkpt lat="50.22008815" lon="-117.71949368">
      </trkpt>
      <trkpt lat="50.22003052" lon="-117.71988447">
      </trkpt>
      <trkpt lat="50.22001191" lon="-117.72000806">
      </trkpt>
      <trkpt lat="50.22000418" lon="-117.72029538">
      </trkpt>
      <trkpt lat="50.22001528" lon="-117.72042351">
      </trkpt>
      <trkpt lat="50.22000913" lon="-117.72046282">
      </trkpt>
      <trkpt lat="50.2199978" lon="-117.72049706">
      </trkpt>
      <trkpt lat="50.21993441" lon="-117.72059055">
      </trkpt>
    </trkseg>
  </trk>
</gpx>