<?xml version="1.0" encoding="UTF-8"?>
<gpx xmlns="http://www.topografix.com/GPX/1/1" xmlns:xsi="http://www.w3.org/2001/XMLSchema-instance" xsi:schemaLocation="http://www.topografix.com/GPX/1/1 http://www.topografix.com/GPX/1/1/gpx.xsd" version="1.1" creator="gpx.py -- https://github.com/tkrajina/gpxpy">
  <trk>
    <name>Wensley Xc</name>
    <trkseg>
      <trkpt lat="50.24045971" lon="-117.74417304">
      </trkpt>
      <trkpt lat="50.24038839" lon="-117.74410086">
      </trkpt>
      <trkpt lat="50.24024722" lon="-117.74391517">
      </trkpt>
      <trkpt lat="50.24006606" lon="-117.74365059">
      </trkpt>
      <trkpt lat="50.23990549" lon="-117.74340985">
      </trkpt>
      <trkpt lat="50.23979949" lon="-117.74327755">
      </trkpt>
      <trkpt lat="50.23963992" lon="-117.74306696">
      </trkpt>
      <trkpt lat="50.23964576" lon="-117.7429107">
      </trkpt>
      <trkpt lat="50.2396111" lon="-117.74277546">
      </trkpt>
      <trkpt lat="50.239561" lon="-117.74268226">
      </trkpt>
      <trkpt lat="50.23943333" lon="-117.74247106">
      </trkpt>
      <trkpt lat="50.23924446" lon="-117.74219145">
      </trkpt>
      <trkpt lat="50.23912497" lon="-117.74199602">
      </trkpt>
      <trkpt lat="50.23895493" lon="-117.74164881">
      </trkpt>
      <trkpt lat="50.2388181" lon="-117.74140831">
      </trkpt>
      <trkpt lat="50.23866586" lon="-117.74114677">
      </trkpt>
      <trkpt lat="50.23850204" lon="-117.74089423">
      </trkpt>
      <trkpt lat="50.23824892" lon="-117.74063748">
      </trkpt>
      <trkpt lat="50.2382046" lon="-117.7405533">
      </trkpt>
      <trkpt lat="50.23808705" lon="-117.74033386">
      </trkpt>
      <trkpt lat="50.23796755" lon="-117.74015648">
      </trkpt>
      <trkpt lat="50.23784405" lon="-117.7400305">
      </trkpt>
      <trkpt lat="50.23775702" lon="-117.73998064">
      </trkpt>
      <trkpt lat="50.23769533" lon="-117.73992907">
      </trkpt>
      <trkpt lat="50.23763917" lon="-117.73985005">
      </trkpt>
      <trkpt lat="50.23756955" lon="-117.7396198">
      </trkpt>
      <trkpt lat="50.23749829" lon="-117.73938237">
      </trkpt>
      <trkpt lat="50.23738652" lon="-117.73915693">
      </trkpt>
      <trkpt lat="50.23718414" lon="-117.73887432">
      </trkpt>
      <trkpt lat="50.23700874" lon="-117.73864582">
      </trkpt>
      <trkpt lat="50.23695285" lon="-117.73854662">
      </trkpt>
      <trkpt lat="50.23696059" lon="-117.73847151">
      </trkpt>
      <trkpt lat="50.23699917" lon="-117.73844149">
      </trkpt>
      <trkpt lat="50.23711486" lon="-117.73845361">
      </trkpt>
      <trkpt lat="50.23746095" lon="-117.73854345">
      </trkpt>
      <trkpt lat="50.23781523" lon="-117.73869621">
      </trkpt>
      <trkpt lat="50.23818972" lon="-117.73891736">
      </trkpt>
      <trkpt lat="50.23843979" lon="-117.73910842">
      </trkpt>
      <trkpt lat="50.23856315" lon="-117.73925275">
      </trkpt>
      <trkpt lat="50.23866532" lon="-117.73934297">
      </trkpt>
      <trkpt lat="50.23909796" lon="-117.73968662">
      </trkpt>
      <trkpt lat="50.23914533" lon="-117.73973473">
      </trkpt>
      <trkpt lat="50.23925549" lon="-117.73981725">
      </trkpt>
      <trkpt lat="50.23933921" lon="-117.73986196">
      </trkpt>
      <trkpt lat="50.23947472" lon="-117.73992045">
      </trkpt>
      <trkpt lat="50.23966438" lon="-117.73998301">
      </trkpt>
      <trkpt lat="50.23974745" lon="-117.7400048">
      </trkpt>
      <trkpt lat="50.23982488" lon="-117.74002546">
      </trkpt>
      <trkpt lat="50.23986014" lon="-117.74003335">
      </trkpt>
      <trkpt lat="50.23989665" lon="-117.74007262">
      </trkpt>
      <trkpt lat="50.23994696" lon="-117.74013074">
      </trkpt>
      <trkpt lat="50.24000612" lon="-117.74020143">
      </trkpt>
      <trkpt lat="50.24009376" lon="-117.7403153">
      </trkpt>
      <trkpt lat="50.24021519" lon="-117.74042658">
      </trkpt>
      <trkpt lat="50.24029232" lon="-117.7404597">
      </trkpt>
      <trkpt lat="50.24050055" lon="-117.74051696">
      </trkpt>
      <trkpt lat="50.24065478" lon="-117.74060424">
      </trkpt>
      <trkpt lat="50.24073808" lon="-117.74068051">
      </trkpt>
      <trkpt lat="50.24086476" lon="-117.74079394">
      </trkpt>
      <trkpt lat="50.24099225" lon="-117.74094816">
      </trkpt>
      <trkpt lat="50.24111893" lon="-117.74104786">
      </trkpt>
      <trkpt lat="50.24125883" lon="-117.74113383">
      </trkpt>
      <trkpt lat="50.24130676" lon="-117.7411446">
      </trkpt>
      <trkpt lat="50.2414357" lon="-117.74110694">
      </trkpt>
      <trkpt lat="50.24154812" lon="-117.7410246">
      </trkpt>
      <trkpt lat="50.24166937" lon="-117.74089763">
      </trkpt>
      <trkpt lat="50.24186834" lon="-117.74064152">
      </trkpt>
      <trkpt lat="50.24197088" lon="-117.74049486">
      </trkpt>
      <trkpt lat="50.24202189" lon="-117.74030208">
      </trkpt>
      <trkpt lat="50.24211067" lon="-117.7400377">
      </trkpt>
      <trkpt lat="50.2422551" lon="-117.73964379">
      </trkpt>
      <trkpt lat="50.24234464" lon="-117.7393346">
      </trkpt>
      <trkpt lat="50.24237446" lon="-117.73914058">
      </trkpt>
      <trkpt lat="50.24239408" lon="-117.73893453">
      </trkpt>
      <trkpt lat="50.24236713" lon="-117.73879628">
      </trkpt>
      <trkpt lat="50.24235175" lon="-117.73867305">
      </trkpt>
      <trkpt lat="50.24237497" lon="-117.73842666">
      </trkpt>
      <trkpt lat="50.24239028" lon="-117.73810545">
      </trkpt>
      <trkpt lat="50.24238262" lon="-117.73796464">
      </trkpt>
      <trkpt lat="50.24236066" lon="-117.7377225">
      </trkpt>
      <trkpt lat="50.24233975" lon="-117.73762803">
      </trkpt>
      <trkpt lat="50.24230344" lon="-117.73747518">
      </trkpt>
      <trkpt lat="50.24228805" lon="-117.7373584">
      </trkpt>
      <trkpt lat="50.24222198" lon="-117.73700988">
      </trkpt>
      <trkpt lat="50.24218566" lon="-117.7368553">
      </trkpt>
      <trkpt lat="50.24217025" lon="-117.73681407">
      </trkpt>
      <trkpt lat="50.24211409" lon="-117.7367007">
      </trkpt>
      <trkpt lat="50.24201827" lon="-117.73652892">
      </trkpt>
      <trkpt lat="50.24194953" lon="-117.73636691">
      </trkpt>
      <trkpt lat="50.24187796" lon="-117.73619514">
      </trkpt>
      <trkpt lat="50.24181409" lon="-117.73605086">
      </trkpt>
      <trkpt lat="50.2417381" lon="-117.73592544">
      </trkpt>
      <trkpt lat="50.24163209" lon="-117.73577754">
      </trkpt>
      <trkpt lat="50.2415647" lon="-117.73568932">
      </trkpt>
      <trkpt lat="50.24149642" lon="-117.73559139">
      </trkpt>
      <trkpt lat="50.24143474" lon="-117.73550892">
      </trkpt>
      <trkpt lat="50.24133229" lon="-117.73540753">
      </trkpt>
      <trkpt lat="50.24122543" lon="-117.73531303">
      </trkpt>
      <trkpt lat="50.24104168" lon="-117.73514804">
      </trkpt>
      <trkpt lat="50.24098219" lon="-117.7350776">
      </trkpt>
      <trkpt lat="50.24091392" lon="-117.7349522">
      </trkpt>
      <trkpt lat="50.24085886" lon="-117.73482682">
      </trkpt>
      <trkpt lat="50.24079829" lon="-117.73472374">
      </trkpt>
      <trkpt lat="50.24072937" lon="-117.73464395">
      </trkpt>
      <trkpt lat="50.24063795" lon="-117.73453914">
      </trkpt>
      <trkpt lat="50.24056966" lon="-117.73443606">
      </trkpt>
      <trkpt lat="50.24041886" lon="-117.73417464">
      </trkpt>
      <trkpt lat="50.24031094" lon="-117.73392215">
      </trkpt>
      <trkpt lat="50.24023963" lon="-117.73381993">
      </trkpt>
      <trkpt lat="50.23994869" lon="-117.73342497">
      </trkpt>
      <trkpt lat="50.23975642" lon="-117.73314087">
      </trkpt>
      <trkpt lat="50.2394157" lon="-117.73276729">
      </trkpt>
      <trkpt lat="50.23922074" lon="-117.73248555">
      </trkpt>
      <trkpt lat="50.23917008" lon="-117.73240826">
      </trkpt>
      <trkpt lat="50.23911296" lon="-117.73226119">
      </trkpt>
      <trkpt lat="50.23906479" lon="-117.73212595">
      </trkpt>
      <trkpt lat="50.23898769" lon="-117.73202073">
      </trkpt>
      <trkpt lat="50.23891832" lon="-117.73185241">
      </trkpt>
      <trkpt lat="50.2388991" lon="-117.73161201">
      </trkpt>
      <trkpt lat="50.23891458" lon="-117.73138064">
      </trkpt>
      <trkpt lat="50.23895128" lon="-117.73116731">
      </trkpt>
      <trkpt lat="50.23893589" lon="-117.73100506">
      </trkpt>
      <trkpt lat="50.23887231" lon="-117.73078566">
      </trkpt>
      <trkpt lat="50.23858173" lon="-117.7303755">
      </trkpt>
      <trkpt lat="50.23836198" lon="-117.73010193">
      </trkpt>
      <trkpt lat="50.23807475" lon="-117.72976221">
      </trkpt>
      <trkpt lat="50.23791669" lon="-117.72954277">
      </trkpt>
      <trkpt lat="50.23761927" lon="-117.7290901">
      </trkpt>
      <trkpt lat="50.2373393" lon="-117.72862194">
      </trkpt>
      <trkpt lat="50.23714028" lon="-117.72830106">
      </trkpt>
      <trkpt lat="50.23690077" lon="-117.72799595">
      </trkpt>
      <trkpt lat="50.236537" lon="-117.72762561">
      </trkpt>
      <trkpt lat="50.23634807" lon="-117.72746625">
      </trkpt>
      <trkpt lat="50.23624397" lon="-117.72736103">
      </trkpt>
      <trkpt lat="50.23610515" lon="-117.72727683">
      </trkpt>
      <trkpt lat="50.2360473" lon="-117.72730685">
      </trkpt>
      <trkpt lat="50.23589962" lon="-117.72745335">
      </trkpt>
      <trkpt lat="50.2357828" lon="-117.72753397">
      </trkpt>
      <trkpt lat="50.23558156" lon="-117.72756208">
      </trkpt>
      <trkpt lat="50.23536848" lon="-117.72761662">
      </trkpt>
      <trkpt lat="50.23525277" lon="-117.72769168">
      </trkpt>
      <trkpt lat="50.23508111" lon="-117.72784781">
      </trkpt>
      <trkpt lat="50.23499623" lon="-117.72803706">
      </trkpt>
      <trkpt lat="50.23497111" lon="-117.72822333">
      </trkpt>
      <trkpt lat="50.23494596" lon="-117.72860246">
      </trkpt>
      <trkpt lat="50.23491892" lon="-117.72876469">
      </trkpt>
      <trkpt lat="50.23480312" lon="-117.72918827">
      </trkpt>
      <trkpt lat="50.23476449" lon="-117.72945566">
      </trkpt>
      <trkpt lat="50.23477601" lon="-117.72968702">
      </trkpt>
      <trkpt lat="50.23473352" lon="-117.7299484">
      </trkpt>
      <trkpt lat="50.23474467" lon="-117.73017143">
      </trkpt>
      <trkpt lat="50.23476543" lon="-117.73027642">
      </trkpt>
      <trkpt lat="50.23479687" lon="-117.73043341">
      </trkpt>
      <trkpt lat="50.23480188" lon="-117.73051485">
      </trkpt>
      <trkpt lat="50.23477227" lon="-117.7305737">
      </trkpt>
      <trkpt lat="50.23471245" lon="-117.73060799">
      </trkpt>
      <trkpt lat="50.23466218" lon="-117.73063964">
      </trkpt>
      <trkpt lat="50.23450181" lon="-117.72999224">
      </trkpt>
      <trkpt lat="50.23448506" lon="-117.72950324">
      </trkpt>
      <trkpt lat="50.23447844" lon="-117.72896692">
      </trkpt>
      <trkpt lat="50.23452583" lon="-117.72837279">
      </trkpt>
      <trkpt lat="50.2345694" lon="-117.72777734">
      </trkpt>
      <trkpt lat="50.23451549" lon="-117.72744605">
      </trkpt>
      <trkpt lat="50.2344076" lon="-117.72702536">
      </trkpt>
      <trkpt lat="50.23430306" lon="-117.72671507">
      </trkpt>
      <trkpt lat="50.23419176" lon="-117.72647842">
      </trkpt>
      <trkpt lat="50.23395439" lon="-117.72596202">
      </trkpt>
      <trkpt lat="50.23372837" lon="-117.72564117">
      </trkpt>
      <trkpt lat="50.23354619" lon="-117.72542551">
      </trkpt>
      <trkpt lat="50.2332329" lon="-117.72515457">
      </trkpt>
      <trkpt lat="50.23263862" lon="-117.72460145">
      </trkpt>
      <trkpt lat="50.23242703" lon="-117.7244637">
      </trkpt>
      <trkpt lat="50.232213" lon="-117.72439149">
      </trkpt>
      <trkpt lat="50.23197729" lon="-117.72432678">
      </trkpt>
      <trkpt lat="50.23177097" lon="-117.72423955">
      </trkpt>
      <trkpt lat="50.23159096" lon="-117.724087">
      </trkpt>
      <trkpt lat="50.23141166" lon="-117.72387059">
      </trkpt>
      <trkpt lat="50.23124202" lon="-117.72367824">
      </trkpt>
      <trkpt lat="50.23107478" lon="-117.72345076">
      </trkpt>
      <trkpt lat="50.23092827" lon="-117.72327344">
      </trkpt>
      <trkpt lat="50.23077402" lon="-117.72314718">
      </trkpt>
      <trkpt lat="50.23070955" lon="-117.72312519">
      </trkpt>
      <trkpt lat="50.23058613" lon="-117.72316719">
      </trkpt>
      <trkpt lat="50.23040293" lon="-117.72327525">
      </trkpt>
      <trkpt lat="50.23010933" lon="-117.72340319">
      </trkpt>
      <trkpt lat="50.2299242" lon="-117.7234752">
      </trkpt>
      <trkpt lat="50.22986443" lon="-117.72348266">
      </trkpt>
      <trkpt lat="50.22968197" lon="-117.72340298">
      </trkpt>
      <trkpt lat="50.22942361" lon="-117.7232887">
      </trkpt>
      <trkpt lat="50.22925699" lon="-117.7231469">
      </trkpt>
      <trkpt lat="50.22914181" lon="-117.7231384">
      </trkpt>
      <trkpt lat="50.22897631" lon="-117.7231184">
      </trkpt>
      <trkpt lat="50.22889331" lon="-117.72310145">
      </trkpt>
      <trkpt lat="50.22878185" lon="-117.72306431">
      </trkpt>
      <trkpt lat="50.2287456" lon="-117.72306148">
      </trkpt>
      <trkpt lat="50.22869977" lon="-117.7230657">
      </trkpt>
      <trkpt lat="50.22860871" lon="-117.72310546">
      </trkpt>
      <trkpt lat="50.22848183" lon="-117.72315104">
      </trkpt>
      <trkpt lat="50.22840971" lon="-117.72318547">
      </trkpt>
      <trkpt lat="50.22821767" lon="-117.72325441">
      </trkpt>
      <trkpt lat="50.22801464" lon="-117.72333084">
      </trkpt>
      <trkpt lat="50.22784702" lon="-117.72340356">
      </trkpt>
      <trkpt lat="50.22756729" lon="-117.72353973">
      </trkpt>
      <trkpt lat="50.22741943" lon="-117.72360004">
      </trkpt>
      <trkpt lat="50.22725396" lon="-117.72367167">
      </trkpt>
      <trkpt lat="50.22714538" lon="-117.72369417">
      </trkpt>
      <trkpt lat="50.22703641" lon="-117.72370091">
      </trkpt>
      <trkpt lat="50.22693124" lon="-117.72367082">
      </trkpt>
      <trkpt lat="50.22685282" lon="-117.72367941">
      </trkpt>
      <trkpt lat="50.22680653" lon="-117.72371137">
      </trkpt>
      <trkpt lat="50.22670632" lon="-117.72384761">
      </trkpt>
      <trkpt lat="50.22663889" lon="-117.72397882">
      </trkpt>
      <trkpt lat="50.22659058" lon="-117.72418671">
      </trkpt>
      <trkpt lat="50.22652726" lon="-117.72444874">
      </trkpt>
      <trkpt lat="50.22645763" lon="-117.72467228">
      </trkpt>
      <trkpt lat="50.22636108" lon="-117.72483725">
      </trkpt>
      <trkpt lat="50.22634569" lon="-117.72515512">
      </trkpt>
      <trkpt lat="50.22632251" lon="-117.72536838">
      </trkpt>
      <trkpt lat="50.22627039" lon="-117.72560267">
      </trkpt>
      <trkpt lat="50.22623179" lon="-117.7257829">
      </trkpt>
      <trkpt lat="50.22619319" lon="-117.72597214">
      </trkpt>
      <trkpt lat="50.22618352" lon="-117.72608929">
      </trkpt>
      <trkpt lat="50.22619507" lon="-117.72619143">
      </trkpt>
      <trkpt lat="50.22623747" lon="-117.72629059">
      </trkpt>
      <trkpt lat="50.22632616" lon="-117.72636574">
      </trkpt>
      <trkpt lat="50.22646112" lon="-117.72644091">
      </trkpt>
      <trkpt lat="50.22656716" lon="-117.72648904">
      </trkpt>
      <trkpt lat="50.22669444" lon="-117.72646807">
      </trkpt>
      <trkpt lat="50.22678122" lon="-117.72640503">
      </trkpt>
      <trkpt lat="50.22691239" lon="-117.72619781">
      </trkpt>
      <trkpt lat="50.22703005" lon="-117.72604166">
      </trkpt>
      <trkpt lat="50.22708983" lon="-117.72601316">
      </trkpt>
      <trkpt lat="50.22734437" lon="-117.72596823">
      </trkpt>
      <trkpt lat="50.2275831" lon="-117.72601698">
      </trkpt>
      <trkpt lat="50.22784533" lon="-117.72609222">
      </trkpt>
      <trkpt lat="50.228042" lon="-117.72618244">
      </trkpt>
      <trkpt lat="50.22822023" lon="-117.72624093">
      </trkpt>
      <trkpt lat="50.22841303" lon="-117.72639425">
      </trkpt>
      <trkpt lat="50.2284824" lon="-117.72659257">
      </trkpt>
      <trkpt lat="50.22849007" lon="-117.72676381">
      </trkpt>
      <trkpt lat="50.2285228" lon="-117.7270312">
      </trkpt>
      <trkpt lat="50.22864036" lon="-117.72728963">
      </trkpt>
      <trkpt lat="50.22881489" lon="-117.72774429">
      </trkpt>
      <trkpt lat="50.22898444" lon="-117.72837227">
      </trkpt>
      <trkpt lat="50.22909237" lon="-117.72857962">
      </trkpt>
      <trkpt lat="50.22912167" lon="-117.72867948">
      </trkpt>
      <trkpt lat="50.22914439" lon="-117.7287569">
      </trkpt>
      <trkpt lat="50.22921182" lon="-117.72901531">
      </trkpt>
      <trkpt lat="50.22930625" lon="-117.72926772">
      </trkpt>
      <trkpt lat="50.22939682" lon="-117.72947807">
      </trkpt>
      <trkpt lat="50.22957135" lon="-117.72987474">
      </trkpt>
      <trkpt lat="50.22969662" lon="-117.73017523">
      </trkpt>
      <trkpt lat="50.22977564" lon="-117.73033451">
      </trkpt>
      <trkpt lat="50.23007992" lon="-117.73088584">
      </trkpt>
      <trkpt lat="50.23015074" lon="-117.73108567">
      </trkpt>
      <trkpt lat="50.23023502" lon="-117.7314117">
      </trkpt>
      <trkpt lat="50.23028893" lon="-117.73168513">
      </trkpt>
      <trkpt lat="50.23041709" lon="-117.73197963">
      </trkpt>
      <trkpt lat="50.23072979" lon="-117.73254765">
      </trkpt>
      <trkpt lat="50.23080112" lon="-117.73264383">
      </trkpt>
      <trkpt lat="50.23103193" lon="-117.73299625">
      </trkpt>
      <trkpt lat="50.23115143" lon="-117.73318259">
      </trkpt>
      <trkpt lat="50.23153309" lon="-117.73381142">
      </trkpt>
      <trkpt lat="50.23182995" lon="-117.73413235">
      </trkpt>
      <trkpt lat="50.23211623" lon="-117.7343789">
      </trkpt>
      <trkpt lat="50.23238037" lon="-117.73450528">
      </trkpt>
      <trkpt lat="50.23276898" lon="-117.73468526">
      </trkpt>
      <trkpt lat="50.23291551" lon="-117.73474845">
      </trkpt>
      <trkpt lat="50.23308135" lon="-117.73472152">
      </trkpt>
      <trkpt lat="50.23327998" lon="-117.73465557">
      </trkpt>
      <trkpt lat="50.23344781" lon="-117.73442734">
      </trkpt>
      <trkpt lat="50.23351726" lon="-117.73429519">
      </trkpt>
      <trkpt lat="50.23354046" lon="-117.73406687">
      </trkpt>
      <trkpt lat="50.23355014" lon="-117.73393768">
      </trkpt>
      <trkpt lat="50.23357718" lon="-117.73379949">
      </trkpt>
      <trkpt lat="50.23362542" lon="-117.73367033">
      </trkpt>
      <trkpt lat="50.23366598" lon="-117.73344502">
      </trkpt>
      <trkpt lat="50.23368041" lon="-117.7333036">
      </trkpt>
      <trkpt lat="50.23373664" lon="-117.73316113">
      </trkpt>
      <trkpt lat="50.23383809" lon="-117.73289337">
      </trkpt>
      <trkpt lat="50.23390866" lon="-117.73271143">
      </trkpt>
      <trkpt lat="50.23409526" lon="-117.73252389">
      </trkpt>
      <trkpt lat="50.2341859" lon="-117.73246687">
      </trkpt>
      <trkpt lat="50.23413792" lon="-117.73229467">
      </trkpt>
      <trkpt lat="50.23412868" lon="-117.73217182">
      </trkpt>
      <trkpt lat="50.23410829" lon="-117.73204534">
      </trkpt>
      <trkpt lat="50.23409401" lon="-117.73185549">
      </trkpt>
      <trkpt lat="50.23407867" lon="-117.73169979">
      </trkpt>
      <trkpt lat="50.23404881" lon="-117.7314958">
      </trkpt>
      <trkpt lat="50.23400947" lon="-117.73131053">
      </trkpt>
      <trkpt lat="50.23398381" lon="-117.73116238">
      </trkpt>
      <trkpt lat="50.23393668" lon="-117.73092193">
      </trkpt>
      <trkpt lat="50.23391902" lon="-117.73078364">
      </trkpt>
      <trkpt lat="50.2339022" lon="-117.73065651">
      </trkpt>
      <trkpt lat="50.23389612" lon="-117.73052742">
      </trkpt>
      <trkpt lat="50.23388857" lon="-117.73033067">
      </trkpt>
      <trkpt lat="50.23388314" lon="-117.73016183">
      </trkpt>
      <trkpt lat="50.23388274" lon="-117.73006002">
      </trkpt>
      <trkpt lat="50.23387307" lon="-117.72993158">
      </trkpt>
      <trkpt lat="50.2338495" lon="-117.72981135">
      </trkpt>
      <trkpt lat="50.233815" lon="-117.72964218">
      </trkpt>
      <trkpt lat="50.2338066" lon="-117.72953049">
      </trkpt>
      <trkpt lat="50.23382546" lon="-117.72935563">
      </trkpt>
      <trkpt lat="50.23381698" lon="-117.72923424">
      </trkpt>
      <trkpt lat="50.23382711" lon="-117.72907953">
      </trkpt>
      <trkpt lat="50.23382503" lon="-117.72895537">
      </trkpt>
      <trkpt lat="50.23382842" lon="-117.72880756">
      </trkpt>
      <trkpt lat="50.23383581" lon="-117.72866468">
      </trkpt>
      <trkpt lat="50.23384952" lon="-117.72850933">
      </trkpt>
      <trkpt lat="50.23386809" lon="-117.72837007">
      </trkpt>
      <trkpt lat="50.23387906" lon="-117.72822654">
      </trkpt>
      <trkpt lat="50.23388623" lon="-117.72812898">
      </trkpt>
      <trkpt lat="50.23389804" lon="-117.72799663">
      </trkpt>
      <trkpt lat="50.2338909" lon="-117.72790169">
      </trkpt>
      <trkpt lat="50.23387238" lon="-117.72784848">
      </trkpt>
      <trkpt lat="50.23383724" lon="-117.72771905">
      </trkpt>
      <trkpt lat="50.23380145" lon="-117.72762936">
      </trkpt>
      <trkpt lat="50.23376735" lon="-117.72756202">
      </trkpt>
      <trkpt lat="50.23371557" lon="-117.72745261">
      </trkpt>
      <trkpt lat="50.23365789" lon="-117.72736129">
      </trkpt>
      <trkpt lat="50.23359431" lon="-117.72728801">
      </trkpt>
      <trkpt lat="50.23350925" lon="-117.72721868">
      </trkpt>
      <trkpt lat="50.23343093" lon="-117.72714244">
      </trkpt>
      <trkpt lat="50.23335135" lon="-117.72704945">
      </trkpt>
      <trkpt lat="50.23326777" lon="-117.72695155">
      </trkpt>
      <trkpt lat="50.23321493" lon="-117.7268763">
      </trkpt>
      <trkpt lat="50.23314483" lon="-117.7267646">
      </trkpt>
      <trkpt lat="50.23308273" lon="-117.72666276">
      </trkpt>
      <trkpt lat="50.23304904" lon="-117.72660099">
      </trkpt>
      <trkpt lat="50.2329581" lon="-117.72645348">
      </trkpt>
      <trkpt lat="50.23286716" lon="-117.72630597">
      </trkpt>
      <trkpt lat="50.23279137" lon="-117.72616702">
      </trkpt>
      <trkpt lat="50.23272885" lon="-117.72605959">
      </trkpt>
      <trkpt lat="50.23265558" lon="-117.72595412">
      </trkpt>
      <trkpt lat="50.23259707" lon="-117.72585163">
      </trkpt>
      <trkpt lat="50.23252906" lon="-117.72576785">
      </trkpt>
      <trkpt lat="50.2324739" lon="-117.72571003">
      </trkpt>
      <trkpt lat="50.23239116" lon="-117.72562328">
      </trkpt>
      <trkpt lat="50.23231262" lon="-117.72559238">
      </trkpt>
      <trkpt lat="50.23223367" lon="-117.72555589">
      </trkpt>
      <trkpt lat="50.23207448" lon="-117.72546618">
      </trkpt>
      <trkpt lat="50.23200669" lon="-117.7254333">
      </trkpt>
      <trkpt lat="50.2319052" lon="-117.7254349">
      </trkpt>
      <trkpt lat="50.23181802" lon="-117.72543389">
      </trkpt>
      <trkpt lat="50.23161481" lon="-117.72548243">
      </trkpt>
      <trkpt lat="50.23149668" lon="-117.72550407">
      </trkpt>
      <trkpt lat="50.23138929" lon="-117.72552373">
      </trkpt>
      <trkpt lat="50.23129011" lon="-117.72550794">
      </trkpt>
      <trkpt lat="50.23122273" lon="-117.72548066">
      </trkpt>
      <trkpt lat="50.23114335" lon="-117.72543859">
      </trkpt>
      <trkpt lat="50.23105871" lon="-117.72537484">
      </trkpt>
      <trkpt lat="50.23099281" lon="-117.72531899">
      </trkpt>
      <trkpt lat="50.23092355" lon="-117.72521845">
      </trkpt>
      <trkpt lat="50.2308507" lon="-117.72511858">
      </trkpt>
      <trkpt lat="50.23077155" lon="-117.72503119">
      </trkpt>
      <trkpt lat="50.23068354" lon="-117.72492278">
      </trkpt>
      <trkpt lat="50.23059238" lon="-117.7248206">
      </trkpt>
      <trkpt lat="50.23051489" lon="-117.72475555">
      </trkpt>
      <trkpt lat="50.2304149" lon="-117.72463235">
      </trkpt>
      <trkpt lat="50.23033173" lon="-117.72454002">
      </trkpt>
      <trkpt lat="50.23025025" lon="-117.72447005">
      </trkpt>
      <trkpt lat="50.23015676" lon="-117.72438528">
      </trkpt>
      <trkpt lat="50.23007677" lon="-117.72428673">
      </trkpt>
      <trkpt lat="50.23002708" lon="-117.72420526">
      </trkpt>
      <trkpt lat="50.22998245" lon="-117.72409455">
      </trkpt>
      <trkpt lat="50.22994225" lon="-117.72399438">
      </trkpt>
      <trkpt lat="50.22992268" lon="-117.72387909">
      </trkpt>
      <trkpt lat="50.22989996" lon="-117.72377003">
      </trkpt>
      <trkpt lat="50.2298808" lon="-117.72366034">
      </trkpt>
      <trkpt lat="50.22986691" lon="-117.72357231">
      </trkpt>
      <trkpt lat="50.22986443" lon="-117.72348266">
      </trkpt>
    </trkseg>
    <trkseg>
      <trkpt lat="50.23466218" lon="-117.73063964">
      </trkpt>
      <trkpt lat="50.23458884" lon="-117.73089198">
      </trkpt>
      <trkpt lat="50.23449277" lon="-117.73142147">
      </trkpt>
      <trkpt lat="50.23444061" lon="-117.73177899">
      </trkpt>
      <trkpt lat="50.23430745" lon="-117.73219353">
      </trkpt>
      <trkpt lat="50.2341859" lon="-117.73246687">
      </trkpt>
      <trkpt lat="50.23416422" lon="-117.73258573">
      </trkpt>
      <trkpt lat="50.23413659" lon="-117.73290248">
      </trkpt>
      <trkpt lat="50.2341134" lon="-117.73308788">
      </trkpt>
      <trkpt lat="50.23407257" lon="-117.73335225">
      </trkpt>
      <trkpt lat="50.23403619" lon="-117.73386666">
      </trkpt>
      <trkpt lat="50.23401492" lon="-117.73407695">
      </trkpt>
      <trkpt lat="50.23398595" lon="-117.73426622">
      </trkpt>
      <trkpt lat="50.23398012" lon="-117.73441044">
      </trkpt>
      <trkpt lat="50.23398779" lon="-117.73456067">
      </trkpt>
      <trkpt lat="50.234007" lon="-117.73480706">
      </trkpt>
      <trkpt lat="50.23400115" lon="-117.73503239">
      </trkpt>
      <trkpt lat="50.23396252" lon="-117.73526672">
      </trkpt>
      <trkpt lat="50.23389879" lon="-117.73557313">
      </trkpt>
      <trkpt lat="50.23377142" lon="-117.73593058">
      </trkpt>
      <trkpt lat="50.23369233" lon="-117.73605672">
      </trkpt>
      <trkpt lat="50.23355273" lon="-117.73619914">
      </trkpt>
      <trkpt lat="50.23338684" lon="-117.73635225">
      </trkpt>
      <trkpt lat="50.23322291" lon="-117.73648131">
      </trkpt>
      <trkpt lat="50.23307681" lon="-117.73655857">
      </trkpt>
      <trkpt lat="50.23288976" lon="-117.73660651">
      </trkpt>
      <trkpt lat="50.23275864" lon="-117.73657938">
      </trkpt>
      <trkpt lat="50.23253305" lon="-117.7365163">
      </trkpt>
      <trkpt lat="50.23223228" lon="-117.73639289">
      </trkpt>
      <trkpt lat="50.23211853" lon="-117.73633272">
      </trkpt>
      <trkpt lat="50.23179292" lon="-117.73612851">
      </trkpt>
      <trkpt lat="50.23166733" lon="-117.73605632">
      </trkpt>
      <trkpt lat="50.23154506" lon="-117.73595321">
      </trkpt>
      <trkpt lat="50.23136108" lon="-117.73581917">
      </trkpt>
      <trkpt lat="50.23125642" lon="-117.73576072">
      </trkpt>
      <trkpt lat="50.23122006" lon="-117.73576928">
      </trkpt>
      <trkpt lat="50.23120904" lon="-117.73579331">
      </trkpt>
      <trkpt lat="50.23122885" lon="-117.73585513">
      </trkpt>
      <trkpt lat="50.23123875" lon="-117.73587745">
      </trkpt>
      <trkpt lat="50.23127731" lon="-117.73591353">
      </trkpt>
      <trkpt lat="50.23137426" lon="-117.73595309">
      </trkpt>
      <trkpt lat="50.23147672" lon="-117.73602012">
      </trkpt>
      <trkpt lat="50.23160057" lon="-117.73615774">
      </trkpt>
      <trkpt lat="50.23189069" lon="-117.73643135">
      </trkpt>
      <trkpt lat="50.23214708" lon="-117.73668391">
      </trkpt>
      <trkpt lat="50.23248779" lon="-117.73703381">
      </trkpt>
      <trkpt lat="50.23276527" lon="-117.73725484">
      </trkpt>
      <trkpt lat="50.23293059" lon="-117.73733909">
      </trkpt>
      <trkpt lat="50.23320389" lon="-117.73744972">
      </trkpt>
      <trkpt lat="50.23361517" lon="-117.73760007">
      </trkpt>
      <trkpt lat="50.23370579" lon="-117.73762117">
      </trkpt>
      <trkpt lat="50.23397765" lon="-117.73771452">
      </trkpt>
      <trkpt lat="50.23415117" lon="-117.73779276">
      </trkpt>
      <trkpt lat="50.23432238" lon="-117.73791234">
      </trkpt>
      <trkpt lat="50.23441685" lon="-117.73796949">
      </trkpt>
      <trkpt lat="50.23452095" lon="-117.73803868">
      </trkpt>
      <trkpt lat="50.23458072" lon="-117.7380898">
      </trkpt>
      <trkpt lat="50.23467325" lon="-117.73817399">
      </trkpt>
      <trkpt lat="50.23494026" lon="-117.73833833">
      </trkpt>
      <trkpt lat="50.23504051" lon="-117.73840151">
      </trkpt>
      <trkpt lat="50.23520438" lon="-117.73849779">
      </trkpt>
      <trkpt lat="50.23540488" lon="-117.73862112">
      </trkpt>
      <trkpt lat="50.23549898" lon="-117.73869857">
      </trkpt>
      <trkpt lat="50.23561658" lon="-117.7387858">
      </trkpt>
      <trkpt lat="50.23574959" lon="-117.73890309">
      </trkpt>
      <trkpt lat="50.23583056" lon="-117.73896625">
      </trkpt>
      <trkpt lat="50.23594526" lon="-117.73905497">
      </trkpt>
      <trkpt lat="50.2360725" lon="-117.7391332">
      </trkpt>
      <trkpt lat="50.23630578" lon="-117.7392746">
      </trkpt>
      <trkpt lat="50.23647204" lon="-117.73941864">
      </trkpt>
      <trkpt lat="50.23670481" lon="-117.73960812">
      </trkpt>
      <trkpt lat="50.23687012" lon="-117.73973446">
      </trkpt>
      <trkpt lat="50.23701517" lon="-117.7399081">
      </trkpt>
      <trkpt lat="50.23724453" lon="-117.74023429">
      </trkpt>
      <trkpt lat="50.23735583" lon="-117.7403711">
      </trkpt>
      <trkpt lat="50.23753462" lon="-117.74055529">
      </trkpt>
      <trkpt lat="50.23793031" lon="-117.74091647">
      </trkpt>
      <trkpt lat="50.23808065" lon="-117.74107284">
      </trkpt>
      <trkpt lat="50.23829701" lon="-117.74134346">
      </trkpt>
      <trkpt lat="50.23849939" lon="-117.74158626">
      </trkpt>
      <trkpt lat="50.23871719" lon="-117.7418659">
      </trkpt>
      <trkpt lat="50.23899618" lon="-117.74222503">
      </trkpt>
      <trkpt lat="50.23915037" lon="-117.74242348">
      </trkpt>
      <trkpt lat="50.23924096" lon="-117.74253475">
      </trkpt>
      <trkpt lat="50.23938359" lon="-117.74269413">
      </trkpt>
      <trkpt lat="50.23949344" lon="-117.7428625">
      </trkpt>
      <trkpt lat="50.23963992" lon="-117.74306696">
      </trkpt>
    </trkseg>
  </trk>
</gpx>