<?xml version="1.0" encoding="UTF-8"?>
<gpx xmlns="http://www.topografix.com/GPX/1/1" xmlns:xsi="http://www.w3.org/2001/XMLSchema-instance" xsi:schemaLocation="http://www.topografix.com/GPX/1/1 http://www.topografix.com/GPX/1/1/gpx.xsd" version="1.1" creator="gpx.py -- https://github.com/tkrajina/gpxpy">
  <trk>
    <name>Ski tour near Beverly Peak</name>
    <trkseg>
      <trkpt lat="51.0589146" lon="-117.155191">
      </trkpt>
      <trkpt lat="51.0585538" lon="-117.1548289">
      </trkpt>
      <trkpt lat="51.0579958" lon="-117.1545365">
      </trkpt>
      <trkpt lat="51.0575575" lon="-117.1544185">
      </trkpt>
      <trkpt lat="51.0571057" lon="-117.1538043">
      </trkpt>
      <trkpt lat="51.0568899" lon="-117.1534073">
      </trkpt>
      <trkpt lat="51.0565881" lon="-117.1529058">
      </trkpt>
      <trkpt lat="51.0561548" lon="-117.1522969">
      </trkpt>
      <trkpt lat="51.055875" lon="-117.1521843">
      </trkpt>
      <trkpt lat="51.0555901" lon="-117.1521547">
      </trkpt>
      <trkpt lat="51.0554619" lon="-117.1516746">
      </trkpt>
      <trkpt lat="51.0551601" lon="-117.1514896">
      </trkpt>
      <trkpt lat="51.0546661" lon="-117.1511918">
      </trkpt>
    </trkseg>
    <trkseg>
      <trkpt lat="51.0589146" lon="-117.155191">
      </trkpt>
      <trkpt lat="51.0590444" lon="-117.155698">
      </trkpt>
      <trkpt lat="51.0592096" lon="-117.1560949">
      </trkpt>
      <trkpt lat="51.0594086" lon="-117.1563524">
      </trkpt>
      <trkpt lat="51.0596041" lon="-117.1565187">
      </trkpt>
      <trkpt lat="51.0597592" lon="-117.1567494">
      </trkpt>
      <trkpt lat="51.0598604" lon="-117.1570623">
      </trkpt>
    </trkseg>
    <trkseg>
      <trkpt lat="51.0236894" lon="-117.1323681">
      </trkpt>
      <trkpt lat="51.0290339" lon="-117.1327973">
      </trkpt>
      <trkpt lat="51.0310851" lon="-117.1327115">
      </trkpt>
      <trkpt lat="51.0328124" lon="-117.1317674">
      </trkpt>
      <trkpt lat="51.0362128" lon="-117.1309949">
      </trkpt>
      <trkpt lat="51.0380479" lon="-117.131424">
      </trkpt>
      <trkpt lat="51.0408543" lon="-117.1328832">
      </trkpt>
      <trkpt lat="51.0451175" lon="-117.1369172">
      </trkpt>
      <trkpt lat="51.0469522" lon="-117.1392346">
      </trkpt>
      <trkpt lat="51.0481933" lon="-117.1415521">
      </trkpt>
      <trkpt lat="51.0495962" lon="-117.1448136">
      </trkpt>
      <trkpt lat="51.0516465" lon="-117.1477319">
      </trkpt>
      <trkpt lat="51.0521573" lon="-117.1488825">
      </trkpt>
      <trkpt lat="51.0521675" lon="-117.1494672">
      </trkpt>
      <trkpt lat="51.0522315" lon="-117.149832">
      </trkpt>
      <trkpt lat="51.0523732" lon="-117.150068">
      </trkpt>
      <trkpt lat="51.0527188" lon="-117.1504355">
      </trkpt>
      <trkpt lat="51.0537372" lon="-117.151047">
      </trkpt>
      <trkpt lat="51.0546661" lon="-117.1511918">
      </trkpt>
    </trkseg>
  </trk>
</gpx>