<?xml version="1.0" encoding="UTF-8"?>
<gpx xmlns="http://www.topografix.com/GPX/1/1" xmlns:xsi="http://www.w3.org/2001/XMLSchema-instance" xsi:schemaLocation="http://www.topografix.com/GPX/1/1 http://www.topografix.com/GPX/1/1/gpx.xsd" version="1.1" creator="gpx.py -- https://github.com/tkrajina/gpxpy">
  <trk>
    <name>McMurdo Creek Forest Service Road</name>
    <trkseg>
      <trkpt lat="51.0598604" lon="-117.1570623">
      </trkpt>
      <trkpt lat="51.0598728" lon="-117.157544">
      </trkpt>
      <trkpt lat="51.0598749" lon="-117.157996">
      </trkpt>
      <trkpt lat="51.0599724" lon="-117.1584876">
      </trkpt>
      <trkpt lat="51.0600947" lon="-117.158778">
      </trkpt>
      <trkpt lat="51.0602109" lon="-117.1590188">
      </trkpt>
      <trkpt lat="51.0602897" lon="-117.1593224">
      </trkpt>
      <trkpt lat="51.060356" lon="-117.1595368">
      </trkpt>
      <trkpt lat="51.0604576" lon="-117.1597909">
      </trkpt>
      <trkpt lat="51.060609" lon="-117.1600482">
      </trkpt>
      <trkpt lat="51.0607873" lon="-117.1603946">
      </trkpt>
      <trkpt lat="51.0608952" lon="-117.1606949">
      </trkpt>
      <trkpt lat="51.0609532" lon="-117.1610149">
      </trkpt>
      <trkpt lat="51.061003" lon="-117.1614174">
      </trkpt>
      <trkpt lat="51.0610507" lon="-117.1617078">
      </trkpt>
      <trkpt lat="51.0611087" lon="-117.1621697">
      </trkpt>
      <trkpt lat="51.0611232" lon="-117.1625359">
      </trkpt>
      <trkpt lat="51.0611564" lon="-117.1629549">
      </trkpt>
      <trkpt lat="51.0612207" lon="-117.1632981">
      </trkpt>
      <trkpt lat="51.0612954" lon="-117.1635092">
      </trkpt>
      <trkpt lat="51.0614758" lon="-117.1637897">
      </trkpt>
      <trkpt lat="51.0615836" lon="-117.1639909">
      </trkpt>
      <trkpt lat="51.0616893" lon="-117.1642978">
      </trkpt>
      <trkpt lat="51.0617204" lon="-117.1646442">
      </trkpt>
      <trkpt lat="51.0617515" lon="-117.164951">
      </trkpt>
      <trkpt lat="51.0618117" lon="-117.165248">
      </trkpt>
      <trkpt lat="51.0618718" lon="-117.1654921">
      </trkpt>
      <trkpt lat="51.0618843" lon="-117.1656967">
      </trkpt>
      <trkpt lat="51.061876" lon="-117.1658946">
      </trkpt>
      <trkpt lat="51.0618366" lon="-117.1663928">
      </trkpt>
      <trkpt lat="51.0618179" lon="-117.1667228">
      </trkpt>
      <trkpt lat="51.0619008" lon="-117.167056">
      </trkpt>
      <trkpt lat="51.0620253" lon="-117.167442">
      </trkpt>
      <trkpt lat="51.0621352" lon="-117.1678412">
      </trkpt>
      <trkpt lat="51.0622057" lon="-117.1680656">
      </trkpt>
    </trkseg>
  </trk>
</gpx>