<?xml version="1.0" encoding="UTF-8"?>
<gpx xmlns="http://www.topografix.com/GPX/1/1" xmlns:xsi="http://www.w3.org/2001/XMLSchema-instance" xsi:schemaLocation="http://www.topografix.com/GPX/1/1 http://www.topografix.com/GPX/1/1/gpx.xsd" version="1.1" creator="gpx.py -- https://github.com/tkrajina/gpxpy">
  <trk>
    <name>North Fork Wild Historic Park</name>
    <trkseg>
      <trkpt lat="51.00510576" lon="-118.6983311">
      </trkpt>
      <trkpt lat="51.00637439" lon="-118.69906648">
      </trkpt>
      <trkpt lat="51.00679401" lon="-118.69957255">
      </trkpt>
      <trkpt lat="51.00693684" lon="-118.6998191">
      </trkpt>
      <trkpt lat="51.00703482" lon="-118.69986453">
      </trkpt>
      <trkpt lat="51.00726447" lon="-118.69981099">
      </trkpt>
      <trkpt lat="51.007494" lon="-118.69973636">
      </trkpt>
      <trkpt lat="51.00766033" lon="-118.69963741">
      </trkpt>
      <trkpt lat="51.00783895" lon="-118.69961632">
      </trkpt>
      <trkpt lat="51.00828878" lon="-118.70004295">
      </trkpt>
      <trkpt lat="51.00835002" lon="-118.70005106">
      </trkpt>
      <trkpt lat="51.00845005" lon="-118.70009648">
      </trkpt>
      <trkpt lat="51.00855517" lon="-118.7001938">
      </trkpt>
      <trkpt lat="51.00861539" lon="-118.70027166">
      </trkpt>
      <trkpt lat="51.00872248" lon="-118.70035977">
      </trkpt>
      <trkpt lat="51.0088572" lon="-118.70043763">
      </trkpt>
      <trkpt lat="51.00925236" lon="-118.70088917">
      </trkpt>
      <trkpt lat="51.00939116" lon="-118.70099623">
      </trkpt>
      <trkpt lat="51.00946158" lon="-118.70107409">
      </trkpt>
      <trkpt lat="51.00954119" lon="-118.70119738">
      </trkpt>
      <trkpt lat="51.00966903" lon="-118.70136284">
      </trkpt>
      <trkpt lat="51.00975024" lon="-118.70154905">
      </trkpt>
      <trkpt lat="51.00986229" lon="-118.70197868">
      </trkpt>
      <trkpt lat="51.00993498" lon="-118.70183168">
      </trkpt>
      <trkpt lat="51.00999384" lon="-118.70170254">
      </trkpt>
      <trkpt lat="51.00985044" lon="-118.70153169">
      </trkpt>
      <trkpt lat="51.00981912" lon="-118.70129596">
      </trkpt>
      <trkpt lat="51.00971049" lon="-118.70100457">
      </trkpt>
      <trkpt lat="51.00961144" lon="-118.7006701">
      </trkpt>
      <trkpt lat="51.00973087" lon="-118.70068556">
      </trkpt>
      <trkpt lat="51.00972311" lon="-118.70038744">
      </trkpt>
      <trkpt lat="51.00971764" lon="-118.70021174">
      </trkpt>
      <trkpt lat="51.0094699" lon="-118.69992097">
      </trkpt>
      <trkpt lat="51.00924892" lon="-118.6995374">
      </trkpt>
      <trkpt lat="51.00894676" lon="-118.69961329">
      </trkpt>
      <trkpt lat="51.00870543" lon="-118.69942882">
      </trkpt>
      <trkpt lat="51.00848971" lon="-118.69913782">
      </trkpt>
      <trkpt lat="51.0083072" lon="-118.69889009">
      </trkpt>
      <trkpt lat="51.00818456" lon="-118.69888531">
      </trkpt>
      <trkpt lat="51.00811077" lon="-118.69865837">
      </trkpt>
      <trkpt lat="51.00761609" lon="-118.69855079">
      </trkpt>
      <trkpt lat="51.00755103" lon="-118.69875325">
      </trkpt>
      <trkpt lat="51.00739634" lon="-118.698845">
      </trkpt>
      <trkpt lat="51.00716486" lon="-118.6987805">
      </trkpt>
      <trkpt lat="51.00703314" lon="-118.69869402">
      </trkpt>
      <trkpt lat="51.00695314" lon="-118.69868578">
      </trkpt>
      <trkpt lat="51.00691261" lon="-118.69868581">
      </trkpt>
      <trkpt lat="51.00683397" lon="-118.69883682">
      </trkpt>
      <trkpt lat="51.0067861" lon="-118.698906">
      </trkpt>
      <trkpt lat="51.00681923" lon="-118.69899307">
      </trkpt>
      <trkpt lat="51.00692517" lon="-118.69904028">
      </trkpt>
      <trkpt lat="51.00705275" lon="-118.69917041">
      </trkpt>
      <trkpt lat="51.00708317" lon="-118.69926309">
      </trkpt>
      <trkpt lat="51.00720076" lon="-118.69938065">
      </trkpt>
      <trkpt lat="51.00740775" lon="-118.69942309">
      </trkpt>
      <trkpt lat="51.0075976" lon="-118.69941156">
      </trkpt>
      <trkpt lat="51.00766468" lon="-118.6994382">
      </trkpt>
      <trkpt lat="51.00772146" lon="-118.69948312">
      </trkpt>
      <trkpt lat="51.00779851" lon="-118.69948237">
      </trkpt>
      <trkpt lat="51.00797938" lon="-118.69962569">
      </trkpt>
      <trkpt lat="51.00818135" lon="-118.69980337">
      </trkpt>
      <trkpt lat="51.00830621" lon="-118.69992908">
      </trkpt>
      <trkpt lat="51.00834687" lon="-118.69999187">
      </trkpt>
      <trkpt lat="51.00838975" lon="-118.70006909">
      </trkpt>
    </trkseg>
    <trkseg>
      <trkpt lat="51.00409709" lon="-118.70116031">
      </trkpt>
      <trkpt lat="51.00415347" lon="-118.70110077">
      </trkpt>
      <trkpt lat="51.00424407" lon="-118.70096306">
      </trkpt>
      <trkpt lat="51.00407115" lon="-118.70071949">
      </trkpt>
      <trkpt lat="51.00392422" lon="-118.70056064">
      </trkpt>
      <trkpt lat="51.00386689" lon="-118.70014449">
      </trkpt>
      <trkpt lat="51.00387769" lon="-118.69998833">
      </trkpt>
      <trkpt lat="51.00394056" lon="-118.69992899">
      </trkpt>
      <trkpt lat="51.00398038" lon="-118.69970167">
      </trkpt>
    </trkseg>
    <trkseg>
      <trkpt lat="51.00224683" lon="-118.69924234">
      </trkpt>
      <trkpt lat="51.00219302" lon="-118.69941476">
      </trkpt>
      <trkpt lat="51.00210869" lon="-118.6993783">
      </trkpt>
      <trkpt lat="51.00199487" lon="-118.69963856">
      </trkpt>
      <trkpt lat="51.0018756" lon="-118.69971282">
      </trkpt>
      <trkpt lat="51.00177493" lon="-118.69974475">
      </trkpt>
      <trkpt lat="51.00184408" lon="-118.69982765">
      </trkpt>
      <trkpt lat="51.00167427" lon="-118.69980393">
      </trkpt>
      <trkpt lat="51.00178508" lon="-118.70000383">
      </trkpt>
      <trkpt lat="51.00177946" lon="-118.70008153">
      </trkpt>
      <trkpt lat="51.00166982" lon="-118.7000921">
      </trkpt>
      <trkpt lat="51.00152372" lon="-118.70025152">
      </trkpt>
      <trkpt lat="51.00129884" lon="-118.70028153">
      </trkpt>
      <trkpt lat="51.00118384" lon="-118.70035999">
      </trkpt>
      <trkpt lat="51.00102215" lon="-118.70051832">
      </trkpt>
      <trkpt lat="51.00123187" lon="-118.70067925">
      </trkpt>
      <trkpt lat="51.00130094" lon="-118.70072896">
      </trkpt>
      <trkpt lat="51.00127017" lon="-118.70086215">
      </trkpt>
      <trkpt lat="51.00131569" lon="-118.70112508">
      </trkpt>
      <trkpt lat="51.0013858" lon="-118.70115848">
      </trkpt>
      <trkpt lat="51.0014762" lon="-118.70120153">
      </trkpt>
      <trkpt lat="51.00171165" lon="-118.70130638">
      </trkpt>
      <trkpt lat="51.00191373" lon="-118.70120354">
      </trkpt>
      <trkpt lat="51.00195615" lon="-118.70129659">
      </trkpt>
      <trkpt lat="51.00208885" lon="-118.70116236">
      </trkpt>
      <trkpt lat="51.00211725" lon="-118.70113364">
      </trkpt>
      <trkpt lat="51.00194399" lon="-118.70091647">
      </trkpt>
      <trkpt lat="51.00208086" lon="-118.70077112">
      </trkpt>
      <trkpt lat="51.00208456" lon="-118.70050944">
      </trkpt>
      <trkpt lat="51.00226125" lon="-118.70026317">
      </trkpt>
      <trkpt lat="51.00241472" lon="-118.70023911">
      </trkpt>
      <trkpt lat="51.00252595" lon="-118.70022143">
      </trkpt>
      <trkpt lat="51.00262436" lon="-118.70016939">
      </trkpt>
      <trkpt lat="51.00275712" lon="-118.70008422">
      </trkpt>
      <trkpt lat="51.00287128" lon="-118.70008909">
      </trkpt>
      <trkpt lat="51.00291135" lon="-118.70045872">
      </trkpt>
      <trkpt lat="51.00309198" lon="-118.70074522">
      </trkpt>
      <trkpt lat="51.00323045" lon="-118.70092434">
      </trkpt>
      <trkpt lat="51.00332399" lon="-118.70099927">
      </trkpt>
      <trkpt lat="51.00348157" lon="-118.70106741">
      </trkpt>
      <trkpt lat="51.00357466" lon="-118.70115368">
      </trkpt>
      <trkpt lat="51.00373085" lon="-118.70129842">
      </trkpt>
      <trkpt lat="51.00387745" lon="-118.70139222">
      </trkpt>
      <trkpt lat="51.00409709" lon="-118.70116031">
      </trkpt>
      <trkpt lat="51.00425983" lon="-118.70117982">
      </trkpt>
      <trkpt lat="51.0043812" lon="-118.70119172">
      </trkpt>
      <trkpt lat="51.00446778" lon="-118.70118066">
      </trkpt>
      <trkpt lat="51.0045812" lon="-118.70112166">
      </trkpt>
      <trkpt lat="51.00470952" lon="-118.70117898">
      </trkpt>
      <trkpt lat="51.00483642" lon="-118.70124394">
      </trkpt>
      <trkpt lat="51.00490188" lon="-118.70114512">
      </trkpt>
      <trkpt lat="51.00490989" lon="-118.70113543">
      </trkpt>
      <trkpt lat="51.00493306" lon="-118.7011074">
      </trkpt>
      <trkpt lat="51.00497975" lon="-118.70095384">
      </trkpt>
      <trkpt lat="51.00500682" lon="-118.70080833">
      </trkpt>
      <trkpt lat="51.00497883" lon="-118.70059946">
      </trkpt>
      <trkpt lat="51.0049018" lon="-118.70034272">
      </trkpt>
      <trkpt lat="51.00507069" lon="-118.7001983">
      </trkpt>
    </trkseg>
    <trkseg>
      <trkpt lat="51.00158402" lon="-118.70018573">
      </trkpt>
      <trkpt lat="51.00155382" lon="-118.70010643">
      </trkpt>
      <trkpt lat="51.00147687" lon="-118.70009839">
      </trkpt>
      <trkpt lat="51.00139247" lon="-118.70010316">
      </trkpt>
      <trkpt lat="51.00133782" lon="-118.70009059">
      </trkpt>
      <trkpt lat="51.00126044" lon="-118.70004751">
      </trkpt>
      <trkpt lat="51.00116582" lon="-118.70001632">
      </trkpt>
      <trkpt lat="51.0011431" lon="-118.6999678">
      </trkpt>
      <trkpt lat="51.001125" lon="-118.69994475">
      </trkpt>
      <trkpt lat="51.00104571" lon="-118.69989504">
      </trkpt>
      <trkpt lat="51.00100153" lon="-118.69990996">
      </trkpt>
      <trkpt lat="51.00097823" lon="-118.69991927">
      </trkpt>
      <trkpt lat="51.00092777" lon="-118.69986604">
      </trkpt>
      <trkpt lat="51.0009095" lon="-118.69982312">
      </trkpt>
      <trkpt lat="51.00091251" lon="-118.69976379">
      </trkpt>
      <trkpt lat="51.00087539" lon="-118.69974417">
      </trkpt>
      <trkpt lat="51.00079408" lon="-118.69975112">
      </trkpt>
      <trkpt lat="51.00078369" lon="-118.69970024">
      </trkpt>
      <trkpt lat="51.00082123" lon="-118.69965523">
      </trkpt>
      <trkpt lat="51.00083985" lon="-118.69955784">
      </trkpt>
      <trkpt lat="51.00085979" lon="-118.69942641">
      </trkpt>
      <trkpt lat="51.00080145" lon="-118.69938551">
      </trkpt>
      <trkpt lat="51.00070883" lon="-118.69938424">
      </trkpt>
      <trkpt lat="51.00061831" lon="-118.69943068">
      </trkpt>
      <trkpt lat="51.00053785" lon="-118.69943638">
      </trkpt>
      <trkpt lat="51.00047289" lon="-118.69944585">
      </trkpt>
      <trkpt lat="51.00045134" lon="-118.69939322">
      </trkpt>
      <trkpt lat="51.00040466" lon="-118.69935592">
      </trkpt>
      <trkpt lat="51.00037951" lon="-118.69939757">
      </trkpt>
      <trkpt lat="51.0003759" lon="-118.69944803">
      </trkpt>
      <trkpt lat="51.00032126" lon="-118.69942816">
      </trkpt>
      <trkpt lat="51.00026568" lon="-118.69946111">
      </trkpt>
      <trkpt lat="51.00024347" lon="-118.69951232">
      </trkpt>
      <trkpt lat="51.00017826" lon="-118.69956513">
      </trkpt>
      <trkpt lat="51.00014129" lon="-118.6995974">
      </trkpt>
      <trkpt lat="51.00009779" lon="-118.69961759">
      </trkpt>
      <trkpt lat="51.00002252" lon="-118.69974173">
      </trkpt>
      <trkpt lat="50.99996402" lon="-118.69982765">
      </trkpt>
      <trkpt lat="50.99990393" lon="-118.69992455">
      </trkpt>
      <trkpt lat="50.99983904" lon="-118.69993821">
      </trkpt>
      <trkpt lat="50.99980283" lon="-118.69989328">
      </trkpt>
      <trkpt lat="50.99980099" lon="-118.69983712">
      </trkpt>
      <trkpt lat="50.99986704" lon="-118.69971424">
      </trkpt>
      <trkpt lat="50.99984625" lon="-118.69962271">
      </trkpt>
      <trkpt lat="50.99989906" lon="-118.69949145">
      </trkpt>
      <trkpt lat="50.99992152" lon="-118.69938995">
      </trkpt>
      <trkpt lat="50.99993913" lon="-118.69930386">
      </trkpt>
      <trkpt lat="50.99994156" lon="-118.69925987">
      </trkpt>
      <trkpt lat="50.99999646" lon="-118.69921979">
      </trkpt>
      <trkpt lat="51.00003736" lon="-118.69919398">
      </trkpt>
      <trkpt lat="51.00010375" lon="-118.69911989">
      </trkpt>
      <trkpt lat="51.00003468" lon="-118.69905886">
      </trkpt>
      <trkpt lat="50.9999377" lon="-118.69905752">
      </trkpt>
      <trkpt lat="50.99989914" lon="-118.69907151">
      </trkpt>
      <trkpt lat="50.99979244" lon="-118.69906892">
      </trkpt>
      <trkpt lat="50.99974375" lon="-118.69905174">
      </trkpt>
      <trkpt lat="50.99975741" lon="-118.69897546">
      </trkpt>
      <trkpt lat="50.99977082" lon="-118.6988903">
      </trkpt>
      <trkpt lat="50.99981541" lon="-118.69884353">
      </trkpt>
      <trkpt lat="50.99986863" lon="-118.69883464">
      </trkpt>
      <trkpt lat="50.99995832" lon="-118.6988038">
      </trkpt>
      <trkpt lat="51.00001079" lon="-118.69879509">
      </trkpt>
      <trkpt lat="51.00009696" lon="-118.69879056">
      </trkpt>
      <trkpt lat="51.0001434" lon="-118.69868118">
      </trkpt>
      <trkpt lat="51.00019645" lon="-118.69868939">
      </trkpt>
      <trkpt lat="51.00026233" lon="-118.6986831">
      </trkpt>
      <trkpt lat="51.0003102" lon="-118.69866692">
      </trkpt>
      <trkpt lat="51.00035361" lon="-118.69855302">
      </trkpt>
      <trkpt lat="51.00039929" lon="-118.69846341">
      </trkpt>
      <trkpt lat="51.00043701" lon="-118.69838009">
      </trkpt>
      <trkpt lat="51.00042479" lon="-118.69832246">
      </trkpt>
      <trkpt lat="51.0004181" lon="-118.69827992">
      </trkpt>
    </trkseg>
    <trkseg>
      <trkpt lat="51.00024388" lon="-118.69813622">
      </trkpt>
      <trkpt lat="51.00026937" lon="-118.6980431">
      </trkpt>
      <trkpt lat="51.00030249" lon="-118.69797831">
      </trkpt>
      <trkpt lat="51.00030503" lon="-118.69790543">
      </trkpt>
      <trkpt lat="51.00034213" lon="-118.69780987">
      </trkpt>
      <trkpt lat="51.00038657" lon="-118.69774349">
      </trkpt>
      <trkpt lat="51.00041262" lon="-118.69763394">
      </trkpt>
      <trkpt lat="51.00051873" lon="-118.69742766">
      </trkpt>
      <trkpt lat="51.00066039" lon="-118.69709045">
      </trkpt>
      <trkpt lat="51.00075628" lon="-118.69700178">
      </trkpt>
      <trkpt lat="51.00079953" lon="-118.69700998">
      </trkpt>
      <trkpt lat="51.00085879" lon="-118.69703631">
      </trkpt>
      <trkpt lat="51.00096054" lon="-118.69713228">
      </trkpt>
      <trkpt lat="51.00102886" lon="-118.69722213">
      </trkpt>
      <trkpt lat="51.00114888" lon="-118.69731467">
      </trkpt>
      <trkpt lat="51.00119012" lon="-118.69741685">
      </trkpt>
      <trkpt lat="51.00135508" lon="-118.69753687">
      </trkpt>
      <trkpt lat="51.00157158" lon="-118.69767048">
      </trkpt>
      <trkpt lat="51.00177292" lon="-118.6978046">
      </trkpt>
      <trkpt lat="51.00186965" lon="-118.69787534">
      </trkpt>
      <trkpt lat="51.00209495" lon="-118.69776093">
      </trkpt>
      <trkpt lat="51.00227793" lon="-118.69778398">
      </trkpt>
      <trkpt lat="51.00246024" lon="-118.69765539">
      </trkpt>
      <trkpt lat="51.00255813" lon="-118.69756236">
      </trkpt>
      <trkpt lat="51.00266835" lon="-118.69738575">
      </trkpt>
      <trkpt lat="51.00287341" lon="-118.69712392">
      </trkpt>
      <trkpt lat="51.00292744" lon="-118.69704948">
      </trkpt>
      <trkpt lat="51.00291797" lon="-118.69696171">
      </trkpt>
      <trkpt lat="51.00284639" lon="-118.69693867">
      </trkpt>
      <trkpt lat="51.00277958" lon="-118.69696842">
      </trkpt>
      <trkpt lat="51.00276031" lon="-118.69702877">
      </trkpt>
      <trkpt lat="51.00274614" lon="-118.69705986">
      </trkpt>
      <trkpt lat="51.00270448" lon="-118.69710847">
      </trkpt>
      <trkpt lat="51.00267657" lon="-118.69715734">
      </trkpt>
      <trkpt lat="51.00263516" lon="-118.69721375">
      </trkpt>
      <trkpt lat="51.00261899" lon="-118.69724887">
      </trkpt>
      <trkpt lat="51.00260466" lon="-118.69727083">
      </trkpt>
      <trkpt lat="51.00259384" lon="-118.69728399">
      </trkpt>
      <trkpt lat="51.00258345" lon="-118.69729363">
      </trkpt>
      <trkpt lat="51.00255076" lon="-118.69731468">
      </trkpt>
      <trkpt lat="51.00251396" lon="-118.69732381">
      </trkpt>
      <trkpt lat="51.00248111" lon="-118.69729212">
      </trkpt>
      <trkpt lat="51.00242461" lon="-118.69730914">
      </trkpt>
      <trkpt lat="51.00235521" lon="-118.6972545">
      </trkpt>
      <trkpt lat="51.00234473" lon="-118.69724896">
      </trkpt>
      <trkpt lat="51.00230224" lon="-118.69715332">
      </trkpt>
      <trkpt lat="51.00224766" lon="-118.69704209">
      </trkpt>
      <trkpt lat="51.00219017" lon="-118.69697244">
      </trkpt>
      <trkpt lat="51.00218182" lon="-118.69687384">
      </trkpt>
    </trkseg>
    <trkseg>
      <trkpt lat="51.00033862" lon="-118.69781891">
      </trkpt>
      <trkpt lat="51.00010853" lon="-118.69775062">
      </trkpt>
      <trkpt lat="51.00005287" lon="-118.69772648">
      </trkpt>
      <trkpt lat="51.00000936" lon="-118.69769278">
      </trkpt>
      <trkpt lat="50.99994784" lon="-118.69737704">
      </trkpt>
      <trkpt lat="51.0000838" lon="-118.69732574">
      </trkpt>
      <trkpt lat="51.00010467" lon="-118.69730218">
      </trkpt>
      <trkpt lat="51.00012805" lon="-118.69726715">
      </trkpt>
      <trkpt lat="51.00014423" lon="-118.69723203">
      </trkpt>
      <trkpt lat="51.00014423" lon="-118.69718375">
      </trkpt>
      <trkpt lat="51.00013518" lon="-118.69713772">
      </trkpt>
      <trkpt lat="51.00012805" lon="-118.69711359">
      </trkpt>
      <trkpt lat="50.99997735" lon="-118.69709028">
      </trkpt>
      <trkpt lat="51.00001716" lon="-118.69677806">
      </trkpt>
      <trkpt lat="50.99999076" lon="-118.69662853">
      </trkpt>
      <trkpt lat="51.00002043" lon="-118.69654303">
      </trkpt>
      <trkpt lat="51.00002135" lon="-118.69653548">
      </trkpt>
      <trkpt lat="51.00006167" lon="-118.69633039">
      </trkpt>
      <trkpt lat="51.00005589" lon="-118.69608152">
      </trkpt>
      <trkpt lat="51.00000493" lon="-118.69601615">
      </trkpt>
      <trkpt lat="51.00001347" lon="-118.69594675">
      </trkpt>
    </trkseg>
    <trkseg>
      <trkpt lat="50.99962522" lon="-118.6957258">
      </trkpt>
      <trkpt lat="50.99965213" lon="-118.69588196">
      </trkpt>
      <trkpt lat="50.99991222" lon="-118.69590316">
      </trkpt>
      <trkpt lat="51.00003216" lon="-118.69595479">
      </trkpt>
      <trkpt lat="51.00013778" lon="-118.69590559">
      </trkpt>
      <trkpt lat="51.00024255" lon="-118.69591967">
      </trkpt>
      <trkpt lat="51.00032838" lon="-118.69599628">
      </trkpt>
      <trkpt lat="51.00047179" lon="-118.69611967">
      </trkpt>
      <trkpt lat="51.0006035" lon="-118.69616964">
      </trkpt>
      <trkpt lat="51.00069517" lon="-118.69631253">
      </trkpt>
      <trkpt lat="51.00073155" lon="-118.69643717">
      </trkpt>
      <trkpt lat="51.00084043" lon="-118.69655234">
      </trkpt>
      <trkpt lat="51.00098057" lon="-118.69665962">
      </trkpt>
      <trkpt lat="51.00127227" lon="-118.69671353">
      </trkpt>
      <trkpt lat="51.00148634" lon="-118.69673213">
      </trkpt>
      <trkpt lat="51.00167485" lon="-118.69675284">
      </trkpt>
      <trkpt lat="51.00181718" lon="-118.69670421">
      </trkpt>
      <trkpt lat="51.00198037" lon="-118.69676709">
      </trkpt>
      <trkpt lat="51.00218615" lon="-118.69687613">
      </trkpt>
      <trkpt lat="51.00240952" lon="-118.69681879">
      </trkpt>
      <trkpt lat="51.002808" lon="-118.69653583">
      </trkpt>
      <trkpt lat="51.00295443" lon="-118.69646843">
      </trkpt>
      <trkpt lat="51.00315249" lon="-118.69642938">
      </trkpt>
      <trkpt lat="51.00331016" lon="-118.69641857">
      </trkpt>
      <trkpt lat="51.00340004" lon="-118.69645675">
      </trkpt>
      <trkpt lat="51.00354846" lon="-118.69672157">
      </trkpt>
      <trkpt lat="51.0037964" lon="-118.69655258">
      </trkpt>
      <trkpt lat="51.00406847" lon="-118.69677564">
      </trkpt>
      <trkpt lat="51.00424536" lon="-118.69665312">
      </trkpt>
    </trkseg>
    <trkseg>
      <trkpt lat="51.00256787" lon="-118.69754675">
      </trkpt>
      <trkpt lat="51.00259418" lon="-118.69757258">
      </trkpt>
      <trkpt lat="51.00265067" lon="-118.69756437">
      </trkpt>
      <trkpt lat="51.00270691" lon="-118.69751893">
      </trkpt>
      <trkpt lat="51.0027583" lon="-118.69752623">
      </trkpt>
      <trkpt lat="51.00278537" lon="-118.69746269">
      </trkpt>
      <trkpt lat="51.00281948" lon="-118.69744006">
      </trkpt>
      <trkpt lat="51.00284011" lon="-118.69743571">
      </trkpt>
      <trkpt lat="51.00285904" lon="-118.69743319">
      </trkpt>
      <trkpt lat="51.00290514" lon="-118.69740654">
      </trkpt>
      <trkpt lat="51.00295661" lon="-118.69739372">
      </trkpt>
      <trkpt lat="51.00301001" lon="-118.69738207">
      </trkpt>
      <trkpt lat="51.00308209" lon="-118.69742732">
      </trkpt>
      <trkpt lat="51.00310204" lon="-118.69749631">
      </trkpt>
      <trkpt lat="51.00312852" lon="-118.69760066">
      </trkpt>
      <trkpt lat="51.00320589" lon="-118.69763712">
      </trkpt>
      <trkpt lat="51.00320806" lon="-118.69761844">
      </trkpt>
      <trkpt lat="51.00322223" lon="-118.69754686">
      </trkpt>
      <trkpt lat="51.00323304" lon="-118.69750075">
      </trkpt>
      <trkpt lat="51.00326892" lon="-118.69750511">
      </trkpt>
      <trkpt lat="51.00328258" lon="-118.6975367">
      </trkpt>
      <trkpt lat="51.00327253" lon="-118.69758407">
      </trkpt>
      <trkpt lat="51.00326892" lon="-118.69764769">
      </trkpt>
      <trkpt lat="51.00327076" lon="-118.69783409">
      </trkpt>
      <trkpt lat="51.00326423" lon="-118.69796897">
      </trkpt>
      <trkpt lat="51.00321611" lon="-118.69798623">
      </trkpt>
      <trkpt lat="51.00320673" lon="-118.69793602">
      </trkpt>
      <trkpt lat="51.00320966" lon="-118.69781876">
      </trkpt>
      <trkpt lat="51.00318267" lon="-118.69776612">
      </trkpt>
      <trkpt lat="51.00315417" lon="-118.69775136">
      </trkpt>
      <trkpt lat="51.00311688" lon="-118.69769153">
      </trkpt>
      <trkpt lat="51.00305971" lon="-118.69762874">
      </trkpt>
      <trkpt lat="51.00302937" lon="-118.69756453">
      </trkpt>
      <trkpt lat="51.00295108" lon="-118.69759479">
      </trkpt>
      <trkpt lat="51.00287698" lon="-118.69767401">
      </trkpt>
      <trkpt lat="51.00280792" lon="-118.69777173">
      </trkpt>
      <trkpt lat="51.00278822" lon="-118.69789194">
      </trkpt>
      <trkpt lat="51.00272879" lon="-118.69798439">
      </trkpt>
      <trkpt lat="51.00270817" lon="-118.69807432">
      </trkpt>
      <trkpt lat="51.00267975" lon="-118.69813199">
      </trkpt>
      <trkpt lat="51.00270658" lon="-118.69817625">
      </trkpt>
      <trkpt lat="51.0027515" lon="-118.69817852">
      </trkpt>
      <trkpt lat="51.00278" lon="-118.69813099">
      </trkpt>
      <trkpt lat="51.0028018" lon="-118.69806444">
      </trkpt>
      <trkpt lat="51.00284245" lon="-118.69803384">
      </trkpt>
      <trkpt lat="51.00287312" lon="-118.6979268">
      </trkpt>
      <trkpt lat="51.00293247" lon="-118.69787383">
      </trkpt>
      <trkpt lat="51.00295418" lon="-118.69784089">
      </trkpt>
      <trkpt lat="51.00303682" lon="-118.69782824">
      </trkpt>
      <trkpt lat="51.00305753" lon="-118.69792312">
      </trkpt>
      <trkpt lat="51.00307228" lon="-118.69801155">
      </trkpt>
      <trkpt lat="51.00310907" lon="-118.69813057">
      </trkpt>
      <trkpt lat="51.00310003" lon="-118.69818093">
      </trkpt>
      <trkpt lat="51.00307077" lon="-118.69818874">
      </trkpt>
      <trkpt lat="51.00299801" lon="-118.69802009">
      </trkpt>
      <trkpt lat="51.00295384" lon="-118.69797826">
      </trkpt>
      <trkpt lat="51.00290464" lon="-118.69805639">
      </trkpt>
      <trkpt lat="51.00287463" lon="-118.69814633">
      </trkpt>
      <trkpt lat="51.00286609" lon="-118.69825127">
      </trkpt>
      <trkpt lat="51.00283457" lon="-118.6983143">
      </trkpt>
      <trkpt lat="51.00281311" lon="-118.69842595">
      </trkpt>
      <trkpt lat="51.00282518" lon="-118.6984573">
      </trkpt>
      <trkpt lat="51.00287011" lon="-118.69848587">
      </trkpt>
      <trkpt lat="51.00288444" lon="-118.69852309">
      </trkpt>
      <trkpt lat="51.00287555" lon="-118.69861882">
      </trkpt>
      <trkpt lat="51.00292694" lon="-118.69866936">
      </trkpt>
      <trkpt lat="51.0029613" lon="-118.69871781">
      </trkpt>
      <trkpt lat="51.00292074" lon="-118.69875653">
      </trkpt>
      <trkpt lat="51.00292761" lon="-118.69881771">
      </trkpt>
      <trkpt lat="51.00291504" lon="-118.69885871">
      </trkpt>
      <trkpt lat="51.00289701" lon="-118.69887622">
      </trkpt>
      <trkpt lat="51.00287974" lon="-118.69895243">
      </trkpt>
    </trkseg>
    <trkseg>
      <trkpt lat="51.00449384" lon="-118.69912689">
      </trkpt>
      <trkpt lat="51.00454561" lon="-118.69904976">
      </trkpt>
      <trkpt lat="51.00463621" lon="-118.69904976">
      </trkpt>
      <trkpt lat="51.00467827" lon="-118.69916289">
      </trkpt>
      <trkpt lat="51.00473651" lon="-118.69922972">
      </trkpt>
      <trkpt lat="51.00481563" lon="-118.69924805">
      </trkpt>
      <trkpt lat="51.00479602" lon="-118.69911653">
      </trkpt>
      <trkpt lat="51.00479216" lon="-118.69896809">
      </trkpt>
      <trkpt lat="51.00472544" lon="-118.69874672">
      </trkpt>
      <trkpt lat="51.00469879" lon="-118.69858352">
      </trkpt>
      <trkpt lat="51.00473257" lon="-118.69843139">
      </trkpt>
      <trkpt lat="51.00482837" lon="-118.69838563">
      </trkpt>
      <trkpt lat="51.00497724" lon="-118.69832284">
      </trkpt>
      <trkpt lat="51.00510472" lon="-118.69833324">
      </trkpt>
      <trkpt lat="51.00512274" lon="-118.69829594">
      </trkpt>
      <trkpt lat="51.00515686" lon="-118.69821916">
      </trkpt>
      <trkpt lat="51.00515241" lon="-118.69816241">
      </trkpt>
      <trkpt lat="51.00499618" lon="-118.69811489">
      </trkpt>
      <trkpt lat="51.00486894" lon="-118.69805798">
      </trkpt>
      <trkpt lat="51.00470634" lon="-118.69788523">
      </trkpt>
      <trkpt lat="51.00458672" lon="-118.6978486">
      </trkpt>
      <trkpt lat="51.0045195" lon="-118.69771868">
      </trkpt>
      <trkpt lat="51.00445144" lon="-118.69760536">
      </trkpt>
      <trkpt lat="51.00438237" lon="-118.69746613">
      </trkpt>
      <trkpt lat="51.00427064" lon="-118.6974596">
      </trkpt>
      <trkpt lat="51.00427316" lon="-118.69746832">
      </trkpt>
      <trkpt lat="51.00420577" lon="-118.69742229">
      </trkpt>
      <trkpt lat="51.0041414" lon="-118.69739228">
      </trkpt>
      <trkpt lat="51.00413612" lon="-118.69738207">
      </trkpt>
      <trkpt lat="51.00405523" lon="-118.69737125">
      </trkpt>
      <trkpt lat="51.00400494" lon="-118.69746043">
      </trkpt>
      <trkpt lat="51.00399957" lon="-118.69746035">
      </trkpt>
      <trkpt lat="51.00399957" lon="-118.69745909">
      </trkpt>
      <trkpt lat="51.00391425" lon="-118.69754015">
      </trkpt>
      <trkpt lat="51.00391022" lon="-118.69753319">
      </trkpt>
      <trkpt lat="51.0036731" lon="-118.69762975">
      </trkpt>
      <trkpt lat="51.00360403" lon="-118.69787198">
      </trkpt>
      <trkpt lat="51.00354695" lon="-118.69813879">
      </trkpt>
      <trkpt lat="51.00350202" lon="-118.69832544">
      </trkpt>
      <trkpt lat="51.00349289" lon="-118.69847598">
      </trkpt>
      <trkpt lat="51.00350496" lon="-118.69863197">
      </trkpt>
      <trkpt lat="51.00311972" lon="-118.69891579">
      </trkpt>
      <trkpt lat="51.00258077" lon="-118.69899809">
      </trkpt>
      <trkpt lat="51.00236116" lon="-118.69920605">
      </trkpt>
    </trkseg>
    <trkseg>
      <trkpt lat="51.00481262" lon="-118.69924735">
      </trkpt>
      <trkpt lat="51.00487887" lon="-118.6994457">
      </trkpt>
      <trkpt lat="51.00498241" lon="-118.69947141">
      </trkpt>
      <trkpt lat="51.00513297" lon="-118.69946874">
      </trkpt>
      <trkpt lat="51.00514025" lon="-118.69947735">
      </trkpt>
      <trkpt lat="51.00526289" lon="-118.69962238">
      </trkpt>
      <trkpt lat="51.00526063" lon="-118.69987048">
      </trkpt>
      <trkpt lat="51.00518955" lon="-118.7000833">
      </trkpt>
    </trkseg>
    <trkseg>
      <trkpt lat="51.00473183" lon="-118.69843472">
      </trkpt>
      <trkpt lat="51.00439687" lon="-118.69815562">
      </trkpt>
    </trkseg>
  </trk>
</gpx>