<?xml version="1.0" encoding="UTF-8"?>
<gpx xmlns="http://www.topografix.com/GPX/1/1" xmlns:xsi="http://www.w3.org/2001/XMLSchema-instance" xsi:schemaLocation="http://www.topografix.com/GPX/1/1 http://www.topografix.com/GPX/1/1/gpx.xsd" version="1.1" creator="gpx.py -- https://github.com/tkrajina/gpxpy">
  <trk>
    <name>Nugedzi Lake Trail</name>
    <trkseg>
      <trkpt lat="50.17230332" lon="-125.30321951">
      </trkpt>
      <trkpt lat="50.17230293" lon="-125.3030847">
      </trkpt>
      <trkpt lat="50.17230616" lon="-125.30303224">
      </trkpt>
      <trkpt lat="50.17232076" lon="-125.30298482">
      </trkpt>
      <trkpt lat="50.17237736" lon="-125.30291436">
      </trkpt>
      <trkpt lat="50.17245552" lon="-125.30281585">
      </trkpt>
      <trkpt lat="50.17251194" lon="-125.30269645">
      </trkpt>
      <trkpt lat="50.17253554" lon="-125.30261578">
      </trkpt>
      <trkpt lat="50.17253426" lon="-125.3025685">
      </trkpt>
      <trkpt lat="50.17249871" lon="-125.30245841">
      </trkpt>
      <trkpt lat="50.17245758" lon="-125.30239557">
      </trkpt>
      <trkpt lat="50.17245847" lon="-125.30229234">
      </trkpt>
      <trkpt lat="50.17250126" lon="-125.30217475">
      </trkpt>
      <trkpt lat="50.17253955" lon="-125.3020607">
      </trkpt>
      <trkpt lat="50.17256305" lon="-125.30196248">
      </trkpt>
      <trkpt lat="50.17257188" lon="-125.3018539">
      </trkpt>
      <trkpt lat="50.17254994" lon="-125.30175067">
      </trkpt>
      <trkpt lat="50.17249274" lon="-125.30165308">
      </trkpt>
      <trkpt lat="50.17245062" lon="-125.3016305">
      </trkpt>
      <trkpt lat="50.17241546" lon="-125.3016517">
      </trkpt>
      <trkpt lat="50.17237687" lon="-125.30166771">
      </trkpt>
      <trkpt lat="50.17234505" lon="-125.30165567">
      </trkpt>
      <trkpt lat="50.1722949" lon="-125.30161221">
      </trkpt>
      <trkpt lat="50.17227199" lon="-125.30155975">
      </trkpt>
      <trkpt lat="50.17229235" lon="-125.30151416">
      </trkpt>
      <trkpt lat="50.17231948" lon="-125.30148593">
      </trkpt>
      <trkpt lat="50.17235571" lon="-125.30144553">
      </trkpt>
      <trkpt lat="50.17237148" lon="-125.30140344">
      </trkpt>
      <trkpt lat="50.17237021" lon="-125.30133863">
      </trkpt>
      <trkpt lat="50.17234396" lon="-125.30131424">
      </trkpt>
      <trkpt lat="50.17229177" lon="-125.30132506">
      </trkpt>
      <trkpt lat="50.17224055" lon="-125.30132719">
      </trkpt>
      <trkpt lat="50.17217786" lon="-125.30126101">
      </trkpt>
      <trkpt lat="50.17215837" lon="-125.30120687">
      </trkpt>
      <trkpt lat="50.17215817" lon="-125.30113856">
      </trkpt>
      <trkpt lat="50.17217717" lon="-125.30105255">
      </trkpt>
      <trkpt lat="50.17220303" lon="-125.30095434">
      </trkpt>
      <trkpt lat="50.17221527" lon="-125.30086849">
      </trkpt>
      <trkpt lat="50.17223771" lon="-125.30076326">
      </trkpt>
      <trkpt lat="50.17224534" lon="-125.30066704">
      </trkpt>
      <trkpt lat="50.17224044" lon="-125.30056716">
      </trkpt>
      <trkpt lat="50.1722041" lon="-125.30057265">
      </trkpt>
      <trkpt lat="50.17219921" lon="-125.30047291">
      </trkpt>
      <trkpt lat="50.17218649" lon="-125.30040291">
      </trkpt>
      <trkpt lat="50.17213858" lon="-125.30033841">
      </trkpt>
      <trkpt lat="50.1721237" lon="-125.30029648">
      </trkpt>
      <trkpt lat="50.17213467" lon="-125.30018272">
      </trkpt>
      <trkpt lat="50.17214681" lon="-125.30005996">
      </trkpt>
      <trkpt lat="50.17214152" lon="-125.29983594">
      </trkpt>
      <trkpt lat="50.17210665" lon="-125.29957517">
      </trkpt>
      <trkpt lat="50.17209814" lon="-125.29941596">
      </trkpt>
      <trkpt lat="50.17206836" lon="-125.29931974">
      </trkpt>
      <trkpt lat="50.17202155" lon="-125.29925005">
      </trkpt>
      <trkpt lat="50.17198042" lon="-125.29919958">
      </trkpt>
      <trkpt lat="50.17198707" lon="-125.29914696">
      </trkpt>
      <trkpt lat="50.17200852" lon="-125.29909435">
      </trkpt>
      <trkpt lat="50.17205936" lon="-125.2990082">
      </trkpt>
      <trkpt lat="50.1720807" lon="-125.2989292">
      </trkpt>
      <trkpt lat="50.17209842" lon="-125.29877853">
      </trkpt>
      <trkpt lat="50.17209471" lon="-125.29868582">
      </trkpt>
      <trkpt lat="50.17212733" lon="-125.29857007">
      </trkpt>
      <trkpt lat="50.17214073" lon="-125.2984859">
      </trkpt>
      <trkpt lat="50.17218236" lon="-125.29834911">
      </trkpt>
      <trkpt lat="50.17220362" lon="-125.2982631">
      </trkpt>
      <trkpt lat="50.1722045" lon="-125.29816337">
      </trkpt>
      <trkpt lat="50.17219392" lon="-125.29805662">
      </trkpt>
      <trkpt lat="50.17221527" lon="-125.29798815">
      </trkpt>
      <trkpt lat="50.17225367" lon="-125.29791786">
      </trkpt>
      <trkpt lat="50.17226718" lon="-125.29786875">
      </trkpt>
      <trkpt lat="50.17225435" lon="-125.29777252">
      </trkpt>
      <trkpt lat="50.17220969" lon="-125.29767127">
      </trkpt>
      <trkpt lat="50.17216963" lon="-125.29758573">
      </trkpt>
      <trkpt lat="50.17214897" lon="-125.29750002">
      </trkpt>
      <trkpt lat="50.17213829" lon="-125.29736887">
      </trkpt>
      <trkpt lat="50.1721427" lon="-125.29733196">
      </trkpt>
      <trkpt lat="50.17214475" lon="-125.29726898">
      </trkpt>
      <trkpt lat="50.17208893" lon="-125.29722369">
      </trkpt>
      <trkpt lat="50.17204554" lon="-125.29716102">
      </trkpt>
      <trkpt lat="50.17203408" lon="-125.29712778">
      </trkpt>
      <trkpt lat="50.1720522" lon="-125.29708736">
      </trkpt>
      <trkpt lat="50.17207247" lon="-125.29705046">
      </trkpt>
      <trkpt lat="50.17208256" lon="-125.29700837">
      </trkpt>
      <trkpt lat="50.17208579" lon="-125.29693487">
      </trkpt>
      <trkpt lat="50.17204113" lon="-125.29684764">
      </trkpt>
      <trkpt lat="50.17201136" lon="-125.29676026">
      </trkpt>
      <trkpt lat="50.17199286" lon="-125.29665702">
      </trkpt>
      <trkpt lat="50.17200392" lon="-125.29656598">
      </trkpt>
      <trkpt lat="50.17200921" lon="-125.29646092">
      </trkpt>
      <trkpt lat="50.17203496" lon="-125.29631192">
      </trkpt>
      <trkpt lat="50.17205387" lon="-125.29620319">
      </trkpt>
      <trkpt lat="50.17207541" lon="-125.29616629">
      </trkpt>
      <trkpt lat="50.17211155" lon="-125.29611703">
      </trkpt>
      <trkpt lat="50.17214094" lon="-125.2960661">
      </trkpt>
      <trkpt lat="50.17217031" lon="-125.29599061">
      </trkpt>
      <trkpt lat="50.17219049" lon="-125.29591696">
      </trkpt>
      <trkpt lat="50.17219931" lon="-125.29582927">
      </trkpt>
      <trkpt lat="50.17221058" lon="-125.29579604">
      </trkpt>
      <trkpt lat="50.17226278" lon="-125.29577987">
      </trkpt>
      <trkpt lat="50.17232516" lon="-125.29574266">
      </trkpt>
      <trkpt lat="50.17238069" lon="-125.29567938">
      </trkpt>
      <trkpt lat="50.17240891" lon="-125.29560221">
      </trkpt>
      <trkpt lat="50.17240918" lon="-125.2955906">
      </trkpt>
      <trkpt lat="50.17241086" lon="-125.29551803">
      </trkpt>
      <trkpt lat="50.17239244" lon="-125.29543584">
      </trkpt>
      <trkpt lat="50.17236836" lon="-125.29537119">
      </trkpt>
      <trkpt lat="50.17230087" lon="-125.29524217">
      </trkpt>
      <trkpt lat="50.17223349" lon="-125.29512354">
      </trkpt>
      <trkpt lat="50.1721855" lon="-125.295052">
      </trkpt>
      <trkpt lat="50.1721806" lon="-125.29493292">
      </trkpt>
      <trkpt lat="50.17216973" lon="-125.29474047">
      </trkpt>
      <trkpt lat="50.17213545" lon="-125.29467581">
      </trkpt>
      <trkpt lat="50.17207267" lon="-125.29460612">
      </trkpt>
      <trkpt lat="50.17202478" lon="-125.29455045">
      </trkpt>
      <trkpt lat="50.17197111" lon="-125.29448076">
      </trkpt>
      <trkpt lat="50.1719378" lon="-125.29437935">
      </trkpt>
      <trkpt lat="50.17192517" lon="-125.29431637">
      </trkpt>
      <trkpt lat="50.17192351" lon="-125.29417988">
      </trkpt>
      <trkpt lat="50.17191655" lon="-125.29410989">
      </trkpt>
      <trkpt lat="50.17187405" lon="-125.29398927">
      </trkpt>
      <trkpt lat="50.17183516" lon="-125.29391256">
      </trkpt>
      <trkpt lat="50.17179295" lon="-125.29385858">
      </trkpt>
      <trkpt lat="50.17178012" lon="-125.29375885">
      </trkpt>
      <trkpt lat="50.17177973" lon="-125.29362221">
      </trkpt>
      <trkpt lat="50.1717951" lon="-125.29345401">
      </trkpt>
      <trkpt lat="50.171814" lon="-125.29334711">
      </trkpt>
      <trkpt lat="50.17182958" lon="-125.2932367">
      </trkpt>
      <trkpt lat="50.17181802" lon="-125.2931632">
      </trkpt>
      <trkpt lat="50.17176435" lon="-125.29309184">
      </trkpt>
      <trkpt lat="50.17177434" lon="-125.29303037">
      </trkpt>
      <trkpt lat="50.17179912" lon="-125.2929497">
      </trkpt>
      <trkpt lat="50.1718284" lon="-125.29287422">
      </trkpt>
      <trkpt lat="50.1718531" lon="-125.29274978">
      </trkpt>
      <trkpt lat="50.17185632" lon="-125.29270419">
      </trkpt>
      <trkpt lat="50.17186376" lon="-125.29255536">
      </trkpt>
      <trkpt lat="50.17187024" lon="-125.29245028">
      </trkpt>
      <trkpt lat="50.17188707" lon="-125.29236261">
      </trkpt>
      <trkpt lat="50.17192204" lon="-125.29229764">
      </trkpt>
      <trkpt lat="50.17196053" lon="-125.29222733">
      </trkpt>
      <trkpt lat="50.17199197" lon="-125.2921116">
      </trkpt>
      <trkpt lat="50.17199177" lon="-125.2920695">
      </trkpt>
      <trkpt lat="50.17199608" lon="-125.29197663">
      </trkpt>
      <trkpt lat="50.1720004" lon="-125.29190847">
      </trkpt>
      <trkpt lat="50.17202389" lon="-125.29181027">
      </trkpt>
      <trkpt lat="50.17206112" lon="-125.29171358">
      </trkpt>
      <trkpt lat="50.17210068" lon="-125.2916416">
      </trkpt>
      <trkpt lat="50.17214241" lon="-125.2915556">
      </trkpt>
      <trkpt lat="50.17217502" lon="-125.29143984">
      </trkpt>
      <trkpt lat="50.17219383" lon="-125.29126113">
      </trkpt>
      <trkpt lat="50.17221821" lon="-125.29109278">
      </trkpt>
      <trkpt lat="50.17221459" lon="-125.29102629">
      </trkpt>
      <trkpt lat="50.17218491" lon="-125.29097749">
      </trkpt>
      <trkpt lat="50.17214495" lon="-125.29092869">
      </trkpt>
      <trkpt lat="50.17210616" lon="-125.29086937">
      </trkpt>
      <trkpt lat="50.17211058" lon="-125.29082377">
      </trkpt>
      <trkpt lat="50.17212516" lon="-125.29077116">
      </trkpt>
      <trkpt lat="50.17214427" lon="-125.29071687">
      </trkpt>
      <trkpt lat="50.17215778" lon="-125.29066426">
      </trkpt>
      <trkpt lat="50.17215758" lon="-125.29060296">
      </trkpt>
      <trkpt lat="50.17213133" lon="-125.29056803">
      </trkpt>
      <trkpt lat="50.17211419" lon="-125.29056117">
      </trkpt>
      <trkpt lat="50.17207669" lon="-125.29054393">
      </trkpt>
      <trkpt lat="50.17204358" lon="-125.29050383">
      </trkpt>
      <trkpt lat="50.1720332" lon="-125.29047242">
      </trkpt>
      <trkpt lat="50.17203761" lon="-125.29042164">
      </trkpt>
      <trkpt lat="50.17203633" lon="-125.29037436">
      </trkpt>
      <trkpt lat="50.17202263" lon="-125.29035164">
      </trkpt>
      <trkpt lat="50.17199872" lon="-125.29035011">
      </trkpt>
      <trkpt lat="50.17194417" lon="-125.2903521">
      </trkpt>
      <trkpt lat="50.17189872" lon="-125.2903489">
      </trkpt>
      <trkpt lat="50.17188168" lon="-125.29033685">
      </trkpt>
      <trkpt lat="50.17185759" lon="-125.2902879">
      </trkpt>
      <trkpt lat="50.17184721" lon="-125.29023712">
      </trkpt>
      <trkpt lat="50.17184926" lon="-125.2901531">
      </trkpt>
      <trkpt lat="50.1718525" lon="-125.29009881">
      </trkpt>
      <trkpt lat="50.17185789" lon="-125.29000593">
      </trkpt>
      <trkpt lat="50.1718621" lon="-125.28992374">
      </trkpt>
      <trkpt lat="50.17186974" lon="-125.28982904">
      </trkpt>
      <trkpt lat="50.17187395" lon="-125.28970995">
      </trkpt>
      <trkpt lat="50.17187024" lon="-125.28961372">
      </trkpt>
      <trkpt lat="50.17185279" lon="-125.28950697">
      </trkpt>
      <trkpt lat="50.17182636" lon="-125.28941609">
      </trkpt>
      <trkpt lat="50.17178747" lon="-125.28932886">
      </trkpt>
      <trkpt lat="50.17179393" lon="-125.28921144">
      </trkpt>
      <trkpt lat="50.17181412" lon="-125.2891361">
      </trkpt>
      <trkpt lat="50.17182977" lon="-125.28905894">
      </trkpt>
      <trkpt lat="50.17181479" lon="-125.28899596">
      </trkpt>
      <trkpt lat="50.17179638" lon="-125.2889191">
      </trkpt>
      <trkpt lat="50.17173918" lon="-125.28882135">
      </trkpt>
      <trkpt lat="50.17169912" lon="-125.28872009">
      </trkpt>
      <trkpt lat="50.17164761" lon="-125.28861701">
      </trkpt>
      <trkpt lat="50.17156778" lon="-125.28851957">
      </trkpt>
      <trkpt lat="50.17151528" lon="-125.2884813">
      </trkpt>
      <trkpt lat="50.17144458" lon="-125.28839956">
      </trkpt>
      <trkpt lat="50.17137827" lon="-125.2882774">
      </trkpt>
      <trkpt lat="50.17131078" lon="-125.2881307">
      </trkpt>
      <trkpt lat="50.17128414" lon="-125.28798904">
      </trkpt>
      <trkpt lat="50.17127248" lon="-125.28788763">
      </trkpt>
      <trkpt lat="50.17124369" lon="-125.28777401">
      </trkpt>
      <trkpt lat="50.17122176" lon="-125.28768297">
      </trkpt>
      <trkpt lat="50.17118493" lon="-125.28752926">
      </trkpt>
      <trkpt lat="50.17115015" lon="-125.28733513">
      </trkpt>
      <trkpt lat="50.17112675" lon="-125.28713568">
      </trkpt>
      <trkpt lat="50.17107944" lon="-125.28691348">
      </trkpt>
      <trkpt lat="50.17094223" lon="-125.28664998">
      </trkpt>
      <trkpt lat="50.17070412" lon="-125.28615086">
      </trkpt>
      <trkpt lat="50.170481" lon="-125.28569169">
      </trkpt>
      <trkpt lat="50.17036583" lon="-125.28556816">
      </trkpt>
      <trkpt lat="50.17036231" lon="-125.28553143">
      </trkpt>
      <trkpt lat="50.17035407" lon="-125.28545273">
      </trkpt>
      <trkpt lat="50.17031871" lon="-125.2853986">
      </trkpt>
      <trkpt lat="50.17026622" lon="-125.28534827">
      </trkpt>
      <trkpt lat="50.1702002" lon="-125.28532417">
      </trkpt>
      <trkpt lat="50.17011939" lon="-125.28527737">
      </trkpt>
      <trkpt lat="50.17008178" lon="-125.28526363">
      </trkpt>
      <trkpt lat="50.17003732" lon="-125.28520081">
      </trkpt>
      <trkpt lat="50.17000197" lon="-125.28516786">
      </trkpt>
      <trkpt lat="50.16993947" lon="-125.28518572">
      </trkpt>
      <trkpt lat="50.16989863" lon="-125.2851947">
      </trkpt>
      <trkpt lat="50.16980989" lon="-125.28517427">
      </trkpt>
      <trkpt lat="50.16976542" lon="-125.28514301">
      </trkpt>
      <trkpt lat="50.1697187" lon="-125.28510306">
      </trkpt>
      <trkpt lat="50.16964005" lon="-125.28501781">
      </trkpt>
      <trkpt lat="50.16958755" lon="-125.28496734">
      </trkpt>
      <trkpt lat="50.16949764" lon="-125.28493471">
      </trkpt>
      <trkpt lat="50.16945571" lon="-125.28494553">
      </trkpt>
      <trkpt lat="50.16940008" lon="-125.28499311">
      </trkpt>
      <trkpt lat="50.16935032" lon="-125.28504068">
      </trkpt>
      <trkpt lat="50.16929234" lon="-125.28503931">
      </trkpt>
      <trkpt lat="50.16923994" lon="-125.2850082">
      </trkpt>
      <trkpt lat="50.16916492" lon="-125.28499464">
      </trkpt>
      <trkpt lat="50.16906473" lon="-125.28493928">
      </trkpt>
      <trkpt lat="50.16903954" lon="-125.28489735">
      </trkpt>
      <trkpt lat="50.16901761" lon="-125.28479426">
      </trkpt>
      <trkpt lat="50.16897959" lon="-125.28464573">
      </trkpt>
      <trkpt lat="50.16892053" lon="-125.28430292">
      </trkpt>
      <trkpt lat="50.16884688" lon="-125.28402675">
      </trkpt>
      <trkpt lat="50.16879653" lon="-125.28394303">
      </trkpt>
      <trkpt lat="50.16877489" lon="-125.28393083">
      </trkpt>
      <trkpt lat="50.16875001" lon="-125.28395386">
      </trkpt>
      <trkpt lat="50.16873424" lon="-125.28400815">
      </trkpt>
      <trkpt lat="50.16872886" lon="-125.28407829">
      </trkpt>
      <trkpt lat="50.1687268" lon="-125.2841466">
      </trkpt>
      <trkpt lat="50.16871915" lon="-125.28425169">
      </trkpt>
      <trkpt lat="50.16870221" lon="-125.28427105">
      </trkpt>
      <trkpt lat="50.16867724" lon="-125.28428172">
      </trkpt>
      <trkpt lat="50.16864197" lon="-125.28427485">
      </trkpt>
      <trkpt lat="50.16861808" lon="-125.28426465">
      </trkpt>
      <trkpt lat="50.16857821" lon="-125.28424207">
      </trkpt>
      <trkpt lat="50.16854187" lon="-125.28424405">
      </trkpt>
      <trkpt lat="50.16853052" lon="-125.28425107">
      </trkpt>
      <trkpt lat="50.16852267" lon="-125.28429315">
      </trkpt>
      <trkpt lat="50.16851042" lon="-125.28437383">
      </trkpt>
      <trkpt lat="50.16850269" lon="-125.28442994">
      </trkpt>
      <trkpt lat="50.16848339" lon="-125.28445801">
      </trkpt>
      <trkpt lat="50.1684595" lon="-125.28445297">
      </trkpt>
      <trkpt lat="50.16842884" lon="-125.28443559">
      </trkpt>
      <trkpt lat="50.16836164" lon="-125.2844115">
      </trkpt>
      <trkpt lat="50.16825361" lon="-125.28437551">
      </trkpt>
      <trkpt lat="50.16816927" lon="-125.28432168">
      </trkpt>
      <trkpt lat="50.16809071" lon="-125.28426983">
      </trkpt>
      <trkpt lat="50.16801657" lon="-125.28419313">
      </trkpt>
      <trkpt lat="50.16795037" lon="-125.28411489">
      </trkpt>
      <trkpt lat="50.1678625" lon="-125.28401561">
      </trkpt>
      <trkpt lat="50.16778943" lon="-125.28390231">
      </trkpt>
      <trkpt lat="50.16770136" lon="-125.28372954">
      </trkpt>
      <trkpt lat="50.16763164" lon="-125.28362141">
      </trkpt>
      <trkpt lat="50.16759392" lon="-125.2835534">
      </trkpt>
      <trkpt lat="50.16757227" lon="-125.28353419">
      </trkpt>
      <trkpt lat="50.1675084" lon="-125.28348387">
      </trkpt>
      <trkpt lat="50.16744239" lon="-125.28343187">
      </trkpt>
      <trkpt lat="50.16733984" lon="-125.28335013">
      </trkpt>
      <trkpt lat="50.16724639" lon="-125.28328075">
      </trkpt>
      <trkpt lat="50.16717224" lon="-125.2832147">
      </trkpt>
      <trkpt lat="50.16711289" lon="-125.28314334">
      </trkpt>
      <trkpt lat="50.16702061" lon="-125.28305993">
      </trkpt>
      <trkpt lat="50.1669442" lon="-125.28297804">
      </trkpt>
      <trkpt lat="50.16687809" lon="-125.28292253">
      </trkpt>
      <trkpt lat="50.16683489" lon="-125.28292284">
      </trkpt>
      <trkpt lat="50.16678485" lon="-125.28290561">
      </trkpt>
      <trkpt lat="50.16676418" lon="-125.28285666">
      </trkpt>
      <trkpt lat="50.16675477" lon="-125.28276225">
      </trkpt>
      <trkpt lat="50.16674783" lon="-125.28272016">
      </trkpt>
      <trkpt lat="50.16671197" lon="-125.2825332">
      </trkpt>
      <trkpt lat="50.16665594" lon="-125.28242493">
      </trkpt>
      <trkpt lat="50.16660911" lon="-125.28235174">
      </trkpt>
      <trkpt lat="50.16658286" lon="-125.28231682">
      </trkpt>
      <trkpt lat="50.16649187" lon="-125.28231925">
      </trkpt>
      <trkpt lat="50.16644426" lon="-125.2823528">
      </trkpt>
      <trkpt lat="50.1664089" lon="-125.28231972">
      </trkpt>
      <trkpt lat="50.16638833" lon="-125.28226391">
      </trkpt>
      <trkpt lat="50.16638588" lon="-125.28222014">
      </trkpt>
      <trkpt lat="50.16639127" lon="-125.28212025">
      </trkpt>
      <trkpt lat="50.16639098" lon="-125.28203973">
      </trkpt>
      <trkpt lat="50.16640645" lon="-125.28191362">
      </trkpt>
      <trkpt lat="50.16641292" lon="-125.28179971">
      </trkpt>
      <trkpt lat="50.1664045" lon="-125.28166154">
      </trkpt>
      <trkpt lat="50.16640067" lon="-125.28155297">
      </trkpt>
      <trkpt lat="50.16638108" lon="-125.28146392">
      </trkpt>
      <trkpt lat="50.16636953" lon="-125.28140611">
      </trkpt>
      <trkpt lat="50.16638647" lon="-125.28136921">
      </trkpt>
      <trkpt lat="50.16642723" lon="-125.28130593">
      </trkpt>
      <trkpt lat="50.16645317" lon="-125.28124798">
      </trkpt>
      <trkpt lat="50.16646316" lon="-125.28119187">
      </trkpt>
      <trkpt lat="50.1665096" lon="-125.28113208">
      </trkpt>
      <trkpt lat="50.16655495" lon="-125.28110905">
      </trkpt>
      <trkpt lat="50.1666004" lon="-125.28110692">
      </trkpt>
      <trkpt lat="50.16661959" lon="-125.28107703">
      </trkpt>
      <trkpt lat="50.16662851" lon="-125.28100703">
      </trkpt>
      <trkpt lat="50.16662724" lon="-125.28095626">
      </trkpt>
      <trkpt lat="50.16662929" lon="-125.28089327">
      </trkpt>
      <trkpt lat="50.1666529" lon="-125.28083883">
      </trkpt>
      <trkpt lat="50.16670286" lon="-125.28081916">
      </trkpt>
      <trkpt lat="50.1667483" lon="-125.28081718">
      </trkpt>
      <trkpt lat="50.16678582" lon="-125.28080986">
      </trkpt>
      <trkpt lat="50.16686086" lon="-125.2808129">
      </trkpt>
      <trkpt lat="50.16690758" lon="-125.2808582">
      </trkpt>
      <trkpt lat="50.16692374" lon="-125.28091584">
      </trkpt>
      <trkpt lat="50.16694441" lon="-125.28097867">
      </trkpt>
      <trkpt lat="50.16696861" lon="-125.28107138">
      </trkpt>
      <trkpt lat="50.16701189" lon="-125.28112004">
      </trkpt>
      <trkpt lat="50.16704598" lon="-125.28111637">
      </trkpt>
      <trkpt lat="50.16706175" lon="-125.28107947">
      </trkpt>
      <trkpt lat="50.16707302" lon="-125.28103906">
      </trkpt>
      <trkpt lat="50.16708192" lon="-125.28097959">
      </trkpt>
      <trkpt lat="50.16709642" lon="-125.28090243">
      </trkpt>
      <trkpt lat="50.16710416" lon="-125.28082359">
      </trkpt>
      <trkpt lat="50.16710955" lon="-125.28074307">
      </trkpt>
      <trkpt lat="50.16710034" lon="-125.2806993">
      </trkpt>
      <trkpt lat="50.16709221" lon="-125.28064685">
      </trkpt>
      <trkpt lat="50.16708977" lon="-125.28060826">
      </trkpt>
      <trkpt lat="50.16710221" lon="-125.28058204">
      </trkpt>
      <trkpt lat="50.16712826" lon="-125.28056785">
      </trkpt>
      <trkpt lat="50.16714991" lon="-125.28057989">
      </trkpt>
      <trkpt lat="50.16716705" lon="-125.28060781">
      </trkpt>
      <trkpt lat="50.16720691" lon="-125.28063037">
      </trkpt>
      <trkpt lat="50.1672363" lon="-125.28058981">
      </trkpt>
      <trkpt lat="50.16729517" lon="-125.28049847">
      </trkpt>
      <trkpt lat="50.16734845" lon="-125.28040574">
      </trkpt>
      <trkpt lat="50.16730781" lon="-125.28015839">
      </trkpt>
      <trkpt lat="50.16723739" lon="-125.27986972">
      </trkpt>
      <trkpt lat="50.16707791" lon="-125.27944121">
      </trkpt>
      <trkpt lat="50.16690611" lon="-125.27900157">
      </trkpt>
      <trkpt lat="50.16682833" lon="-125.2787129">
      </trkpt>
      <trkpt lat="50.1668347" lon="-125.27855643">
      </trkpt>
      <trkpt lat="50.16688671" lon="-125.27824687">
      </trkpt>
      <trkpt lat="50.166907" lon="-125.27796811">
      </trkpt>
      <trkpt lat="50.16689857" lon="-125.27779289">
      </trkpt>
      <trkpt lat="50.16682647" lon="-125.27749904">
      </trkpt>
      <trkpt lat="50.16673146" lon="-125.2771916">
      </trkpt>
      <trkpt lat="50.16656573" lon="-125.27693862">
      </trkpt>
      <trkpt lat="50.16641988" lon="-125.27673503">
      </trkpt>
      <trkpt lat="50.16637452" lon="-125.27652596">
      </trkpt>
      <trkpt lat="50.16633406" lon="-125.27633595">
      </trkpt>
      <trkpt lat="50.16620016" lon="-125.27608251">
      </trkpt>
      <trkpt lat="50.1660264" lon="-125.2757153">
      </trkpt>
      <trkpt lat="50.16590983" lon="-125.27549585">
      </trkpt>
      <trkpt lat="50.16583687" lon="-125.27535037">
      </trkpt>
      <trkpt lat="50.16580453" lon="-125.27526315">
      </trkpt>
      <trkpt lat="50.16574449" lon="-125.275062">
      </trkpt>
      <trkpt lat="50.1656675" lon="-125.27489914">
      </trkpt>
      <trkpt lat="50.16563262" lon="-125.27481969">
      </trkpt>
      <trkpt lat="50.16558188" lon="-125.27453819">
      </trkpt>
      <trkpt lat="50.1654945" lon="-125.27428412">
      </trkpt>
      <trkpt lat="50.1654375" lon="-125.27416671">
      </trkpt>
      <trkpt lat="50.16531123" lon="-125.27397425">
      </trkpt>
      <trkpt lat="50.16517536" lon="-125.27378562">
      </trkpt>
      <trkpt lat="50.16501227" lon="-125.27357075">
      </trkpt>
      <trkpt lat="50.16489895" lon="-125.27346568">
      </trkpt>
      <trkpt lat="50.1647382" lon="-125.2733818">
      </trkpt>
      <trkpt lat="50.16455168" lon="-125.27333118">
      </trkpt>
      <trkpt lat="50.16432795" lon="-125.27320492">
      </trkpt>
      <trkpt lat="50.16417573" lon="-125.2731578">
      </trkpt>
      <trkpt lat="50.16404496" lon="-125.27301094">
      </trkpt>
      <trkpt lat="50.1639759" lon="-125.27293957">
      </trkpt>
      <trkpt lat="50.16393084" lon="-125.27278785">
      </trkpt>
      <trkpt lat="50.16388803" lon="-125.27261308">
      </trkpt>
      <trkpt lat="50.16383934" lon="-125.27227439">
      </trkpt>
      <trkpt lat="50.16378509" lon="-125.27181767">
      </trkpt>
      <trkpt lat="50.16374531" lon="-125.27160418">
      </trkpt>
      <trkpt lat="50.1636975" lon="-125.27141417">
      </trkpt>
      <trkpt lat="50.16360747" lon="-125.27111436">
      </trkpt>
      <trkpt lat="50.16355144" lon="-125.27077597">
      </trkpt>
      <trkpt lat="50.16353567" lon="-125.27060838">
      </trkpt>
      <trkpt lat="50.16346534" lon="-125.27034258">
      </trkpt>
      <trkpt lat="50.16342067" lon="-125.27024025">
      </trkpt>
      <trkpt lat="50.16325062" lon="-125.27008654">
      </trkpt>
      <trkpt lat="50.16296379" lon="-125.26982134">
      </trkpt>
      <trkpt lat="50.162781" lon="-125.26959154">
      </trkpt>
      <trkpt lat="50.1626172" lon="-125.26925849">
      </trkpt>
      <trkpt lat="50.1625692" lon="-125.26903814">
      </trkpt>
      <trkpt lat="50.16253383" lon="-125.26885956">
      </trkpt>
      <trkpt lat="50.16251317" lon="-125.26869594">
      </trkpt>
      <trkpt lat="50.16249416" lon="-125.26840635">
      </trkpt>
      <trkpt lat="50.1624633" lon="-125.26816662">
      </trkpt>
      <trkpt lat="50.1624109" lon="-125.26801488">
      </trkpt>
      <trkpt lat="50.16234879" lon="-125.26787871">
      </trkpt>
      <trkpt lat="50.16225749" lon="-125.26778859">
      </trkpt>
      <trkpt lat="50.16216571" lon="-125.26770838">
      </trkpt>
      <trkpt lat="50.16194666" lon="-125.26755161">
      </trkpt>
      <trkpt lat="50.16172517" lon="-125.26740247">
      </trkpt>
      <trkpt lat="50.16161565" lon="-125.26712965">
      </trkpt>
      <trkpt lat="50.161546" lon="-125.26696298">
      </trkpt>
      <trkpt lat="50.1613629" lon="-125.2666798">
      </trkpt>
      <trkpt lat="50.16112563" lon="-125.26636703">
      </trkpt>
      <trkpt lat="50.16098466" lon="-125.26615186">
      </trkpt>
      <trkpt lat="50.16086025" lon="-125.26586028">
      </trkpt>
      <trkpt lat="50.16090845" lon="-125.26572608">
      </trkpt>
      <trkpt lat="50.16091199" lon="-125.26552006">
      </trkpt>
      <trkpt lat="50.16089895" lon="-125.26538312">
      </trkpt>
      <trkpt lat="50.16087201" lon="-125.26499837">
      </trkpt>
      <trkpt lat="50.16086632" lon="-125.26475394">
      </trkpt>
      <trkpt lat="50.16087446" lon="-125.26448691">
      </trkpt>
      <trkpt lat="50.16082313" lon="-125.26412168">
      </trkpt>
      <trkpt lat="50.16080529" lon="-125.26401905">
      </trkpt>
      <trkpt lat="50.1606607" lon="-125.26362852">
      </trkpt>
      <trkpt lat="50.16059565" lon="-125.26341609">
      </trkpt>
      <trkpt lat="50.16057958" lon="-125.26320274">
      </trkpt>
      <trkpt lat="50.16058458" lon="-125.26283295">
      </trkpt>
      <trkpt lat="50.16058096" lon="-125.26263851">
      </trkpt>
      <trkpt lat="50.1605834" lon="-125.26225728">
      </trkpt>
      <trkpt lat="50.16058243" lon="-125.26210859">
      </trkpt>
      <trkpt lat="50.16053609" lon="-125.26167368">
      </trkpt>
      <trkpt lat="50.16049789" lon="-125.26144555">
      </trkpt>
      <trkpt lat="50.16043538" lon="-125.26125965">
      </trkpt>
      <trkpt lat="50.1603185" lon="-125.26097937">
      </trkpt>
      <trkpt lat="50.16022359" lon="-125.26069862">
      </trkpt>
      <trkpt lat="50.1600586" lon="-125.26019797">
      </trkpt>
      <trkpt lat="50.16004959" lon="-125.25992364">
      </trkpt>
      <trkpt lat="50.16004236" lon="-125.25956147">
      </trkpt>
      <trkpt lat="50.16002098" lon="-125.25924335">
      </trkpt>
      <trkpt lat="50.15996779" lon="-125.25896978">
      </trkpt>
      <trkpt lat="50.15987316" lon="-125.25872334">
      </trkpt>
      <trkpt lat="50.15984192" lon="-125.25843803">
      </trkpt>
      <trkpt lat="50.15982711" lon="-125.25803789">
      </trkpt>
      <trkpt lat="50.15981536" lon="-125.25773685">
      </trkpt>
      <trkpt lat="50.15981849" lon="-125.25745473">
      </trkpt>
      <trkpt lat="50.15989716" lon="-125.25707792">
      </trkpt>
      <trkpt lat="50.15995094" lon="-125.25668434">
      </trkpt>
      <trkpt lat="50.15994194" lon="-125.25642525">
      </trkpt>
      <trkpt lat="50.15993194" lon="-125.25634658">
      </trkpt>
      <trkpt lat="50.16023043" lon="-125.2562165">
      </trkpt>
      <trkpt lat="50.16061896" lon="-125.25603882">
      </trkpt>
      <trkpt lat="50.16092256" lon="-125.25589365">
      </trkpt>
      <trkpt lat="50.16116413" lon="-125.25573734">
      </trkpt>
      <trkpt lat="50.16135663" lon="-125.25557051">
      </trkpt>
      <trkpt lat="50.16143216" lon="-125.25549304">
      </trkpt>
      <trkpt lat="50.16171272" lon="-125.25530564">
      </trkpt>
      <trkpt lat="50.16183959" lon="-125.25522357">
      </trkpt>
      <trkpt lat="50.16211878" lon="-125.25502579">
      </trkpt>
      <trkpt lat="50.16228933" lon="-125.25488216">
      </trkpt>
      <trkpt lat="50.16241835" lon="-125.25474673">
      </trkpt>
      <trkpt lat="50.16248408" lon="-125.25467704">
      </trkpt>
      <trkpt lat="50.16263787" lon="-125.25459073">
      </trkpt>
      <trkpt lat="50.16281538" lon="-125.25452728">
      </trkpt>
      <trkpt lat="50.16291344" lon="-125.25452195">
      </trkpt>
      <trkpt lat="50.16299905" lon="-125.25450533">
      </trkpt>
      <trkpt lat="50.16305302" lon="-125.25451203">
      </trkpt>
      <trkpt lat="50.1632173" lon="-125.25453247">
      </trkpt>
      <trkpt lat="50.16339872" lon="-125.2545372">
      </trkpt>
      <trkpt lat="50.16353704" lon="-125.25455778">
      </trkpt>
      <trkpt lat="50.16369897" lon="-125.25459728">
      </trkpt>
      <trkpt lat="50.16384864" lon="-125.25462549">
      </trkpt>
      <trkpt lat="50.16398834" lon="-125.25462704">
      </trkpt>
      <trkpt lat="50.1640862" lon="-125.25459896">
      </trkpt>
      <trkpt lat="50.16413478" lon="-125.2545372">
      </trkpt>
      <trkpt lat="50.16419767" lon="-125.25441032">
      </trkpt>
    </trkseg>
    <trkseg>
      <trkpt lat="50.16468628" lon="-125.28418321">
      </trkpt>
      <trkpt lat="50.16473428" lon="-125.28426342">
      </trkpt>
      <trkpt lat="50.164781" lon="-125.28427197">
      </trkpt>
      <trkpt lat="50.16480823" lon="-125.2842683">
      </trkpt>
      <trkpt lat="50.16483762" lon="-125.28423658">
      </trkpt>
      <trkpt lat="50.16485574" lon="-125.28419785">
      </trkpt>
      <trkpt lat="50.16486799" lon="-125.28413304">
      </trkpt>
      <trkpt lat="50.16487808" lon="-125.28408393">
      </trkpt>
      <trkpt lat="50.16490413" lon="-125.28405755">
      </trkpt>
      <trkpt lat="50.16494498" lon="-125.28403971">
      </trkpt>
      <trkpt lat="50.16505174" lon="-125.28401104">
      </trkpt>
      <trkpt lat="50.16519819" lon="-125.28397154">
      </trkpt>
      <trkpt lat="50.16524482" lon="-125.28397825">
      </trkpt>
      <trkpt lat="50.16527567" lon="-125.28402004">
      </trkpt>
      <trkpt lat="50.16530096" lon="-125.28409339">
      </trkpt>
      <trkpt lat="50.16533533" lon="-125.28417909">
      </trkpt>
      <trkpt lat="50.16535815" lon="-125.28420166">
      </trkpt>
      <trkpt lat="50.16541506" lon="-125.28424146">
      </trkpt>
      <trkpt lat="50.16545817" lon="-125.28421676">
      </trkpt>
      <trkpt lat="50.16548529" lon="-125.28418336">
      </trkpt>
      <trkpt lat="50.16552164" lon="-125.28414631">
      </trkpt>
      <trkpt lat="50.16556914" lon="-125.2841004">
      </trkpt>
      <trkpt lat="50.16559638" lon="-125.28409155">
      </trkpt>
      <trkpt lat="50.16562488" lon="-125.28410544">
      </trkpt>
      <trkpt lat="50.16567268" lon="-125.28413136">
      </trkpt>
      <trkpt lat="50.16572284" lon="-125.28417482">
      </trkpt>
      <trkpt lat="50.16579679" lon="-125.28419008">
      </trkpt>
      <trkpt lat="50.16585478" lon="-125.28418961">
      </trkpt>
      <trkpt lat="50.16587624" lon="-125.28414219">
      </trkpt>
      <trkpt lat="50.16587946" lon="-125.28410376">
      </trkpt>
      <trkpt lat="50.16586566" lon="-125.28404261">
      </trkpt>
      <trkpt lat="50.16586212" lon="-125.28399702">
      </trkpt>
      <trkpt lat="50.16588006" lon="-125.28393739">
      </trkpt>
      <trkpt lat="50.16589358" lon="-125.2838988">
      </trkpt>
      <trkpt lat="50.16591267" lon="-125.28382683">
      </trkpt>
      <trkpt lat="50.16593403" lon="-125.28375668">
      </trkpt>
      <trkpt lat="50.16594746" lon="-125.28369537">
      </trkpt>
      <trkpt lat="50.16597448" lon="-125.28360419">
      </trkpt>
      <trkpt lat="50.1659924" lon="-125.28352702">
      </trkpt>
      <trkpt lat="50.16601729" lon="-125.28348478">
      </trkpt>
      <trkpt lat="50.16605245" lon="-125.28346709">
      </trkpt>
      <trkpt lat="50.16607978" lon="-125.28347913">
      </trkpt>
      <trkpt lat="50.16610025" lon="-125.28350353">
      </trkpt>
      <trkpt lat="50.16611739" lon="-125.28351742">
      </trkpt>
      <trkpt lat="50.16613552" lon="-125.28349286">
      </trkpt>
      <trkpt lat="50.16614208" lon="-125.28344026">
      </trkpt>
      <trkpt lat="50.16614423" lon="-125.2834035">
      </trkpt>
      <trkpt lat="50.16613953" lon="-125.28335973">
      </trkpt>
      <trkpt lat="50.16612464" lon="-125.2833056">
      </trkpt>
      <trkpt lat="50.16611887" lon="-125.28326701">
      </trkpt>
      <trkpt lat="50.16613238" lon="-125.28324765">
      </trkpt>
      <trkpt lat="50.1661551" lon="-125.28322828">
      </trkpt>
      <trkpt lat="50.1661789" lon="-125.28322111">
      </trkpt>
      <trkpt lat="50.16620957" lon="-125.28322615">
      </trkpt>
      <trkpt lat="50.16624033" lon="-125.28322248">
      </trkpt>
      <trkpt lat="50.16626755" lon="-125.28321715">
      </trkpt>
      <trkpt lat="50.16629694" lon="-125.2831749">
      </trkpt>
      <trkpt lat="50.16631506" lon="-125.28314151">
      </trkpt>
      <trkpt lat="50.16633534" lon="-125.28309576">
      </trkpt>
      <trkpt lat="50.16636364" lon="-125.28306069">
      </trkpt>
      <trkpt lat="50.16640674" lon="-125.28303415">
      </trkpt>
      <trkpt lat="50.16642369" lon="-125.28300946">
      </trkpt>
      <trkpt lat="50.16642359" lon="-125.2829692">
      </trkpt>
      <trkpt lat="50.16642114" lon="-125.28292024">
      </trkpt>
      <trkpt lat="50.16641301" lon="-125.28286077">
      </trkpt>
      <trkpt lat="50.16640704" lon="-125.28278895">
      </trkpt>
      <trkpt lat="50.16639421" lon="-125.28268571">
      </trkpt>
      <trkpt lat="50.16636669" lon="-125.28260549">
      </trkpt>
      <trkpt lat="50.16636179" lon="-125.2824934">
      </trkpt>
      <trkpt lat="50.16636601" lon="-125.28239185">
      </trkpt>
      <trkpt lat="50.16638872" lon="-125.28226512">
      </trkpt>
    </trkseg>
    <trkseg>
      <trkpt lat="50.17240918" lon="-125.2955906">
      </trkpt>
      <trkpt lat="50.17248265" lon="-125.2955772">
      </trkpt>
      <trkpt lat="50.17251673" lon="-125.29557339">
      </trkpt>
      <trkpt lat="50.17256561" lon="-125.29555219">
      </trkpt>
      <trkpt lat="50.17263142" lon="-125.29554122">
      </trkpt>
      <trkpt lat="50.17269049" lon="-125.29550934">
      </trkpt>
      <trkpt lat="50.17277774" lon="-125.29545445">
      </trkpt>
      <trkpt lat="50.17285492" lon="-125.2953997">
      </trkpt>
      <trkpt lat="50.17293543" lon="-125.29533625">
      </trkpt>
      <trkpt lat="50.17301357" lon="-125.29525863">
      </trkpt>
      <trkpt lat="50.17309399" lon="-125.2951618">
      </trkpt>
      <trkpt lat="50.17313473" lon="-125.29510736">
      </trkpt>
      <trkpt lat="50.17320251" lon="-125.2949808">
      </trkpt>
      <trkpt lat="50.17324638" lon="-125.29484751">
      </trkpt>
      <trkpt lat="50.17330612" lon="-125.29468952">
      </trkpt>
      <trkpt lat="50.17331944" lon="-125.29459833">
      </trkpt>
      <trkpt lat="50.17334873" lon="-125.29450883">
      </trkpt>
      <trkpt lat="50.17340533" lon="-125.294428">
      </trkpt>
      <trkpt lat="50.17343354" lon="-125.29435953">
      </trkpt>
      <trkpt lat="50.17342649" lon="-125.29429472">
      </trkpt>
      <trkpt lat="50.1734308" lon="-125.29423341">
      </trkpt>
      <trkpt lat="50.17346351" lon="-125.29414221">
      </trkpt>
      <trkpt lat="50.17351199" lon="-125.29402816">
      </trkpt>
      <trkpt lat="50.17354812" lon="-125.29394901">
      </trkpt>
      <trkpt lat="50.17359093" lon="-125.29383845">
      </trkpt>
      <trkpt lat="50.17361111" lon="-125.29374558">
      </trkpt>
      <trkpt lat="50.17362785" lon="-125.29363686">
      </trkpt>
      <trkpt lat="50.17364685" lon="-125.29353697">
      </trkpt>
      <trkpt lat="50.17365909" lon="-125.29347032">
      </trkpt>
      <trkpt lat="50.17371442" lon="-125.2933526">
      </trkpt>
      <trkpt lat="50.17378025" lon="-125.29331021">
      </trkpt>
      <trkpt lat="50.17381422" lon="-125.29328032">
      </trkpt>
      <trkpt lat="50.17389463" lon="-125.29318515">
      </trkpt>
      <trkpt lat="50.17397533" lon="-125.29319523">
      </trkpt>
      <trkpt lat="50.17401871" lon="-125.2932544">
      </trkpt>
      <trkpt lat="50.17407131" lon="-125.29336267">
      </trkpt>
      <trkpt lat="50.17415925" lon="-125.29347948">
      </trkpt>
      <trkpt lat="50.17423672" lon="-125.29353331">
      </trkpt>
      <trkpt lat="50.17432085" lon="-125.29355893">
      </trkpt>
      <trkpt lat="50.17441419" lon="-125.29357585">
      </trkpt>
      <trkpt lat="50.17446629" lon="-125.29354062">
      </trkpt>
      <trkpt lat="50.1744798" lon="-125.2934932">
      </trkpt>
      <trkpt lat="50.1744989" lon="-125.2934107">
      </trkpt>
      <trkpt lat="50.17453053" lon="-125.29334924">
      </trkpt>
      <trkpt lat="50.17467362" lon="-125.29321566">
      </trkpt>
    </trkseg>
    <trkseg>
      <trkpt lat="50.17214475" lon="-125.29726898">
      </trkpt>
      <trkpt lat="50.17222233" lon="-125.29734371">
      </trkpt>
      <trkpt lat="50.17228392" lon="-125.29742392">
      </trkpt>
      <trkpt lat="50.17232281" lon="-125.29749193">
      </trkpt>
      <trkpt lat="50.17235826" lon="-125.29754957">
      </trkpt>
      <trkpt lat="50.17238901" lon="-125.29759487">
      </trkpt>
      <trkpt lat="50.17243241" lon="-125.29764184">
      </trkpt>
      <trkpt lat="50.17246659" lon="-125.29765571">
      </trkpt>
      <trkpt lat="50.17248813" lon="-125.29763986">
      </trkpt>
      <trkpt lat="50.17250949" lon="-125.2975906">
      </trkpt>
      <trkpt lat="50.17255464" lon="-125.29747653">
      </trkpt>
      <trkpt lat="50.17259185" lon="-125.29739053">
      </trkpt>
      <trkpt lat="50.17262349" lon="-125.29731503">
      </trkpt>
      <trkpt lat="50.17264807" lon="-125.29719762">
      </trkpt>
      <trkpt lat="50.1726557" lon="-125.29710825">
      </trkpt>
      <trkpt lat="50.1726656" lon="-125.29698031">
      </trkpt>
      <trkpt lat="50.17267755" lon="-125.29682613">
      </trkpt>
      <trkpt lat="50.17270008" lon="-125.29674196">
      </trkpt>
      <trkpt lat="50.17274973" lon="-125.29664528">
      </trkpt>
      <trkpt lat="50.17280067" lon="-125.29656278">
      </trkpt>
      <trkpt lat="50.17282554" lon="-125.29652236">
      </trkpt>
      <trkpt lat="50.1728652" lon="-125.2964783">
      </trkpt>
      <trkpt lat="50.17288664" lon="-125.29645543">
      </trkpt>
      <trkpt lat="50.17291388" lon="-125.29643773">
      </trkpt>
      <trkpt lat="50.17294228" lon="-125.29643926">
      </trkpt>
      <trkpt lat="50.17295717" lon="-125.29646198">
      </trkpt>
      <trkpt lat="50.1729743" lon="-125.2964934">
      </trkpt>
      <trkpt lat="50.17300398" lon="-125.29652115">
      </trkpt>
      <trkpt lat="50.17303581" lon="-125.29653151">
      </trkpt>
      <trkpt lat="50.17307557" lon="-125.296512">
      </trkpt>
      <trkpt lat="50.17310388" lon="-125.2964786">
      </trkpt>
      <trkpt lat="50.17312856" lon="-125.2963926">
      </trkpt>
      <trkpt lat="50.17313169" lon="-125.29630674">
      </trkpt>
      <trkpt lat="50.17311338" lon="-125.29626663">
      </trkpt>
      <trkpt lat="50.1730838" lon="-125.29624925">
      </trkpt>
      <trkpt lat="50.17304071" lon="-125.2962741">
      </trkpt>
      <trkpt lat="50.17300673" lon="-125.29630934">
      </trkpt>
      <trkpt lat="50.17298175" lon="-125.29632">
      </trkpt>
      <trkpt lat="50.17292594" lon="-125.29628523">
      </trkpt>
      <trkpt lat="50.17287686" lon="-125.29622607">
      </trkpt>
      <trkpt lat="50.1728368" lon="-125.29614753">
      </trkpt>
      <trkpt lat="50.17281731" lon="-125.29609691">
      </trkpt>
      <trkpt lat="50.17280918" lon="-125.29604795">
      </trkpt>
      <trkpt lat="50.17282271" lon="-125.29598482">
      </trkpt>
      <trkpt lat="50.17282711" lon="-125.29596027">
      </trkpt>
      <trkpt lat="50.17283611" lon="-125.2959287">
      </trkpt>
      <trkpt lat="50.17282465" lon="-125.29588844">
      </trkpt>
      <trkpt lat="50.17281427" lon="-125.29586054">
      </trkpt>
      <trkpt lat="50.1728177" lon="-125.295843">
      </trkpt>
      <trkpt lat="50.17283572" lon="-125.29581479">
      </trkpt>
      <trkpt lat="50.17285501" lon="-125.29580076">
      </trkpt>
      <trkpt lat="50.17287088" lon="-125.29577255">
      </trkpt>
      <trkpt lat="50.17284787" lon="-125.2956992">
      </trkpt>
      <trkpt lat="50.17283846" lon="-125.29560465">
      </trkpt>
      <trkpt lat="50.17284855" lon="-125.29553282">
      </trkpt>
      <trkpt lat="50.17285521" lon="-125.29549776">
      </trkpt>
      <trkpt lat="50.17286079" lon="-125.29545749">
      </trkpt>
      <trkpt lat="50.17287568" lon="-125.29538507">
      </trkpt>
    </trkseg>
  </trk>
</gpx>