<?xml version="1.0" encoding="UTF-8"?>
<gpx xmlns="http://www.topografix.com/GPX/1/1" xmlns:xsi="http://www.w3.org/2001/XMLSchema-instance" xsi:schemaLocation="http://www.topografix.com/GPX/1/1 http://www.topografix.com/GPX/1/1/gpx.xsd" version="1.1" creator="gpx.py -- https://github.com/tkrajina/gpxpy">
  <trk>
    <name>Shellalligan Pass</name>
    <trkseg>
      <trkpt lat="50.15439312" lon="-125.20892751">
      </trkpt>
      <trkpt lat="50.15438802" lon="-125.2086785">
      </trkpt>
      <trkpt lat="50.15429572" lon="-125.20840126">
      </trkpt>
      <trkpt lat="50.15417129" lon="-125.20813105">
      </trkpt>
      <trkpt lat="50.15414217" lon="-125.2079723">
      </trkpt>
      <trkpt lat="50.15412955" lon="-125.20790351">
      </trkpt>
      <trkpt lat="50.15413367" lon="-125.20770422">
      </trkpt>
      <trkpt lat="50.15418834" lon="-125.20753325">
      </trkpt>
      <trkpt lat="50.15424302" lon="-125.20736947">
      </trkpt>
      <trkpt lat="50.15427015" lon="-125.20720569">
      </trkpt>
      <trkpt lat="50.15428818" lon="-125.20707759">
      </trkpt>
      <trkpt lat="50.15429229" lon="-125.20685693">
      </trkpt>
      <trkpt lat="50.15429219" lon="-125.20680707">
      </trkpt>
      <trkpt lat="50.15426907" lon="-125.20671466">
      </trkpt>
      <trkpt lat="50.15420911" lon="-125.20654402">
      </trkpt>
      <trkpt lat="50.15415836" lon="-125.2064089">
      </trkpt>
      <trkpt lat="50.15408928" lon="-125.20628814">
      </trkpt>
      <trkpt lat="50.15404314" lon="-125.20615303">
      </trkpt>
      <trkpt lat="50.15401522" lon="-125.20598237">
      </trkpt>
      <trkpt lat="50.15401943" lon="-125.20583293">
      </trkpt>
      <trkpt lat="50.15406029" lon="-125.20563346">
      </trkpt>
      <trkpt lat="50.15410574" lon="-125.20546253">
      </trkpt>
      <trkpt lat="50.15419265" lon="-125.20533427">
      </trkpt>
      <trkpt lat="50.15432531" lon="-125.20519155">
      </trkpt>
      <trkpt lat="50.15444416" lon="-125.20503462">
      </trkpt>
      <trkpt lat="50.15454027" lon="-125.20492055">
      </trkpt>
      <trkpt lat="50.15461336" lon="-125.2047923">
      </trkpt>
      <trkpt lat="50.15467264" lon="-125.20464272">
      </trkpt>
      <trkpt lat="50.15470448" lon="-125.20451445">
      </trkpt>
      <trkpt lat="50.15457505" lon="-125.20407359">
      </trkpt>
      <trkpt lat="50.15439879" lon="-125.20317022">
      </trkpt>
      <trkpt lat="50.15436068" lon="-125.20252988">
      </trkpt>
      <trkpt lat="50.15445974" lon="-125.20173263">
      </trkpt>
      <trkpt lat="50.15460053" lon="-125.2011344">
      </trkpt>
      <trkpt lat="50.15471868" lon="-125.20063591">
      </trkpt>
      <trkpt lat="50.15479579" lon="-125.2002728">
      </trkpt>
      <trkpt lat="50.15488663" lon="-125.1998882">
      </trkpt>
      <trkpt lat="50.1549502" lon="-125.19960335">
      </trkpt>
      <trkpt lat="50.15505504" lon="-125.1993255">
      </trkpt>
      <trkpt lat="50.15523786" lon="-125.19905451">
      </trkpt>
      <trkpt lat="50.15533848" lon="-125.19891194">
      </trkpt>
      <trkpt lat="50.15548006" lon="-125.19867664">
      </trkpt>
      <trkpt lat="50.15558058" lon="-125.19852704">
      </trkpt>
      <trkpt lat="50.15571314" lon="-125.1983416">
      </trkpt>
      <trkpt lat="50.15574968" lon="-125.1982774">
      </trkpt>
      <trkpt lat="50.15580896" lon="-125.19810645">
      </trkpt>
      <trkpt lat="50.15587274" lon="-125.1979355">
      </trkpt>
      <trkpt lat="50.15590458" lon="-125.19780726">
      </trkpt>
      <trkpt lat="50.15596376" lon="-125.19762914">
      </trkpt>
      <trkpt lat="50.15605988" lon="-125.19752925">
      </trkpt>
      <trkpt lat="50.15622016" lon="-125.19741488">
      </trkpt>
      <trkpt lat="50.15634371" lon="-125.19730784">
      </trkpt>
      <trkpt lat="50.15642139" lon="-125.19720795">
      </trkpt>
      <trkpt lat="50.15648517" lon="-125.19703701">
      </trkpt>
      <trkpt lat="50.15653043" lon="-125.19675213">
      </trkpt>
      <trkpt lat="50.15654396" lon="-125.19663122">
      </trkpt>
      <trkpt lat="50.15651605" lon="-125.19646042">
      </trkpt>
      <trkpt lat="50.15643795" lon="-125.19641801">
      </trkpt>
      <trkpt lat="50.15630951" lon="-125.1963828">
      </trkpt>
      <trkpt lat="50.15623153" lon="-125.19638295">
      </trkpt>
      <trkpt lat="50.15616725" lon="-125.19635475">
      </trkpt>
      <trkpt lat="50.15609377" lon="-125.19632637">
      </trkpt>
      <trkpt lat="50.15606163" lon="-125.196291">
      </trkpt>
      <trkpt lat="50.15601079" lon="-125.19613453">
      </trkpt>
      <trkpt lat="50.15600129" lon="-125.19596373">
      </trkpt>
      <trkpt lat="50.15592781" lon="-125.1959212">
      </trkpt>
      <trkpt lat="50.15584531" lon="-125.19594287">
      </trkpt>
      <trkpt lat="50.1557444" lon="-125.19595017">
      </trkpt>
      <trkpt lat="50.15567092" lon="-125.19587926">
      </trkpt>
      <trkpt lat="50.15561076" lon="-125.1956589">
      </trkpt>
      <trkpt lat="50.15550005" lon="-125.19538152">
      </trkpt>
      <trkpt lat="50.15531625" lon="-125.19523267">
      </trkpt>
      <trkpt lat="50.15518721" lon="-125.19495546">
      </trkpt>
      <trkpt lat="50.15486144" lon="-125.19489948">
      </trkpt>
      <trkpt lat="50.15440252" lon="-125.19473706">
      </trkpt>
      <trkpt lat="50.15415454" lon="-125.19457422">
      </trkpt>
      <trkpt lat="50.15386981" lon="-125.19442553">
      </trkpt>
      <trkpt lat="50.15366366" lon="-125.19449734">
      </trkpt>
      <trkpt lat="50.15351699" lon="-125.19454753">
      </trkpt>
      <trkpt lat="50.15340235" lon="-125.19454783">
      </trkpt>
      <trkpt lat="50.15331986" lon="-125.19455516">
      </trkpt>
      <trkpt lat="50.15321894" lon="-125.19454842">
      </trkpt>
      <trkpt lat="50.15315466" lon="-125.19452723">
      </trkpt>
      <trkpt lat="50.15307648" lon="-125.19444916">
      </trkpt>
      <trkpt lat="50.15308059" lon="-125.19423566">
      </trkpt>
      <trkpt lat="50.15309842" lon="-125.19400783">
      </trkpt>
      <trkpt lat="50.15307069" lon="-125.19390125">
      </trkpt>
      <trkpt lat="50.15302454" lon="-125.19378748">
      </trkpt>
      <trkpt lat="50.15297678" lon="-125.19371885">
      </trkpt>
      <trkpt lat="50.15297614" lon="-125.19371794">
      </trkpt>
      <trkpt lat="50.15303298" lon="-125.19348858">
      </trkpt>
      <trkpt lat="50.15308617" lon="-125.19267716">
      </trkpt>
      <trkpt lat="50.15307118" lon="-125.19217194">
      </trkpt>
      <trkpt lat="50.1529831" lon="-125.19176661">
      </trkpt>
      <trkpt lat="50.1528862" lon="-125.19150355">
      </trkpt>
      <trkpt lat="50.15279409" lon="-125.19133307">
      </trkpt>
      <trkpt lat="50.15270219" lon="-125.19122646">
      </trkpt>
      <trkpt lat="50.152624" lon="-125.19116273">
      </trkpt>
      <trkpt lat="50.15256433" lon="-125.19111316">
      </trkpt>
      <trkpt lat="50.15247243" lon="-125.19104927">
      </trkpt>
      <trkpt lat="50.15239894" lon="-125.19101389">
      </trkpt>
      <trkpt lat="50.15238023" lon="-125.19085027">
      </trkpt>
      <trkpt lat="50.15237926" lon="-125.19082396">
      </trkpt>
      <trkpt lat="50.15237533" lon="-125.19071516">
      </trkpt>
      <trkpt lat="50.15235691" lon="-125.19065827">
      </trkpt>
      <trkpt lat="50.15230155" lon="-125.19055168">
      </trkpt>
      <trkpt lat="50.15216858" lon="-125.19053779">
      </trkpt>
      <trkpt lat="50.1520998" lon="-125.19053811">
      </trkpt>
      <trkpt lat="50.15202631" lon="-125.19050975">
      </trkpt>
      <trkpt lat="50.15196184" lon="-125.19039615">
      </trkpt>
      <trkpt lat="50.15194754" lon="-125.19016846">
      </trkpt>
      <trkpt lat="50.15197027" lon="-125.19007591">
      </trkpt>
      <trkpt lat="50.15201584" lon="-125.1899263">
      </trkpt>
      <trkpt lat="50.15212096" lon="-125.18979073">
      </trkpt>
      <trkpt lat="50.15215301" lon="-125.18977654">
      </trkpt>
      <trkpt lat="50.15228136" lon="-125.18974055">
      </trkpt>
      <trkpt lat="50.15235005" lon="-125.18970472">
      </trkpt>
      <trkpt lat="50.15238198" lon="-125.18963353">
      </trkpt>
      <trkpt lat="50.15238631" lon="-125.1895196">
      </trkpt>
      <trkpt lat="50.15235396" lon="-125.1894342">
      </trkpt>
      <trkpt lat="50.15229861" lon="-125.18929923">
      </trkpt>
      <trkpt lat="50.15226637" lon="-125.18922817">
      </trkpt>
      <trkpt lat="50.15225686" lon="-125.18909291">
      </trkpt>
      <trkpt lat="50.15230252" lon="-125.18898615">
      </trkpt>
      <trkpt lat="50.15237102" lon="-125.18885776">
      </trkpt>
      <trkpt lat="50.15238473" lon="-125.18883642">
      </trkpt>
      <trkpt lat="50.1524394" lon="-125.18870816">
      </trkpt>
      <trkpt lat="50.15244842" lon="-125.18864412">
      </trkpt>
      <trkpt lat="50.15243461" lon="-125.18862277">
      </trkpt>
      <trkpt lat="50.15241138" lon="-125.18850902">
      </trkpt>
      <trkpt lat="50.15236072" lon="-125.18841659">
      </trkpt>
      <trkpt lat="50.15230096" lon="-125.18832434">
      </trkpt>
      <trkpt lat="50.15225931" lon="-125.1882034">
      </trkpt>
      <trkpt lat="50.15232761" lon="-125.1879684">
      </trkpt>
      <trkpt lat="50.15238698" lon="-125.18788987">
      </trkpt>
      <trkpt lat="50.1524831" lon="-125.18777581">
      </trkpt>
      <trkpt lat="50.15251965" lon="-125.18772595">
      </trkpt>
      <trkpt lat="50.15252856" lon="-125.18761904">
      </trkpt>
      <trkpt lat="50.15252367" lon="-125.18747677">
      </trkpt>
      <trkpt lat="50.15250966" lon="-125.18738437">
      </trkpt>
      <trkpt lat="50.15248644" lon="-125.18726343">
      </trkpt>
      <trkpt lat="50.15248173" lon="-125.18719937">
      </trkpt>
      <trkpt lat="50.15254542" lon="-125.18700708">
      </trkpt>
      <trkpt lat="50.15259118" lon="-125.18694288">
      </trkpt>
      <trkpt lat="50.15264125" lon="-125.18680746">
      </trkpt>
      <trkpt lat="50.15265487" lon="-125.18675059">
      </trkpt>
      <trkpt lat="50.15266397" lon="-125.18670071">
      </trkpt>
      <trkpt lat="50.15266388" lon="-125.18668639">
      </trkpt>
      <trkpt lat="50.15264986" lon="-125.18655127">
      </trkpt>
      <trkpt lat="50.15263134" lon="-125.18651574">
      </trkpt>
      <trkpt lat="50.15259452" lon="-125.1864163">
      </trkpt>
      <trkpt lat="50.15265821" lon="-125.18622386">
      </trkpt>
      <trkpt lat="50.15274501" lon="-125.18607426">
      </trkpt>
      <trkpt lat="50.15277685" lon="-125.18598872">
      </trkpt>
      <trkpt lat="50.15279939" lon="-125.18580359">
      </trkpt>
      <trkpt lat="50.15271199" lon="-125.18570416">
      </trkpt>
      <trkpt lat="50.15256482" lon="-125.18550546">
      </trkpt>
      <trkpt lat="50.15246341" lon="-125.18530647">
      </trkpt>
      <trkpt lat="50.15239423" lon="-125.18515016">
      </trkpt>
      <trkpt lat="50.15240765" lon="-125.18500771">
      </trkpt>
      <trkpt lat="50.15244382" lon="-125.1847657">
      </trkpt>
      <trkpt lat="50.15243911" lon="-125.18470882">
      </trkpt>
      <trkpt lat="50.15236514" lon="-125.18446711">
      </trkpt>
      <trkpt lat="50.15219514" lon="-125.18436084">
      </trkpt>
      <trkpt lat="50.15206227" lon="-125.18438981">
      </trkpt>
      <trkpt lat="50.15194764" lon="-125.18441847">
      </trkpt>
      <trkpt lat="50.15184682" lon="-125.18444729">
      </trkpt>
      <trkpt lat="50.15179194" lon="-125.18449014">
      </trkpt>
      <trkpt lat="50.15173707" lon="-125.18454733">
      </trkpt>
      <trkpt lat="50.15170964" lon="-125.18460437">
      </trkpt>
      <trkpt lat="50.1516871" lon="-125.18475382">
      </trkpt>
      <trkpt lat="50.15166427" lon="-125.18481801">
      </trkpt>
      <trkpt lat="50.15165055" lon="-125.18483936">
      </trkpt>
      <trkpt lat="50.15152699" lon="-125.18495358">
      </trkpt>
      <trkpt lat="50.15152249" lon="-125.18495357">
      </trkpt>
      <trkpt lat="50.15138041" lon="-125.1850039">
      </trkpt>
      <trkpt lat="50.15132985" lon="-125.18496836">
      </trkpt>
      <trkpt lat="50.15129761" lon="-125.18488314">
      </trkpt>
      <trkpt lat="50.15128821" lon="-125.18479056">
      </trkpt>
      <trkpt lat="50.15127429" lon="-125.18474801">
      </trkpt>
      <trkpt lat="50.15122364" lon="-125.18466276">
      </trkpt>
      <trkpt lat="50.15111811" lon="-125.18463455">
      </trkpt>
      <trkpt lat="50.15101297" lon="-125.18474878">
      </trkpt>
      <trkpt lat="50.15083444" lon="-125.18491301">
      </trkpt>
      <trkpt lat="50.15074302" lon="-125.18504141">
      </trkpt>
      <trkpt lat="50.15070657" lon="-125.18511263">
      </trkpt>
      <trkpt lat="50.15066542" lon="-125.18516264">
      </trkpt>
      <trkpt lat="50.15059213" lon="-125.18519833">
      </trkpt>
      <trkpt lat="50.15054608" lon="-125.18514877">
      </trkpt>
      <trkpt lat="50.15054138" lon="-125.18506337">
      </trkpt>
      <trkpt lat="50.15048601" lon="-125.18496395">
      </trkpt>
      <trkpt lat="50.15046308" lon="-125.18492841">
      </trkpt>
      <trkpt lat="50.15033923" lon="-125.18492873">
      </trkpt>
      <trkpt lat="50.15025692" lon="-125.18502159">
      </trkpt>
      <trkpt lat="50.15011072" lon="-125.18524255">
      </trkpt>
      <trkpt lat="50.14996002" lon="-125.1855419">
      </trkpt>
      <trkpt lat="50.14980001" lon="-125.18572748">
      </trkpt>
      <trkpt lat="50.14974514" lon="-125.18578453">
      </trkpt>
      <trkpt lat="50.14965333" lon="-125.18576347">
      </trkpt>
      <trkpt lat="50.14954788" lon="-125.18576379">
      </trkpt>
      <trkpt lat="50.14947009" lon="-125.18584231">
      </trkpt>
      <trkpt lat="50.14932829" lon="-125.18602058">
      </trkpt>
      <trkpt lat="50.14920473" lon="-125.18610644">
      </trkpt>
      <trkpt lat="50.14905795" lon="-125.18609256">
      </trkpt>
      <trkpt lat="50.14897064" lon="-125.18600747">
      </trkpt>
      <trkpt lat="50.14890587" lon="-125.18579429">
      </trkpt>
      <trkpt lat="50.14866668" lon="-125.18549601">
      </trkpt>
      <trkpt lat="50.14850529" lon="-125.18513367">
      </trkpt>
      <trkpt lat="50.14846815" lon="-125.18494168">
      </trkpt>
      <trkpt lat="50.1484174" lon="-125.1847782">
      </trkpt>
      <trkpt lat="50.14836193" lon="-125.18462174">
      </trkpt>
      <trkpt lat="50.14827453" lon="-125.18450113">
      </trkpt>
      <trkpt lat="50.14816879" lon="-125.18438049">
      </trkpt>
      <trkpt lat="50.14805395" lon="-125.18430257">
      </trkpt>
      <trkpt lat="50.14799879" lon="-125.18426003">
      </trkpt>
      <trkpt lat="50.14792087" lon="-125.18428871">
      </trkpt>
      <trkpt lat="50.14787051" lon="-125.18431737">
      </trkpt>
      <trkpt lat="50.14782053" lon="-125.18451667">
      </trkpt>
      <trkpt lat="50.14780681" lon="-125.18453101">
      </trkpt>
      <trkpt lat="50.14773832" lon="-125.18464507">
      </trkpt>
      <trkpt lat="50.14753686" lon="-125.18476661">
      </trkpt>
      <trkpt lat="50.14737644" lon="-125.1847956">
      </trkpt>
      <trkpt lat="50.14720242" lon="-125.18490295">
      </trkpt>
      <trkpt lat="50.14707443" lon="-125.18507406">
      </trkpt>
      <trkpt lat="50.14693274" lon="-125.18528083">
      </trkpt>
      <trkpt lat="50.14677281" lon="-125.18551614">
      </trkpt>
      <trkpt lat="50.14668618" lon="-125.18575829">
      </trkpt>
      <trkpt lat="50.14659976" lon="-125.1860218">
      </trkpt>
      <trkpt lat="50.14658643" lon="-125.18622113">
      </trkpt>
      <trkpt lat="50.14658211" lon="-125.18633503">
      </trkpt>
      <trkpt lat="50.14656418" lon="-125.18649866">
      </trkpt>
      <trkpt lat="50.14654135" lon="-125.1865557">
      </trkpt>
      <trkpt lat="50.14648197" lon="-125.18662706">
      </trkpt>
      <trkpt lat="50.1464362" lon="-125.18667707">
      </trkpt>
      <trkpt lat="50.14633537" lon="-125.18671993">
      </trkpt>
      <trkpt lat="50.14628509" lon="-125.1867628">
      </trkpt>
      <trkpt lat="50.14617524" lon="-125.18685565">
      </trkpt>
      <trkpt lat="50.14615241" lon="-125.18692688">
      </trkpt>
      <trkpt lat="50.1460796" lon="-125.18715485">
      </trkpt>
      <trkpt lat="50.14606667" lon="-125.18747508">
      </trkpt>
      <trkpt lat="50.14604452" lon="-125.18780951">
      </trkpt>
      <trkpt lat="50.14602207" lon="-125.18803733">
      </trkpt>
      <trkpt lat="50.14611439" lon="-125.18829322">
      </trkpt>
      <trkpt lat="50.14621081" lon="-125.18834263">
      </trkpt>
      <trkpt lat="50.14626608" lon="-125.18844923">
      </trkpt>
      <trkpt lat="50.14635595" lon="-125.18871746">
      </trkpt>
    </trkseg>
    <trkseg>
      <trkpt lat="50.15297678" lon="-125.19371885">
      </trkpt>
      <trkpt lat="50.15289208" lon="-125.19400143">
      </trkpt>
      <trkpt lat="50.15280978" lon="-125.19413684">
      </trkpt>
      <trkpt lat="50.15270464" lon="-125.19427226">
      </trkpt>
      <trkpt lat="50.15261753" lon="-125.19429392">
      </trkpt>
      <trkpt lat="50.15251662" lon="-125.19427288">
      </trkpt>
      <trkpt lat="50.15247066" lon="-125.19421616">
      </trkpt>
      <trkpt lat="50.15242461" lon="-125.19413792">
      </trkpt>
      <trkpt lat="50.15233712" lon="-125.19400295">
      </trkpt>
      <trkpt lat="50.15224981" lon="-125.19392502">
      </trkpt>
      <trkpt lat="50.15210754" lon="-125.1938613">
      </trkpt>
      <trkpt lat="50.15199751" lon="-125.19386877">
      </trkpt>
      <trkpt lat="50.15192422" lon="-125.19391879">
      </trkpt>
      <trkpt lat="50.15184192" lon="-125.19401149">
      </trkpt>
      <trkpt lat="50.15178704" lon="-125.19410421">
      </trkpt>
      <trkpt lat="50.15172316" lon="-125.19423246">
      </trkpt>
      <trkpt lat="50.15163616" lon="-125.19427547">
      </trkpt>
      <trkpt lat="50.15158108" lon="-125.19425427">
      </trkpt>
      <trkpt lat="50.15145713" lon="-125.19421188">
      </trkpt>
      <trkpt lat="50.15130115" lon="-125.19416247">
      </trkpt>
      <trkpt lat="50.15119591" lon="-125.19427669">
      </trkpt>
      <trkpt lat="50.15109528" lon="-125.19437657">
      </trkpt>
      <trkpt lat="50.15098543" lon="-125.19450497">
      </trkpt>
      <trkpt lat="50.15090764" lon="-125.1945835">
      </trkpt>
      <trkpt lat="50.15082053" lon="-125.19459083">
      </trkpt>
      <trkpt lat="50.15072881" lon="-125.19457695">
      </trkpt>
      <trkpt lat="50.15067366" lon="-125.1945344">
      </trkpt>
      <trkpt lat="50.15061398" lon="-125.19451322">
      </trkpt>
      <trkpt lat="50.15050424" lon="-125.19462026">
      </trkpt>
      <trkpt lat="50.1504036" lon="-125.19474149">
      </trkpt>
      <trkpt lat="50.15013316" lon="-125.19478495">
      </trkpt>
      <trkpt lat="50.14966586" lon="-125.19499981">
      </trkpt>
      <trkpt lat="50.14943216" lon="-125.19509301">
      </trkpt>
      <trkpt lat="50.14931301" lon="-125.19511464">
      </trkpt>
      <trkpt lat="50.14920278" lon="-125.19503671">
      </trkpt>
      <trkpt lat="50.1491383" lon="-125.19490176">
      </trkpt>
      <trkpt lat="50.1491334" lon="-125.19477367">
      </trkpt>
      <trkpt lat="50.14909185" lon="-125.19465289">
      </trkpt>
      <trkpt lat="50.14899504" lon="-125.19444672">
      </trkpt>
      <trkpt lat="50.14887098" lon="-125.19434744">
      </trkpt>
      <trkpt lat="50.14876537" lon="-125.19429803">
      </trkpt>
      <trkpt lat="50.14867815" lon="-125.19425549">
      </trkpt>
      <trkpt lat="50.14849471" lon="-125.19425609">
      </trkpt>
      <trkpt lat="50.14847639" lon="-125.1942561">
      </trkpt>
      <trkpt lat="50.14839397" lon="-125.19432746">
      </trkpt>
      <trkpt lat="50.14836654" lon="-125.19436314">
      </trkpt>
      <trkpt lat="50.14829334" lon="-125.19444169">
      </trkpt>
      <trkpt lat="50.1481927" lon="-125.19454873">
      </trkpt>
      <trkpt lat="50.14807374" lon="-125.19465578">
      </trkpt>
      <trkpt lat="50.14798674" lon="-125.19471298">
      </trkpt>
      <trkpt lat="50.14778967" lon="-125.19475613">
      </trkpt>
      <trkpt lat="50.14745494" lon="-125.19479273">
      </trkpt>
      <trkpt lat="50.14721642" lon="-125.19474362">
      </trkpt>
      <trkpt lat="50.14706943" lon="-125.19464435">
      </trkpt>
      <trkpt lat="50.14693155" lon="-125.19451671">
      </trkpt>
      <trkpt lat="50.14680279" lon="-125.1943819">
      </trkpt>
      <trkpt lat="50.1467247" lon="-125.19429681">
      </trkpt>
      <trkpt lat="50.14664199" lon="-125.19425427">
      </trkpt>
      <trkpt lat="50.14652273" lon="-125.1942262">
      </trkpt>
      <trkpt lat="50.14640807" lon="-125.19424785">
      </trkpt>
      <trkpt lat="50.14636232" lon="-125.1942622">
      </trkpt>
      <trkpt lat="50.14623865" lon="-125.19431954">
      </trkpt>
      <trkpt lat="50.14609646" lon="-125.19431985">
      </trkpt>
      <trkpt lat="50.14596798" lon="-125.1943203">
      </trkpt>
      <trkpt lat="50.1458211" lon="-125.19422818">
      </trkpt>
      <trkpt lat="50.14572907" lon="-125.19411458">
      </trkpt>
      <trkpt lat="50.14562784" lon="-125.1939726">
      </trkpt>
      <trkpt lat="50.14553573" lon="-125.19379495">
      </trkpt>
      <trkpt lat="50.14546683" lon="-125.19373821">
      </trkpt>
      <trkpt lat="50.1452924" lon="-125.19369614">
      </trkpt>
      <trkpt lat="50.14516854" lon="-125.19365374">
      </trkpt>
      <trkpt lat="50.145019" lon="-125.19353297">
      </trkpt>
    </trkseg>
    <trkseg>
      <trkpt lat="50.1485507" lon="-125.20363574">
      </trkpt>
      <trkpt lat="50.1484612" lon="-125.20372712">
      </trkpt>
      <trkpt lat="50.14839701" lon="-125.20373444">
      </trkpt>
      <trkpt lat="50.14830991" lon="-125.20374176">
      </trkpt>
      <trkpt lat="50.14825924" lon="-125.20364234">
      </trkpt>
      <trkpt lat="50.14819936" lon="-125.20349305">
      </trkpt>
      <trkpt lat="50.14815321" lon="-125.20337212">
      </trkpt>
      <trkpt lat="50.14812999" lon="-125.20326551">
      </trkpt>
      <trkpt lat="50.1480564" lon="-125.20315193">
      </trkpt>
      <trkpt lat="50.14801044" lon="-125.20309505">
      </trkpt>
      <trkpt lat="50.14795988" lon="-125.20305965">
      </trkpt>
      <trkpt lat="50.14783621" lon="-125.20310983">
      </trkpt>
      <trkpt lat="50.14779966" lon="-125.20318821">
      </trkpt>
      <trkpt lat="50.14778615" lon="-125.20328779">
      </trkpt>
      <trkpt lat="50.1477588" lon="-125.20338035">
      </trkpt>
      <trkpt lat="50.14775919" lon="-125.20352263">
      </trkpt>
      <trkpt lat="50.14776399" lon="-125.20365072">
      </trkpt>
      <trkpt lat="50.14774137" lon="-125.2037718">
      </trkpt>
      <trkpt lat="50.14766827" lon="-125.20387154">
      </trkpt>
      <trkpt lat="50.14757664" lon="-125.20395007">
      </trkpt>
      <trkpt lat="50.1474759" lon="-125.20399307">
      </trkpt>
      <trkpt lat="50.14734283" lon="-125.20396502">
      </trkpt>
      <trkpt lat="50.14724632" lon="-125.20386559">
      </trkpt>
      <trkpt lat="50.14720495" lon="-125.20384439">
      </trkpt>
      <trkpt lat="50.14715899" lon="-125.2037805">
      </trkpt>
      <trkpt lat="50.14705493" lon="-125.2035821">
      </trkpt>
    </trkseg>
  </trk>
</gpx>