<?xml version="1.0" encoding="UTF-8"?>
<gpx xmlns="http://www.topografix.com/GPX/1/1" xmlns:xsi="http://www.w3.org/2001/XMLSchema-instance" xsi:schemaLocation="http://www.topografix.com/GPX/1/1 http://www.topografix.com/GPX/1/1/gpx.xsd" version="1.1" creator="gpx.py -- https://github.com/tkrajina/gpxpy">
  <trk>
    <name>Vuich Historic Trail</name>
    <trkseg>
      <trkpt lat="49.35276718" lon="-121.05847153">
      </trkpt>
      <trkpt lat="49.35273976" lon="-121.05848306">
      </trkpt>
      <trkpt lat="49.35270269" lon="-121.05850359">
      </trkpt>
      <trkpt lat="49.35266198" lon="-121.05852155">
      </trkpt>
      <trkpt lat="49.35262136" lon="-121.05854496">
      </trkpt>
      <trkpt lat="49.35259651" lon="-121.05854866">
      </trkpt>
      <trkpt lat="49.35256143" lon="-121.05855412">
      </trkpt>
      <trkpt lat="49.35252717" lon="-121.05855968">
      </trkpt>
      <trkpt lat="49.35247737" lon="-121.05856709">
      </trkpt>
      <trkpt lat="49.35244525" lon="-121.05856562">
      </trkpt>
      <trkpt lat="49.3524098" lon="-121.05855987">
      </trkpt>
      <trkpt lat="49.35238245" lon="-121.05854347">
      </trkpt>
      <trkpt lat="49.35236618" lon="-121.05852775">
      </trkpt>
      <trkpt lat="49.35235232" lon="-121.05850581">
      </trkpt>
      <trkpt lat="49.35232068" lon="-121.05847492">
      </trkpt>
      <trkpt lat="49.35227762" lon="-121.05846027">
      </trkpt>
      <trkpt lat="49.35224032" lon="-121.05846718">
      </trkpt>
      <trkpt lat="49.35220127" lon="-121.0584769">
      </trkpt>
      <trkpt lat="49.35216573" lon="-121.05851338">
      </trkpt>
      <trkpt lat="49.35215083" lon="-121.05855258">
      </trkpt>
      <trkpt lat="49.35212667" lon="-121.05859724">
      </trkpt>
      <trkpt lat="49.35210866" lon="-121.05863883">
      </trkpt>
      <trkpt lat="49.352083" lon="-121.05865358">
      </trkpt>
      <trkpt lat="49.35204201" lon="-121.0586552">
      </trkpt>
      <trkpt lat="49.35200494" lon="-121.05864303">
      </trkpt>
      <trkpt lat="49.35195747" lon="-121.05861208">
      </trkpt>
      <trkpt lat="49.3519068" lon="-121.05856764">
      </trkpt>
      <trkpt lat="49.35186361" lon="-121.05854481">
      </trkpt>
      <trkpt lat="49.35183062" lon="-121.05852408">
      </trkpt>
      <trkpt lat="49.35179188" lon="-121.05851493">
      </trkpt>
      <trkpt lat="49.35175407" lon="-121.05849723">
      </trkpt>
      <trkpt lat="49.35172573" lon="-121.05849062">
      </trkpt>
      <trkpt lat="49.35168068" lon="-121.0584756">
      </trkpt>
      <trkpt lat="49.35163574" lon="-121.05845556">
      </trkpt>
      <trkpt lat="49.35159019" lon="-121.05843181">
      </trkpt>
      <trkpt lat="49.35155298" lon="-121.05840693">
      </trkpt>
      <trkpt lat="49.351499" lon="-121.05837907">
      </trkpt>
      <trkpt lat="49.3514464" lon="-121.05834765">
      </trkpt>
      <trkpt lat="49.35141998" lon="-121.05834392">
      </trkpt>
      <trkpt lat="49.35138019" lon="-121.05834186">
      </trkpt>
      <trkpt lat="49.35130934" lon="-121.05833738">
      </trkpt>
      <trkpt lat="49.35123437" lon="-121.05833488">
      </trkpt>
      <trkpt lat="49.35117356" lon="-121.05832364">
      </trkpt>
      <trkpt lat="49.35109492" lon="-121.05831039">
      </trkpt>
      <trkpt lat="49.35104489" lon="-121.05830418">
      </trkpt>
      <trkpt lat="49.35099826" lon="-121.05829138">
      </trkpt>
      <trkpt lat="49.35092839" lon="-121.0582705">
      </trkpt>
      <trkpt lat="49.35081544" lon="-121.05822863">
      </trkpt>
      <trkpt lat="49.35071296" lon="-121.05817805">
      </trkpt>
      <trkpt lat="49.35059277" lon="-121.05813362">
      </trkpt>
      <trkpt lat="49.35052823" lon="-121.05811436">
      </trkpt>
      <trkpt lat="49.35047991" lon="-121.0580864">
      </trkpt>
      <trkpt lat="49.35042723" lon="-121.05804465">
      </trkpt>
      <trkpt lat="49.35036227" lon="-121.05799531">
      </trkpt>
      <trkpt lat="49.35029031" lon="-121.05795728">
      </trkpt>
      <trkpt lat="49.35025643" lon="-121.05793726">
      </trkpt>
      <trkpt lat="49.35020194" lon="-121.05790069">
      </trkpt>
      <trkpt lat="49.35012637" lon="-121.05785722">
      </trkpt>
      <trkpt lat="49.3500637" lon="-121.05782028">
      </trkpt>
      <trkpt lat="49.34999891" lon="-121.05780774">
      </trkpt>
      <trkpt lat="49.3499363" lon="-121.05779658">
      </trkpt>
      <trkpt lat="49.34989601" lon="-121.05779124">
      </trkpt>
      <trkpt lat="49.3498358" lon="-121.05775682">
      </trkpt>
      <trkpt lat="49.34976536" lon="-121.05770226">
      </trkpt>
      <trkpt lat="49.34971353" lon="-121.05766921">
      </trkpt>
      <trkpt lat="49.34965739" lon="-121.05764111">
      </trkpt>
      <trkpt lat="49.34958926" lon="-121.05762188">
      </trkpt>
      <trkpt lat="49.34951955" lon="-121.05761099">
      </trkpt>
      <trkpt lat="49.34948373" lon="-121.05759879">
      </trkpt>
      <trkpt lat="49.34944839" lon="-121.05758871">
      </trkpt>
      <trkpt lat="49.34941905" lon="-121.05757136">
      </trkpt>
      <trkpt lat="49.34939171" lon="-121.05753417">
      </trkpt>
      <trkpt lat="49.34937507" lon="-121.05749667">
      </trkpt>
      <trkpt lat="49.34935847" lon="-121.05746724">
      </trkpt>
      <trkpt lat="49.34933838" lon="-121.05743806">
      </trkpt>
      <trkpt lat="49.34929911" lon="-121.0574077">
      </trkpt>
    </trkseg>
  </trk>
</gpx>