<?xml version="1.0" encoding="UTF-8"?>
<gpx xmlns="http://www.topografix.com/GPX/1/1" xmlns:xsi="http://www.w3.org/2001/XMLSchema-instance" xsi:schemaLocation="http://www.topografix.com/GPX/1/1 http://www.topografix.com/GPX/1/1/gpx.xsd" version="1.1" creator="gpx.py -- https://github.com/tkrajina/gpxpy">
  <trk>
    <name>Owen Fire Lookout Trail</name>
    <trkseg>
      <trkpt lat="54.18577602" lon="-126.86973611">
      </trkpt>
      <trkpt lat="54.18569746" lon="-126.86975568">
      </trkpt>
      <trkpt lat="54.18563531" lon="-126.86978975">
      </trkpt>
      <trkpt lat="54.18553153" lon="-126.86987248">
      </trkpt>
      <trkpt lat="54.18549353" lon="-126.86999195">
      </trkpt>
      <trkpt lat="54.18548824" lon="-126.87015459">
      </trkpt>
      <trkpt lat="54.18549487" lon="-126.87038114">
      </trkpt>
      <trkpt lat="54.18550165" lon="-126.87058648">
      </trkpt>
      <trkpt lat="54.18558337" lon="-126.87070141">
      </trkpt>
      <trkpt lat="54.18569866" lon="-126.87073922">
      </trkpt>
      <trkpt lat="54.18589689" lon="-126.87072217">
      </trkpt>
      <trkpt lat="54.18619361" lon="-126.87078503">
      </trkpt>
      <trkpt lat="54.18645761" lon="-126.87080475">
      </trkpt>
      <trkpt lat="54.18674592" lon="-126.87088866">
      </trkpt>
      <trkpt lat="54.18699302" lon="-126.87096464">
      </trkpt>
      <trkpt lat="54.18712919" lon="-126.87096752">
      </trkpt>
      <trkpt lat="54.18723226" lon="-126.87098384">
      </trkpt>
      <trkpt lat="54.18728484" lon="-126.87113354">
      </trkpt>
      <trkpt lat="54.18727169" lon="-126.87123939">
      </trkpt>
      <trkpt lat="54.18719269" lon="-126.87132265">
      </trkpt>
      <trkpt lat="54.18713037" lon="-126.87137794">
      </trkpt>
      <trkpt lat="54.18704734" lon="-126.87144694">
      </trkpt>
      <trkpt lat="54.18694743" lon="-126.87156513">
      </trkpt>
      <trkpt lat="54.18675593" lon="-126.87179458">
      </trkpt>
      <trkpt lat="54.18660599" lon="-126.87198246">
      </trkpt>
      <trkpt lat="54.18649355" lon="-126.87212161">
      </trkpt>
      <trkpt lat="54.18638586" lon="-126.87217594">
      </trkpt>
      <trkpt lat="54.18629415" lon="-126.87230136">
      </trkpt>
      <trkpt lat="54.18624805" lon="-126.87239945">
      </trkpt>
      <trkpt lat="54.1862642" lon="-126.87244931">
      </trkpt>
      <trkpt lat="54.18635886" lon="-126.87248669">
      </trkpt>
      <trkpt lat="54.18644944" lon="-126.87251692">
      </trkpt>
      <trkpt lat="54.18664319" lon="-126.87254931">
      </trkpt>
      <trkpt lat="54.18681254" lon="-126.87253165">
      </trkpt>
      <trkpt lat="54.18696951" lon="-126.87251376">
      </trkpt>
      <trkpt lat="54.18724202" lon="-126.87249829">
      </trkpt>
      <trkpt lat="54.18739475" lon="-126.87249443">
      </trkpt>
      <trkpt lat="54.18757689" lon="-126.87242044">
      </trkpt>
      <trkpt lat="54.18777206" lon="-126.87225474">
      </trkpt>
      <trkpt lat="54.18794253" lon="-126.87208146">
      </trkpt>
      <trkpt lat="54.18813036" lon="-126.87178822">
      </trkpt>
      <trkpt lat="54.18828009" lon="-126.87162864">
      </trkpt>
      <trkpt lat="54.18840088" lon="-126.87147551">
      </trkpt>
      <trkpt lat="54.18854567" lon="-126.87142904">
      </trkpt>
      <trkpt lat="54.18870727" lon="-126.87134046">
      </trkpt>
      <trkpt lat="54.18878256" lon="-126.87120052">
      </trkpt>
      <trkpt lat="54.18885827" lon="-126.87100399">
      </trkpt>
      <trkpt lat="54.18890885" lon="-126.87085644">
      </trkpt>
      <trkpt lat="54.18896316" lon="-126.8707656">
      </trkpt>
      <trkpt lat="54.1890376" lon="-126.87074594">
      </trkpt>
      <trkpt lat="54.18907" lon="-126.87083155">
      </trkpt>
      <trkpt lat="54.18903963" lon="-126.87103611">
      </trkpt>
      <trkpt lat="54.18900189" lon="-126.87112024">
      </trkpt>
      <trkpt lat="54.18890148" lon="-126.87130916">
      </trkpt>
      <trkpt lat="54.18894168" lon="-126.87145863">
      </trkpt>
      <trkpt lat="54.18903231" lon="-126.87148175">
      </trkpt>
      <trkpt lat="54.18912335" lon="-126.8714483">
      </trkpt>
      <trkpt lat="54.18923905" lon="-126.87142951">
      </trkpt>
      <trkpt lat="54.18935984" lon="-126.87127639">
      </trkpt>
      <trkpt lat="54.18943076" lon="-126.87117173">
      </trkpt>
      <trkpt lat="54.18950641" lon="-126.87098227">
      </trkpt>
      <trkpt lat="54.18956122" lon="-126.87082068">
      </trkpt>
      <trkpt lat="54.18963651" lon="-126.87068073">
      </trkpt>
      <trkpt lat="54.18966917" lon="-126.87073096">
      </trkpt>
      <trkpt lat="54.18960443" lon="-126.87112587">
      </trkpt>
      <trkpt lat="54.18954462" lon="-126.87140766">
      </trkpt>
      <trkpt lat="54.18929893" lon="-126.872287">
      </trkpt>
      <trkpt lat="54.18895489" lon="-126.87363836">
      </trkpt>
      <trkpt lat="54.18885586" lon="-126.87420944">
      </trkpt>
      <trkpt lat="54.18875345" lon="-126.87467429">
      </trkpt>
      <trkpt lat="54.18869843" lon="-126.87486418">
      </trkpt>
      <trkpt lat="54.18844338" lon="-126.87531873">
      </trkpt>
      <trkpt lat="54.18809593" lon="-126.87599775">
      </trkpt>
      <trkpt lat="54.18786864" lon="-126.87660853">
      </trkpt>
      <trkpt lat="54.18771899" lon="-126.87732711">
      </trkpt>
      <trkpt lat="54.18766945" lon="-126.87789921">
      </trkpt>
      <trkpt lat="54.18763596" lon="-126.87853533">
      </trkpt>
    </trkseg>
  </trk>
</gpx>