<?xml version="1.0" encoding="UTF-8"?>
<gpx xmlns="http://www.topografix.com/GPX/1/1" xmlns:xsi="http://www.w3.org/2001/XMLSchema-instance" xsi:schemaLocation="http://www.topografix.com/GPX/1/1 http://www.topografix.com/GPX/1/1/gpx.xsd" version="1.1" creator="gpx.py -- https://github.com/tkrajina/gpxpy">
  <trk>
    <name>Buchanan Hiking</name>
    <trkseg>
      <trkpt lat="49.93833295" lon="-116.94689054">
      </trkpt>
      <trkpt lat="49.93835279" lon="-116.94689052">
      </trkpt>
      <trkpt lat="49.93838057" lon="-116.94689049">
      </trkpt>
      <trkpt lat="49.93841429" lon="-116.94687815">
      </trkpt>
      <trkpt lat="49.93844008" lon="-116.94685354">
      </trkpt>
      <trkpt lat="49.9384619" lon="-116.94682584">
      </trkpt>
      <trkpt lat="49.93847975" lon="-116.94682274">
      </trkpt>
      <trkpt lat="49.93849363" lon="-116.9468012">
      </trkpt>
      <trkpt lat="49.93849162" lon="-116.94675817">
      </trkpt>
      <trkpt lat="49.93850154" lon="-116.94674279">
      </trkpt>
      <trkpt lat="49.93854916" lon="-116.94674581">
      </trkpt>
      <trkpt lat="49.93857892" lon="-116.94673655">
      </trkpt>
      <trkpt lat="49.93861861" lon="-116.94673343">
      </trkpt>
      <trkpt lat="49.93866027" lon="-116.94673031">
      </trkpt>
      <trkpt lat="49.938694" lon="-116.94669954">
      </trkpt>
      <trkpt lat="49.93873563" lon="-116.94663493">
      </trkpt>
      <trkpt lat="49.93876141" lon="-116.94660722">
      </trkpt>
      <trkpt lat="49.93877529" lon="-116.94657647">
      </trkpt>
      <trkpt lat="49.93879709" lon="-116.94652418">
      </trkpt>
      <trkpt lat="49.93881692" lon="-116.94648726">
      </trkpt>
      <trkpt lat="49.93883674" lon="-116.94644727">
      </trkpt>
      <trkpt lat="49.93885657" lon="-116.94641036">
      </trkpt>
      <trkpt lat="49.93887838" lon="-116.94638881">
      </trkpt>
      <trkpt lat="49.93892798" lon="-116.94636108">
      </trkpt>
      <trkpt lat="49.93896567" lon="-116.94633644">
      </trkpt>
      <trkpt lat="49.93899146" lon="-116.94632105">
      </trkpt>
      <trkpt lat="49.93901725" lon="-116.94631487">
      </trkpt>
      <trkpt lat="49.93905495" lon="-116.94632097">
      </trkpt>
      <trkpt lat="49.93909464" lon="-116.94632093">
      </trkpt>
      <trkpt lat="49.9391244" lon="-116.94631475">
      </trkpt>
      <trkpt lat="49.93915217" lon="-116.94630549">
      </trkpt>
      <trkpt lat="49.93912041" lon="-116.94627171">
      </trkpt>
      <trkpt lat="49.93908468" lon="-116.94624716">
      </trkpt>
      <trkpt lat="49.93906285" lon="-116.94623488">
      </trkpt>
      <trkpt lat="49.93904697" lon="-116.94621646">
      </trkpt>
      <trkpt lat="49.93902116" lon="-116.94619803">
      </trkpt>
      <trkpt lat="49.9390033" lon="-116.94618883">
      </trkpt>
      <trkpt lat="49.93896757" lon="-116.94615197">
      </trkpt>
      <trkpt lat="49.93894771" lon="-116.94610895">
      </trkpt>
      <trkpt lat="49.93893181" lon="-116.94605978">
      </trkpt>
      <trkpt lat="49.93891392" lon="-116.94600446">
      </trkpt>
      <trkpt lat="49.93891191" lon="-116.94594298">
      </trkpt>
      <trkpt lat="49.93893372" lon="-116.94589683">
      </trkpt>
      <trkpt lat="49.93895553" lon="-116.94586914">
      </trkpt>
      <trkpt lat="49.93898725" lon="-116.94580146">
      </trkpt>
      <trkpt lat="49.93900905" lon="-116.9457584">
      </trkpt>
      <trkpt lat="49.93903086" lon="-116.94570303">
      </trkpt>
      <trkpt lat="49.93904075" lon="-116.94565691">
      </trkpt>
      <trkpt lat="49.93906455" lon="-116.94563228">
      </trkpt>
      <trkpt lat="49.93911811" lon="-116.94558918">
      </trkpt>
      <trkpt lat="49.93917167" lon="-116.94555222">
      </trkpt>
      <trkpt lat="49.93921134" lon="-116.94553067">
      </trkpt>
      <trkpt lat="49.93926093" lon="-116.94549371">
      </trkpt>
      <trkpt lat="49.93930259" lon="-116.94546291">
      </trkpt>
      <trkpt lat="49.93935019" lon="-116.94543827">
      </trkpt>
      <trkpt lat="49.93938788" lon="-116.94540133">
      </trkpt>
      <trkpt lat="49.93941365" lon="-116.94535826">
      </trkpt>
      <trkpt lat="49.93943745" lon="-116.9453275">
      </trkpt>
      <trkpt lat="49.93945332" lon="-116.94531518">
      </trkpt>
      <trkpt lat="49.93947911" lon="-116.94530592">
      </trkpt>
      <trkpt lat="49.93949696" lon="-116.94529668">
      </trkpt>
      <trkpt lat="49.93950687" lon="-116.94526899">
      </trkpt>
      <trkpt lat="49.93953265" lon="-116.9452413">
      </trkpt>
      <trkpt lat="49.93956638" lon="-116.94522896">
      </trkpt>
      <trkpt lat="49.93959812" lon="-116.94521663">
      </trkpt>
      <trkpt lat="49.93962788" lon="-116.94520737">
      </trkpt>
      <trkpt lat="49.9396497" lon="-116.94519197">
      </trkpt>
      <trkpt lat="49.93969534" lon="-116.94517654">
      </trkpt>
      <trkpt lat="49.93974096" lon="-116.94514883">
      </trkpt>
      <trkpt lat="49.93978262" lon="-116.94511803">
      </trkpt>
      <trkpt lat="49.93982626" lon="-116.94510261">
      </trkpt>
      <trkpt lat="49.93988975" lon="-116.94509946">
      </trkpt>
      <trkpt lat="49.93994531" lon="-116.94509633">
      </trkpt>
      <trkpt lat="49.93999294" lon="-116.9450932">
      </trkpt>
      <trkpt lat="49.94002468" lon="-116.94508702">
      </trkpt>
      <trkpt lat="49.9400584" lon="-116.94506545">
      </trkpt>
      <trkpt lat="49.94010997" lon="-116.9450162">
      </trkpt>
      <trkpt lat="49.94013178" lon="-116.94497928">
      </trkpt>
      <trkpt lat="49.94015557" lon="-116.94494544">
      </trkpt>
      <trkpt lat="49.94018134" lon="-116.94490543">
      </trkpt>
      <trkpt lat="49.94021507" lon="-116.94487465">
      </trkpt>
      <trkpt lat="49.94023093" lon="-116.94486233">
      </trkpt>
      <trkpt lat="49.94022894" lon="-116.9448439">
      </trkpt>
      <trkpt lat="49.94017535" lon="-116.94480706">
      </trkpt>
      <trkpt lat="49.94014359" lon="-116.94477942">
      </trkpt>
      <trkpt lat="49.94011182" lon="-116.94474256">
      </trkpt>
      <trkpt lat="49.94007212" lon="-116.94471186">
      </trkpt>
      <trkpt lat="49.94004432" lon="-116.94468116">
      </trkpt>
      <trkpt lat="49.94001058" lon="-116.94465659">
      </trkpt>
      <trkpt lat="49.93999469" lon="-116.94461971">
      </trkpt>
      <trkpt lat="49.93997484" lon="-116.94458592">
      </trkpt>
      <trkpt lat="49.93993118" lon="-116.94457059">
      </trkpt>
      <trkpt lat="49.9398756" lon="-116.94455529">
      </trkpt>
      <trkpt lat="49.93982797" lon="-116.94453998">
      </trkpt>
      <trkpt lat="49.93977439" lon="-116.94452466">
      </trkpt>
      <trkpt lat="49.93972676" lon="-116.94450935">
      </trkpt>
      <trkpt lat="49.9396831" lon="-116.94449709">
      </trkpt>
      <trkpt lat="49.93962357" lon="-116.94449101">
      </trkpt>
      <trkpt lat="49.93952039" lon="-116.94447883">
      </trkpt>
      <trkpt lat="49.93946681" lon="-116.94446968">
      </trkpt>
      <trkpt lat="49.93942315" lon="-116.94446357">
      </trkpt>
      <trkpt lat="49.93938346" lon="-116.94444518">
      </trkpt>
      <trkpt lat="49.9393517" lon="-116.94441753">
      </trkpt>
      <trkpt lat="49.9393259" lon="-116.94441449">
      </trkpt>
      <trkpt lat="49.93929812" lon="-116.94441759">
      </trkpt>
      <trkpt lat="49.93926835" lon="-116.94441764">
      </trkpt>
      <trkpt lat="49.93923065" lon="-116.9444023">
      </trkpt>
      <trkpt lat="49.9392108" lon="-116.94439617">
      </trkpt>
      <trkpt lat="49.93916715" lon="-116.9443993">
      </trkpt>
      <trkpt lat="49.93912945" lon="-116.94439628">
      </trkpt>
      <trkpt lat="49.93908182" lon="-116.94439018">
      </trkpt>
      <trkpt lat="49.93904611" lon="-116.94438714">
      </trkpt>
      <trkpt lat="49.93901236" lon="-116.94436874">
      </trkpt>
      <trkpt lat="49.93898457" lon="-116.9443288">
      </trkpt>
      <trkpt lat="49.93895479" lon="-116.94431038">
      </trkpt>
      <trkpt lat="49.93892105" lon="-116.94427968">
      </trkpt>
      <trkpt lat="49.93887739" lon="-116.94426129">
      </trkpt>
      <trkpt lat="49.93885753" lon="-116.94423979">
      </trkpt>
      <trkpt lat="49.93881982" lon="-116.94422754">
      </trkpt>
      <trkpt lat="49.93877617" lon="-116.94422759">
      </trkpt>
      <trkpt lat="49.93871465" lon="-116.9442215">
      </trkpt>
      <trkpt lat="49.93866305" lon="-116.94418774">
      </trkpt>
      <trkpt lat="49.93862534" lon="-116.94417856">
      </trkpt>
      <trkpt lat="49.93860353" lon="-116.94420934">
      </trkpt>
      <trkpt lat="49.93854401" lon="-116.94422785">
      </trkpt>
      <trkpt lat="49.93849639" lon="-116.94423406">
      </trkpt>
      <trkpt lat="49.93844878" lon="-116.94424948">
      </trkpt>
      <trkpt lat="49.93840315" lon="-116.94427106">
      </trkpt>
      <trkpt lat="49.93834958" lon="-116.94428957">
      </trkpt>
      <trkpt lat="49.93829602" lon="-116.94431729">
      </trkpt>
      <trkpt lat="49.93825436" lon="-116.94433579">
      </trkpt>
      <trkpt lat="49.93820872" lon="-116.94433276">
      </trkpt>
      <trkpt lat="49.9381611" lon="-116.94433283">
      </trkpt>
      <trkpt lat="49.93811547" lon="-116.94433288">
      </trkpt>
      <trkpt lat="49.93807776" lon="-116.94433292">
      </trkpt>
      <trkpt lat="49.93800435" lon="-116.94433607">
      </trkpt>
      <trkpt lat="49.93794482" lon="-116.94433308">
      </trkpt>
      <trkpt lat="49.93787934" lon="-116.94433315">
      </trkpt>
      <trkpt lat="49.93781584" lon="-116.94433629">
      </trkpt>
      <trkpt lat="49.93775828" lon="-116.94431792">
      </trkpt>
      <trkpt lat="49.93771066" lon="-116.94429031">
      </trkpt>
      <trkpt lat="49.93764714" lon="-116.94424426">
      </trkpt>
      <trkpt lat="49.93759553" lon="-116.94420743">
      </trkpt>
      <trkpt lat="49.937536" lon="-116.94420442">
      </trkpt>
      <trkpt lat="49.93748638" lon="-116.94418604">
      </trkpt>
      <trkpt lat="49.93744272" lon="-116.94416763">
      </trkpt>
      <trkpt lat="49.93742286" lon="-116.94413384">
      </trkpt>
      <trkpt lat="49.93741885" lon="-116.94405084">
      </trkpt>
      <trkpt lat="49.93741684" lon="-116.94400165">
      </trkpt>
      <trkpt lat="49.9374069" lon="-116.94396784">
      </trkpt>
      <trkpt lat="49.93736721" lon="-116.94394944">
      </trkpt>
      <trkpt lat="49.93729775" lon="-116.94393416">
      </trkpt>
      <trkpt lat="49.937268" lon="-116.94394648">
      </trkpt>
      <trkpt lat="49.93723229" lon="-116.94396804">
      </trkpt>
      <trkpt lat="49.93718666" lon="-116.94397732">
      </trkpt>
      <trkpt lat="49.93713308" lon="-116.94398045">
      </trkpt>
      <trkpt lat="49.93707753" lon="-116.94398974">
      </trkpt>
      <trkpt lat="49.93703388" lon="-116.94399595">
      </trkpt>
      <trkpt lat="49.93699419" lon="-116.94399599">
      </trkpt>
      <trkpt lat="49.93695848" lon="-116.94399603">
      </trkpt>
      <trkpt lat="49.9369188" lon="-116.94401453">
      </trkpt>
      <trkpt lat="49.93684735" lon="-116.94398387">
      </trkpt>
      <trkpt lat="49.9368136" lon="-116.9439593">
      </trkpt>
      <trkpt lat="49.93678185" lon="-116.94393475">
      </trkpt>
      <trkpt lat="49.93675603" lon="-116.94389174">
      </trkpt>
      <trkpt lat="49.93674213" lon="-116.94386102">
      </trkpt>
      <trkpt lat="49.93673021" lon="-116.9438395">
      </trkpt>
      <trkpt lat="49.93668455" lon="-116.94379959">
      </trkpt>
      <trkpt lat="49.9366647" lon="-116.94378118">
      </trkpt>
      <trkpt lat="49.93661905" lon="-116.94375663">
      </trkpt>
      <trkpt lat="49.93657539" lon="-116.94374439">
      </trkpt>
      <trkpt lat="49.93653173" lon="-116.94374136">
      </trkpt>
      <trkpt lat="49.93651586" lon="-116.9437383">
      </trkpt>
      <trkpt lat="49.93649007" lon="-116.94375063">
      </trkpt>
      <trkpt lat="49.93647818" lon="-116.94378446">
      </trkpt>
      <trkpt lat="49.93645042" lon="-116.94382754">
      </trkpt>
      <trkpt lat="49.93642068" lon="-116.94386753">
      </trkpt>
      <trkpt lat="49.93638101" lon="-116.9438891">
      </trkpt>
      <trkpt lat="49.93630561" lon="-116.94391071">
      </trkpt>
      <trkpt lat="49.93628775" lon="-116.94391381">
      </trkpt>
      <trkpt lat="49.93623221" lon="-116.94393232">
      </trkpt>
      <trkpt lat="49.93618062" lon="-116.94395389">
      </trkpt>
      <trkpt lat="49.93612507" lon="-116.94396625">
      </trkpt>
      <trkpt lat="49.93606158" lon="-116.94398169">
      </trkpt>
      <trkpt lat="49.93601" lon="-116.94399098">
      </trkpt>
      <trkpt lat="49.93597628" lon="-116.94403099">
      </trkpt>
      <trkpt lat="49.93595049" lon="-116.94404639">
      </trkpt>
      <trkpt lat="49.93593265" lon="-116.9440833">
      </trkpt>
      <trkpt lat="49.93588308" lon="-116.94414792">
      </trkpt>
      <trkpt lat="49.93583748" lon="-116.94421868">
      </trkpt>
      <trkpt lat="49.93578395" lon="-116.94432019">
      </trkpt>
      <trkpt lat="49.93573239" lon="-116.94439096">
      </trkpt>
      <trkpt lat="49.93569074" lon="-116.94444019">
      </trkpt>
      <trkpt lat="49.93565901" lon="-116.9444679">
      </trkpt>
      <trkpt lat="49.93560743" lon="-116.94449562">
      </trkpt>
      <trkpt lat="49.93554792" lon="-116.94452029">
      </trkpt>
      <trkpt lat="49.93549833" lon="-116.94454186">
      </trkpt>
      <trkpt lat="49.93546459" lon="-116.9445419">
      </trkpt>
      <trkpt lat="49.93542689" lon="-116.94453887">
      </trkpt>
      <trkpt lat="49.93540307" lon="-116.94453889">
      </trkpt>
      <trkpt lat="49.93535744" lon="-116.94455124">
      </trkpt>
      <trkpt lat="49.93530189" lon="-116.94455747">
      </trkpt>
      <trkpt lat="49.9352503" lon="-116.94455752">
      </trkpt>
      <trkpt lat="49.93518681" lon="-116.94456067">
      </trkpt>
      <trkpt lat="49.93512926" lon="-116.94455765">
      </trkpt>
      <trkpt lat="49.93507767" lon="-116.9445608">
      </trkpt>
      <trkpt lat="49.93503798" lon="-116.94455469">
      </trkpt>
      <trkpt lat="49.93500623" lon="-116.94455165">
      </trkpt>
      <trkpt lat="49.93497449" lon="-116.94456706">
      </trkpt>
      <trkpt lat="49.93493878" lon="-116.94458862">
      </trkpt>
      <trkpt lat="49.93490508" lon="-116.94465936">
      </trkpt>
      <trkpt lat="49.93487338" lon="-116.94474241">
      </trkpt>
      <trkpt lat="49.93484166" lon="-116.94482238">
      </trkpt>
      <trkpt lat="49.93481591" lon="-116.94489003">
      </trkpt>
      <trkpt lat="49.93478815" lon="-116.94495462">
      </trkpt>
      <trkpt lat="49.93479811" lon="-116.94502532">
      </trkpt>
      <trkpt lat="49.93480808" lon="-116.94511138">
      </trkpt>
      <trkpt lat="49.93481208" lon="-116.9452036">
      </trkpt>
      <trkpt lat="49.93481014" lon="-116.94527432">
      </trkpt>
      <trkpt lat="49.93482802" lon="-116.94534192">
      </trkpt>
      <trkpt lat="49.9348618" lon="-116.94543103">
      </trkpt>
      <trkpt lat="49.93490749" lon="-116.94552936">
      </trkpt>
      <trkpt lat="49.93493728" lon="-116.94560004">
      </trkpt>
      <trkpt lat="49.93496112" lon="-116.94567071">
      </trkpt>
      <trkpt lat="49.93501276" lon="-116.94575981">
      </trkpt>
      <trkpt lat="49.93504651" lon="-116.94581818">
      </trkpt>
      <trkpt lat="49.9350902" lon="-116.94588884">
      </trkpt>
      <trkpt lat="49.93513785" lon="-116.94595027">
      </trkpt>
      <trkpt lat="49.93517757" lon="-116.94600557">
      </trkpt>
      <trkpt lat="49.93523315" lon="-116.94606083">
      </trkpt>
      <trkpt lat="49.93529468" lon="-116.94610996">
      </trkpt>
      <trkpt lat="49.93535224" lon="-116.94614678">
      </trkpt>
      <trkpt lat="49.93540384" lon="-116.94616209">
      </trkpt>
      <trkpt lat="49.93545544" lon="-116.94617434">
      </trkpt>
      <trkpt lat="49.93551696" lon="-116.94618656">
      </trkpt>
      <trkpt lat="49.93556853" lon="-116.94615577">
      </trkpt>
      <trkpt lat="49.93561019" lon="-116.94613727">
      </trkpt>
      <trkpt lat="49.93563996" lon="-116.94613724">
      </trkpt>
      <trkpt lat="49.93568361" lon="-116.94613718">
      </trkpt>
      <trkpt lat="49.93572726" lon="-116.94610948">
      </trkpt>
      <trkpt lat="49.93577487" lon="-116.9461002">
      </trkpt>
      <trkpt lat="49.93582249" lon="-116.94609708">
      </trkpt>
      <trkpt lat="49.93586614" lon="-116.94609702">
      </trkpt>
      <trkpt lat="49.93590185" lon="-116.94608775">
      </trkpt>
      <trkpt lat="49.93591973" lon="-116.94612771">
      </trkpt>
      <trkpt lat="49.93593563" lon="-116.94617994">
      </trkpt>
      <trkpt lat="49.93593766" lon="-116.94626603">
      </trkpt>
      <trkpt lat="49.93593771" lon="-116.94638592">
      </trkpt>
      <trkpt lat="49.93593577" lon="-116.94647509">
      </trkpt>
      <trkpt lat="49.93593579" lon="-116.94653964">
      </trkpt>
      <trkpt lat="49.93595963" lon="-116.94659802">
      </trkpt>
      <trkpt lat="49.93598544" lon="-116.94663181">
      </trkpt>
      <trkpt lat="49.9359934" lon="-116.9466564">
      </trkpt>
      <trkpt lat="49.9360093" lon="-116.94673016">
      </trkpt>
      <trkpt lat="49.93602323" lon="-116.94679778">
      </trkpt>
      <trkpt lat="49.9360431" lon="-116.94686539">
      </trkpt>
      <trkpt lat="49.93607288" lon="-116.94688688">
      </trkpt>
      <trkpt lat="49.93611655" lon="-116.94692988">
      </trkpt>
      <trkpt lat="49.93615626" lon="-116.94699746">
      </trkpt>
      <trkpt lat="49.93618607" lon="-116.94708351">
      </trkpt>
      <trkpt lat="49.93621586" lon="-116.94715419">
      </trkpt>
      <trkpt lat="49.93626552" lon="-116.94728325">
      </trkpt>
      <trkpt lat="49.93629535" lon="-116.94740619">
      </trkpt>
      <trkpt lat="49.93632119" lon="-116.94751376">
      </trkpt>
      <trkpt lat="49.93633513" lon="-116.94761213">
      </trkpt>
      <trkpt lat="49.93635499" lon="-116.94764899">
      </trkpt>
      <trkpt lat="49.93638277" lon="-116.9476797">
      </trkpt>
      <trkpt lat="49.93642447" lon="-116.94773192">
      </trkpt>
      <trkpt lat="49.93645822" lon="-116.947778">
      </trkpt>
      <trkpt lat="49.93649794" lon="-116.94784867">
      </trkpt>
      <trkpt lat="49.93652772" lon="-116.94788861">
      </trkpt>
      <trkpt lat="49.93657139" lon="-116.947907">
      </trkpt>
      <trkpt lat="49.93664083" lon="-116.94790078">
      </trkpt>
      <trkpt lat="49.93669439" lon="-116.94787305">
      </trkpt>
      <trkpt lat="49.93673605" lon="-116.94783612">
      </trkpt>
      <trkpt lat="49.93675783" lon="-116.94774078">
      </trkpt>
      <trkpt lat="49.93677167" lon="-116.94763317">
      </trkpt>
      <trkpt lat="49.93678353" lon="-116.947544">
      </trkpt>
      <trkpt lat="49.9367954" lon="-116.94746099">
      </trkpt>
      <trkpt lat="49.93680728" lon="-116.94739949">
      </trkpt>
      <trkpt lat="49.93682711" lon="-116.9473595">
      </trkpt>
      <trkpt lat="49.93686678" lon="-116.94733794">
      </trkpt>
      <trkpt lat="49.93692036" lon="-116.94735632">
      </trkpt>
      <trkpt lat="49.93697993" lon="-116.94743311">
      </trkpt>
      <trkpt lat="49.93704347" lon="-116.9475222">
      </trkpt>
      <trkpt lat="49.93709311" lon="-116.94760515">
      </trkpt>
      <trkpt lat="49.93714075" lon="-116.94765737">
      </trkpt>
      <trkpt lat="49.93719831" lon="-116.94769112">
      </trkpt>
      <trkpt lat="49.93725388" lon="-116.94771873">
      </trkpt>
      <trkpt lat="49.93728763" lon="-116.94774022">
      </trkpt>
      <trkpt lat="49.93729951" lon="-116.94770023">
      </trkpt>
      <trkpt lat="49.93730739" lon="-116.94757418">
      </trkpt>
      <trkpt lat="49.93730734" lon="-116.94745735">
      </trkpt>
      <trkpt lat="49.93730929" lon="-116.9473682">
      </trkpt>
      <trkpt lat="49.93731123" lon="-116.94727289">
      </trkpt>
      <trkpt lat="49.9373231" lon="-116.94719909">
      </trkpt>
      <trkpt lat="49.93733894" lon="-116.94713452">
      </trkpt>
      <trkpt lat="49.9373409" lon="-116.94707918">
      </trkpt>
      <trkpt lat="49.93732896" lon="-116.9470177">
      </trkpt>
      <trkpt lat="49.93731307" lon="-116.94696853">
      </trkpt>
      <trkpt lat="49.93730709" lon="-116.94691012">
      </trkpt>
      <trkpt lat="49.93731301" lon="-116.94684247">
      </trkpt>
      <trkpt lat="49.93731299" lon="-116.94679328">
      </trkpt>
      <trkpt lat="49.93733083" lon="-116.94675022">
      </trkpt>
      <trkpt lat="49.93736852" lon="-116.94673788">
      </trkpt>
      <trkpt lat="49.9374102" lon="-116.94674707">
      </trkpt>
      <trkpt lat="49.93745784" lon="-116.94678698">
      </trkpt>
      <trkpt lat="49.93752531" lon="-116.94680535">
      </trkpt>
      <trkpt lat="49.93757097" lon="-116.94683296">
      </trkpt>
      <trkpt lat="49.93761464" lon="-116.94687288">
      </trkpt>
      <trkpt lat="49.9376444" lon="-116.94688823">
      </trkpt>
      <trkpt lat="49.93767417" lon="-116.94689435">
      </trkpt>
    </trkseg>
  </trk>
</gpx>