<?xml version="1.0" encoding="UTF-8"?>
<gpx xmlns="http://www.topografix.com/GPX/1/1" xmlns:xsi="http://www.w3.org/2001/XMLSchema-instance" xsi:schemaLocation="http://www.topografix.com/GPX/1/1 http://www.topografix.com/GPX/1/1/gpx.xsd" version="1.1" creator="gpx.py -- https://github.com/tkrajina/gpxpy">
  <trk>
    <name>Timberwolf Trail</name>
    <trkseg>
      <trkpt lat="53.9104339" lon="-122.81169">
      </trkpt>
      <trkpt lat="53.9104099" lon="-122.8126651">
      </trkpt>
      <trkpt lat="53.9103985" lon="-122.8131322">
      </trkpt>
      <trkpt lat="53.9103074" lon="-122.8137593">
      </trkpt>
      <trkpt lat="53.9101498" lon="-122.8144113">
      </trkpt>
      <trkpt lat="53.9099131" lon="-122.814991">
      </trkpt>
      <trkpt lat="53.9096515" lon="-122.8153914">
      </trkpt>
      <trkpt lat="53.9094789" lon="-122.8155904">
      </trkpt>
      <trkpt lat="53.9092518" lon="-122.8157669">
      </trkpt>
      <trkpt lat="53.9089865" lon="-122.8159313">
      </trkpt>
      <trkpt lat="53.9087384" lon="-122.816032">
      </trkpt>
      <trkpt lat="53.9083565" lon="-122.8160523">
      </trkpt>
      <trkpt lat="53.9078843" lon="-122.8158608">
      </trkpt>
      <trkpt lat="53.9075275" lon="-122.815643">
      </trkpt>
      <trkpt lat="53.9070041" lon="-122.8153014">
      </trkpt>
      <trkpt lat="53.9065012" lon="-122.8150111">
      </trkpt>
      <trkpt lat="53.9060474" lon="-122.814781">
      </trkpt>
      <trkpt lat="53.9051567" lon="-122.8143921">
      </trkpt>
      <trkpt lat="53.9043168" lon="-122.8141636">
      </trkpt>
      <trkpt lat="53.9039993" lon="-122.8140723">
      </trkpt>
      <trkpt lat="53.9034807" lon="-122.813909">
      </trkpt>
      <trkpt lat="53.9030289" lon="-122.8137315">
      </trkpt>
      <trkpt lat="53.9025006" lon="-122.8134504">
      </trkpt>
      <trkpt lat="53.8996789" lon="-122.8119806">
      </trkpt>
      <trkpt lat="53.8989172" lon="-122.8114718">
      </trkpt>
      <trkpt lat="53.8976174" lon="-122.8103987">
      </trkpt>
      <trkpt lat="53.8968011" lon="-122.8097486">
      </trkpt>
      <trkpt lat="53.8960967" lon="-122.8093324">
      </trkpt>
      <trkpt lat="53.8948832" lon="-122.8088256">
      </trkpt>
      <trkpt lat="53.8945813" lon="-122.8087871">
      </trkpt>
      <trkpt lat="53.8938233" lon="-122.8086337">
      </trkpt>
      <trkpt lat="53.8937067" lon="-122.8085648">
      </trkpt>
    </trkseg>
    <trkseg>
      <trkpt lat="53.8937067" lon="-122.8085648">
      </trkpt>
      <trkpt lat="53.890544" lon="-122.8086036">
      </trkpt>
    </trkseg>
    <trkseg>
      <trkpt lat="53.890544" lon="-122.8086036">
      </trkpt>
      <trkpt lat="53.8900319" lon="-122.808609">
      </trkpt>
    </trkseg>
    <trkseg>
      <trkpt lat="53.8900319" lon="-122.808609">
      </trkpt>
      <trkpt lat="53.8896146" lon="-122.8086305">
      </trkpt>
      <trkpt lat="53.8889475" lon="-122.8087914">
      </trkpt>
      <trkpt lat="53.8887295" lon="-122.8089285">
      </trkpt>
      <trkpt lat="53.8885808" lon="-122.8090221">
      </trkpt>
      <trkpt lat="53.8883782" lon="-122.8091851">
      </trkpt>
      <trkpt lat="53.888233" lon="-122.8092957">
      </trkpt>
      <trkpt lat="53.887901" lon="-122.8098214">
      </trkpt>
      <trkpt lat="53.8876354" lon="-122.8103954">
      </trkpt>
      <trkpt lat="53.8874481" lon="-122.8110187">
      </trkpt>
      <trkpt lat="53.887339" lon="-122.8116505">
      </trkpt>
      <trkpt lat="53.8872968" lon="-122.812237">
      </trkpt>
      <trkpt lat="53.8873109" lon="-122.8134101">
      </trkpt>
      <trkpt lat="53.8873125" lon="-122.8135427">
      </trkpt>
    </trkseg>
    <trkseg>
      <trkpt lat="53.8873125" lon="-122.8135427">
      </trkpt>
      <trkpt lat="53.8878621" lon="-122.8135681">
      </trkpt>
      <trkpt lat="53.888153" lon="-122.8136747">
      </trkpt>
      <trkpt lat="53.8887931" lon="-122.8143549">
      </trkpt>
      <trkpt lat="53.8889039" lon="-122.8144846">
      </trkpt>
      <trkpt lat="53.8891439" lon="-122.8146282">
      </trkpt>
      <trkpt lat="53.889431" lon="-122.8146923">
      </trkpt>
      <trkpt lat="53.8896377" lon="-122.814705">
      </trkpt>
      <trkpt lat="53.8898659" lon="-122.8146334">
      </trkpt>
      <trkpt lat="53.8904276" lon="-122.8143674">
      </trkpt>
    </trkseg>
    <trkseg>
      <trkpt lat="53.8904276" lon="-122.8143674">
      </trkpt>
      <trkpt lat="53.8902938" lon="-122.8135194">
      </trkpt>
      <trkpt lat="53.890246" lon="-122.8131092">
      </trkpt>
      <trkpt lat="53.8902641" lon="-122.8128337">
      </trkpt>
      <trkpt lat="53.8903543" lon="-122.8124633">
      </trkpt>
      <trkpt lat="53.8905084" lon="-122.8121198">
      </trkpt>
      <trkpt lat="53.8906874" lon="-122.8118924">
      </trkpt>
      <trkpt lat="53.8908383" lon="-122.8118061">
      </trkpt>
      <trkpt lat="53.8910414" lon="-122.8117459">
      </trkpt>
      <trkpt lat="53.8912108" lon="-122.8117523">
      </trkpt>
      <trkpt lat="53.8912498" lon="-122.8117724">
      </trkpt>
      <trkpt lat="53.8917541" lon="-122.8120358">
      </trkpt>
      <trkpt lat="53.8924474" lon="-122.8123982">
      </trkpt>
      <trkpt lat="53.8926388" lon="-122.8124123">
      </trkpt>
      <trkpt lat="53.8927912" lon="-122.8123743">
      </trkpt>
      <trkpt lat="53.8929458" lon="-122.8123052">
      </trkpt>
      <trkpt lat="53.893082" lon="-122.8122221">
      </trkpt>
      <trkpt lat="53.8931396" lon="-122.8122041">
      </trkpt>
      <trkpt lat="53.8933483" lon="-122.8121176">
      </trkpt>
      <trkpt lat="53.8935579" lon="-122.8120774">
      </trkpt>
      <trkpt lat="53.8938389" lon="-122.8120943">
      </trkpt>
      <trkpt lat="53.8940158" lon="-122.8121515">
      </trkpt>
      <trkpt lat="53.8941708" lon="-122.8122284">
      </trkpt>
      <trkpt lat="53.8942664" lon="-122.8122843">
      </trkpt>
      <trkpt lat="53.8944782" lon="-122.8124472">
      </trkpt>
      <trkpt lat="53.8946331" lon="-122.8126696">
      </trkpt>
      <trkpt lat="53.8947358" lon="-122.8128683">
      </trkpt>
      <trkpt lat="53.8948278" lon="-122.8131576">
      </trkpt>
      <trkpt lat="53.8948678" lon="-122.8134794">
      </trkpt>
      <trkpt lat="53.8948693" lon="-122.8138761">
      </trkpt>
      <trkpt lat="53.8948105" lon="-122.8141632">
      </trkpt>
      <trkpt lat="53.8947327" lon="-122.8144287">
      </trkpt>
      <trkpt lat="53.8946124" lon="-122.8146761">
      </trkpt>
      <trkpt lat="53.894476" lon="-122.814833">
      </trkpt>
      <trkpt lat="53.8942731" lon="-122.8149667">
      </trkpt>
      <trkpt lat="53.8931068" lon="-122.8153553">
      </trkpt>
      <trkpt lat="53.8929816" lon="-122.8153932">
      </trkpt>
      <trkpt lat="53.8925126" lon="-122.8155386">
      </trkpt>
      <trkpt lat="53.8922729" lon="-122.8156014">
      </trkpt>
      <trkpt lat="53.8919257" lon="-122.8157128">
      </trkpt>
      <trkpt lat="53.8910104" lon="-122.8159949">
      </trkpt>
      <trkpt lat="53.890681" lon="-122.8160254">
      </trkpt>
    </trkseg>
    <trkseg>
      <trkpt lat="53.890681" lon="-122.8160254">
      </trkpt>
      <trkpt lat="53.890668" lon="-122.8158787">
      </trkpt>
      <trkpt lat="53.8904276" lon="-122.8143674">
      </trkpt>
    </trkseg>
    <trkseg>
      <trkpt lat="53.8906036" lon="-122.8169896">
      </trkpt>
      <trkpt lat="53.8906441" lon="-122.8166734">
      </trkpt>
      <trkpt lat="53.8906712" lon="-122.8163867">
      </trkpt>
      <trkpt lat="53.890681" lon="-122.8160254">
      </trkpt>
    </trkseg>
    <trkseg>
      <trkpt lat="53.8906036" lon="-122.8169896">
      </trkpt>
      <trkpt lat="53.8908825" lon="-122.8170778">
      </trkpt>
      <trkpt lat="53.8916157" lon="-122.8166824">
      </trkpt>
    </trkseg>
    <trkseg>
      <trkpt lat="53.8904276" lon="-122.8143674">
      </trkpt>
      <trkpt lat="53.8907885" lon="-122.8142046">
      </trkpt>
    </trkseg>
    <trkseg>
      <trkpt lat="53.8907885" lon="-122.8142046">
      </trkpt>
      <trkpt lat="53.8908266" lon="-122.8139728">
      </trkpt>
      <trkpt lat="53.8908953" lon="-122.8138718">
      </trkpt>
      <trkpt lat="53.8913293" lon="-122.8136938">
      </trkpt>
      <trkpt lat="53.8914122" lon="-122.8137438">
      </trkpt>
      <trkpt lat="53.8914622" lon="-122.8138838">
      </trkpt>
    </trkseg>
    <trkseg>
      <trkpt lat="53.8914622" lon="-122.8138838">
      </trkpt>
      <trkpt lat="53.8914621" lon="-122.8140538">
      </trkpt>
      <trkpt lat="53.8914054" lon="-122.8141798">
      </trkpt>
      <trkpt lat="53.8909869" lon="-122.8143888">
      </trkpt>
      <trkpt lat="53.8908759" lon="-122.8143478">
      </trkpt>
      <trkpt lat="53.8907885" lon="-122.8142046">
      </trkpt>
    </trkseg>
  </trk>
</gpx>