<?xml version="1.0" encoding="UTF-8"?>
<gpx xmlns="http://www.topografix.com/GPX/1/1" xmlns:xsi="http://www.w3.org/2001/XMLSchema-instance" xsi:schemaLocation="http://www.topografix.com/GPX/1/1 http://www.topografix.com/GPX/1/1/gpx.xsd" version="1.1" creator="gpx.py -- https://github.com/tkrajina/gpxpy">
  <trk>
    <name>American Creek Trail</name>
    <trkseg>
      <trkpt lat="56.10126707" lon="-129.87698948">
      </trkpt>
      <trkpt lat="56.10128467" lon="-129.87703759">
      </trkpt>
      <trkpt lat="56.10130564" lon="-129.87706615">
      </trkpt>
      <trkpt lat="56.10133812" lon="-129.87708722">
      </trkpt>
      <trkpt lat="56.10162569" lon="-129.87711051">
      </trkpt>
      <trkpt lat="56.10187728" lon="-129.87710003">
      </trkpt>
      <trkpt lat="56.10243662" lon="-129.8768557">
      </trkpt>
      <trkpt lat="56.10266112" lon="-129.8769242">
      </trkpt>
      <trkpt lat="56.10274035" lon="-129.87697436">
      </trkpt>
      <trkpt lat="56.10316906" lon="-129.87748241">
      </trkpt>
      <trkpt lat="56.10325684" lon="-129.87769373">
      </trkpt>
      <trkpt lat="56.10347109" lon="-129.87798808">
      </trkpt>
      <trkpt lat="56.10364771" lon="-129.87826562">
      </trkpt>
      <trkpt lat="56.10374544" lon="-129.87844464">
      </trkpt>
      <trkpt lat="56.10394035" lon="-129.87893169">
      </trkpt>
      <trkpt lat="56.10406311" lon="-129.87931989">
      </trkpt>
      <trkpt lat="56.10417752" lon="-129.8797244">
      </trkpt>
      <trkpt lat="56.10429802" lon="-129.88037048">
      </trkpt>
      <trkpt lat="56.10447743" lon="-129.88097106">
      </trkpt>
      <trkpt lat="56.10457832" lon="-129.88129349">
      </trkpt>
      <trkpt lat="56.10468364" lon="-129.88166485">
      </trkpt>
      <trkpt lat="56.1047623" lon="-129.88210114">
      </trkpt>
      <trkpt lat="56.10475016" lon="-129.88253552">
      </trkpt>
      <trkpt lat="56.10468375" lon="-129.8829837">
      </trkpt>
      <trkpt lat="56.10467519" lon="-129.88307481">
      </trkpt>
      <trkpt lat="56.1046909" lon="-129.8833373">
      </trkpt>
      <trkpt lat="56.10491318" lon="-129.88355184">
      </trkpt>
      <trkpt lat="56.10516441" lon="-129.88358974">
      </trkpt>
      <trkpt lat="56.10522804" lon="-129.88352646">
      </trkpt>
      <trkpt lat="56.105384" lon="-129.88304778">
      </trkpt>
      <trkpt lat="56.10544697" lon="-129.8829693">
      </trkpt>
      <trkpt lat="56.10550268" lon="-129.88276104">
      </trkpt>
      <trkpt lat="56.10562303" lon="-129.88234639">
      </trkpt>
      <trkpt lat="56.10582264" lon="-129.88198092">
      </trkpt>
      <trkpt lat="56.10605005" lon="-129.88169683">
      </trkpt>
      <trkpt lat="56.10624909" lon="-129.88146035">
      </trkpt>
      <trkpt lat="56.10652057" lon="-129.8814112">
      </trkpt>
      <trkpt lat="56.1067166" lon="-129.88135827">
      </trkpt>
      <trkpt lat="56.10704953" lon="-129.88133084">
      </trkpt>
      <trkpt lat="56.10728256" lon="-129.88133848">
      </trkpt>
      <trkpt lat="56.10755256" lon="-129.88131268">
      </trkpt>
      <trkpt lat="56.10767059" lon="-129.88126786">
      </trkpt>
      <trkpt lat="56.10787951" lon="-129.88142084">
      </trkpt>
      <trkpt lat="56.10801952" lon="-129.88172082">
      </trkpt>
      <trkpt lat="56.10828952" lon="-129.88177083">
      </trkpt>
      <trkpt lat="56.10836951" lon="-129.88189082">
      </trkpt>
      <trkpt lat="56.10857951" lon="-129.88204081">
      </trkpt>
      <trkpt lat="56.10868951" lon="-129.88209081">
      </trkpt>
      <trkpt lat="56.10876951" lon="-129.8822308">
      </trkpt>
      <trkpt lat="56.10894951" lon="-129.8822808">
      </trkpt>
      <trkpt lat="56.1090095" lon="-129.8823908">
      </trkpt>
      <trkpt lat="56.1091195" lon="-129.88253078">
      </trkpt>
      <trkpt lat="56.1091695" lon="-129.88256079">
      </trkpt>
      <trkpt lat="56.1092395" lon="-129.88269078">
      </trkpt>
      <trkpt lat="56.1093095" lon="-129.88271079">
      </trkpt>
      <trkpt lat="56.1093395" lon="-129.88282078">
      </trkpt>
      <trkpt lat="56.1093495" lon="-129.88293078">
      </trkpt>
      <trkpt lat="56.1095595" lon="-129.88299078">
      </trkpt>
      <trkpt lat="56.10971949" lon="-129.88302077">
      </trkpt>
      <trkpt lat="56.10987949" lon="-129.88311077">
      </trkpt>
      <trkpt lat="56.11013948" lon="-129.88307077">
      </trkpt>
      <trkpt lat="56.11029949" lon="-129.88307077">
      </trkpt>
      <trkpt lat="56.11051948" lon="-129.88307077">
      </trkpt>
      <trkpt lat="56.11068948" lon="-129.88315075">
      </trkpt>
      <trkpt lat="56.11074948" lon="-129.88315076">
      </trkpt>
      <trkpt lat="56.11093787" lon="-129.88316881">
      </trkpt>
      <trkpt lat="56.11123947" lon="-129.88330075">
      </trkpt>
      <trkpt lat="56.11137947" lon="-129.88328075">
      </trkpt>
      <trkpt lat="56.11151947" lon="-129.88338075">
      </trkpt>
      <trkpt lat="56.11166947" lon="-129.88338075">
      </trkpt>
      <trkpt lat="56.11173946" lon="-129.88335075">
      </trkpt>
      <trkpt lat="56.11187946" lon="-129.88345075">
      </trkpt>
      <trkpt lat="56.11202946" lon="-129.88347074">
      </trkpt>
      <trkpt lat="56.11216388" lon="-129.88361232">
      </trkpt>
      <trkpt lat="56.11254101" lon="-129.88362097">
      </trkpt>
      <trkpt lat="56.11282885" lon="-129.88357563">
      </trkpt>
      <trkpt lat="56.11298945" lon="-129.88357074">
      </trkpt>
      <trkpt lat="56.11313335" lon="-129.88341266">
      </trkpt>
      <trkpt lat="56.11344943" lon="-129.88345073">
      </trkpt>
      <trkpt lat="56.11373943" lon="-129.88341074">
      </trkpt>
      <trkpt lat="56.11392943" lon="-129.88346074">
      </trkpt>
      <trkpt lat="56.11417942" lon="-129.88348073">
      </trkpt>
      <trkpt lat="56.11459941" lon="-129.88354072">
      </trkpt>
      <trkpt lat="56.11480941" lon="-129.88352073">
      </trkpt>
      <trkpt lat="56.11496941" lon="-129.88382071">
      </trkpt>
      <trkpt lat="56.11511941" lon="-129.88389072">
      </trkpt>
      <trkpt lat="56.11522941" lon="-129.8840807">
      </trkpt>
      <trkpt lat="56.11525941" lon="-129.8842207">
      </trkpt>
      <trkpt lat="56.11537941" lon="-129.8843407">
      </trkpt>
      <trkpt lat="56.11559824" lon="-129.88434258">
      </trkpt>
      <trkpt lat="56.1156294" lon="-129.8843707">
      </trkpt>
      <trkpt lat="56.1156694" lon="-129.88452069">
      </trkpt>
      <trkpt lat="56.1158294" lon="-129.88478068">
      </trkpt>
      <trkpt lat="56.1160494" lon="-129.88495067">
      </trkpt>
      <trkpt lat="56.1161194" lon="-129.88511066">
      </trkpt>
      <trkpt lat="56.11649939" lon="-129.88533065">
      </trkpt>
      <trkpt lat="56.11668938" lon="-129.88554064">
      </trkpt>
      <trkpt lat="56.11694938" lon="-129.88544064">
      </trkpt>
      <trkpt lat="56.11710938" lon="-129.88556064">
      </trkpt>
      <trkpt lat="56.11729938" lon="-129.88553064">
      </trkpt>
      <trkpt lat="56.11738938" lon="-129.88556064">
      </trkpt>
      <trkpt lat="56.11766937" lon="-129.88590063">
      </trkpt>
      <trkpt lat="56.11771937" lon="-129.88616061">
      </trkpt>
      <trkpt lat="56.11781937" lon="-129.88626061">
      </trkpt>
      <trkpt lat="56.11805937" lon="-129.8864306">
      </trkpt>
      <trkpt lat="56.11825936" lon="-129.88656061">
      </trkpt>
      <trkpt lat="56.11853936" lon="-129.88671059">
      </trkpt>
      <trkpt lat="56.11863936" lon="-129.88687058">
      </trkpt>
      <trkpt lat="56.11875935" lon="-129.88705058">
      </trkpt>
      <trkpt lat="56.11893935" lon="-129.88727058">
      </trkpt>
      <trkpt lat="56.11914935" lon="-129.88746056">
      </trkpt>
      <trkpt lat="56.11931935" lon="-129.88764055">
      </trkpt>
      <trkpt lat="56.11944934" lon="-129.88800054">
      </trkpt>
      <trkpt lat="56.11950935" lon="-129.88810053">
      </trkpt>
      <trkpt lat="56.11964935" lon="-129.88831053">
      </trkpt>
      <trkpt lat="56.11981934" lon="-129.88838053">
      </trkpt>
      <trkpt lat="56.12029934" lon="-129.8887505">
      </trkpt>
      <trkpt lat="56.12082933" lon="-129.8890105">
      </trkpt>
      <trkpt lat="56.12093932" lon="-129.88930049">
      </trkpt>
      <trkpt lat="56.12108087" lon="-129.88965306">
      </trkpt>
      <trkpt lat="56.12114932" lon="-129.88972047">
      </trkpt>
      <trkpt lat="56.12164931" lon="-129.89011044">
      </trkpt>
      <trkpt lat="56.12181932" lon="-129.89022045">
      </trkpt>
      <trkpt lat="56.12191931" lon="-129.89044044">
      </trkpt>
      <trkpt lat="56.12204931" lon="-129.89053043">
      </trkpt>
      <trkpt lat="56.12220931" lon="-129.89058043">
      </trkpt>
      <trkpt lat="56.12229931" lon="-129.89083042">
      </trkpt>
      <trkpt lat="56.1225193" lon="-129.89104041">
      </trkpt>
      <trkpt lat="56.12264931" lon="-129.89120041">
      </trkpt>
      <trkpt lat="56.1229593" lon="-129.89144039">
      </trkpt>
      <trkpt lat="56.1232293" lon="-129.89150039">
      </trkpt>
      <trkpt lat="56.12350929" lon="-129.89149038">
      </trkpt>
      <trkpt lat="56.12372929" lon="-129.89141039">
      </trkpt>
      <trkpt lat="56.12393928" lon="-129.89148039">
      </trkpt>
      <trkpt lat="56.12401928" lon="-129.89141039">
      </trkpt>
      <trkpt lat="56.12415928" lon="-129.89149039">
      </trkpt>
      <trkpt lat="56.12437928" lon="-129.89170037">
      </trkpt>
      <trkpt lat="56.12446527" lon="-129.89181846">
      </trkpt>
      <trkpt lat="56.12459927" lon="-129.89175037">
      </trkpt>
      <trkpt lat="56.12474927" lon="-129.89188037">
      </trkpt>
      <trkpt lat="56.12501926" lon="-129.89178037">
      </trkpt>
      <trkpt lat="56.12509927" lon="-129.89191037">
      </trkpt>
      <trkpt lat="56.12513927" lon="-129.89208035">
      </trkpt>
      <trkpt lat="56.12523927" lon="-129.89216035">
      </trkpt>
      <trkpt lat="56.12559926" lon="-129.89217036">
      </trkpt>
      <trkpt lat="56.12581925" lon="-129.89207036">
      </trkpt>
      <trkpt lat="56.12604925" lon="-129.89204036">
      </trkpt>
      <trkpt lat="56.126169" lon="-129.8922168">
      </trkpt>
    </trkseg>
  </trk>
</gpx>