<?xml version="1.0" encoding="UTF-8"?>
<gpx xmlns="http://www.topografix.com/GPX/1/1" xmlns:xsi="http://www.w3.org/2001/XMLSchema-instance" xsi:schemaLocation="http://www.topografix.com/GPX/1/1 http://www.topografix.com/GPX/1/1/gpx.xsd" version="1.1" creator="gpx.py -- https://github.com/tkrajina/gpxpy">
  <trk>
    <name>Capoose Summer Trail</name>
    <trkseg>
      <trkpt lat="52.44253717" lon="-126.33382926">
      </trkpt>
      <trkpt lat="52.44254971" lon="-126.3338605">
      </trkpt>
      <trkpt lat="52.44254705" lon="-126.33390614">
      </trkpt>
      <trkpt lat="52.44254694" lon="-126.3339435">
      </trkpt>
      <trkpt lat="52.44255571" lon="-126.33396848">
      </trkpt>
      <trkpt lat="52.44256321" lon="-126.33399552">
      </trkpt>
      <trkpt lat="52.44256822" lon="-126.33401008">
      </trkpt>
      <trkpt lat="52.44257193" lon="-126.33403709">
      </trkpt>
      <trkpt lat="52.44257312" lon="-126.33406616">
      </trkpt>
      <trkpt lat="52.44257307" lon="-126.33408069">
      </trkpt>
      <trkpt lat="52.44256921" lon="-126.33410556">
      </trkpt>
      <trkpt lat="52.4425628" lon="-126.33413873">
      </trkpt>
      <trkpt lat="52.44255894" lon="-126.3341636">
      </trkpt>
      <trkpt lat="52.44255758" lon="-126.33419887">
      </trkpt>
      <trkpt lat="52.44255747" lon="-126.3342383">
      </trkpt>
      <trkpt lat="52.44255357" lon="-126.33427355">
      </trkpt>
      <trkpt lat="52.44254466" lon="-126.33429839">
      </trkpt>
      <trkpt lat="52.44253699" lon="-126.33433155">
      </trkpt>
      <trkpt lat="52.44253309" lon="-126.33437094">
      </trkpt>
      <trkpt lat="52.44252918" lon="-126.33441243">
      </trkpt>
      <trkpt lat="52.44252654" lon="-126.33445391">
      </trkpt>
      <trkpt lat="52.44252641" lon="-126.3344975">
      </trkpt>
      <trkpt lat="52.44253136" lon="-126.33453075">
      </trkpt>
      <trkpt lat="52.44254263" lon="-126.33456612">
      </trkpt>
      <trkpt lat="52.44255895" lon="-126.33459945">
      </trkpt>
      <trkpt lat="52.44257148" lon="-126.33463483">
      </trkpt>
      <trkpt lat="52.44257893" lon="-126.33467848">
      </trkpt>
      <trkpt lat="52.44258884" lon="-126.33474497">
      </trkpt>
      <trkpt lat="52.4425913" lon="-126.3347699">
      </trkpt>
      <trkpt lat="52.44258233" lon="-126.33481341">
      </trkpt>
      <trkpt lat="52.44257214" lon="-126.33484239">
      </trkpt>
      <trkpt lat="52.44257075" lon="-126.33488804">
      </trkpt>
      <trkpt lat="52.44257069" lon="-126.33491087">
      </trkpt>
      <trkpt lat="52.44256683" lon="-126.33493367">
      </trkpt>
      <trkpt lat="52.44256266" lon="-126.33495304">
      </trkpt>
      <trkpt lat="52.44256827" lon="-126.33495487">
      </trkpt>
      <trkpt lat="52.44257356" lon="-126.33496343">
      </trkpt>
      <trkpt lat="52.44257887" lon="-126.33498052">
      </trkpt>
      <trkpt lat="52.44257888" lon="-126.33498338">
      </trkpt>
      <trkpt lat="52.44258244" lon="-126.33500332">
      </trkpt>
      <trkpt lat="52.44258598" lon="-126.3350204">
      </trkpt>
      <trkpt lat="52.44258778" lon="-126.33503748">
      </trkpt>
      <trkpt lat="52.44259308" lon="-126.33505171">
      </trkpt>
      <trkpt lat="52.44259836" lon="-126.33506309">
      </trkpt>
      <trkpt lat="52.44260538" lon="-126.33506877">
      </trkpt>
      <trkpt lat="52.44261241" lon="-126.33507446">
      </trkpt>
      <trkpt lat="52.44261943" lon="-126.33508299">
      </trkpt>
      <trkpt lat="52.44262821" lon="-126.33509152">
      </trkpt>
      <trkpt lat="52.44263523" lon="-126.3350972">
      </trkpt>
      <trkpt lat="52.442637" lon="-126.33510287">
      </trkpt>
      <trkpt lat="52.44264228" lon="-126.33512275">
      </trkpt>
      <trkpt lat="52.4426494" lon="-126.33513623">
      </trkpt>
      <trkpt lat="52.44265656" lon="-126.3351521">
      </trkpt>
      <trkpt lat="52.44266367" lon="-126.33516533">
      </trkpt>
      <trkpt lat="52.44267241" lon="-126.33517948">
      </trkpt>
      <trkpt lat="52.44267941" lon="-126.33518506">
      </trkpt>
      <trkpt lat="52.44268814" lon="-126.33519062">
      </trkpt>
      <trkpt lat="52.44269687" lon="-126.33520189">
      </trkpt>
      <trkpt lat="52.4427056" lon="-126.3352103">
      </trkpt>
      <trkpt lat="52.44271084" lon="-126.33521877">
      </trkpt>
      <trkpt lat="52.44271609" lon="-126.33522969">
      </trkpt>
      <trkpt lat="52.44271788" lon="-126.33523449">
      </trkpt>
      <trkpt lat="52.44272148" lon="-126.33524908">
      </trkpt>
      <trkpt lat="52.44272152" lon="-126.3352566">
      </trkpt>
      <trkpt lat="52.44272155" lon="-126.3352616">
      </trkpt>
      <trkpt lat="52.44271987" lon="-126.33527181">
      </trkpt>
      <trkpt lat="52.44271293" lon="-126.33527779">
      </trkpt>
      <trkpt lat="52.44270428" lon="-126.33528898">
      </trkpt>
      <trkpt lat="52.44269563" lon="-126.33530016">
      </trkpt>
      <trkpt lat="52.44269049" lon="-126.33531085">
      </trkpt>
      <trkpt lat="52.44269061" lon="-126.3353232">
      </trkpt>
      <trkpt lat="52.4426942" lon="-126.33533254">
      </trkpt>
      <trkpt lat="52.44269951" lon="-126.33534159">
      </trkpt>
      <trkpt lat="52.44270304" lon="-126.33534841">
      </trkpt>
      <trkpt lat="52.44270658" lon="-126.33535766">
      </trkpt>
      <trkpt lat="52.44271012" lon="-126.33536687">
      </trkpt>
      <trkpt lat="52.44271188" lon="-126.33537145">
      </trkpt>
      <trkpt lat="52.44271714" lon="-126.33538519">
      </trkpt>
      <trkpt lat="52.44272065" lon="-126.33539671">
      </trkpt>
      <trkpt lat="52.44272587" lon="-126.33541029">
      </trkpt>
      <trkpt lat="52.44272931" lon="-126.33541694">
      </trkpt>
      <trkpt lat="52.44273447" lon="-126.33542803">
      </trkpt>
      <trkpt lat="52.44274128" lon="-126.33543405">
      </trkpt>
      <trkpt lat="52.44274806" lon="-126.33543769">
      </trkpt>
      <trkpt lat="52.44275481" lon="-126.33544132">
      </trkpt>
      <trkpt lat="52.44276155" lon="-126.33544493">
      </trkpt>
      <trkpt lat="52.44277494" lon="-126.33545062">
      </trkpt>
      <trkpt lat="52.44278325" lon="-126.33545526">
      </trkpt>
      <trkpt lat="52.4427948" lon="-126.33546126">
      </trkpt>
      <trkpt lat="52.44280462" lon="-126.33546766">
      </trkpt>
      <trkpt lat="52.44280952" lon="-126.3354686">
      </trkpt>
      <trkpt lat="52.44281766" lon="-126.33547102">
      </trkpt>
      <trkpt lat="52.44282416" lon="-126.33547185">
      </trkpt>
      <trkpt lat="52.44283224" lon="-126.33547461">
      </trkpt>
      <trkpt lat="52.44283384" lon="-126.33547656">
      </trkpt>
      <trkpt lat="52.44284824" lon="-126.33548703">
      </trkpt>
      <trkpt lat="52.4428609" lon="-126.3354978">
      </trkpt>
      <trkpt lat="52.44287031" lon="-126.33550695">
      </trkpt>
      <trkpt lat="52.44287657" lon="-126.33551226">
      </trkpt>
      <trkpt lat="52.44288282" lon="-126.33551527">
      </trkpt>
      <trkpt lat="52.44289067" lon="-126.33551563">
      </trkpt>
      <trkpt lat="52.44289853" lon="-126.33551641">
      </trkpt>
      <trkpt lat="52.44290488" lon="-126.33551549">
      </trkpt>
      <trkpt lat="52.44291112" lon="-126.33551909">
      </trkpt>
      <trkpt lat="52.44291409" lon="-126.33552763">
      </trkpt>
      <trkpt lat="52.44291387" lon="-126.33553886">
      </trkpt>
      <trkpt lat="52.44291521" lon="-126.33554712">
      </trkpt>
      <trkpt lat="52.44291488" lon="-126.3355573">
      </trkpt>
      <trkpt lat="52.44291462" lon="-126.33556542">
      </trkpt>
      <trkpt lat="52.44291577" lon="-126.33557718">
      </trkpt>
      <trkpt lat="52.44291558" lon="-126.33558322">
      </trkpt>
      <trkpt lat="52.44291672" lon="-126.33559487">
      </trkpt>
      <trkpt lat="52.44291638" lon="-126.33560485">
      </trkpt>
      <trkpt lat="52.44291758" lon="-126.33561441">
      </trkpt>
      <trkpt lat="52.44292038" lon="-126.33562158">
      </trkpt>
      <trkpt lat="52.44292316" lon="-126.33562872">
      </trkpt>
      <trkpt lat="52.44292737" lon="-126.33563741">
      </trkpt>
      <trkpt lat="52.44292854" lon="-126.3356468">
      </trkpt>
      <trkpt lat="52.44293128" lon="-126.33565382">
      </trkpt>
      <trkpt lat="52.44293394" lon="-126.33566274">
      </trkpt>
      <trkpt lat="52.44293995" lon="-126.33566126">
      </trkpt>
      <trkpt lat="52.44294422" lon="-126.33566592">
      </trkpt>
      <trkpt lat="52.44294855" lon="-126.33566863">
      </trkpt>
      <trkpt lat="52.4429542" lon="-126.33567479">
      </trkpt>
      <trkpt lat="52.44295702" lon="-126.33567787">
      </trkpt>
      <trkpt lat="52.4429641" lon="-126.3356836">
      </trkpt>
      <trkpt lat="52.44297264" lon="-126.33569158">
      </trkpt>
      <trkpt lat="52.44297687" lon="-126.33569677">
      </trkpt>
      <trkpt lat="52.44298391" lon="-126.33570539">
      </trkpt>
      <trkpt lat="52.44298796" lon="-126.33571441">
      </trkpt>
      <trkpt lat="52.44299206" lon="-126.33572145">
      </trkpt>
      <trkpt lat="52.44299477" lon="-126.33572678">
      </trkpt>
      <trkpt lat="52.44299893" lon="-126.33573187">
      </trkpt>
      <trkpt lat="52.44300914" lon="-126.33573223">
      </trkpt>
      <trkpt lat="52.44301053" lon="-126.33573392">
      </trkpt>
      <trkpt lat="52.44302061" lon="-126.33573618">
      </trkpt>
      <trkpt lat="52.44302617" lon="-126.33574101">
      </trkpt>
      <trkpt lat="52.44303182" lon="-126.33574392">
      </trkpt>
      <trkpt lat="52.443036" lon="-126.33574704">
      </trkpt>
      <trkpt lat="52.44305535" lon="-126.33575503">
      </trkpt>
      <trkpt lat="52.44306448" lon="-126.33575326">
      </trkpt>
      <trkpt lat="52.44307036" lon="-126.33574657">
      </trkpt>
      <trkpt lat="52.44307485" lon="-126.33574387">
      </trkpt>
      <trkpt lat="52.44308073" lon="-126.33573718">
      </trkpt>
      <trkpt lat="52.44308219" lon="-126.33573504">
      </trkpt>
      <trkpt lat="52.44308798" lon="-126.33572462">
      </trkpt>
      <trkpt lat="52.44309541" lon="-126.33571762">
      </trkpt>
      <trkpt lat="52.44310435" lon="-126.33571032">
      </trkpt>
      <trkpt lat="52.44311028" lon="-126.33570357">
      </trkpt>
      <trkpt lat="52.44311474" lon="-126.33569899">
      </trkpt>
      <trkpt lat="52.44312372" lon="-126.33569356">
      </trkpt>
      <trkpt lat="52.44313273" lon="-126.33569002">
      </trkpt>
      <trkpt lat="52.44314172" lon="-126.33568837">
      </trkpt>
      <trkpt lat="52.44315065" lon="-126.33568297">
      </trkpt>
      <trkpt lat="52.44315957" lon="-126.3356757">
      </trkpt>
      <trkpt lat="52.443167" lon="-126.33567059">
      </trkpt>
      <trkpt lat="52.44317444" lon="-126.33566358">
      </trkpt>
      <trkpt lat="52.4431789" lon="-126.33565899">
      </trkpt>
      <trkpt lat="52.44318193" lon="-126.33564703">
      </trkpt>
      <trkpt lat="52.44318349" lon="-126.33563525">
      </trkpt>
      <trkpt lat="52.44318504" lon="-126.33562726">
      </trkpt>
      <trkpt lat="52.44318807" lon="-126.33562092">
      </trkpt>
      <trkpt lat="52.44319262" lon="-126.33561236">
      </trkpt>
      <trkpt lat="52.44319718" lon="-126.33560572">
      </trkpt>
      <trkpt lat="52.44320468" lon="-126.33560252">
      </trkpt>
      <trkpt lat="52.44321064" lon="-126.33560152">
      </trkpt>
      <trkpt lat="52.44321511" lon="-126.33560079">
      </trkpt>
      <trkpt lat="52.44322404" lon="-126.3355997">
      </trkpt>
      <trkpt lat="52.44323149" lon="-126.33559905">
      </trkpt>
      <trkpt lat="52.44323744" lon="-126.33559853">
      </trkpt>
      <trkpt lat="52.44324488" lon="-126.33559811">
      </trkpt>
      <trkpt lat="52.44325232" lon="-126.33559768">
      </trkpt>
      <trkpt lat="52.44325974" lon="-126.33559725">
      </trkpt>
      <trkpt lat="52.44326717" lon="-126.33559682">
      </trkpt>
      <trkpt lat="52.44327174" lon="-126.33559249">
      </trkpt>
      <trkpt lat="52.44327773" lon="-126.33559012">
      </trkpt>
      <trkpt lat="52.44328684" lon="-126.3355835">
      </trkpt>
      <trkpt lat="52.44329447" lon="-126.33557694">
      </trkpt>
      <trkpt lat="52.44330056" lon="-126.33557251">
      </trkpt>
      <trkpt lat="52.44330517" lon="-126.33556816">
      </trkpt>
      <trkpt lat="52.44331277" lon="-126.33556362">
      </trkpt>
      <trkpt lat="52.44332025" lon="-126.33556101">
      </trkpt>
      <trkpt lat="52.44332618" lon="-126.33556066">
      </trkpt>
      <trkpt lat="52.44333358" lon="-126.33556023">
      </trkpt>
      <trkpt lat="52.4433395" lon="-126.33555987">
      </trkpt>
      <trkpt lat="52.443344" lon="-126.33555745">
      </trkpt>
      <trkpt lat="52.44335147" lon="-126.33555484">
      </trkpt>
      <trkpt lat="52.44335884" lon="-126.33555441">
      </trkpt>
      <trkpt lat="52.4433631" lon="-126.3355585">
      </trkpt>
      <trkpt lat="52.44335967" lon="-126.3355692">
      </trkpt>
      <trkpt lat="52.4433547" lon="-126.33557964">
      </trkpt>
      <trkpt lat="52.44334987" lon="-126.335588">
      </trkpt>
      <trkpt lat="52.44334496" lon="-126.33559835">
      </trkpt>
      <trkpt lat="52.44334455" lon="-126.33560638">
      </trkpt>
      <trkpt lat="52.44333861" lon="-126.33560874">
      </trkpt>
      <trkpt lat="52.44333112" lon="-126.33561318">
      </trkpt>
      <trkpt lat="52.44332528" lon="-126.33561351">
      </trkpt>
      <trkpt lat="52.44331917" lon="-126.33561985">
      </trkpt>
      <trkpt lat="52.44331599" lon="-126.335626">
      </trkpt>
      <trkpt lat="52.44331137" lon="-126.33563221">
      </trkpt>
      <trkpt lat="52.44330392" lon="-126.33563662">
      </trkpt>
      <trkpt lat="52.44329664" lon="-126.33563706">
      </trkpt>
      <trkpt lat="52.44329066" lon="-126.33564137">
      </trkpt>
      <trkpt lat="52.44328906" lon="-126.33564541">
      </trkpt>
      <trkpt lat="52.4432858" lon="-126.3356554">
      </trkpt>
      <trkpt lat="52.44328402" lon="-126.33566526">
      </trkpt>
      <trkpt lat="52.44328374" lon="-126.33567304">
      </trkpt>
      <trkpt lat="52.44328334" lon="-126.33568462">
      </trkpt>
      <trkpt lat="52.44328307" lon="-126.33569223">
      </trkpt>
      <trkpt lat="52.44328849" lon="-126.33569909">
      </trkpt>
      <trkpt lat="52.44329251" lon="-126.33570422">
      </trkpt>
      <trkpt lat="52.44329495" lon="-126.33571312">
      </trkpt>
      <trkpt lat="52.44329737" lon="-126.33572195">
      </trkpt>
      <trkpt lat="52.44330127" lon="-126.33572879">
      </trkpt>
      <trkpt lat="52.44330636" lon="-126.33573903">
      </trkpt>
      <trkpt lat="52.44330889" lon="-126.3357441">
      </trkpt>
      <trkpt lat="52.44331419" lon="-126.33574889">
      </trkpt>
      <trkpt lat="52.44331809" lon="-126.33575378">
      </trkpt>
      <trkpt lat="52.44332186" lon="-126.33576041">
      </trkpt>
      <trkpt lat="52.44332582" lon="-126.33576351">
      </trkpt>
      <trkpt lat="52.44332955" lon="-126.33577008">
      </trkpt>
      <trkpt lat="52.44333336" lon="-126.33577489">
      </trkpt>
      <trkpt lat="52.44333853" lon="-126.33577951">
      </trkpt>
      <trkpt lat="52.44334389" lon="-126.33578067">
      </trkpt>
      <trkpt lat="52.44335071" lon="-126.33577995">
      </trkpt>
      <trkpt lat="52.44335888" lon="-126.33577908">
      </trkpt>
      <trkpt lat="52.44336702" lon="-126.33577814">
      </trkpt>
      <trkpt lat="52.44337505" lon="-126.33577682">
      </trkpt>
      <trkpt lat="52.44338407" lon="-126.33577851">
      </trkpt>
      <trkpt lat="52.44339056" lon="-126.33577903">
      </trkpt>
      <trkpt lat="52.44339965" lon="-126.3357791">
      </trkpt>
      <trkpt lat="52.44340608" lon="-126.33577961">
      </trkpt>
      <trkpt lat="52.44341102" lon="-126.33578207">
      </trkpt>
      <trkpt lat="52.44341733" lon="-126.33578458">
      </trkpt>
      <trkpt lat="52.44342113" lon="-126.33578576">
      </trkpt>
      <trkpt lat="52.44342626" lon="-126.3357868">
      </trkpt>
      <trkpt lat="52.44343137" lon="-126.33578784">
      </trkpt>
      <trkpt lat="52.44343799" lon="-126.33578717">
      </trkpt>
      <trkpt lat="52.44344592" lon="-126.33578636">
      </trkpt>
      <trkpt lat="52.44345119" lon="-126.33578583">
      </trkpt>
      <trkpt lat="52.44345778" lon="-126.33578517">
      </trkpt>
      <trkpt lat="52.44346283" lon="-126.33578621">
      </trkpt>
      <trkpt lat="52.44346765" lon="-126.33578882">
      </trkpt>
      <trkpt lat="52.44347346" lon="-126.33579259">
      </trkpt>
      <trkpt lat="52.44347885" lon="-126.33579035">
      </trkpt>
      <trkpt lat="52.44348448" lon="-126.33578657">
      </trkpt>
      <trkpt lat="52.44349036" lon="-126.33578124">
      </trkpt>
      <trkpt lat="52.44349681" lon="-126.33578039">
      </trkpt>
      <trkpt lat="52.44350172" lon="-126.33578126">
      </trkpt>
      <trkpt lat="52.44350611" lon="-126.3357852">
      </trkpt>
      <trkpt lat="52.44350793" lon="-126.33578947">
      </trkpt>
      <trkpt lat="52.44351483" lon="-126.33579302">
      </trkpt>
      <trkpt lat="52.44352295" lon="-126.33579638">
      </trkpt>
      <trkpt lat="52.44352849" lon="-126.33580006">
      </trkpt>
      <trkpt lat="52.44353426" lon="-126.33580222">
      </trkpt>
      <trkpt lat="52.44353822" lon="-126.33580754">
      </trkpt>
      <trkpt lat="52.44354171" lon="-126.33580851">
      </trkpt>
      <trkpt lat="52.44354562" lon="-126.33581379">
      </trkpt>
      <trkpt lat="52.44355225" lon="-126.33581718">
      </trkpt>
      <trkpt lat="52.44355583" lon="-126.33582386">
      </trkpt>
      <trkpt lat="52.44356144" lon="-126.33582591">
      </trkpt>
      <trkpt lat="52.44356758" lon="-126.33582506">
      </trkpt>
      <trkpt lat="52.44357154" lon="-126.33582307">
      </trkpt>
      <trkpt lat="52.44357855" lon="-126.33581782">
      </trkpt>
      <trkpt lat="52.44358449" lon="-126.33581303">
      </trkpt>
      <trkpt lat="52.44359245" lon="-126.33581119">
      </trkpt>
      <trkpt lat="52.44359755" lon="-126.33581092">
      </trkpt>
      <trkpt lat="52.44360201" lon="-126.33581355">
      </trkpt>
      <trkpt lat="52.44360612" lon="-126.3358176">
      </trkpt>
      <trkpt lat="52.44361087" lon="-126.33581878">
      </trkpt>
      <trkpt lat="52.44361847" lon="-126.33581838">
      </trkpt>
      <trkpt lat="52.44362606" lon="-126.33581798">
      </trkpt>
      <trkpt lat="52.44363238" lon="-126.33581765">
      </trkpt>
      <trkpt lat="52.44363778" lon="-126.33581595">
      </trkpt>
      <trkpt lat="52.44364515" lon="-126.33581129">
      </trkpt>
      <trkpt lat="52.44365219" lon="-126.33580807">
      </trkpt>
      <trkpt lat="52.44365833" lon="-126.33580345">
      </trkpt>
      <trkpt lat="52.44366377" lon="-126.33580174">
      </trkpt>
      <trkpt lat="52.44366996" lon="-126.3357971">
      </trkpt>
      <trkpt lat="52.44367579" lon="-126.3357939">
      </trkpt>
      <trkpt lat="52.44368088" lon="-126.33579365">
      </trkpt>
      <trkpt lat="52.44368723" lon="-126.33579331">
      </trkpt>
      <trkpt lat="52.44369154" lon="-126.33579599">
      </trkpt>
      <trkpt lat="52.44370437" lon="-126.335803">
      </trkpt>
      <trkpt lat="52.4437089" lon="-126.33580561">
      </trkpt>
      <trkpt lat="52.44371689" lon="-126.33580398">
      </trkpt>
      <trkpt lat="52.44372618" lon="-126.33580206">
      </trkpt>
      <trkpt lat="52.44372882" lon="-126.33580152">
      </trkpt>
      <trkpt lat="52.44373703" lon="-126.33580219">
      </trkpt>
      <trkpt lat="52.44374255" lon="-126.33580338">
      </trkpt>
      <trkpt lat="52.44374804" lon="-126.33580456">
      </trkpt>
      <trkpt lat="52.4437522" lon="-126.33580601">
      </trkpt>
      <trkpt lat="52.44375645" lon="-126.33580858">
      </trkpt>
      <trkpt lat="52.44376195" lon="-126.33581085">
      </trkpt>
      <trkpt lat="52.44376496" lon="-126.33581473">
      </trkpt>
      <trkpt lat="52.44376895" lon="-126.33581867">
      </trkpt>
      <trkpt lat="52.44377411" lon="-126.33582101">
      </trkpt>
      <trkpt lat="52.44378056" lon="-126.33582462">
      </trkpt>
      <trkpt lat="52.44378574" lon="-126.33582839">
      </trkpt>
      <trkpt lat="52.44379074" lon="-126.3358278">
      </trkpt>
      <trkpt lat="52.44379692" lon="-126.33582559">
      </trkpt>
      <trkpt lat="52.44379924" lon="-126.33581946">
      </trkpt>
      <trkpt lat="52.44379906" lon="-126.33581361">
      </trkpt>
      <trkpt lat="52.44379879" lon="-126.33580479">
      </trkpt>
      <trkpt lat="52.44379847" lon="-126.33579641">
      </trkpt>
      <trkpt lat="52.44379802" lon="-126.33578962">
      </trkpt>
      <trkpt lat="52.44379763" lon="-126.33578392">
      </trkpt>
      <trkpt lat="52.44379989" lon="-126.33577878">
      </trkpt>
      <trkpt lat="52.44380089" lon="-126.33577386">
      </trkpt>
      <trkpt lat="52.44380036" lon="-126.33576562">
      </trkpt>
      <trkpt lat="52.44380376" lon="-126.33575649">
      </trkpt>
      <trkpt lat="52.44380749" lon="-126.33575208">
      </trkpt>
      <trkpt lat="52.44381393" lon="-126.33574838">
      </trkpt>
      <trkpt lat="52.44382037" lon="-126.33574464">
      </trkpt>
      <trkpt lat="52.44382551" lon="-126.33574117">
      </trkpt>
      <trkpt lat="52.44383188" lon="-126.33573484">
      </trkpt>
      <trkpt lat="52.44383443" lon="-126.33572727">
      </trkpt>
      <trkpt lat="52.44383568" lon="-126.33572001">
      </trkpt>
      <trkpt lat="52.44383821" lon="-126.33570893">
      </trkpt>
      <trkpt lat="52.44383944" lon="-126.33569988">
      </trkpt>
      <trkpt lat="52.44384332" lon="-126.33568837">
      </trkpt>
      <trkpt lat="52.44384329" lon="-126.33568486">
      </trkpt>
      <trkpt lat="52.44384718" lon="-126.33567329">
      </trkpt>
      <trkpt lat="52.44384844" lon="-126.33566412">
      </trkpt>
      <trkpt lat="52.44385104" lon="-126.33565458">
      </trkpt>
      <trkpt lat="52.44385232" lon="-126.33564533">
      </trkpt>
      <trkpt lat="52.44385227" lon="-126.33563817">
      </trkpt>
      <trkpt lat="52.44385356" lon="-126.33563097">
      </trkpt>
      <trkpt lat="52.44385484" lon="-126.33562401">
      </trkpt>
      <trkpt lat="52.44385612" lon="-126.33561537">
      </trkpt>
      <trkpt lat="52.44385472" lon="-126.33560914">
      </trkpt>
      <trkpt lat="52.44385462" lon="-126.33559743">
      </trkpt>
      <trkpt lat="52.44385319" lon="-126.3355894">
      </trkpt>
      <trkpt lat="52.44385039" lon="-126.33558341">
      </trkpt>
      <trkpt lat="52.44384896" lon="-126.33557869">
      </trkpt>
      <trkpt lat="52.4438461" lon="-126.33557088">
      </trkpt>
      <trkpt lat="52.44384461" lon="-126.33556041">
      </trkpt>
      <trkpt lat="52.44384456" lon="-126.33555025">
      </trkpt>
      <trkpt lat="52.4438501" lon="-126.33554236">
      </trkpt>
      <trkpt lat="52.44385702" lon="-126.33553813">
      </trkpt>
      <trkpt lat="52.44386389" lon="-126.33553391">
      </trkpt>
      <trkpt lat="52.44387073" lon="-126.33553175">
      </trkpt>
      <trkpt lat="52.44387481" lon="-126.33553046">
      </trkpt>
      <trkpt lat="52.44388157" lon="-126.33552831">
      </trkpt>
      <trkpt lat="52.4438883" lon="-126.33552618">
      </trkpt>
      <trkpt lat="52.44389498" lon="-126.33552407">
      </trkpt>
      <trkpt lat="52.44390161" lon="-126.33552197">
      </trkpt>
      <trkpt lat="52.44390823" lon="-126.3355159">
      </trkpt>
      <trkpt lat="52.44391348" lon="-126.33551226">
      </trkpt>
      <trkpt lat="52.44391875" lon="-126.33550468">
      </trkpt>
      <trkpt lat="52.4439253" lon="-126.33549465">
      </trkpt>
      <trkpt lat="52.4439305" lon="-126.33548681">
      </trkpt>
      <trkpt lat="52.44393438" lon="-126.33548144">
      </trkpt>
      <trkpt lat="52.44394214" lon="-126.33546681">
      </trkpt>
      <trkpt lat="52.44394729" lon="-126.33545709">
      </trkpt>
      <trkpt lat="52.44395367" lon="-126.33544699">
      </trkpt>
      <trkpt lat="52.44395746" lon="-126.33544372">
      </trkpt>
      <trkpt lat="52.44396128" lon="-126.33543649">
      </trkpt>
      <trkpt lat="52.44396756" lon="-126.33542847">
      </trkpt>
      <trkpt lat="52.44397259" lon="-126.3354209">
      </trkpt>
      <trkpt lat="52.44397759" lon="-126.33541336">
      </trkpt>
      <trkpt lat="52.44398263" lon="-126.33540191">
      </trkpt>
      <trkpt lat="52.44398761" lon="-126.33539443">
      </trkpt>
      <trkpt lat="52.4439913" lon="-126.33538934">
      </trkpt>
      <trkpt lat="52.44399272" lon="-126.33537715">
      </trkpt>
      <trkpt lat="52.44399404" lon="-126.33537085">
      </trkpt>
      <trkpt lat="52.44399792" lon="-126.33535592">
      </trkpt>
      <trkpt lat="52.44399927" lon="-126.33534764">
      </trkpt>
      <trkpt lat="52.44400179" lon="-126.33534099">
      </trkpt>
      <trkpt lat="52.44400443" lon="-126.33532838">
      </trkpt>
      <trkpt lat="52.44400711" lon="-126.33531378">
      </trkpt>
      <trkpt lat="52.44400847" lon="-126.33530548">
      </trkpt>
      <trkpt lat="52.4440112" lon="-126.33528883">
      </trkpt>
      <trkpt lat="52.44401641" lon="-126.33526755">
      </trkpt>
      <trkpt lat="52.44401897" lon="-126.33525893">
      </trkpt>
      <trkpt lat="52.44402272" lon="-126.33525001">
      </trkpt>
      <trkpt lat="52.44402646" lon="-126.33524113">
      </trkpt>
      <trkpt lat="52.44403146" lon="-126.33522796">
      </trkpt>
      <trkpt lat="52.44403763" lon="-126.33521457">
      </trkpt>
      <trkpt lat="52.44404129" lon="-126.33520777">
      </trkpt>
      <trkpt lat="52.44404493" lon="-126.33520098">
      </trkpt>
      <trkpt lat="52.44404973" lon="-126.33519398">
      </trkpt>
      <trkpt lat="52.44405571" lon="-126.33518476">
      </trkpt>
      <trkpt lat="52.4440604" lon="-126.33517983">
      </trkpt>
      <trkpt lat="52.444064" lon="-126.33517314">
      </trkpt>
      <trkpt lat="52.44407104" lon="-126.33516382">
      </trkpt>
      <trkpt lat="52.44407922" lon="-126.33515234">
      </trkpt>
      <trkpt lat="52.44408505" lon="-126.33514335">
      </trkpt>
      <trkpt lat="52.44409189" lon="-126.3351362">
      </trkpt>
      <trkpt lat="52.44409215" lon="-126.33512821">
      </trkpt>
      <trkpt lat="52.44409352" lon="-126.33512004">
      </trkpt>
      <trkpt lat="52.44409404" lon="-126.335104">
      </trkpt>
      <trkpt lat="52.44409444" lon="-126.33509191">
      </trkpt>
      <trkpt lat="52.4440947" lon="-126.33508384">
      </trkpt>
      <trkpt lat="52.44409523" lon="-126.33506762">
      </trkpt>
      <trkpt lat="52.44409563" lon="-126.3350554">
      </trkpt>
      <trkpt lat="52.44409583" lon="-126.33504929">
      </trkpt>
      <trkpt lat="52.44410001" lon="-126.33502646">
      </trkpt>
      <trkpt lat="52.44410036" lon="-126.33501617">
      </trkpt>
      <trkpt lat="52.44410185" lon="-126.33500579">
      </trkpt>
      <trkpt lat="52.44410448" lon="-126.33499531">
      </trkpt>
      <trkpt lat="52.44410597" lon="-126.33498488">
      </trkpt>
      <trkpt lat="52.4441074" lon="-126.33497651">
      </trkpt>
      <trkpt lat="52.44411111" lon="-126.33496802">
      </trkpt>
      <trkpt lat="52.44411502" lon="-126.33495329">
      </trkpt>
      <trkpt lat="52.44411865" lon="-126.3349469">
      </trkpt>
      <trkpt lat="52.44412451" lon="-126.33494043">
      </trkpt>
      <trkpt lat="52.44412907" lon="-126.33493818">
      </trkpt>
      <trkpt lat="52.44413138" lon="-126.33493602">
      </trkpt>
      <trkpt lat="52.4441383" lon="-126.33492957">
      </trkpt>
      <trkpt lat="52.44414178" lon="-126.33492534">
      </trkpt>
      <trkpt lat="52.44414735" lon="-126.33492102">
      </trkpt>
      <trkpt lat="52.44415405" lon="-126.33491257">
      </trkpt>
      <trkpt lat="52.44415536" lon="-126.33490428">
      </trkpt>
      <trkpt lat="52.44415992" lon="-126.33489388">
      </trkpt>
      <trkpt lat="52.4441623" lon="-126.33488559">
      </trkpt>
      <trkpt lat="52.44416466" lon="-126.33487731">
      </trkpt>
      <trkpt lat="52.44417044" lon="-126.33486078">
      </trkpt>
      <trkpt lat="52.44417496" lon="-126.33485669">
      </trkpt>
      <trkpt lat="52.4441806" lon="-126.33485466">
      </trkpt>
      <trkpt lat="52.44418413" lon="-126.33485056">
      </trkpt>
      <trkpt lat="52.44418495" lon="-126.33483609">
      </trkpt>
      <trkpt lat="52.4441818" lon="-126.33481306">
      </trkpt>
      <trkpt lat="52.44417736" lon="-126.33481294">
      </trkpt>
      <trkpt lat="52.44417212" lon="-126.33480647">
      </trkpt>
      <trkpt lat="52.44416909" lon="-126.33480002">
      </trkpt>
      <trkpt lat="52.44416943" lon="-126.33479367">
      </trkpt>
      <trkpt lat="52.44417426" lon="-126.33478746">
      </trkpt>
      <trkpt lat="52.4441801" lon="-126.33478344">
      </trkpt>
      <trkpt lat="52.44418468" lon="-126.3347815">
      </trkpt>
      <trkpt lat="52.44419036" lon="-126.33477961">
      </trkpt>
      <trkpt lat="52.44419503" lon="-126.33477558">
      </trkpt>
      <trkpt lat="52.44419981" lon="-126.33476943">
      </trkpt>
      <trkpt lat="52.44420678" lon="-126.33476341">
      </trkpt>
      <trkpt lat="52.44421044" lon="-126.33475723">
      </trkpt>
      <trkpt lat="52.44421205" lon="-126.33474883">
      </trkpt>
      <trkpt lat="52.44421294" lon="-126.33473397">
      </trkpt>
      <trkpt lat="52.44421346" lon="-126.33472542">
      </trkpt>
      <trkpt lat="52.44421688" lon="-126.33472352">
      </trkpt>
      <trkpt lat="52.44422274" lon="-126.33471749">
      </trkpt>
      <trkpt lat="52.44422613" lon="-126.33471559">
      </trkpt>
      <trkpt lat="52.44423183" lon="-126.33471172">
      </trkpt>
      <trkpt lat="52.44423643" lon="-126.33470778">
      </trkpt>
      <trkpt lat="52.44424222" lon="-126.33470181">
      </trkpt>
      <trkpt lat="52.44424586" lon="-126.33469568">
      </trkpt>
      <trkpt lat="52.4442475" lon="-126.33468725">
      </trkpt>
      <trkpt lat="52.44425008" lon="-126.33468102">
      </trkpt>
      <trkpt lat="52.44425521" lon="-126.33466856">
      </trkpt>
      <trkpt lat="52.44425914" lon="-126.33465816">
      </trkpt>
      <trkpt lat="52.44426279" lon="-126.33465202">
      </trkpt>
      <trkpt lat="52.44426884" lon="-126.33464183">
      </trkpt>
      <trkpt lat="52.44427353" lon="-126.33463584">
      </trkpt>
      <trkpt lat="52.4442758" lon="-126.33463392">
      </trkpt>
      <trkpt lat="52.44428168" lon="-126.33462592">
      </trkpt>
      <trkpt lat="52.44428845" lon="-126.3346202">
      </trkpt>
      <trkpt lat="52.44429207" lon="-126.33461412">
      </trkpt>
      <trkpt lat="52.4443" lon="-126.33460643">
      </trkpt>
      <trkpt lat="52.4443055" lon="-126.33460279">
      </trkpt>
      <trkpt lat="52.44431014" lon="-126.33459687">
      </trkpt>
      <trkpt lat="52.4443146" lon="-126.33459312">
      </trkpt>
      <trkpt lat="52.44432026" lon="-126.33458734">
      </trkpt>
      <trkpt lat="52.44432285" lon="-126.33458115">
      </trkpt>
      <trkpt lat="52.44432627" lon="-126.33457728">
      </trkpt>
      <trkpt lat="52.4443319" lon="-126.33457154">
      </trkpt>
      <trkpt lat="52.44433551" lon="-126.33456551">
      </trkpt>
      <trkpt lat="52.44433872" lon="-126.33456381">
      </trkpt>
      <trkpt lat="52.44434432" lon="-126.33455811">
      </trkpt>
      <trkpt lat="52.4443499" lon="-126.33455242">
      </trkpt>
      <trkpt lat="52.44435468" lon="-126.33454441">
      </trkpt>
      <trkpt lat="52.44435846" lon="-126.33453624">
      </trkpt>
      <trkpt lat="52.44436097" lon="-126.3345281">
      </trkpt>
      <trkpt lat="52.44436226" lon="-126.33452198">
      </trkpt>
      <trkpt lat="52.44436555" lon="-126.33451619">
      </trkpt>
      <trkpt lat="52.44436893" lon="-126.33450832">
      </trkpt>
      <trkpt lat="52.44437231" lon="-126.33450046">
      </trkpt>
      <trkpt lat="52.44437558" lon="-126.33449471">
      </trkpt>
      <trkpt lat="52.44437984" lon="-126.33448914">
      </trkpt>
      <trkpt lat="52.44438418" lon="-126.33448151">
      </trkpt>
      <trkpt lat="52.44438744" lon="-126.33447579">
      </trkpt>
      <trkpt lat="52.44439156" lon="-126.33447237">
      </trkpt>
      <trkpt lat="52.44441063" lon="-126.33444384">
      </trkpt>
      <trkpt lat="52.44441555" lon="-126.33443704">
      </trkpt>
      <trkpt lat="52.44441922" lon="-126.33443067">
      </trkpt>
      <trkpt lat="52.44442413" lon="-126.33442729">
      </trkpt>
      <trkpt lat="52.4444278" lon="-126.33442263">
      </trkpt>
      <trkpt lat="52.4444339" lon="-126.33441546">
      </trkpt>
      <trkpt lat="52.44443754" lon="-126.33440913">
      </trkpt>
      <trkpt lat="52.44444241" lon="-126.33440071">
      </trkpt>
      <trkpt lat="52.44444726" lon="-126.334394">
      </trkpt>
      <trkpt lat="52.4444521" lon="-126.3343873">
      </trkpt>
      <trkpt lat="52.44445813" lon="-126.33438021">
      </trkpt>
      <trkpt lat="52.44446414" lon="-126.33437316">
      </trkpt>
      <trkpt lat="52.44447371" lon="-126.33436496">
      </trkpt>
      <trkpt lat="52.44447729" lon="-126.33436042">
      </trkpt>
      <trkpt lat="52.44448204" lon="-126.3343555">
      </trkpt>
      <trkpt lat="52.4444868" lon="-126.33434889">
      </trkpt>
      <trkpt lat="52.44449156" lon="-126.33434231">
      </trkpt>
      <trkpt lat="52.4444963" lon="-126.33433573">
      </trkpt>
      <trkpt lat="52.44449985" lon="-126.33433125">
      </trkpt>
      <trkpt lat="52.44450452" lon="-126.33432809">
      </trkpt>
      <trkpt lat="52.44451033" lon="-126.3343246">
      </trkpt>
      <trkpt lat="52.44451608" lon="-126.3343228">
      </trkpt>
      <trkpt lat="52.4445218" lon="-126.33432102">
      </trkpt>
      <trkpt lat="52.44452749" lon="-126.33431923">
      </trkpt>
      <trkpt lat="52.44453203" lon="-126.33431782">
      </trkpt>
      <trkpt lat="52.44453531" lon="-126.3343218">
      </trkpt>
      <trkpt lat="52.4445386" lon="-126.33432408">
      </trkpt>
      <trkpt lat="52.4445441" lon="-126.33432564">
      </trkpt>
      <trkpt lat="52.44454842" lon="-126.33432921">
      </trkpt>
      <trkpt lat="52.4445517" lon="-126.3343298">
      </trkpt>
      <trkpt lat="52.44455598" lon="-126.33433332">
      </trkpt>
      <trkpt lat="52.44456135" lon="-126.33433484">
      </trkpt>
      <trkpt lat="52.44456557" lon="-126.33433833">
      </trkpt>
      <trkpt lat="52.4445698" lon="-126.33434018">
      </trkpt>
      <trkpt lat="52.44457079" lon="-126.33434308">
      </trkpt>
      <trkpt lat="52.44457596" lon="-126.33434777">
      </trkpt>
      <trkpt lat="52.44457907" lon="-126.33434992">
      </trkpt>
      <trkpt lat="52.44458136" lon="-126.33434438">
      </trkpt>
      <trkpt lat="52.44457847" lon="-126.33433572">
      </trkpt>
      <trkpt lat="52.44457541" lon="-126.3343319">
      </trkpt>
      <trkpt lat="52.44457125" lon="-126.3343284">
      </trkpt>
      <trkpt lat="52.44456819" lon="-126.33432289">
      </trkpt>
      <trkpt lat="52.4445662" lon="-126.334317">
      </trkpt>
      <trkpt lat="52.4445665" lon="-126.33430708">
      </trkpt>
      <trkpt lat="52.4445667" lon="-126.33430043">
      </trkpt>
      <trkpt lat="52.4445669" lon="-126.33429377">
      </trkpt>
      <trkpt lat="52.444567" lon="-126.33429044">
      </trkpt>
      <trkpt lat="52.44456729" lon="-126.33428039">
      </trkpt>
      <trkpt lat="52.4445676" lon="-126.33427032">
      </trkpt>
      <trkpt lat="52.44457006" lon="-126.33426123">
      </trkpt>
      <trkpt lat="52.44457257" lon="-126.33425043">
      </trkpt>
      <trkpt lat="52.44457393" lon="-126.33424162">
      </trkpt>
      <trkpt lat="52.44457751" lon="-126.33423218">
      </trkpt>
      <trkpt lat="52.44458109" lon="-126.33422273">
      </trkpt>
      <trkpt lat="52.44458346" lon="-126.334217">
      </trkpt>
      <trkpt lat="52.44458589" lon="-126.33420959">
      </trkpt>
      <trkpt lat="52.44458724" lon="-126.33420248">
      </trkpt>
      <trkpt lat="52.44458975" lon="-126.33419333">
      </trkpt>
      <trkpt lat="52.44459233" lon="-126.33418246">
      </trkpt>
      <trkpt lat="52.44459367" lon="-126.33417528">
      </trkpt>
      <trkpt lat="52.44459736" lon="-126.33416407">
      </trkpt>
      <trkpt lat="52.44459878" lon="-126.33415703">
      </trkpt>
      <trkpt lat="52.44460132" lon="-126.33414973">
      </trkpt>
      <trkpt lat="52.44460385" lon="-126.33414241">
      </trkpt>
      <trkpt lat="52.44460639" lon="-126.33413509">
      </trkpt>
      <trkpt lat="52.44461013" lon="-126.33412581">
      </trkpt>
      <trkpt lat="52.44461151" lon="-126.33412047">
      </trkpt>
      <trkpt lat="52.44461326" lon="-126.33410821">
      </trkpt>
      <trkpt lat="52.44461493" lon="-126.33409762">
      </trkpt>
      <trkpt lat="52.44461661" lon="-126.33408696">
      </trkpt>
      <trkpt lat="52.4446167" lon="-126.33408521">
      </trkpt>
      <trkpt lat="52.44462069" lon="-126.33407425">
      </trkpt>
      <trkpt lat="52.44462326" lon="-126.33406868">
      </trkpt>
      <trkpt lat="52.44462719" lon="-126.33405943">
      </trkpt>
      <trkpt lat="52.44463102" lon="-126.33405192">
      </trkpt>
      <trkpt lat="52.4446383" lon="-126.33404405">
      </trkpt>
      <trkpt lat="52.4446432" lon="-126.33403821">
      </trkpt>
      <trkpt lat="52.44464696" lon="-126.33403247">
      </trkpt>
      <trkpt lat="52.44465311" lon="-126.33402471">
      </trkpt>
      <trkpt lat="52.44465813" lon="-126.33401704">
      </trkpt>
      <trkpt lat="52.44466087" lon="-126.33400957">
      </trkpt>
      <trkpt lat="52.44466453" lon="-126.33400562">
      </trkpt>
      <trkpt lat="52.44466842" lon="-126.33399803">
      </trkpt>
      <trkpt lat="52.44467311" lon="-126.33399579">
      </trkpt>
      <trkpt lat="52.44467903" lon="-126.3339916">
      </trkpt>
      <trkpt lat="52.44468255" lon="-126.33398945">
      </trkpt>
      <trkpt lat="52.44468744" lon="-126.33398353">
      </trkpt>
      <trkpt lat="52.44469221" lon="-126.33397944">
      </trkpt>
      <trkpt lat="52.44469794" lon="-126.33397705">
      </trkpt>
      <trkpt lat="52.44470396" lon="-126.33397104">
      </trkpt>
      <trkpt lat="52.44470982" lon="-126.33396686">
      </trkpt>
      <trkpt lat="52.44471345" lon="-126.33396288">
      </trkpt>
      <trkpt lat="52.4447196" lon="-126.33395504">
      </trkpt>
      <trkpt lat="52.44472227" lon="-126.33394934">
      </trkpt>
      <trkpt lat="52.44472873" lon="-126.33393779">
      </trkpt>
      <trkpt lat="52.44473506" lon="-126.33392808">
      </trkpt>
      <trkpt lat="52.4447398" lon="-126.33392399">
      </trkpt>
      <trkpt lat="52.44474582" lon="-126.33391798">
      </trkpt>
      <trkpt lat="52.44475073" lon="-126.33391205">
      </trkpt>
      <trkpt lat="52.44475547" lon="-126.33390798">
      </trkpt>
      <trkpt lat="52.44476149" lon="-126.33390197">
      </trkpt>
      <trkpt lat="52.4447653" lon="-126.33389611">
      </trkpt>
      <trkpt lat="52.44476807" lon="-126.33390146">
      </trkpt>
      <trkpt lat="52.4447721" lon="-126.33390483">
      </trkpt>
      <trkpt lat="52.44477645" lon="-126.3339045">
      </trkpt>
      <trkpt lat="52.44478134" lon="-126.3338986">
      </trkpt>
      <trkpt lat="52.44478635" lon="-126.33389279">
      </trkpt>
      <trkpt lat="52.44479141" lon="-126.33388699">
      </trkpt>
      <trkpt lat="52.44479384" lon="-126.33388502">
      </trkpt>
      <trkpt lat="52.44480114" lon="-126.3338791">
      </trkpt>
      <trkpt lat="52.44480621" lon="-126.33387329">
      </trkpt>
      <trkpt lat="52.44481219" lon="-126.3338693">
      </trkpt>
      <trkpt lat="52.44481819" lon="-126.33386531">
      </trkpt>
      <trkpt lat="52.44482285" lon="-126.33386324">
      </trkpt>
      <trkpt lat="52.44482841" lon="-126.33386299">
      </trkpt>
      <trkpt lat="52.44483396" lon="-126.33386273">
      </trkpt>
      <trkpt lat="52.44484059" lon="-126.33386245">
      </trkpt>
      <trkpt lat="52.4448439" lon="-126.33386229">
      </trkpt>
      <trkpt lat="52.44485051" lon="-126.33386199">
      </trkpt>
      <trkpt lat="52.44485491" lon="-126.33386181">
      </trkpt>
      <trkpt lat="52.44485907" lon="-126.33386346">
      </trkpt>
      <trkpt lat="52.444863" lon="-126.33386697">
      </trkpt>
      <trkpt lat="52.44486736" lon="-126.33386677">
      </trkpt>
      <trkpt lat="52.44487327" lon="-126.33386282">
      </trkpt>
      <trkpt lat="52.44487988" lon="-126.3338533">
      </trkpt>
      <trkpt lat="52.44488409" lon="-126.33384573">
      </trkpt>
      <trkpt lat="52.4448859" lon="-126.33384008">
      </trkpt>
      <trkpt lat="52.44489061" lon="-126.3338287">
      </trkpt>
      <trkpt lat="52.44489377" lon="-126.33382107">
      </trkpt>
      <trkpt lat="52.44489634" lon="-126.33380967">
      </trkpt>
      <trkpt lat="52.44489732" lon="-126.33380206">
      </trkpt>
      <trkpt lat="52.44489832" lon="-126.3337944">
      </trkpt>
      <trkpt lat="52.44489907" lon="-126.33378864">
      </trkpt>
      <trkpt lat="52.44490303" lon="-126.33377507">
      </trkpt>
      <trkpt lat="52.4449049" lon="-126.33376923">
      </trkpt>
      <trkpt lat="52.44490728" lon="-126.33375947">
      </trkpt>
      <trkpt lat="52.44490941" lon="-126.33375161">
      </trkpt>
      <trkpt lat="52.44491182" lon="-126.33374176">
      </trkpt>
      <trkpt lat="52.44491423" lon="-126.33373186">
      </trkpt>
      <trkpt lat="52.44491828" lon="-126.3337179">
      </trkpt>
      <trkpt lat="52.44492178" lon="-126.33370788">
      </trkpt>
      <trkpt lat="52.44492666" lon="-126.33369577">
      </trkpt>
      <trkpt lat="52.44493078" lon="-126.33368968">
      </trkpt>
      <trkpt lat="52.44493544" lon="-126.33367952">
      </trkpt>
      <trkpt lat="52.44493841" lon="-126.33367136">
      </trkpt>
      <trkpt lat="52.44493996" lon="-126.3336632">
      </trkpt>
      <trkpt lat="52.44494283" lon="-126.33365091">
      </trkpt>
      <trkpt lat="52.44494305" lon="-126.33364682">
      </trkpt>
      <trkpt lat="52.4449484" lon="-126.3335771">
      </trkpt>
      <trkpt lat="52.44495418" lon="-126.33355988">
      </trkpt>
      <trkpt lat="52.44495727" lon="-126.33354311">
      </trkpt>
      <trkpt lat="52.44496317" lon="-126.33352174">
      </trkpt>
      <trkpt lat="52.44497136" lon="-126.33349774">
      </trkpt>
      <trkpt lat="52.44497522" lon="-126.33347098">
      </trkpt>
      <trkpt lat="52.44497605" lon="-126.33343893">
      </trkpt>
      <trkpt lat="52.44498282" lon="-126.3334183">
      </trkpt>
      <trkpt lat="52.44499212" lon="-126.33339722">
      </trkpt>
      <trkpt lat="52.44500429" lon="-126.3333818">
      </trkpt>
      <trkpt lat="52.44501556" lon="-126.33335444">
      </trkpt>
      <trkpt lat="52.44502282" lon="-126.33334658">
      </trkpt>
      <trkpt lat="52.44503553" lon="-126.33334353">
      </trkpt>
      <trkpt lat="52.44504566" lon="-126.33334109">
      </trkpt>
      <trkpt lat="52.44505575" lon="-126.33333866">
      </trkpt>
      <trkpt lat="52.44507129" lon="-126.33334098">
      </trkpt>
      <trkpt lat="52.44508381" lon="-126.33333795">
      </trkpt>
      <trkpt lat="52.44509627" lon="-126.33333493">
      </trkpt>
      <trkpt lat="52.44510869" lon="-126.33333193">
      </trkpt>
      <trkpt lat="52.44511859" lon="-126.33332955">
      </trkpt>
      <trkpt lat="52.445126" lon="-126.33332779">
      </trkpt>
      <trkpt lat="52.44513504" lon="-126.33331435">
      </trkpt>
      <trkpt lat="52.445151" lon="-126.33329397">
      </trkpt>
      <trkpt lat="52.44515349" lon="-126.33329358">
      </trkpt>
      <trkpt lat="52.44516789" lon="-126.33328541">
      </trkpt>
      <trkpt lat="52.44518526" lon="-126.33328268">
      </trkpt>
      <trkpt lat="52.44519516" lon="-126.33328112">
      </trkpt>
      <trkpt lat="52.44520315" lon="-126.33328575">
      </trkpt>
      <trkpt lat="52.44521791" lon="-126.33330705">
      </trkpt>
      <trkpt lat="52.44523126" lon="-126.33331614">
      </trkpt>
      <trkpt lat="52.44524505" lon="-126.33333063">
      </trkpt>
      <trkpt lat="52.44526131" lon="-126.33334464">
      </trkpt>
      <trkpt lat="52.44528059" lon="-126.33336388">
      </trkpt>
      <trkpt lat="52.44529752" lon="-126.3333837">
      </trkpt>
      <trkpt lat="52.44531387" lon="-126.3333978">
      </trkpt>
      <trkpt lat="52.44532958" lon="-126.33340612">
      </trkpt>
      <trkpt lat="52.44534463" lon="-126.33340865">
      </trkpt>
      <trkpt lat="52.44535793" lon="-126.33341749">
      </trkpt>
      <trkpt lat="52.44536985" lon="-126.33341477">
      </trkpt>
      <trkpt lat="52.44538006" lon="-126.33341837">
      </trkpt>
      <trkpt lat="52.44538692" lon="-126.33343465">
      </trkpt>
      <trkpt lat="52.44539762" lon="-126.33346216">
      </trkpt>
      <trkpt lat="52.44541005" lon="-126.3334834">
      </trkpt>
      <trkpt lat="52.44542196" lon="-126.33348053">
      </trkpt>
      <trkpt lat="52.44543381" lon="-126.33347767">
      </trkpt>
      <trkpt lat="52.44544327" lon="-126.33347538">
      </trkpt>
      <trkpt lat="52.44545505" lon="-126.33347254">
      </trkpt>
      <trkpt lat="52.44546132" lon="-126.33346502">
      </trkpt>
      <trkpt lat="52.44547426" lon="-126.33343738">
      </trkpt>
      <trkpt lat="52.44548737" lon="-126.333415">
      </trkpt>
      <trkpt lat="52.44549458" lon="-126.33340075">
      </trkpt>
      <trkpt lat="52.44550453" lon="-126.33337401">
      </trkpt>
      <trkpt lat="52.44551159" lon="-126.33336005">
      </trkpt>
      <trkpt lat="52.44552073" lon="-126.33334547">
      </trkpt>
      <trkpt lat="52.44552692" lon="-126.3333263">
      </trkpt>
      <trkpt lat="52.44553934" lon="-126.33330523">
      </trkpt>
      <trkpt lat="52.44555654" lon="-126.33328838">
      </trkpt>
      <trkpt lat="52.44556482" lon="-126.33328568">
      </trkpt>
      <trkpt lat="52.44557053" lon="-126.33329496">
      </trkpt>
      <trkpt lat="52.44559839" lon="-126.33328468">
      </trkpt>
      <trkpt lat="52.44560569" lon="-126.33329817">
      </trkpt>
      <trkpt lat="52.44561826" lon="-126.33330966">
      </trkpt>
      <trkpt lat="52.44563831" lon="-126.33332911">
      </trkpt>
      <trkpt lat="52.44565086" lon="-126.33333626">
      </trkpt>
      <trkpt lat="52.44565826" lon="-126.33334511">
      </trkpt>
      <trkpt lat="52.44566592" lon="-126.33334294">
      </trkpt>
      <trkpt lat="52.44568623" lon="-126.33333719">
      </trkpt>
      <trkpt lat="52.44569885" lon="-126.33333363">
      </trkpt>
      <trkpt lat="52.44571399" lon="-126.33332394">
      </trkpt>
      <trkpt lat="52.4457241" lon="-126.33331033">
      </trkpt>
      <trkpt lat="52.44573402" lon="-126.33330755">
      </trkpt>
      <trkpt lat="52.44573892" lon="-126.33331155">
      </trkpt>
      <trkpt lat="52.44575606" lon="-126.33332282">
      </trkpt>
      <trkpt lat="52.44576345" lon="-126.33332073">
      </trkpt>
      <trkpt lat="52.44577811" lon="-126.33332728">
      </trkpt>
      <trkpt lat="52.44579274" lon="-126.33332311">
      </trkpt>
      <trkpt lat="52.44580245" lon="-126.33332032">
      </trkpt>
      <trkpt lat="52.44581688" lon="-126.33330024">
      </trkpt>
      <trkpt lat="52.44583119" lon="-126.33328564">
      </trkpt>
      <trkpt lat="52.44583824" lon="-126.33327317">
      </trkpt>
      <trkpt lat="52.44585715" lon="-126.33326791">
      </trkpt>
      <trkpt lat="52.44588059" lon="-126.33326138">
      </trkpt>
      <trkpt lat="52.44588757" lon="-126.33325943">
      </trkpt>
      <trkpt lat="52.44590621" lon="-126.33325941">
      </trkpt>
      <trkpt lat="52.44592497" lon="-126.33326948">
      </trkpt>
      <trkpt lat="52.44593408" lon="-126.3332662">
      </trkpt>
      <trkpt lat="52.44594992" lon="-126.3332605">
      </trkpt>
      <trkpt lat="52.44596115" lon="-126.33325646">
      </trkpt>
      <trkpt lat="52.44596562" lon="-126.33325486">
      </trkpt>
      <trkpt lat="52.44597495" lon="-126.33326238">
      </trkpt>
      <trkpt lat="52.44598427" lon="-126.33326991">
      </trkpt>
      <trkpt lat="52.44599381" lon="-126.33328282">
      </trkpt>
      <trkpt lat="52.44600338" lon="-126.33329578">
      </trkpt>
      <trkpt lat="52.44601321" lon="-126.3333142">
      </trkpt>
      <trkpt lat="52.4460253" lon="-126.33333185">
      </trkpt>
      <trkpt lat="52.44603743" lon="-126.33334956">
      </trkpt>
      <trkpt lat="52.44605429" lon="-126.33337112">
      </trkpt>
      <trkpt lat="52.44606619" lon="-126.33338337">
      </trkpt>
      <trkpt lat="52.44607964" lon="-126.33338361">
      </trkpt>
      <trkpt lat="52.44609051" lon="-126.3333792">
      </trkpt>
      <trkpt lat="52.44610119" lon="-126.33337416">
      </trkpt>
      <trkpt lat="52.4461106" lon="-126.33335214">
      </trkpt>
      <trkpt lat="52.44612274" lon="-126.33334051">
      </trkpt>
      <trkpt lat="52.44612982" lon="-126.33331998">
      </trkpt>
      <trkpt lat="52.44614173" lon="-126.33330865">
      </trkpt>
      <trkpt lat="52.44615307" lon="-126.33329206">
      </trkpt>
      <trkpt lat="52.44615711" lon="-126.33329016">
      </trkpt>
      <trkpt lat="52.44616716" lon="-126.33328543">
      </trkpt>
      <trkpt lat="52.44617714" lon="-126.33328073">
      </trkpt>
      <trkpt lat="52.44618752" lon="-126.33328137">
      </trkpt>
      <trkpt lat="52.44619934" lon="-126.33327579">
      </trkpt>
      <trkpt lat="52.4462135" lon="-126.33327459">
      </trkpt>
      <trkpt lat="52.4462232" lon="-126.33326999">
      </trkpt>
      <trkpt lat="52.44623859" lon="-126.33326268">
      </trkpt>
      <trkpt lat="52.44624675" lon="-126.33326426">
      </trkpt>
      <trkpt lat="52.44626001" lon="-126.33325794">
      </trkpt>
      <trkpt lat="52.44627129" lon="-126.33325257">
      </trkpt>
      <trkpt lat="52.44628063" lon="-126.33324812">
      </trkpt>
      <trkpt lat="52.446296" lon="-126.33324617">
      </trkpt>
      <trkpt lat="52.44630577" lon="-126.33324687">
      </trkpt>
      <trkpt lat="52.44632276" lon="-126.33324405">
      </trkpt>
      <trkpt lat="52.4463306" lon="-126.33324563">
      </trkpt>
      <trkpt lat="52.44634738" lon="-126.33324284">
      </trkpt>
      <trkpt lat="52.44636399" lon="-126.33324008">
      </trkpt>
      <trkpt lat="52.44638156" lon="-126.33323151">
      </trkpt>
      <trkpt lat="52.44638852" lon="-126.33322811">
      </trkpt>
      <trkpt lat="52.44640062" lon="-126.33322221">
      </trkpt>
      <trkpt lat="52.4464092" lon="-126.33321803">
      </trkpt>
      <trkpt lat="52.44641432" lon="-126.33321552">
      </trkpt>
      <trkpt lat="52.44642249" lon="-126.33322198">
      </trkpt>
      <trkpt lat="52.44642997" lon="-126.33322354">
      </trkpt>
      <trkpt lat="52.44644415" lon="-126.33323635">
      </trkpt>
      <trkpt lat="52.44645367" lon="-126.33324132">
      </trkpt>
      <trkpt lat="52.44645924" lon="-126.33324335">
      </trkpt>
      <trkpt lat="52.44646645" lon="-126.33324451">
      </trkpt>
      <trkpt lat="52.44647853" lon="-126.33324303">
      </trkpt>
      <trkpt lat="52.44648665" lon="-126.33323867">
      </trkpt>
      <trkpt lat="52.44649472" lon="-126.33323434">
      </trkpt>
      <trkpt lat="52.44650434" lon="-126.33322918">
      </trkpt>
      <trkpt lat="52.44650912" lon="-126.33322661">
      </trkpt>
      <trkpt lat="52.44660865" lon="-126.33320961">
      </trkpt>
      <trkpt lat="52.44663946" lon="-126.33319096">
      </trkpt>
      <trkpt lat="52.44666488" lon="-126.33317558">
      </trkpt>
      <trkpt lat="52.44669508" lon="-126.3331573">
      </trkpt>
      <trkpt lat="52.44671021" lon="-126.33313594">
      </trkpt>
      <trkpt lat="52.44672041" lon="-126.33310587">
      </trkpt>
      <trkpt lat="52.4467404" lon="-126.33305977">
      </trkpt>
      <trkpt lat="52.44675998" lon="-126.33303653">
      </trkpt>
      <trkpt lat="52.44678412" lon="-126.33302161">
      </trkpt>
      <trkpt lat="52.44680329" lon="-126.33300977">
      </trkpt>
      <trkpt lat="52.44683651" lon="-126.33302419">
      </trkpt>
      <trkpt lat="52.44686947" lon="-126.33303171">
      </trkpt>
      <trkpt lat="52.44689729" lon="-126.33301828">
      </trkpt>
      <trkpt lat="52.44692476" lon="-126.33300502">
      </trkpt>
      <trkpt lat="52.44695187" lon="-126.33299194">
      </trkpt>
      <trkpt lat="52.44698317" lon="-126.3329781">
      </trkpt>
      <trkpt lat="52.44700087" lon="-126.33296568">
      </trkpt>
      <trkpt lat="52.44702277" lon="-126.33295028">
      </trkpt>
      <trkpt lat="52.44704023" lon="-126.33294676">
      </trkpt>
      <trkpt lat="52.44705767" lon="-126.33295193">
      </trkpt>
      <trkpt lat="52.44708755" lon="-126.33293074">
      </trkpt>
      <trkpt lat="52.44711283" lon="-126.33291263">
      </trkpt>
      <trkpt lat="52.44713793" lon="-126.33291038">
      </trkpt>
      <trkpt lat="52.44718548" lon="-126.33288912">
      </trkpt>
      <trkpt lat="52.4472374" lon="-126.3329013">
      </trkpt>
      <trkpt lat="52.44759846" lon="-126.33294812">
      </trkpt>
      <trkpt lat="52.44785105" lon="-126.33299463">
      </trkpt>
      <trkpt lat="52.44803162" lon="-126.33290191">
      </trkpt>
      <trkpt lat="52.44832046" lon="-126.3324374">
      </trkpt>
      <trkpt lat="52.44875391" lon="-126.33178701">
      </trkpt>
      <trkpt lat="52.44900661" lon="-126.33160127">
      </trkpt>
      <trkpt lat="52.4498009" lon="-126.33113707">
      </trkpt>
      <trkpt lat="52.4507396" lon="-126.33071955">
      </trkpt>
      <trkpt lat="52.4511367" lon="-126.33067319">
      </trkpt>
      <trkpt lat="52.45167809" lon="-126.33081302">
      </trkpt>
      <trkpt lat="52.45200297" lon="-126.33085968">
      </trkpt>
      <trkpt lat="52.45236399" lon="-126.33086">
      </trkpt>
      <trkpt lat="52.45359144" lon="-126.33062835">
      </trkpt>
      <trkpt lat="52.4541329" lon="-126.3305823">
      </trkpt>
      <trkpt lat="52.45496326" lon="-126.33042004">
      </trkpt>
      <trkpt lat="52.45536039" lon="-126.33009507">
      </trkpt>
      <trkpt lat="52.45557708" lon="-126.32963043">
      </trkpt>
      <trkpt lat="52.45568553" lon="-126.3291191">
      </trkpt>
      <trkpt lat="52.45579387" lon="-126.32879384">
      </trkpt>
      <trkpt lat="52.4561189" lon="-126.3284222">
      </trkpt>
      <trkpt lat="52.45727442" lon="-126.32679599">
      </trkpt>
      <trkpt lat="52.45745496" lon="-126.32637785">
      </trkpt>
      <trkpt lat="52.45749119" lon="-126.32577351">
      </trkpt>
      <trkpt lat="52.45756348" lon="-126.32530871">
      </trkpt>
      <trkpt lat="52.45778025" lon="-126.32456513">
      </trkpt>
      <trkpt lat="52.45814141" lon="-126.32358916">
      </trkpt>
      <trkpt lat="52.45846643" lon="-126.32303165">
      </trkpt>
      <trkpt lat="52.45879134" lon="-126.32284575">
      </trkpt>
      <trkpt lat="52.4592967" lon="-126.32284606">
      </trkpt>
      <trkpt lat="52.45951337" lon="-126.32235808">
      </trkpt>
      <trkpt lat="52.4596218" lon="-126.32170737">
      </trkpt>
      <trkpt lat="52.45980241" lon="-126.32087064">
      </trkpt>
      <trkpt lat="52.46005522" lon="-126.32026644">
      </trkpt>
      <trkpt lat="52.46059689" lon="-126.31952303">
      </trkpt>
      <trkpt lat="52.46084951" lon="-126.31947653">
      </trkpt>
      <trkpt lat="52.46106617" lon="-126.31952318">
      </trkpt>
      <trkpt lat="52.46153527" lon="-126.32017418">
      </trkpt>
      <trkpt lat="52.46186005" lon="-126.32073217">
      </trkpt>
      <trkpt lat="52.46250976" lon="-126.3214762">
      </trkpt>
      <trkpt lat="52.46297892" lon="-126.32198781">
      </trkpt>
      <trkpt lat="52.46315934" lon="-126.32226672">
      </trkpt>
      <trkpt lat="52.46344799" lon="-126.32315013">
      </trkpt>
      <trkpt lat="52.46370059" lon="-126.32370811">
      </trkpt>
      <trkpt lat="52.46402539" lon="-126.32417323">
      </trkpt>
      <trkpt lat="52.46445849" lon="-126.32445228">
      </trkpt>
      <trkpt lat="52.4648195" lon="-126.32445243">
      </trkpt>
      <trkpt lat="52.46532488" lon="-126.32475498">
      </trkpt>
      <trkpt lat="52.46572174" lon="-126.32535949">
      </trkpt>
      <trkpt lat="52.46601038" lon="-126.32624304">
      </trkpt>
      <trkpt lat="52.46608246" lon="-126.32680103">
      </trkpt>
      <trkpt lat="52.46597405" lon="-126.32740519">
      </trkpt>
      <trkpt lat="52.46582959" lon="-126.32782366">
      </trkpt>
      <trkpt lat="52.46586554" lon="-126.32819559">
      </trkpt>
      <trkpt lat="52.46600982" lon="-126.32893946">
      </trkpt>
      <trkpt lat="52.46597358" lon="-126.3295438">
      </trkpt>
      <trkpt lat="52.46586517" lon="-126.32996226">
      </trkpt>
      <trkpt lat="52.46593717" lon="-126.33047373">
      </trkpt>
      <trkpt lat="52.46600926" lon="-126.33098503">
      </trkpt>
      <trkpt lat="52.4658648" lon="-126.33149635">
      </trkpt>
      <trkpt lat="52.46568411" lon="-126.33210069">
      </trkpt>
      <trkpt lat="52.46564779" lon="-126.33275153">
      </trkpt>
      <trkpt lat="52.46568364" lon="-126.33377434">
      </trkpt>
      <trkpt lat="52.46564733" lon="-126.33456472">
      </trkpt>
      <trkpt lat="52.46550278" lon="-126.33516889">
      </trkpt>
      <trkpt lat="52.46528605" lon="-126.33572656">
      </trkpt>
      <trkpt lat="52.46524971" lon="-126.33628455">
      </trkpt>
      <trkpt lat="52.46535785" lon="-126.33693541">
      </trkpt>
      <trkpt lat="52.46553808" lon="-126.33786548">
      </trkpt>
      <trkpt lat="52.4655377" lon="-126.33879524">
      </trkpt>
      <trkpt lat="52.46560971" lon="-126.33965531">
      </trkpt>
      <trkpt lat="52.46571782" lon="-126.34007392">
      </trkpt>
      <trkpt lat="52.46607865" lon="-126.34049266">
      </trkpt>
      <trkpt lat="52.46651173" lon="-126.34072551">
      </trkpt>
      <trkpt lat="52.46687272" lon="-126.3408187">
      </trkpt>
      <trkpt lat="52.46698514" lon="-126.34077067">
      </trkpt>
      <trkpt lat="52.46701141" lon="-126.34075939">
      </trkpt>
      <trkpt lat="52.46719769" lon="-126.34067962">
      </trkpt>
      <trkpt lat="52.46755877" lon="-126.34030798">
      </trkpt>
      <trkpt lat="52.4677033" lon="-126.33984319">
      </trkpt>
      <trkpt lat="52.4677035" lon="-126.33923869">
      </trkpt>
      <trkpt lat="52.46762348" lon="-126.33894621">
      </trkpt>
      <trkpt lat="52.4676098" lon="-126.33889619">
      </trkpt>
      <trkpt lat="52.46748714" lon="-126.33844817">
      </trkpt>
      <trkpt lat="52.4673791" lon="-126.33775065">
      </trkpt>
      <trkpt lat="52.46745156" lon="-126.3368674">
      </trkpt>
      <trkpt lat="52.46774056" lon="-126.33640274">
      </trkpt>
      <trkpt lat="52.46806549" lon="-126.33607747">
      </trkpt>
      <trkpt lat="52.46831668" lon="-126.33607762">
      </trkpt>
      <trkpt lat="52.46837097" lon="-126.33607762">
      </trkpt>
      <trkpt lat="52.4686431" lon="-126.33607793">
      </trkpt>
      <trkpt lat="52.4688236" lon="-126.33607808">
      </trkpt>
      <trkpt lat="52.46925684" lon="-126.33575296">
      </trkpt>
      <trkpt lat="52.46990669" lon="-126.33542799">
      </trkpt>
      <trkpt lat="52.47033993" lon="-126.33552132">
      </trkpt>
      <trkpt lat="52.47048428" lon="-126.33566085">
      </trkpt>
      <trkpt lat="52.47088138" lon="-126.3354286">
      </trkpt>
      <trkpt lat="52.47113422" lon="-126.33487092">
      </trkpt>
      <trkpt lat="52.47139843" lon="-126.33453102">
      </trkpt>
      <trkpt lat="52.47148446" lon="-126.33442029">
      </trkpt>
      <trkpt lat="52.47149535" lon="-126.33440627">
      </trkpt>
      <trkpt lat="52.47203698" lon="-126.33403463">
      </trkpt>
      <trkpt lat="52.47359967" lon="-126.33371974">
      </trkpt>
      <trkpt lat="52.47369223" lon="-126.33370114">
      </trkpt>
      <trkpt lat="52.47514164" lon="-126.33340909">
      </trkpt>
      <trkpt lat="52.4754898" lon="-126.33340926">
      </trkpt>
      <trkpt lat="52.47560714" lon="-126.3334094">
      </trkpt>
      <trkpt lat="52.47633288" lon="-126.33340986">
      </trkpt>
      <trkpt lat="52.47665776" lon="-126.33331716">
      </trkpt>
      <trkpt lat="52.47683831" lon="-126.33299173">
      </trkpt>
      <trkpt lat="52.47698292" lon="-126.33220135">
      </trkpt>
      <trkpt lat="52.47705536" lon="-126.33131779">
      </trkpt>
      <trkpt lat="52.47741664" lon="-126.33022515">
      </trkpt>
      <trkpt lat="52.47835577" lon="-126.32799353">
      </trkpt>
      <trkpt lat="52.47846415" lon="-126.3275751">
      </trkpt>
      <trkpt lat="52.47850037" lon="-126.32692407">
      </trkpt>
      <trkpt lat="52.47868091" lon="-126.32655216">
      </trkpt>
      <trkpt lat="52.47918641" lon="-126.32608735">
      </trkpt>
      <trkpt lat="52.4790784" lon="-126.32459914">
      </trkpt>
      <trkpt lat="52.47940345" lon="-126.3241807">
      </trkpt>
      <trkpt lat="52.47990883" lon="-126.32380892">
      </trkpt>
      <trkpt lat="52.48023378" lon="-126.32371604">
      </trkpt>
      <trkpt lat="52.48048648" lon="-126.32353015">
      </trkpt>
      <trkpt lat="52.48055873" lon="-126.32329774">
      </trkpt>
      <trkpt lat="52.48037829" lon="-126.32297202">
      </trkpt>
      <trkpt lat="52.47994524" lon="-126.32241374">
      </trkpt>
      <trkpt lat="52.47943994" lon="-126.3220415">
      </trkpt>
      <trkpt lat="52.47897068" lon="-126.32176227">
      </trkpt>
      <trkpt lat="52.47853762" lon="-126.32115762">
      </trkpt>
      <trkpt lat="52.47770762" lon="-126.31966912">
      </trkpt>
      <trkpt lat="52.47731068" lon="-126.31869237">
      </trkpt>
      <trkpt lat="52.47673328" lon="-126.31701815">
      </trkpt>
      <trkpt lat="52.47633634" lon="-126.31636698">
      </trkpt>
      <trkpt lat="52.47579495" lon="-126.31564599">
      </trkpt>
      <trkpt lat="52.47528961" lon="-126.31513437">
      </trkpt>
      <trkpt lat="52.47471208" lon="-126.31480864">
      </trkpt>
      <trkpt lat="52.47413447" lon="-126.31452957">
      </trkpt>
      <trkpt lat="52.47370136" lon="-126.31401795">
      </trkpt>
      <trkpt lat="52.47326835" lon="-126.31290184">
      </trkpt>
      <trkpt lat="52.47297957" lon="-126.31234386">
      </trkpt>
      <trkpt lat="52.4724742" lon="-126.31201828">
      </trkpt>
      <trkpt lat="52.47178842" lon="-126.31169256">
      </trkpt>
      <trkpt lat="52.47131916" lon="-126.31118108">
      </trkpt>
      <trkpt lat="52.47066942" lon="-126.31048339">
      </trkpt>
      <trkpt lat="52.47020024" lon="-126.30980922">
      </trkpt>
      <trkpt lat="52.46980324" lon="-126.30887916">
      </trkpt>
      <trkpt lat="52.46940622" lon="-126.3075773">
      </trkpt>
      <trkpt lat="52.46911742" lon="-126.3064615">
      </trkpt>
      <trkpt lat="52.46918969" lon="-126.30562461">
      </trkpt>
      <trkpt lat="52.46944244" lon="-126.30483422">
      </trkpt>
      <trkpt lat="52.46976728" lon="-126.30422973">
      </trkpt>
      <trkpt lat="52.47030883" lon="-126.3036719">
      </trkpt>
      <trkpt lat="52.47092245" lon="-126.30329982">
      </trkpt>
      <trkpt lat="52.47171663" lon="-126.30306741">
      </trkpt>
      <trkpt lat="52.47218597" lon="-126.30311392">
      </trkpt>
      <trkpt lat="52.47254692" lon="-126.3030209">
      </trkpt>
      <trkpt lat="52.47352154" lon="-126.30274198">
      </trkpt>
      <trkpt lat="52.47438794" lon="-126.3023699">
      </trkpt>
      <trkpt lat="52.47485725" lon="-126.30209099">
      </trkpt>
      <trkpt lat="52.47492942" lon="-126.30185843">
      </trkpt>
      <trkpt lat="52.47489338" lon="-126.30143998">
      </trkpt>
      <trkpt lat="52.47460453" lon="-126.30060294">
      </trkpt>
      <trkpt lat="52.47449623" lon="-126.30013797">
      </trkpt>
      <trkpt lat="52.47453236" lon="-126.29967301">
      </trkpt>
      <trkpt lat="52.47482112" lon="-126.29897551">
      </trkpt>
      <trkpt lat="52.47503772" lon="-126.29864992">
      </trkpt>
      <trkpt lat="52.47496555" lon="-126.2985104">
      </trkpt>
      <trkpt lat="52.47460453" lon="-126.29813845">
      </trkpt>
      <trkpt lat="52.47435181" lon="-126.29776651">
      </trkpt>
      <trkpt lat="52.47395466" lon="-126.2961856">
      </trkpt>
      <trkpt lat="52.4736658" lon="-126.29460468">
      </trkpt>
      <trkpt lat="52.47370192" lon="-126.29423275">
      </trkpt>
      <trkpt lat="52.47381014" lon="-126.29348872">
      </trkpt>
      <trkpt lat="52.47362966" lon="-126.29283771">
      </trkpt>
      <trkpt lat="52.47319636" lon="-126.29186144">
      </trkpt>
      <trkpt lat="52.47297976" lon="-126.29139649">
      </trkpt>
      <trkpt lat="52.47267524" lon="-126.29033984">
      </trkpt>
      <trkpt lat="52.47250912" lon="-126.28932361">
      </trkpt>
      <trkpt lat="52.47267506" lon="-126.28841427">
      </trkpt>
      <trkpt lat="52.47284119" lon="-126.28803976">
      </trkpt>
      <trkpt lat="52.4727165" lon="-126.28697016">
      </trkpt>
      <trkpt lat="52.47292407" lon="-126.28664915">
      </trkpt>
      <trkpt lat="52.4737129" lon="-126.28579305">
      </trkpt>
      <trkpt lat="52.47400354" lon="-126.28541852">
      </trkpt>
      <trkpt lat="52.4742111" lon="-126.28483003">
      </trkpt>
      <trkpt lat="52.47450173" lon="-126.28456241">
      </trkpt>
      <trkpt lat="52.47500001" lon="-126.28456225">
      </trkpt>
      <trkpt lat="52.47545685" lon="-126.28472251">
      </trkpt>
      <trkpt lat="52.47583052" lon="-126.28461532">
      </trkpt>
      <trkpt lat="52.47620419" lon="-126.2843477">
      </trkpt>
      <trkpt lat="52.47661939" lon="-126.28386611">
      </trkpt>
      <trkpt lat="52.47695144" lon="-126.28301016">
      </trkpt>
      <trkpt lat="52.47724195" lon="-126.28210068">
      </trkpt>
      <trkpt lat="52.47740798" lon="-126.28156556">
      </trkpt>
      <trkpt lat="52.47753248" lon="-126.28065623">
      </trkpt>
      <trkpt lat="52.47757381" lon="-126.2799607">
      </trkpt>
      <trkpt lat="52.47773985" lon="-126.27953265">
      </trkpt>
      <trkpt lat="52.47819655" lon="-126.27883697">
      </trkpt>
      <trkpt lat="52.47877775" lon="-126.27819481">
      </trkpt>
      <trkpt lat="52.47952505" lon="-126.27749897">
      </trkpt>
      <trkpt lat="52.47998173" lon="-126.27717766">
      </trkpt>
      <trkpt lat="52.48043861" lon="-126.27739147">
      </trkpt>
      <trkpt lat="52.48093701" lon="-126.27792612">
      </trkpt>
      <trkpt lat="52.48114474" lon="-126.27846092">
      </trkpt>
      <trkpt lat="52.48156007" lon="-126.27899572">
      </trkpt>
      <trkpt lat="52.48205836" lon="-126.27920936">
      </trkpt>
      <trkpt lat="52.4826397" lon="-126.27915553">
      </trkpt>
      <trkpt lat="52.48359473" lon="-126.27859329">
      </trkpt>
      <trkpt lat="52.48442508" lon="-126.2778973">
      </trkpt>
      <trkpt lat="52.48504781" lon="-126.2770944">
      </trkpt>
      <trkpt lat="52.4855874" lon="-126.27602404">
      </trkpt>
      <trkpt lat="52.48608546" lon="-126.27522115">
      </trkpt>
      <trkpt lat="52.48687424" lon="-126.27431106">
      </trkpt>
      <trkpt lat="52.48745551" lon="-126.2736686">
      </trkpt>
      <trkpt lat="52.48795374" lon="-126.27340081">
      </trkpt>
      <trkpt lat="52.48836883" lon="-126.27275836">
      </trkpt>
      <trkpt lat="52.48857624" lon="-126.27206266">
      </trkpt>
      <trkpt lat="52.48919835" lon="-126.26893208">
      </trkpt>
      <trkpt lat="52.48948859" lon="-126.2675941">
      </trkpt>
      <trkpt lat="52.48957551" lon="-126.26725549">
      </trkpt>
      <trkpt lat="52.48958248" lon="-126.26723471">
      </trkpt>
      <trkpt lat="52.4895889" lon="-126.26715328">
      </trkpt>
      <trkpt lat="52.4895994" lon="-126.26710612">
      </trkpt>
      <trkpt lat="52.48960701" lon="-126.26706888">
      </trkpt>
      <trkpt lat="52.48961598" lon="-126.26702277">
      </trkpt>
      <trkpt lat="52.48962634" lon="-126.26698293">
      </trkpt>
      <trkpt lat="52.48964072" lon="-126.26693159">
      </trkpt>
      <trkpt lat="52.48964572" lon="-126.26689587">
      </trkpt>
      <trkpt lat="52.48965842" lon="-126.26685312">
      </trkpt>
      <trkpt lat="52.4896598" lon="-126.26683602">
      </trkpt>
      <trkpt lat="52.48967401" lon="-126.26677563">
      </trkpt>
      <trkpt lat="52.48968874" lon="-126.26673847">
      </trkpt>
      <trkpt lat="52.48971105" lon="-126.26669441">
      </trkpt>
      <trkpt lat="52.48974414" lon="-126.26663229">
      </trkpt>
      <trkpt lat="52.48978467" lon="-126.26657118">
      </trkpt>
      <trkpt lat="52.48981367" lon="-126.26652837">
      </trkpt>
      <trkpt lat="52.48984183" lon="-126.26648612">
      </trkpt>
      <trkpt lat="52.48985789" lon="-126.2664715">
      </trkpt>
      <trkpt lat="52.48988296" lon="-126.26644026">
      </trkpt>
      <trkpt lat="52.48992303" lon="-126.26638678">
      </trkpt>
      <trkpt lat="52.48993301" lon="-126.26636918">
      </trkpt>
      <trkpt lat="52.48997072" lon="-126.26630904">
      </trkpt>
      <trkpt lat="52.48999215" lon="-126.26627216">
      </trkpt>
      <trkpt lat="52.49001854" lon="-126.26622188">
      </trkpt>
      <trkpt lat="52.49002546" lon="-126.26618073">
      </trkpt>
      <trkpt lat="52.4900228" lon="-126.26616579">
      </trkpt>
      <trkpt lat="52.49003074" lon="-126.26609709">
      </trkpt>
      <trkpt lat="52.49002858" lon="-126.26606398">
      </trkpt>
      <trkpt lat="52.49002924" lon="-126.26600165">
      </trkpt>
      <trkpt lat="52.49004203" lon="-126.26596273">
      </trkpt>
      <trkpt lat="52.49006306" lon="-126.26591559">
      </trkpt>
      <trkpt lat="52.49006802" lon="-126.26590182">
      </trkpt>
      <trkpt lat="52.49009433" lon="-126.26584015">
      </trkpt>
      <trkpt lat="52.49012498" lon="-126.26580113">
      </trkpt>
      <trkpt lat="52.49013008" lon="-126.26578702">
      </trkpt>
      <trkpt lat="52.49017286" lon="-126.26572675">
      </trkpt>
      <trkpt lat="52.490211" lon="-126.26568002">
      </trkpt>
      <trkpt lat="52.49024428" lon="-126.2656473">
      </trkpt>
      <trkpt lat="52.49025098" lon="-126.2656407">
      </trkpt>
      <trkpt lat="52.49028202" lon="-126.26559142">
      </trkpt>
      <trkpt lat="52.49031475" lon="-126.26554969">
      </trkpt>
      <trkpt lat="52.49035212" lon="-126.26548423">
      </trkpt>
      <trkpt lat="52.49037601" lon="-126.2654318">
      </trkpt>
      <trkpt lat="52.49038169" lon="-126.26541655">
      </trkpt>
      <trkpt lat="52.49041032" lon="-126.2653396">
      </trkpt>
      <trkpt lat="52.49043084" lon="-126.26526044">
      </trkpt>
      <trkpt lat="52.49043667" lon="-126.26524472">
      </trkpt>
      <trkpt lat="52.49045761" lon="-126.26518419">
      </trkpt>
      <trkpt lat="52.49049596" lon="-126.2651057">
      </trkpt>
      <trkpt lat="52.49051731" lon="-126.26505401">
      </trkpt>
      <trkpt lat="52.4905451" lon="-126.26499549">
      </trkpt>
      <trkpt lat="52.49056845" lon="-126.26493082">
      </trkpt>
      <trkpt lat="52.49057478" lon="-126.26488316">
      </trkpt>
      <trkpt lat="52.49059586" lon="-126.26479888">
      </trkpt>
      <trkpt lat="52.49060143" lon="-126.2646466">
      </trkpt>
      <trkpt lat="52.49060306" lon="-126.26455112">
      </trkpt>
      <trkpt lat="52.49059828" lon="-126.2644402">
      </trkpt>
      <trkpt lat="52.49060712" lon="-126.26437682">
      </trkpt>
      <trkpt lat="52.49062511" lon="-126.26431356">
      </trkpt>
      <trkpt lat="52.49064612" lon="-126.26427923">
      </trkpt>
      <trkpt lat="52.49068947" lon="-126.26420876">
      </trkpt>
      <trkpt lat="52.49072105" lon="-126.26415081">
      </trkpt>
      <trkpt lat="52.49073711" lon="-126.26411018">
      </trkpt>
      <trkpt lat="52.49079759" lon="-126.2640059">
      </trkpt>
      <trkpt lat="52.49082933" lon="-126.26393439">
      </trkpt>
      <trkpt lat="52.49085037" lon="-126.26386349">
      </trkpt>
      <trkpt lat="52.49088256" lon="-126.26376704">
      </trkpt>
      <trkpt lat="52.49091545" lon="-126.26368062">
      </trkpt>
      <trkpt lat="52.49093761" lon="-126.26361835">
      </trkpt>
      <trkpt lat="52.49096822" lon="-126.26347338">
      </trkpt>
      <trkpt lat="52.49098559" lon="-126.26335515">
      </trkpt>
      <trkpt lat="52.49100131" lon="-126.26327496">
      </trkpt>
      <trkpt lat="52.4909988" lon="-126.26325365">
      </trkpt>
      <trkpt lat="52.49100373" lon="-126.26313772">
      </trkpt>
      <trkpt lat="52.49100172" lon="-126.26307769">
      </trkpt>
      <trkpt lat="52.49100133" lon="-126.26300228">
      </trkpt>
      <trkpt lat="52.49100114" lon="-126.26296436">
      </trkpt>
      <trkpt lat="52.49097988" lon="-126.26292778">
      </trkpt>
      <trkpt lat="52.49097974" lon="-126.26290235">
      </trkpt>
      <trkpt lat="52.49095283" lon="-126.26284635">
      </trkpt>
      <trkpt lat="52.49093157" lon="-126.26282255">
      </trkpt>
      <trkpt lat="52.49089986" lon="-126.26279967">
      </trkpt>
      <trkpt lat="52.49086858" lon="-126.26280233">
      </trkpt>
      <trkpt lat="52.49085802" lon="-126.26279049">
      </trkpt>
      <trkpt lat="52.49085735" lon="-126.26273948">
      </trkpt>
      <trkpt lat="52.49085583" lon="-126.26262375">
      </trkpt>
      <trkpt lat="52.49085004" lon="-126.26256672">
      </trkpt>
      <trkpt lat="52.49083804" lon="-126.2625437">
      </trkpt>
      <trkpt lat="52.49083709" lon="-126.2624651">
      </trkpt>
      <trkpt lat="52.49082688" lon="-126.26239858">
      </trkpt>
      <trkpt lat="52.49082637" lon="-126.26235881">
      </trkpt>
      <trkpt lat="52.49082554" lon="-126.26229221">
      </trkpt>
      <trkpt lat="52.49082401" lon="-126.26217121">
      </trkpt>
      <trkpt lat="52.49080446" lon="-126.26212979">
      </trkpt>
      <trkpt lat="52.49079264" lon="-126.26207779">
      </trkpt>
      <trkpt lat="52.49077064" lon="-126.26206833">
      </trkpt>
      <trkpt lat="52.49073624" lon="-126.26204987">
      </trkpt>
      <trkpt lat="52.49072114" lon="-126.26201751">
      </trkpt>
      <trkpt lat="52.49079347" lon="-126.26167541">
      </trkpt>
      <trkpt lat="52.49078529" lon="-126.26132727">
      </trkpt>
      <trkpt lat="52.49098122" lon="-126.26031565">
      </trkpt>
      <trkpt lat="52.49127147" lon="-126.25903117">
      </trkpt>
      <trkpt lat="52.49143714" lon="-126.25801433">
      </trkpt>
      <trkpt lat="52.49139517" lon="-126.25678369">
      </trkpt>
      <trkpt lat="52.49147791" lon="-126.25592742">
      </trkpt>
      <trkpt lat="52.49180976" lon="-126.25517792">
      </trkpt>
      <trkpt lat="52.49193411" lon="-126.25448208">
      </trkpt>
      <trkpt lat="52.49214142" lon="-126.25362568">
      </trkpt>
      <trkpt lat="52.49218274" lon="-126.25309057">
      </trkpt>
      <trkpt lat="52.49234814" lon="-126.25140474">
      </trkpt>
      <trkpt lat="52.49238901" lon="-126.25001337">
      </trkpt>
      <trkpt lat="52.49247147" lon="-126.24872904">
      </trkpt>
      <trkpt lat="52.49247092" lon="-126.2473912">
      </trkpt>
      <trkpt lat="52.49251179" lon="-126.24594646">
      </trkpt>
      <trkpt lat="52.49259435" lon="-126.2448761">
      </trkpt>
      <trkpt lat="52.49267672" lon="-126.24348474">
      </trkpt>
      <trkpt lat="52.4927106" lon="-126.24291121">
      </trkpt>
      <trkpt lat="52.49271786" lon="-126.24278906">
      </trkpt>
      <trkpt lat="52.49272599" lon="-126.242706">
      </trkpt>
      <trkpt lat="52.49271934" lon="-126.24267259">
      </trkpt>
      <trkpt lat="52.49271015" lon="-126.24262414">
      </trkpt>
      <trkpt lat="52.49270658" lon="-126.24258442">
      </trkpt>
      <trkpt lat="52.49270795" lon="-126.24256818">
      </trkpt>
      <trkpt lat="52.49270057" lon="-126.24251151">
      </trkpt>
      <trkpt lat="52.49267773" lon="-126.24248113">
      </trkpt>
      <trkpt lat="52.49264275" lon="-126.24245958">
      </trkpt>
      <trkpt lat="52.49263214" lon="-126.24244387">
      </trkpt>
      <trkpt lat="52.49259114" lon="-126.24242358">
      </trkpt>
      <trkpt lat="52.49255753" lon="-126.24240395">
      </trkpt>
      <trkpt lat="52.49255765" lon="-126.2423796">
      </trkpt>
      <trkpt lat="52.49254686" lon="-126.24233972">
      </trkpt>
      <trkpt lat="52.49254665" lon="-126.24229637">
      </trkpt>
      <trkpt lat="52.49256634" lon="-126.24227554">
      </trkpt>
      <trkpt lat="52.49257035" lon="-126.24226911">
      </trkpt>
      <trkpt lat="52.49258459" lon="-126.24224635">
      </trkpt>
      <trkpt lat="52.49259719" lon="-126.24221818">
      </trkpt>
      <trkpt lat="52.49259679" lon="-126.24218399">
      </trkpt>
      <trkpt lat="52.4925925" lon="-126.24214978">
      </trkpt>
      <trkpt lat="52.49259029" lon="-126.24212385">
      </trkpt>
      <trkpt lat="52.49258862" lon="-126.24207082">
      </trkpt>
      <trkpt lat="52.49258528" lon="-126.24203557">
      </trkpt>
      <trkpt lat="52.49258997" lon="-126.24200729">
      </trkpt>
      <trkpt lat="52.49259141" lon="-126.24197087">
      </trkpt>
      <trkpt lat="52.49258808" lon="-126.24193579">
      </trkpt>
      <trkpt lat="52.49258812" lon="-126.24189957">
      </trkpt>
      <trkpt lat="52.49258459" lon="-126.24186464">
      </trkpt>
      <trkpt lat="52.49257891" lon="-126.24180413">
      </trkpt>
      <trkpt lat="52.49256882" lon="-126.24176264">
      </trkpt>
      <trkpt lat="52.49255101" lon="-126.24171467">
      </trkpt>
      <trkpt lat="52.49254987" lon="-126.24169736">
      </trkpt>
      <trkpt lat="52.49254349" lon="-126.24163755">
      </trkpt>
      <trkpt lat="52.49252876" lon="-126.24159801">
      </trkpt>
      <trkpt lat="52.49250758" lon="-126.24156937">
      </trkpt>
      <trkpt lat="52.49250174" lon="-126.24155367">
      </trkpt>
      <trkpt lat="52.49248022" lon="-126.2414991">
      </trkpt>
      <trkpt lat="52.49245159" lon="-126.24142142">
      </trkpt>
      <trkpt lat="52.49242075" lon="-126.24133661">
      </trkpt>
      <trkpt lat="52.4924096" lon="-126.24130596">
      </trkpt>
      <trkpt lat="52.49239295" lon="-126.24126017">
      </trkpt>
      <trkpt lat="52.49238188" lon="-126.24122976">
      </trkpt>
      <trkpt lat="52.49236244" lon="-126.24117681">
      </trkpt>
      <trkpt lat="52.49234477" lon="-126.24113196">
      </trkpt>
      <trkpt lat="52.49232997" lon="-126.2410866">
      </trkpt>
      <trkpt lat="52.49232226" lon="-126.24106407">
      </trkpt>
      <trkpt lat="52.49232823" lon="-126.24103666">
      </trkpt>
      <trkpt lat="52.49233546" lon="-126.2409835">
      </trkpt>
      <trkpt lat="52.49234404" lon="-126.24094672">
      </trkpt>
      <trkpt lat="52.4923385" lon="-126.24090688">
      </trkpt>
      <trkpt lat="52.49233265" lon="-126.24088395">
      </trkpt>
      <trkpt lat="52.4923248" lon="-126.24083671">
      </trkpt>
      <trkpt lat="52.49232511" lon="-126.24081984">
      </trkpt>
      <trkpt lat="52.49230965" lon="-126.24077555">
      </trkpt>
      <trkpt lat="52.49230835" lon="-126.24073423">
      </trkpt>
      <trkpt lat="52.49229864" lon="-126.24069631">
      </trkpt>
      <trkpt lat="52.49228763" lon="-126.24065076">
      </trkpt>
      <trkpt lat="52.49227976" lon="-126.24059583">
      </trkpt>
      <trkpt lat="52.49228053" lon="-126.24055408">
      </trkpt>
      <trkpt lat="52.49228002" lon="-126.24053771">
      </trkpt>
      <trkpt lat="52.4922699" lon="-126.24047573">
      </trkpt>
      <trkpt lat="52.49226399" lon="-126.24044521">
      </trkpt>
      <trkpt lat="52.49226021" lon="-126.24039743">
      </trkpt>
      <trkpt lat="52.49225388" lon="-126.24036726">
      </trkpt>
      <trkpt lat="52.49225245" lon="-126.24031858">
      </trkpt>
      <trkpt lat="52.49225751" lon="-126.2402918">
      </trkpt>
      <trkpt lat="52.49227629" lon="-126.24026731">
      </trkpt>
      <trkpt lat="52.49227967" lon="-126.24024941">
      </trkpt>
      <trkpt lat="52.49227437" lon="-126.24020248">
      </trkpt>
      <trkpt lat="52.49227896" lon="-126.24015949">
      </trkpt>
      <trkpt lat="52.492278" lon="-126.24012714">
      </trkpt>
      <trkpt lat="52.49228456" lon="-126.24007474">
      </trkpt>
      <trkpt lat="52.49228927" lon="-126.2400313">
      </trkpt>
      <trkpt lat="52.49230022" lon="-126.23997674">
      </trkpt>
      <trkpt lat="52.49231246" lon="-126.23995469">
      </trkpt>
      <trkpt lat="52.49233618" lon="-126.23991849">
      </trkpt>
      <trkpt lat="52.49235683" lon="-126.23987545">
      </trkpt>
      <trkpt lat="52.49237431" lon="-126.23984217">
      </trkpt>
      <trkpt lat="52.49239124" lon="-126.23980057">
      </trkpt>
      <trkpt lat="52.49240167" lon="-126.23977882">
      </trkpt>
      <trkpt lat="52.49243071" lon="-126.23973941">
      </trkpt>
      <trkpt lat="52.49246018" lon="-126.2396996">
      </trkpt>
      <trkpt lat="52.49248935" lon="-126.23967717">
      </trkpt>
      <trkpt lat="52.49250179" lon="-126.23967131">
      </trkpt>
      <trkpt lat="52.4925253" lon="-126.23963435">
      </trkpt>
      <trkpt lat="52.49254871" lon="-126.23959734">
      </trkpt>
      <trkpt lat="52.49255679" lon="-126.23957606">
      </trkpt>
      <trkpt lat="52.49257706" lon="-126.23952266">
      </trkpt>
      <trkpt lat="52.49258546" lon="-126.23949225">
      </trkpt>
      <trkpt lat="52.49259771" lon="-126.23945996">
      </trkpt>
      <trkpt lat="52.49261109" lon="-126.23939141">
      </trkpt>
      <trkpt lat="52.49262428" lon="-126.23933152">
      </trkpt>
      <trkpt lat="52.49263813" lon="-126.23926275">
      </trkpt>
      <trkpt lat="52.49265452" lon="-126.239218">
      </trkpt>
      <trkpt lat="52.49266316" lon="-126.23916776">
      </trkpt>
      <trkpt lat="52.49267641" lon="-126.23911487">
      </trkpt>
      <trkpt lat="52.4927065" lon="-126.2390705">
      </trkpt>
      <trkpt lat="52.49273035" lon="-126.23903869">
      </trkpt>
      <trkpt lat="52.49275876" lon="-126.23901359">
      </trkpt>
      <trkpt lat="52.49278331" lon="-126.23897188">
      </trkpt>
      <trkpt lat="52.49280091" lon="-126.23895265">
      </trkpt>
      <trkpt lat="52.49282478" lon="-126.23891117">
      </trkpt>
      <trkpt lat="52.49285236" lon="-126.23886778">
      </trkpt>
      <trkpt lat="52.49286998" lon="-126.23883899">
      </trkpt>
      <trkpt lat="52.49288752" lon="-126.2388008">
      </trkpt>
      <trkpt lat="52.49290517" lon="-126.23876238">
      </trkpt>
      <trkpt lat="52.49291982" lon="-126.23872612">
      </trkpt>
      <trkpt lat="52.49293805" lon="-126.2386881">
      </trkpt>
      <trkpt lat="52.49296063" lon="-126.23867512">
      </trkpt>
      <trkpt lat="52.49298045" lon="-126.23864525">
      </trkpt>
      <trkpt lat="52.49300751" lon="-126.23862037">
      </trkpt>
      <trkpt lat="52.49303388" lon="-126.23857683">
      </trkpt>
      <trkpt lat="52.4930609" lon="-126.23855073">
      </trkpt>
      <trkpt lat="52.49309635" lon="-126.23852884">
      </trkpt>
      <trkpt lat="52.49313211" lon="-126.23850675">
      </trkpt>
      <trkpt lat="52.49315274" lon="-126.23848444">
      </trkpt>
      <trkpt lat="52.49325284" lon="-126.23844704">
      </trkpt>
      <trkpt lat="52.493266" lon="-126.23844291">
      </trkpt>
      <trkpt lat="52.49329095" lon="-126.23842188">
      </trkpt>
      <trkpt lat="52.49331595" lon="-126.23840069">
      </trkpt>
      <trkpt lat="52.4933376" lon="-126.23836695">
      </trkpt>
      <trkpt lat="52.49335735" lon="-126.23834711">
      </trkpt>
      <trkpt lat="52.49338971" lon="-126.23832331">
      </trkpt>
      <trkpt lat="52.49340486" lon="-126.23829135">
      </trkpt>
      <trkpt lat="52.49340832" lon="-126.23825625">
      </trkpt>
      <trkpt lat="52.49342086" lon="-126.23819036">
      </trkpt>
      <trkpt lat="52.49343477" lon="-126.23815116">
      </trkpt>
      <trkpt lat="52.49344688" lon="-126.23811939">
      </trkpt>
      <trkpt lat="52.4934608" lon="-126.23809374">
      </trkpt>
      <trkpt lat="52.49347655" lon="-126.23807428">
      </trkpt>
      <trkpt lat="52.49348905" lon="-126.23804891">
      </trkpt>
      <trkpt lat="52.49351509" lon="-126.23801848">
      </trkpt>
      <trkpt lat="52.49353394" lon="-126.23797661">
      </trkpt>
      <trkpt lat="52.4935374" lon="-126.2379403">
      </trkpt>
      <trkpt lat="52.49353536" lon="-126.23792007">
      </trkpt>
      <trkpt lat="52.49353606" lon="-126.23789181">
      </trkpt>
      <trkpt lat="52.49353473" lon="-126.23784336">
      </trkpt>
      <trkpt lat="52.49353819" lon="-126.23780702">
      </trkpt>
      <trkpt lat="52.49354681" lon="-126.23776858">
      </trkpt>
      <trkpt lat="52.49355269" lon="-126.23773818">
      </trkpt>
      <trkpt lat="52.49356654" lon="-126.23769742">
      </trkpt>
      <trkpt lat="52.49358009" lon="-126.23767072">
      </trkpt>
      <trkpt lat="52.49358965" lon="-126.2376456">
      </trkpt>
      <trkpt lat="52.49359284" lon="-126.2376372">
      </trkpt>
      <trkpt lat="52.49360424" lon="-126.23758294">
      </trkpt>
      <trkpt lat="52.49361" lon="-126.23755221">
      </trkpt>
      <trkpt lat="52.49361069" lon="-126.23752364">
      </trkpt>
      <trkpt lat="52.49360124" lon="-126.23749955">
      </trkpt>
      <trkpt lat="52.49359238" lon="-126.23745426">
      </trkpt>
      <trkpt lat="52.49358169" lon="-126.23743103">
      </trkpt>
      <trkpt lat="52.49358106" lon="-126.23741731">
      </trkpt>
      <trkpt lat="52.49357978" lon="-126.23738991">
      </trkpt>
      <trkpt lat="52.49356929" lon="-126.23731802">
      </trkpt>
      <trkpt lat="52.4935528" lon="-126.23727019">
      </trkpt>
      <trkpt lat="52.49353966" lon="-126.23724187">
      </trkpt>
      <trkpt lat="52.49352137" lon="-126.23720241">
      </trkpt>
      <trkpt lat="52.49351545" lon="-126.23716359">
      </trkpt>
      <trkpt lat="52.49351455" lon="-126.23712225">
      </trkpt>
      <trkpt lat="52.49352036" lon="-126.23708445">
      </trkpt>
      <trkpt lat="52.4935132" lon="-126.23706024">
      </trkpt>
      <trkpt lat="52.49350443" lon="-126.23703712">
      </trkpt>
      <trkpt lat="52.49348138" lon="-126.23698695">
      </trkpt>
      <trkpt lat="52.49347375" lon="-126.23696335">
      </trkpt>
      <trkpt lat="52.49346092" lon="-126.23694266">
      </trkpt>
      <trkpt lat="52.49343903" lon="-126.2369276">
      </trkpt>
      <trkpt lat="52.49340698" lon="-126.23691197">
      </trkpt>
      <trkpt lat="52.4933916" lon="-126.2368872">
      </trkpt>
      <trkpt lat="52.49338548" lon="-126.23687734">
      </trkpt>
      <trkpt lat="52.49336785" lon="-126.2368404">
      </trkpt>
      <trkpt lat="52.49335391" lon="-126.23680816">
      </trkpt>
      <trkpt lat="52.49335495" lon="-126.2367736">
      </trkpt>
      <trkpt lat="52.49336709" lon="-126.23674567">
      </trkpt>
      <trkpt lat="52.49337628" lon="-126.23672617">
      </trkpt>
      <trkpt lat="52.49340212" lon="-126.23668216">
      </trkpt>
      <trkpt lat="52.49342354" lon="-126.23664763">
      </trkpt>
      <trkpt lat="52.49344788" lon="-126.2366179">
      </trkpt>
      <trkpt lat="52.49347524" lon="-126.23659303">
      </trkpt>
      <trkpt lat="52.49352039" lon="-126.2365423">
      </trkpt>
      <trkpt lat="52.49355693" lon="-126.23652581">
      </trkpt>
      <trkpt lat="52.49358728" lon="-126.23652083">
      </trkpt>
      <trkpt lat="52.49362631" lon="-126.23649618">
      </trkpt>
      <trkpt lat="52.49366167" lon="-126.23648107">
      </trkpt>
      <trkpt lat="52.49369566" lon="-126.23648146">
      </trkpt>
      <trkpt lat="52.49372759" lon="-126.23647609">
      </trkpt>
      <trkpt lat="52.49376559" lon="-126.23646725">
      </trkpt>
      <trkpt lat="52.493794" lon="-126.23645723">
      </trkpt>
      <trkpt lat="52.49382773" lon="-126.23643649">
      </trkpt>
      <trkpt lat="52.49386874" lon="-126.23641126">
      </trkpt>
      <trkpt lat="52.49389817" lon="-126.23640079">
      </trkpt>
      <trkpt lat="52.49393314" lon="-126.23637932">
      </trkpt>
      <trkpt lat="52.49396854" lon="-126.2363576">
      </trkpt>
      <trkpt lat="52.49400438" lon="-126.2363356">
      </trkpt>
      <trkpt lat="52.4940297" lon="-126.23630448">
      </trkpt>
      <trkpt lat="52.49405686" lon="-126.2362719">
      </trkpt>
      <trkpt lat="52.49410356" lon="-126.23621024">
      </trkpt>
      <trkpt lat="52.49413677" lon="-126.23617277">
      </trkpt>
      <trkpt lat="52.49418497" lon="-126.23610923">
      </trkpt>
      <trkpt lat="52.49420695" lon="-126.23607054">
      </trkpt>
      <trkpt lat="52.49422913" lon="-126.23603153">
      </trkpt>
      <trkpt lat="52.494259" lon="-126.23597896">
      </trkpt>
      <trkpt lat="52.49428164" lon="-126.23593914">
      </trkpt>
      <trkpt lat="52.49432506" lon="-126.23587639">
      </trkpt>
      <trkpt lat="52.49437657" lon="-126.23579058">
      </trkpt>
      <trkpt lat="52.49441281" lon="-126.23574002">
      </trkpt>
      <trkpt lat="52.49442778" lon="-126.23569535">
      </trkpt>
      <trkpt lat="52.4944531" lon="-126.23564315">
      </trkpt>
      <trkpt lat="52.49447734" lon="-126.2355827">
      </trkpt>
      <trkpt lat="52.49449541" lon="-126.23551806">
      </trkpt>
      <trkpt lat="52.49450963" lon="-126.23548186">
      </trkpt>
      <trkpt lat="52.49451554" lon="-126.23544236">
      </trkpt>
      <trkpt lat="52.49451828" lon="-126.23538748">
      </trkpt>
      <trkpt lat="52.4945334" lon="-126.23532296">
      </trkpt>
      <trkpt lat="52.49456673" lon="-126.23527972">
      </trkpt>
      <trkpt lat="52.49462119" lon="-126.23522182">
      </trkpt>
      <trkpt lat="52.49468516" lon="-126.23514748">
      </trkpt>
      <trkpt lat="52.49473939" lon="-126.23510804">
      </trkpt>
      <trkpt lat="52.49478845" lon="-126.23507329">
      </trkpt>
      <trkpt lat="52.49482354" lon="-126.23505754">
      </trkpt>
      <trkpt lat="52.49485897" lon="-126.23504165">
      </trkpt>
      <trkpt lat="52.49488628" lon="-126.23503158">
      </trkpt>
      <trkpt lat="52.49493003" lon="-126.23502926">
      </trkpt>
      <trkpt lat="52.49495989" lon="-126.23501867">
      </trkpt>
      <trkpt lat="52.49500966" lon="-126.23498561">
      </trkpt>
      <trkpt lat="52.49502924" lon="-126.23495362">
      </trkpt>
      <trkpt lat="52.49505048" lon="-126.23492011">
      </trkpt>
      <trkpt lat="52.49507689" lon="-126.23485419">
      </trkpt>
      <trkpt lat="52.49508971" lon="-126.23481651">
      </trkpt>
      <trkpt lat="52.49508236" lon="-126.23477399">
      </trkpt>
      <trkpt lat="52.49507153" lon="-126.23472481">
      </trkpt>
      <trkpt lat="52.49506004" lon="-126.2346763">
      </trkpt>
      <trkpt lat="52.49505136" lon="-126.23462527">
      </trkpt>
      <trkpt lat="52.49503921" lon="-126.23456766">
      </trkpt>
      <trkpt lat="52.49503054" lon="-126.23452656">
      </trkpt>
      <trkpt lat="52.4950236" lon="-126.23449371">
      </trkpt>
      <trkpt lat="52.49502216" lon="-126.23444744">
      </trkpt>
      <trkpt lat="52.4950262" lon="-126.23438761">
      </trkpt>
      <trkpt lat="52.49504272" lon="-126.23434698">
      </trkpt>
      <trkpt lat="52.49505931" lon="-126.23430615">
      </trkpt>
      <trkpt lat="52.49508967" lon="-126.23425518">
      </trkpt>
      <trkpt lat="52.49511856" lon="-126.23420554">
      </trkpt>
      <trkpt lat="52.49514247" lon="-126.23416894">
      </trkpt>
      <trkpt lat="52.49518185" lon="-126.23413067">
      </trkpt>
      <trkpt lat="52.49520248" lon="-126.23411566">
      </trkpt>
      <trkpt lat="52.49523771" lon="-126.23410008">
      </trkpt>
      <trkpt lat="52.49525738" lon="-126.23408612">
      </trkpt>
      <trkpt lat="52.49529033" lon="-126.23406275">
      </trkpt>
      <trkpt lat="52.4953235" lon="-126.23403923">
      </trkpt>
      <trkpt lat="52.49534544" lon="-126.23400441">
      </trkpt>
      <trkpt lat="52.49538528" lon="-126.23394708">
      </trkpt>
      <trkpt lat="52.49543665" lon="-126.2338715">
      </trkpt>
      <trkpt lat="52.49545911" lon="-126.23383588">
      </trkpt>
      <trkpt lat="52.49549546" lon="-126.23379014">
      </trkpt>
      <trkpt lat="52.4955182" lon="-126.23375411">
      </trkpt>
      <trkpt lat="52.4955435" lon="-126.23372596">
      </trkpt>
      <trkpt lat="52.49555701" lon="-126.23368664">
      </trkpt>
      <trkpt lat="52.49557507" lon="-126.23363403">
      </trkpt>
      <trkpt lat="52.49558619" lon="-126.23358637">
      </trkpt>
      <trkpt lat="52.49559936" lon="-126.23354713">
      </trkpt>
      <trkpt lat="52.49560315" lon="-126.23350481">
      </trkpt>
      <trkpt lat="52.49560274" lon="-126.2334754">
      </trkpt>
      <trkpt lat="52.49559694" lon="-126.23337062">
      </trkpt>
      <trkpt lat="52.49559382" lon="-126.23330354">
      </trkpt>
      <trkpt lat="52.49559295" lon="-126.23324473">
      </trkpt>
      <trkpt lat="52.49558958" lon="-126.23317791">
      </trkpt>
      <trkpt lat="52.49560251" lon="-126.23313831">
      </trkpt>
      <trkpt lat="52.49560861" lon="-126.23310392">
      </trkpt>
      <trkpt lat="52.49563903" lon="-126.23303858">
      </trkpt>
      <trkpt lat="52.49565192" lon="-126.23299878">
      </trkpt>
      <trkpt lat="52.49563738" lon="-126.23295258">
      </trkpt>
      <trkpt lat="52.49565641" lon="-126.23287553">
      </trkpt>
      <trkpt lat="52.49567384" lon="-126.23281691">
      </trkpt>
      <trkpt lat="52.4957012" lon="-126.23273812">
      </trkpt>
      <trkpt lat="52.49572982" lon="-126.23266846">
      </trkpt>
      <trkpt lat="52.49574336" lon="-126.23260544">
      </trkpt>
    </trkseg>
  </trk>
</gpx>