<?xml version="1.0" encoding="UTF-8"?>
<gpx xmlns="http://www.topografix.com/GPX/1/1" xmlns:xsi="http://www.w3.org/2001/XMLSchema-instance" xsi:schemaLocation="http://www.topografix.com/GPX/1/1 http://www.topografix.com/GPX/1/1/gpx.xsd" version="1.1" creator="gpx.py -- https://github.com/tkrajina/gpxpy">
  <trk>
    <name>Bell Mountain Snowmobile</name>
    <trkseg>
      <trkpt lat="53.33241161" lon="-120.31395539">
      </trkpt>
      <trkpt lat="53.33229538" lon="-120.3139269">
      </trkpt>
      <trkpt lat="53.33213627" lon="-120.31395243">
      </trkpt>
      <trkpt lat="53.3319472" lon="-120.31400209">
      </trkpt>
      <trkpt lat="53.33173317" lon="-120.31417968">
      </trkpt>
      <trkpt lat="53.33155327" lon="-120.31467009">
      </trkpt>
      <trkpt lat="53.33139985" lon="-120.31531362">
      </trkpt>
      <trkpt lat="53.33131079" lon="-120.31570539">
      </trkpt>
      <trkpt lat="53.33123957" lon="-120.31604576">
      </trkpt>
      <trkpt lat="53.33111222" lon="-120.31635695">
      </trkpt>
      <trkpt lat="53.33098574" lon="-120.31668641">
      </trkpt>
      <trkpt lat="53.33091562" lon="-120.31716441">
      </trkpt>
      <trkpt lat="53.3308775" lon="-120.31773917">
      </trkpt>
      <trkpt lat="53.33084869" lon="-120.31816566">
      </trkpt>
      <trkpt lat="53.3307777" lon="-120.31862541">
      </trkpt>
      <trkpt lat="53.33075087" lon="-120.31920783">
      </trkpt>
      <trkpt lat="53.33069531" lon="-120.31964711">
      </trkpt>
      <trkpt lat="53.33072548" lon="-120.32027695">
      </trkpt>
      <trkpt lat="53.33075932" lon="-120.32086954">
      </trkpt>
      <trkpt lat="53.33076836" lon="-120.32140116">
      </trkpt>
      <trkpt lat="53.33070391" lon="-120.32199783">
      </trkpt>
      <trkpt lat="53.33063057" lon="-120.32275188">
      </trkpt>
      <trkpt lat="53.33053326" lon="-120.32323355">
      </trkpt>
      <trkpt lat="53.33039899" lon="-120.32385801">
      </trkpt>
      <trkpt lat="53.330179" lon="-120.32429189">
      </trkpt>
      <trkpt lat="53.33004028" lon="-120.32436574">
      </trkpt>
      <trkpt lat="53.32981409" lon="-120.32421252">
      </trkpt>
      <trkpt lat="53.32949324" lon="-120.32379647">
      </trkpt>
      <trkpt lat="53.32912627" lon="-120.32333151">
      </trkpt>
      <trkpt lat="53.32873819" lon="-120.32276838">
      </trkpt>
      <trkpt lat="53.32829443" lon="-120.3221852">
      </trkpt>
      <trkpt lat="53.32802401" lon="-120.3216797">
      </trkpt>
      <trkpt lat="53.32782581" lon="-120.32131143">
      </trkpt>
      <trkpt lat="53.32761368" lon="-120.32088073">
      </trkpt>
      <trkpt lat="53.3273518" lon="-120.32066806">
      </trkpt>
      <trkpt lat="53.32702231" lon="-120.32052881">
      </trkpt>
      <trkpt lat="53.32670238" lon="-120.3203607">
      </trkpt>
      <trkpt lat="53.32631415" lon="-120.32013753">
      </trkpt>
      <trkpt lat="53.32596022" lon="-120.31971682">
      </trkpt>
      <trkpt lat="53.32548491" lon="-120.31904612">
      </trkpt>
      <trkpt lat="53.32519427" lon="-120.31869037">
      </trkpt>
      <trkpt lat="53.3247853" lon="-120.31814851">
      </trkpt>
      <trkpt lat="53.32457147" lon="-120.317911">
      </trkpt>
      <trkpt lat="53.32426347" lon="-120.31764947">
      </trkpt>
      <trkpt lat="53.32409207" lon="-120.31749808">
      </trkpt>
      <trkpt lat="53.32346539" lon="-120.31686624">
      </trkpt>
      <trkpt lat="53.32275558" lon="-120.31609869">
      </trkpt>
      <trkpt lat="53.32227461" lon="-120.31553905">
      </trkpt>
      <trkpt lat="53.32188999" lon="-120.31504909">
      </trkpt>
      <trkpt lat="53.32144207" lon="-120.31449421">
      </trkpt>
      <trkpt lat="53.32106875" lon="-120.31401191">
      </trkpt>
      <trkpt lat="53.32069263" lon="-120.31358511">
      </trkpt>
      <trkpt lat="53.32034456" lon="-120.31317291">
      </trkpt>
      <trkpt lat="53.32006804" lon="-120.31276941">
      </trkpt>
      <trkpt lat="53.31965535" lon="-120.31226491">
      </trkpt>
      <trkpt lat="53.31908063" lon="-120.31169048">
      </trkpt>
      <trkpt lat="53.31860551" lon="-120.31113934">
      </trkpt>
      <trkpt lat="53.31815475" lon="-120.31064003">
      </trkpt>
      <trkpt lat="53.31745754" lon="-120.3099077">
      </trkpt>
      <trkpt lat="53.31689473" lon="-120.30923988">
      </trkpt>
      <trkpt lat="53.31635436" lon="-120.3086976">
      </trkpt>
      <trkpt lat="53.31609202" lon="-120.30847593">
      </trkpt>
      <trkpt lat="53.31599696" lon="-120.30837198">
      </trkpt>
      <trkpt lat="53.31599179" lon="-120.30836632">
      </trkpt>
      <trkpt lat="53.31596497" lon="-120.30833699">
      </trkpt>
      <trkpt lat="53.31537067" lon="-120.30781123">
      </trkpt>
      <trkpt lat="53.31485599" lon="-120.30734819">
      </trkpt>
      <trkpt lat="53.31459514" lon="-120.30704368">
      </trkpt>
      <trkpt lat="53.31423424" lon="-120.30670678">
      </trkpt>
      <trkpt lat="53.31392841" lon="-120.30649101">
      </trkpt>
      <trkpt lat="53.31352138" lon="-120.30610527">
      </trkpt>
      <trkpt lat="53.31316049" lon="-120.30576839">
      </trkpt>
      <trkpt lat="53.31289726" lon="-120.30552849">
      </trkpt>
      <trkpt lat="53.3126051" lon="-120.30525579">
      </trkpt>
      <trkpt lat="53.31237845" lon="-120.30509362">
      </trkpt>
      <trkpt lat="53.31200562" lon="-120.30485019">
      </trkpt>
      <trkpt lat="53.31160516" lon="-120.30460134">
      </trkpt>
      <trkpt lat="53.31123216" lon="-120.30446815">
      </trkpt>
      <trkpt lat="53.3108937" lon="-120.30425683">
      </trkpt>
      <trkpt lat="53.31058505" lon="-120.30409657">
      </trkpt>
      <trkpt lat="53.31039934" lon="-120.30410334">
      </trkpt>
      <trkpt lat="53.31012865" lon="-120.3042777">
      </trkpt>
      <trkpt lat="53.30982299" lon="-120.30452108">
      </trkpt>
      <trkpt lat="53.30951145" lon="-120.30475608">
      </trkpt>
      <trkpt lat="53.30923813" lon="-120.30487571">
      </trkpt>
      <trkpt lat="53.30901068" lon="-120.30492484">
      </trkpt>
      <trkpt lat="53.30890476" lon="-120.30488407">
      </trkpt>
      <trkpt lat="53.30872589" lon="-120.30457771">
      </trkpt>
      <trkpt lat="53.30859638" lon="-120.30427385">
      </trkpt>
      <trkpt lat="53.30849642" lon="-120.30390171">
      </trkpt>
      <trkpt lat="53.30843907" lon="-120.30350545">
      </trkpt>
      <trkpt lat="53.30835157" lon="-120.30327855">
      </trkpt>
      <trkpt lat="53.30817444" lon="-120.30300869">
      </trkpt>
      <trkpt lat="53.30796295" lon="-120.30270675">
      </trkpt>
      <trkpt lat="53.30784282" lon="-120.30248427">
      </trkpt>
      <trkpt lat="53.30769989" lon="-120.3023567">
      </trkpt>
      <trkpt lat="53.30751435" lon="-120.30225327">
      </trkpt>
      <trkpt lat="53.30726699" lon="-120.3020021">
      </trkpt>
      <trkpt lat="53.30706575" lon="-120.30179978">
      </trkpt>
      <trkpt lat="53.3069102" lon="-120.30163721">
      </trkpt>
      <trkpt lat="53.30676552" lon="-120.30147315">
      </trkpt>
      <trkpt lat="53.30662321" lon="-120.3012445">
      </trkpt>
      <trkpt lat="53.30644784" lon="-120.30101115">
      </trkpt>
      <trkpt lat="53.30627465" lon="-120.3008234">
      </trkpt>
      <trkpt lat="53.30610191" lon="-120.30064479">
      </trkpt>
      <trkpt lat="53.30586849" lon="-120.30045603">
      </trkpt>
      <trkpt lat="53.30570206" lon="-120.30029494">
      </trkpt>
      <trkpt lat="53.30542401" lon="-120.29997448">
      </trkpt>
      <trkpt lat="53.30514288" lon="-120.29959019">
      </trkpt>
      <trkpt lat="53.30490376" lon="-120.29928285">
      </trkpt>
      <trkpt lat="53.30475232" lon="-120.29909219">
      </trkpt>
      <trkpt lat="53.30456694" lon="-120.29887857">
      </trkpt>
      <trkpt lat="53.30437306" lon="-120.29860184">
      </trkpt>
      <trkpt lat="53.30427555" lon="-120.29839469">
      </trkpt>
      <trkpt lat="53.30412911" lon="-120.29819417">
      </trkpt>
      <trkpt lat="53.30395873" lon="-120.29795098">
      </trkpt>
      <trkpt lat="53.30383579" lon="-120.297784">
      </trkpt>
      <trkpt lat="53.30362603" lon="-120.29751861">
      </trkpt>
      <trkpt lat="53.30336191" lon="-120.29726058">
      </trkpt>
      <trkpt lat="53.30313305" lon="-120.29705287">
      </trkpt>
      <trkpt lat="53.30297205" lon="-120.29689105">
      </trkpt>
      <trkpt lat="53.3027993" lon="-120.29671247">
      </trkpt>
      <trkpt lat="53.30257736" lon="-120.29642119">
      </trkpt>
      <trkpt lat="53.30238567" lon="-120.29619009">
      </trkpt>
      <trkpt lat="53.3022301" lon="-120.29602755">
      </trkpt>
      <trkpt lat="53.30208585" lon="-120.29587266">
      </trkpt>
      <trkpt lat="53.30186566" lon="-120.29561787">
      </trkpt>
      <trkpt lat="53.30166178" lon="-120.29536089">
      </trkpt>
      <trkpt lat="53.30146011" lon="-120.29514512">
      </trkpt>
      <trkpt lat="53.30130067" lon="-120.29493161">
      </trkpt>
      <trkpt lat="53.3010882" lon="-120.29464946">
      </trkpt>
      <trkpt lat="53.30092875" lon="-120.29443595">
      </trkpt>
      <trkpt lat="53.30085146" lon="-120.29433268">
      </trkpt>
      <trkpt lat="53.30071846" lon="-120.29419901">
      </trkpt>
      <trkpt lat="53.30053837" lon="-120.29402623">
      </trkpt>
      <trkpt lat="53.30030815" lon="-120.29384508">
      </trkpt>
      <trkpt lat="53.30009967" lon="-120.29364582">
      </trkpt>
      <trkpt lat="53.29994943" lon="-120.29352967">
      </trkpt>
      <trkpt lat="53.29975211" lon="-120.2933744">
      </trkpt>
      <trkpt lat="53.299581" lon="-120.29320041">
      </trkpt>
      <trkpt lat="53.29938222" lon="-120.29301501">
      </trkpt>
      <trkpt lat="53.29924546" lon="-120.29289703">
      </trkpt>
      <trkpt lat="53.29911572" lon="-120.29283119">
      </trkpt>
      <trkpt lat="53.29889484" lon="-120.29265637">
      </trkpt>
      <trkpt lat="53.29870128" lon="-120.29248544">
      </trkpt>
      <trkpt lat="53.29858806" lon="-120.29238703">
      </trkpt>
      <trkpt lat="53.29843855" lon="-120.29228596">
      </trkpt>
      <trkpt lat="53.29821014" lon="-120.29214249">
      </trkpt>
      <trkpt lat="53.29795748" lon="-120.2919644">
      </trkpt>
      <trkpt lat="53.29777616" lon="-120.29186006">
      </trkpt>
      <trkpt lat="53.29762918" lon="-120.29181174">
      </trkpt>
      <trkpt lat="53.29756486" lon="-120.29179012">
      </trkpt>
      <trkpt lat="53.29737955" lon="-120.2916029">
      </trkpt>
      <trkpt lat="53.29720164" lon="-120.29147535">
      </trkpt>
      <trkpt lat="53.29712724" lon="-120.29143236">
      </trkpt>
      <trkpt lat="53.2970054" lon="-120.29134271">
      </trkpt>
      <trkpt lat="53.2968361" lon="-120.2912064">
      </trkpt>
      <trkpt lat="53.29670831" lon="-120.29108723">
      </trkpt>
      <trkpt lat="53.29650505" lon="-120.29090246">
      </trkpt>
      <trkpt lat="53.29632119" lon="-120.29074539">
      </trkpt>
      <trkpt lat="53.29612835" lon="-120.29058954">
      </trkpt>
      <trkpt lat="53.29596912" lon="-120.29047463">
      </trkpt>
      <trkpt lat="53.29576657" lon="-120.29030492">
      </trkpt>
      <trkpt lat="53.29557228" lon="-120.29011893">
      </trkpt>
      <trkpt lat="53.2954542" lon="-120.29001362">
      </trkpt>
      <trkpt lat="53.29525528" lon="-120.28991927">
      </trkpt>
      <trkpt lat="53.29505042" lon="-120.28979539">
      </trkpt>
      <trkpt lat="53.29479992" lon="-120.28966253">
      </trkpt>
      <trkpt lat="53.29455537" lon="-120.28955919">
      </trkpt>
      <trkpt lat="53.29430755" lon="-120.28938806">
      </trkpt>
      <trkpt lat="53.29407951" lon="-120.28925216">
      </trkpt>
      <trkpt lat="53.29389493" lon="-120.28908004">
      </trkpt>
      <trkpt lat="53.29368535" lon="-120.28885824">
      </trkpt>
      <trkpt lat="53.29350634" lon="-120.2887081">
      </trkpt>
      <trkpt lat="53.29328242" lon="-120.28856407">
      </trkpt>
      <trkpt lat="53.29311979" lon="-120.28847238">
      </trkpt>
      <trkpt lat="53.2929216" lon="-120.2883931">
      </trkpt>
      <trkpt lat="53.29279599" lon="-120.28831915">
      </trkpt>
      <trkpt lat="53.29267596" lon="-120.2882672">
      </trkpt>
      <trkpt lat="53.29255592" lon="-120.28821522">
      </trkpt>
      <trkpt lat="53.29237751" lon="-120.28817118">
      </trkpt>
      <trkpt lat="53.2922582" lon="-120.28813429">
      </trkpt>
      <trkpt lat="53.29210783" lon="-120.28810919">
      </trkpt>
      <trkpt lat="53.29198135" lon="-120.28811118">
      </trkpt>
      <trkpt lat="53.29186835" lon="-120.28811134">
      </trkpt>
      <trkpt lat="53.29177223" lon="-120.28808646">
      </trkpt>
      <trkpt lat="53.29160402" lon="-120.28797279">
      </trkpt>
      <trkpt lat="53.29140596" lon="-120.28780252">
      </trkpt>
      <trkpt lat="53.29125839" lon="-120.28764814">
      </trkpt>
      <trkpt lat="53.29106337" lon="-120.28744711">
      </trkpt>
      <trkpt lat="53.29093108" lon="-120.28732859">
      </trkpt>
      <trkpt lat="53.29076577" lon="-120.28727517">
      </trkpt>
      <trkpt lat="53.29060945" lon="-120.28722056">
      </trkpt>
      <trkpt lat="53.2904036" lon="-120.28726366">
      </trkpt>
      <trkpt lat="53.29018609" lon="-120.28734624">
      </trkpt>
      <trkpt lat="53.29004261" lon="-120.28746427">
      </trkpt>
      <trkpt lat="53.28992643" lon="-120.28758618">
      </trkpt>
      <trkpt lat="53.28983091" lon="-120.28766737">
      </trkpt>
      <trkpt lat="53.28966012" lon="-120.28778153">
      </trkpt>
      <trkpt lat="53.28953836" lon="-120.28788145">
      </trkpt>
      <trkpt lat="53.28947863" lon="-120.28804878">
      </trkpt>
      <trkpt lat="53.28945918" lon="-120.28830163">
      </trkpt>
      <trkpt lat="53.28948391" lon="-120.28853332">
      </trkpt>
      <trkpt lat="53.28956216" lon="-120.28875017">
      </trkpt>
      <trkpt lat="53.28966106" lon="-120.28892631">
      </trkpt>
      <trkpt lat="53.28980486" lon="-120.28909637">
      </trkpt>
      <trkpt lat="53.28987695" lon="-120.28918516">
      </trkpt>
      <trkpt lat="53.28992304" lon="-120.28939121">
      </trkpt>
      <trkpt lat="53.28998102" lon="-120.2896563">
      </trkpt>
      <trkpt lat="53.29002856" lon="-120.28989249">
      </trkpt>
      <trkpt lat="53.29009529" lon="-120.29005783">
      </trkpt>
      <trkpt lat="53.29018789" lon="-120.29019692">
      </trkpt>
      <trkpt lat="53.29030365" lon="-120.29034804">
      </trkpt>
      <trkpt lat="53.29043957" lon="-120.29054192">
      </trkpt>
      <trkpt lat="53.29051904" lon="-120.29069037">
      </trkpt>
      <trkpt lat="53.29055687" lon="-120.29091271">
      </trkpt>
      <trkpt lat="53.29058536" lon="-120.29112874">
      </trkpt>
      <trkpt lat="53.2905977" lon="-120.29138487">
      </trkpt>
      <trkpt lat="53.29061222" lon="-120.29168619">
      </trkpt>
      <trkpt lat="53.29065223" lon="-120.29195373">
      </trkpt>
      <trkpt lat="53.2907005" lon="-120.29220499">
      </trkpt>
      <trkpt lat="53.29076478" lon="-120.29250715">
      </trkpt>
      <trkpt lat="53.29082434" lon="-120.29271139">
      </trkpt>
      <trkpt lat="53.29093996" lon="-120.29295351">
      </trkpt>
      <trkpt lat="53.29112028" lon="-120.2932248">
      </trkpt>
      <trkpt lat="53.29125473" lon="-120.29338855">
      </trkpt>
      <trkpt lat="53.29136782" lon="-120.29357795">
      </trkpt>
      <trkpt lat="53.29150213" lon="-120.29383271">
      </trkpt>
      <trkpt lat="53.29156183" lon="-120.29394595">
      </trkpt>
      <trkpt lat="53.29166253" lon="-120.29415978">
      </trkpt>
      <trkpt lat="53.291787" lon="-120.29449171">
      </trkpt>
      <trkpt lat="53.29190494" lon="-120.29468803">
      </trkpt>
      <trkpt lat="53.29204497" lon="-120.2948738">
      </trkpt>
      <trkpt lat="53.29218877" lon="-120.29504387">
      </trkpt>
      <trkpt lat="53.29236595" lon="-120.29515636">
      </trkpt>
      <trkpt lat="53.29257762" lon="-120.29523384">
      </trkpt>
      <trkpt lat="53.29273539" lon="-120.29531863">
      </trkpt>
      <trkpt lat="53.29290503" lon="-120.29546247">
      </trkpt>
      <trkpt lat="53.29303949" lon="-120.29562624">
      </trkpt>
      <trkpt lat="53.29315316" lon="-120.29592173">
      </trkpt>
      <trkpt lat="53.29323662" lon="-120.29615307">
      </trkpt>
      <trkpt lat="53.29327068" lon="-120.29639111">
      </trkpt>
      <trkpt lat="53.29331603" lon="-120.29658211">
      </trkpt>
      <trkpt lat="53.29333394" lon="-120.29686026">
      </trkpt>
      <trkpt lat="53.29337952" lon="-120.2971498">
      </trkpt>
      <trkpt lat="53.29343748" lon="-120.29741494">
      </trkpt>
      <trkpt lat="53.29344872" lon="-120.29764848">
      </trkpt>
      <trkpt lat="53.29346835" lon="-120.29777473">
      </trkpt>
      <trkpt lat="53.29362925" lon="-120.29801834">
      </trkpt>
      <trkpt lat="53.29399448" lon="-120.29846936">
      </trkpt>
      <trkpt lat="53.29424809" lon="-120.29876108">
      </trkpt>
      <trkpt lat="53.2945319" lon="-120.29911697">
      </trkpt>
      <trkpt lat="53.29470214" lon="-120.29936691">
      </trkpt>
      <trkpt lat="53.2948641" lon="-120.29963313">
      </trkpt>
      <trkpt lat="53.29498689" lon="-120.29983642">
      </trkpt>
      <trkpt lat="53.2951246" lon="-120.30006801">
      </trkpt>
      <trkpt lat="53.29526875" lon="-120.30024567">
      </trkpt>
      <trkpt lat="53.29545925" lon="-120.30044737">
      </trkpt>
      <trkpt lat="53.29557465" lon="-120.300591">
      </trkpt>
      <trkpt lat="53.2957456" lon="-120.30085602">
      </trkpt>
      <trkpt lat="53.29587614" lon="-120.30112651">
      </trkpt>
      <trkpt lat="53.29598957" lon="-120.30132349">
      </trkpt>
      <trkpt lat="53.29611468" lon="-120.30148097">
      </trkpt>
      <trkpt lat="53.29627012" lon="-120.3016116">
      </trkpt>
      <trkpt lat="53.29643006" lon="-120.30174163">
      </trkpt>
      <trkpt lat="53.29658355" lon="-120.3019256">
      </trkpt>
      <trkpt lat="53.29674747" lon="-120.3021385">
      </trkpt>
      <trkpt lat="53.29690726" lon="-120.30235954">
      </trkpt>
      <trkpt lat="53.29705395" lon="-120.30258995">
      </trkpt>
      <trkpt lat="53.2971931" lon="-120.3028517">
      </trkpt>
      <trkpt lat="53.29733384" lon="-120.30305258">
      </trkpt>
      <trkpt lat="53.29747907" lon="-120.30325285">
      </trkpt>
      <trkpt lat="53.29762721" lon="-120.30351339">
      </trkpt>
      <trkpt lat="53.29780032" lon="-120.30382365">
      </trkpt>
      <trkpt lat="53.29799068" lon="-120.3041164">
      </trkpt>
      <trkpt lat="53.29818299" lon="-120.30435581">
      </trkpt>
      <trkpt lat="53.29836329" lon="-120.30462719">
      </trkpt>
      <trkpt lat="53.29854698" lon="-120.30487534">
      </trkpt>
      <trkpt lat="53.29876087" lon="-120.30518768">
      </trkpt>
      <trkpt lat="53.29894297" lon="-120.30549674">
      </trkpt>
      <trkpt lat="53.29918258" lon="-120.30587385">
      </trkpt>
      <trkpt lat="53.29941139" lon="-120.30621451">
      </trkpt>
      <trkpt lat="53.29962724" lon="-120.30647351">
      </trkpt>
      <trkpt lat="53.29982316" lon="-120.30678829">
      </trkpt>
      <trkpt lat="53.29998513" lon="-120.30705456">
      </trkpt>
      <trkpt lat="53.30016345" lon="-120.30737932">
      </trkpt>
      <trkpt lat="53.30031121" lon="-120.30763236">
      </trkpt>
      <trkpt lat="53.30046222" lon="-120.30795323">
      </trkpt>
      <trkpt lat="53.30060296" lon="-120.30815413">
      </trkpt>
      <trkpt lat="53.30082546" lon="-120.30845774">
      </trkpt>
      <trkpt lat="53.30100017" lon="-120.30870715">
      </trkpt>
      <trkpt lat="53.30110751" lon="-120.30896566">
      </trkpt>
      <trkpt lat="53.30115718" lon="-120.30924714">
      </trkpt>
      <trkpt lat="53.30115694" lon="-120.3096188">
      </trkpt>
      <trkpt lat="53.30114338" lon="-120.30990124">
      </trkpt>
      <trkpt lat="53.30110989" lon="-120.31023947">
      </trkpt>
      <trkpt lat="53.30107048" lon="-120.31054816">
      </trkpt>
      <trkpt lat="53.30107147" lon="-120.31085138">
      </trkpt>
      <trkpt lat="53.30110499" lon="-120.31117297">
      </trkpt>
      <trkpt lat="53.30119797" lon="-120.31150926">
      </trkpt>
      <trkpt lat="53.301283" lon="-120.31167979">
      </trkpt>
      <trkpt lat="53.301423" lon="-120.31186566">
      </trkpt>
      <trkpt lat="53.3015596" lon="-120.31207472">
      </trkpt>
      <trkpt lat="53.30173966" lon="-120.31224758">
      </trkpt>
      <trkpt lat="53.30196607" lon="-120.31244453">
      </trkpt>
      <trkpt lat="53.30220539" lon="-120.31253354">
      </trkpt>
      <trkpt lat="53.30237394" lon="-120.31265486">
      </trkpt>
      <trkpt lat="53.30252307" lon="-120.31274849">
      </trkpt>
      <trkpt lat="53.30273023" lon="-120.31282668">
      </trkpt>
      <trkpt lat="53.30297528" lon="-120.31284667">
      </trkpt>
      <trkpt lat="53.30319678" lon="-120.31284709">
      </trkpt>
      <trkpt lat="53.30340069" lon="-120.31285746">
      </trkpt>
      <trkpt lat="53.30360769" lon="-120.3130267">
      </trkpt>
      <trkpt lat="53.30378471" lon="-120.31323031">
      </trkpt>
      <trkpt lat="53.30395563" lon="-120.31349544">
      </trkpt>
      <trkpt lat="53.30412171" lon="-120.31375363">
      </trkpt>
      <trkpt lat="53.30427467" lon="-120.31402119">
      </trkpt>
      <trkpt lat="53.30434751" lon="-120.31431474">
      </trkpt>
      <trkpt lat="53.30446552" lon="-120.3148904">
      </trkpt>
      <trkpt lat="53.30457006" lon="-120.31546788">
      </trkpt>
      <trkpt lat="53.30465947" lon="-120.31591848">
      </trkpt>
      <trkpt lat="53.3047257" lon="-120.31635702">
      </trkpt>
      <trkpt lat="53.30477824" lon="-120.31669882">
      </trkpt>
      <trkpt lat="53.30484391" lon="-120.31703127">
      </trkpt>
      <trkpt lat="53.30491767" lon="-120.31743847">
      </trkpt>
      <trkpt lat="53.30498767" lon="-120.31786134">
      </trkpt>
      <trkpt lat="53.30502601" lon="-120.3181899">
      </trkpt>
      <trkpt lat="53.3050401" lon="-120.3184838">
      </trkpt>
      <trkpt lat="53.3050912" lon="-120.31879546">
      </trkpt>
      <trkpt lat="53.30510616" lon="-120.3190134">
      </trkpt>
      <trkpt lat="53.30512077" lon="-120.31922381">
      </trkpt>
      <trkpt lat="53.30508561" lon="-120.31943333">
      </trkpt>
      <trkpt lat="53.30504183" lon="-120.31965161">
      </trkpt>
      <trkpt lat="53.30496806" lon="-120.31990427">
      </trkpt>
      <trkpt lat="53.30493847" lon="-120.32013579">
      </trkpt>
      <trkpt lat="53.30490945" lon="-120.32047345">
      </trkpt>
      <trkpt lat="53.30490216" lon="-120.32079299">
      </trkpt>
      <trkpt lat="53.30490024" lon="-120.32103595">
      </trkpt>
      <trkpt lat="53.30491484" lon="-120.32124635">
      </trkpt>
      <trkpt lat="53.30498911" lon="-120.32157005">
      </trkpt>
      <trkpt lat="53.30508924" lon="-120.32186752">
      </trkpt>
      <trkpt lat="53.30512577" lon="-120.32215839">
      </trkpt>
      <trkpt lat="53.30514703" lon="-120.32241341">
      </trkpt>
      <trkpt lat="53.30516307" lon="-120.32265396">
      </trkpt>
      <trkpt lat="53.30520012" lon="-120.32286133">
      </trkpt>
      <trkpt lat="53.30528714" lon="-120.32316814">
      </trkpt>
      <trkpt lat="53.30537287" lon="-120.32335379">
      </trkpt>
      <trkpt lat="53.30539914" lon="-120.32352469">
      </trkpt>
      <trkpt lat="53.3053774" lon="-120.32356501">
      </trkpt>
      <trkpt lat="53.30532856" lon="-120.32365558">
      </trkpt>
      <trkpt lat="53.30523409" lon="-120.32375932">
      </trkpt>
      <trkpt lat="53.30507457" lon="-120.32382633">
      </trkpt>
      <trkpt lat="53.30489602" lon="-120.32387316">
      </trkpt>
      <trkpt lat="53.30464163" lon="-120.32384679">
      </trkpt>
      <trkpt lat="53.30447794" lon="-120.32373234">
      </trkpt>
      <trkpt lat="53.30434983" lon="-120.32360551">
      </trkpt>
      <trkpt lat="53.3042264" lon="-120.32357664">
      </trkpt>
      <trkpt lat="53.30405952" lon="-120.32358398">
      </trkpt>
      <trkpt lat="53.30389335" lon="-120.32360638">
      </trkpt>
      <trkpt lat="53.30374081" lon="-120.32353593">
      </trkpt>
      <trkpt lat="53.3035173" lon="-120.32339922">
      </trkpt>
      <trkpt lat="53.30337194" lon="-120.32328989">
      </trkpt>
      <trkpt lat="53.30319711" lon="-120.32313144">
      </trkpt>
      <trkpt lat="53.30297468" lon="-120.32301732">
      </trkpt>
      <trkpt lat="53.30268256" lon="-120.32295812">
      </trkpt>
      <trkpt lat="53.30239369" lon="-120.32296673">
      </trkpt>
      <trkpt lat="53.30201948" lon="-120.32298685">
      </trkpt>
      <trkpt lat="53.30174156" lon="-120.32294092">
      </trkpt>
      <trkpt lat="53.3014401" lon="-120.32287539">
      </trkpt>
      <trkpt lat="53.30104376" lon="-120.32271648">
      </trkpt>
      <trkpt lat="53.30069971" lon="-120.3226112">
      </trkpt>
      <trkpt lat="53.30038116" lon="-120.32247214">
      </trkpt>
      <trkpt lat="53.30021748" lon="-120.32235771">
      </trkpt>
      <trkpt lat="53.3000592" lon="-120.3223563">
      </trkpt>
      <trkpt lat="53.29980586" lon="-120.32216294">
      </trkpt>
      <trkpt lat="53.29958504" lon="-120.32198796">
      </trkpt>
      <trkpt lat="53.29936797" lon="-120.32179732">
      </trkpt>
      <trkpt lat="53.29910492" lon="-120.32159011">
      </trkpt>
      <trkpt lat="53.29900035" lon="-120.32148289">
      </trkpt>
      <trkpt lat="53.29888751" lon="-120.32139193">
      </trkpt>
      <trkpt lat="53.29862414" lon="-120.32136678">
      </trkpt>
      <trkpt lat="53.2982889" lon="-120.32135132">
      </trkpt>
      <trkpt lat="53.29799338" lon="-120.32131535">
      </trkpt>
      <trkpt lat="53.29779809" lon="-120.32129619">
      </trkpt>
      <trkpt lat="53.29764323" lon="-120.32127158">
      </trkpt>
      <trkpt lat="53.29749122" lon="-120.32111765">
      </trkpt>
      <trkpt lat="53.29736542" lon="-120.32094505">
      </trkpt>
      <trkpt lat="53.29720819" lon="-120.32077667">
      </trkpt>
      <trkpt lat="53.29698179" lon="-120.32057971">
      </trkpt>
      <trkpt lat="53.29680839" lon="-120.32045143">
      </trkpt>
      <trkpt lat="53.29650796" lon="-120.32021897">
      </trkpt>
      <trkpt lat="53.29633008" lon="-120.3200913">
      </trkpt>
      <trkpt lat="53.29606795" lon="-120.31999775">
      </trkpt>
      <trkpt lat="53.29572891" lon="-120.31980841">
      </trkpt>
      <trkpt lat="53.2954213" lon="-120.31961483">
      </trkpt>
      <trkpt lat="53.29516041" lon="-120.31945286">
      </trkpt>
      <trkpt lat="53.29483737" lon="-120.31931446">
      </trkpt>
      <trkpt lat="53.29459914" lon="-120.31924802">
      </trkpt>
      <trkpt lat="53.29429695" lon="-120.31916747">
      </trkpt>
      <trkpt lat="53.29408082" lon="-120.31909047">
      </trkpt>
      <trkpt lat="53.29396079" lon="-120.31903841">
      </trkpt>
      <trkpt lat="53.29387511" lon="-120.3190424">
      </trkpt>
      <trkpt lat="53.29384459" lon="-120.31916024">
      </trkpt>
      <trkpt lat="53.29389889" lon="-120.31935008">
      </trkpt>
      <trkpt lat="53.29403765" lon="-120.31960433">
      </trkpt>
      <trkpt lat="53.29419761" lon="-120.31992397">
      </trkpt>
      <trkpt lat="53.29431246" lon="-120.32015113">
      </trkpt>
      <trkpt lat="53.29440883" lon="-120.32046418">
      </trkpt>
      <trkpt lat="53.29449657" lon="-120.320786">
      </trkpt>
      <trkpt lat="53.29456651" lon="-120.32101921">
      </trkpt>
      <trkpt lat="53.29458348" lon="-120.32137332">
      </trkpt>
      <trkpt lat="53.29460297" lon="-120.32178016">
      </trkpt>
      <trkpt lat="53.29462283" lon="-120.32219453">
      </trkpt>
      <trkpt lat="53.2946019" lon="-120.32260682">
      </trkpt>
      <trkpt lat="53.29457379" lon="-120.323058">
      </trkpt>
      <trkpt lat="53.29453149" lon="-120.32349593">
      </trkpt>
      <trkpt lat="53.29450423" lon="-120.32368159">
      </trkpt>
      <trkpt lat="53.29448197" lon="-120.32378316">
      </trkpt>
      <trkpt lat="53.29443333" lon="-120.32399445">
      </trkpt>
      <trkpt lat="53.29439888" lon="-120.32421898">
      </trkpt>
      <trkpt lat="53.29435529" lon="-120.32453576">
      </trkpt>
      <trkpt lat="53.29433937" lon="-120.32486396">
      </trkpt>
      <trkpt lat="53.29430027" lon="-120.32518012">
      </trkpt>
      <trkpt lat="53.29425901" lon="-120.32545107">
      </trkpt>
      <trkpt lat="53.29420013" lon="-120.32573199">
      </trkpt>
      <trkpt lat="53.2941346" lon="-120.3259683">
      </trkpt>
      <trkpt lat="53.29406243" lon="-120.32616">
      </trkpt>
      <trkpt lat="53.29396005" lon="-120.32628753">
      </trkpt>
      <trkpt lat="53.29385282" lon="-120.32640813">
      </trkpt>
      <trkpt lat="53.29379464" lon="-120.32651456">
      </trkpt>
      <trkpt lat="53.29373304" lon="-120.32664417">
      </trkpt>
      <trkpt lat="53.29372265" lon="-120.32680481">
      </trkpt>
      <trkpt lat="53.29372521" lon="-120.32704711">
      </trkpt>
      <trkpt lat="53.29373009" lon="-120.32724359">
      </trkpt>
      <trkpt lat="53.29372186" lon="-120.32744943">
      </trkpt>
      <trkpt lat="53.2936709" lon="-120.32770653">
      </trkpt>
      <trkpt lat="53.29356711" lon="-120.32799347">
      </trkpt>
      <trkpt lat="53.29348827" lon="-120.32814058">
      </trkpt>
      <trkpt lat="53.29339326" lon="-120.32832777">
      </trkpt>
      <trkpt lat="53.2932882" lon="-120.32849357">
      </trkpt>
      <trkpt lat="53.29323919" lon="-120.32869732">
      </trkpt>
      <trkpt lat="53.29316323" lon="-120.32890469">
      </trkpt>
      <trkpt lat="53.29306069" lon="-120.32912322">
      </trkpt>
      <trkpt lat="53.29292867" lon="-120.32929266">
      </trkpt>
      <trkpt lat="53.29279144" lon="-120.32944761">
      </trkpt>
      <trkpt lat="53.29265691" lon="-120.32956431">
      </trkpt>
      <trkpt lat="53.2924789" lon="-120.32971718">
      </trkpt>
      <trkpt lat="53.29229981" lon="-120.32984745">
      </trkpt>
      <trkpt lat="53.29214013" lon="-120.33000542">
      </trkpt>
      <trkpt lat="53.29195511" lon="-120.33010615">
      </trkpt>
      <trkpt lat="53.291785" lon="-120.33023521">
      </trkpt>
      <trkpt lat="53.29159135" lon="-120.33034469">
      </trkpt>
      <trkpt lat="53.29132064" lon="-120.33044938">
      </trkpt>
      <trkpt lat="53.29112556" lon="-120.33052872">
      </trkpt>
      <trkpt lat="53.29085232" lon="-120.33058066">
      </trkpt>
      <trkpt lat="53.29071686" lon="-120.33058374">
      </trkpt>
      <trkpt lat="53.29055122" lon="-120.33052264">
      </trkpt>
      <trkpt lat="53.29040911" lon="-120.33048111">
      </trkpt>
      <trkpt lat="53.29027867" lon="-120.3304001">
      </trkpt>
      <trkpt lat="53.29011122" lon="-120.33030133">
      </trkpt>
      <trkpt lat="53.29000701" lon="-120.33020164">
      </trkpt>
      <trkpt lat="53.28988519" lon="-120.33011189">
      </trkpt>
      <trkpt lat="53.28964805" lon="-120.330068">
      </trkpt>
      <trkpt lat="53.28945025" lon="-120.32999607">
      </trkpt>
      <trkpt lat="53.28923251" lon="-120.32997989">
      </trkpt>
      <trkpt lat="53.28902411" lon="-120.32997004">
      </trkpt>
      <trkpt lat="53.28889764" lon="-120.3299719">
      </trkpt>
      <trkpt lat="53.28876937" lon="-120.3299361">
      </trkpt>
      <trkpt lat="53.288573" lon="-120.32989431">
      </trkpt>
      <trkpt lat="53.28844132" lon="-120.3298817">
      </trkpt>
      <trkpt lat="53.28834232" lon="-120.32979648">
      </trkpt>
      <trkpt lat="53.28824152" lon="-120.32967358">
      </trkpt>
      <trkpt lat="53.2881618" lon="-120.3295669">
      </trkpt>
      <trkpt lat="53.28807458" lon="-120.32941245">
      </trkpt>
      <trkpt lat="53.28800072" lon="-120.32930696">
      </trkpt>
      <trkpt lat="53.28790279" lon="-120.32915856">
      </trkpt>
      <trkpt lat="53.28779391" lon="-120.32901163">
      </trkpt>
      <trkpt lat="53.28768777" lon="-120.32886433">
      </trkpt>
      <trkpt lat="53.28751037" lon="-120.32855119">
      </trkpt>
      <trkpt lat="53.28740403" lon="-120.32851472">
      </trkpt>
      <trkpt lat="53.28733271" lon="-120.32851971">
      </trkpt>
      <trkpt lat="53.28724003" lon="-120.32848141">
      </trkpt>
      <trkpt lat="53.28719747" lon="-120.32845483">
      </trkpt>
      <trkpt lat="53.28713786" lon="-120.3285321">
      </trkpt>
      <trkpt lat="53.28707213" lon="-120.32859635">
      </trkpt>
      <trkpt lat="53.28700506" lon="-120.32863308">
      </trkpt>
      <trkpt lat="53.28695037" lon="-120.32864045">
      </trkpt>
      <trkpt lat="53.28694686" lon="-120.32856706">
      </trkpt>
      <trkpt lat="53.286965" lon="-120.32848613">
      </trkpt>
      <trkpt lat="53.28703269" lon="-120.32834774">
      </trkpt>
      <trkpt lat="53.28705468" lon="-120.32828937">
      </trkpt>
      <trkpt lat="53.28702599" lon="-120.32815012">
      </trkpt>
      <trkpt lat="53.28695782" lon="-120.3280485">
      </trkpt>
      <trkpt lat="53.28685103" lon="-120.32800286">
      </trkpt>
      <trkpt lat="53.286703" lon="-120.32795816">
      </trkpt>
      <trkpt lat="53.28652041" lon="-120.32788118">
      </trkpt>
      <trkpt lat="53.28638681" lon="-120.32779298">
      </trkpt>
      <trkpt lat="53.28631307" lon="-120.32774752">
      </trkpt>
      <trkpt lat="53.28622784" lon="-120.32774976">
      </trkpt>
      <trkpt lat="53.28606113" lon="-120.32783223">
      </trkpt>
      <trkpt lat="53.28594211" lon="-120.32787596">
      </trkpt>
      <trkpt lat="53.28586827" lon="-120.32788591">
      </trkpt>
      <trkpt lat="53.28575877" lon="-120.32795606">
      </trkpt>
      <trkpt lat="53.28567892" lon="-120.32801298">
      </trkpt>
      <trkpt lat="53.28558659" lon="-120.32803925">
      </trkpt>
      <trkpt lat="53.28543202" lon="-120.32808777">
      </trkpt>
      <trkpt lat="53.28528127" lon="-120.32815886">
      </trkpt>
      <trkpt lat="53.28510821" lon="-120.32822371">
      </trkpt>
      <trkpt lat="53.28489774" lon="-120.32831208">
      </trkpt>
      <trkpt lat="53.28470292" lon="-120.32843986">
      </trkpt>
      <trkpt lat="53.28450908" lon="-120.3285306">
      </trkpt>
      <trkpt lat="53.28440417" lon="-120.32858165">
      </trkpt>
      <trkpt lat="53.28426032" lon="-120.32862411">
      </trkpt>
      <trkpt lat="53.28422007" lon="-120.32870339">
      </trkpt>
      <trkpt lat="53.28413465" lon="-120.32881646">
      </trkpt>
      <trkpt lat="53.28402691" lon="-120.3289233">
      </trkpt>
      <trkpt lat="53.28388371" lon="-120.32897951">
      </trkpt>
      <trkpt lat="53.2837334" lon="-120.32905976">
      </trkpt>
      <trkpt lat="53.28353004" lon="-120.32912408">
      </trkpt>
      <trkpt lat="53.28338279" lon="-120.32915313">
      </trkpt>
      <trkpt lat="53.28311696" lon="-120.32923508">
      </trkpt>
      <trkpt lat="53.28293667" lon="-120.32926396">
      </trkpt>
    </trkseg>
    <trkseg>
      <trkpt lat="53.30539914" lon="-120.32352469">
      </trkpt>
      <trkpt lat="53.30544614" lon="-120.32353165">
      </trkpt>
      <trkpt lat="53.30545911" lon="-120.32353356">
      </trkpt>
      <trkpt lat="53.30554748" lon="-120.3235828">
      </trkpt>
      <trkpt lat="53.30563557" lon="-120.32366343">
      </trkpt>
      <trkpt lat="53.30582935" lon="-120.32388471">
      </trkpt>
      <trkpt lat="53.30598424" lon="-120.32413373">
      </trkpt>
      <trkpt lat="53.30607132" lon="-120.32445937">
      </trkpt>
      <trkpt lat="53.30615574" lon="-120.32482284">
      </trkpt>
      <trkpt lat="53.30620338" lon="-120.32507133">
      </trkpt>
      <trkpt lat="53.30627036" lon="-120.32525724">
      </trkpt>
      <trkpt lat="53.30637678" lon="-120.32552029">
      </trkpt>
      <trkpt lat="53.30653044" lon="-120.32583696">
      </trkpt>
      <trkpt lat="53.30669703" lon="-120.32595696">
      </trkpt>
      <trkpt lat="53.30694075" lon="-120.32638145">
      </trkpt>
      <trkpt lat="53.30710099" lon="-120.32674222">
      </trkpt>
      <trkpt lat="53.30724382" lon="-120.32711285">
      </trkpt>
      <trkpt lat="53.30738631" lon="-120.32747602">
      </trkpt>
      <trkpt lat="53.30756449" lon="-120.32793185">
      </trkpt>
      <trkpt lat="53.30777748" lon="-120.32836799">
      </trkpt>
      <trkpt lat="53.30801409" lon="-120.32883096">
      </trkpt>
      <trkpt lat="53.30829437" lon="-120.32927304">
      </trkpt>
      <trkpt lat="53.30862138" lon="-120.32985131">
      </trkpt>
      <trkpt lat="53.30900256" lon="-120.33053474">
      </trkpt>
      <trkpt lat="53.30933504" lon="-120.33094732">
      </trkpt>
      <trkpt lat="53.30959523" lon="-120.33124969">
      </trkpt>
      <trkpt lat="53.30976538" lon="-120.33144422">
      </trkpt>
      <trkpt lat="53.30992344" lon="-120.33157289">
      </trkpt>
      <trkpt lat="53.31007936" lon="-120.33165686">
      </trkpt>
      <trkpt lat="53.31025252" lon="-120.33182099">
      </trkpt>
      <trkpt lat="53.31041609" lon="-120.33197142">
      </trkpt>
      <trkpt lat="53.31050117" lon="-120.33216242">
      </trkpt>
      <trkpt lat="53.31055465" lon="-120.33244013">
      </trkpt>
      <trkpt lat="53.31064884" lon="-120.33291483">
      </trkpt>
      <trkpt lat="53.31075524" lon="-120.33317793">
      </trkpt>
      <trkpt lat="53.31089165" lon="-120.33341451">
      </trkpt>
      <trkpt lat="53.31101563" lon="-120.33376521">
      </trkpt>
      <trkpt lat="53.31112132" lon="-120.33401342">
      </trkpt>
      <trkpt lat="53.31115705" lon="-120.33429353">
      </trkpt>
      <trkpt lat="53.31120289" lon="-120.33450482">
      </trkpt>
      <trkpt lat="53.3112917" lon="-120.33468032">
      </trkpt>
      <trkpt lat="53.31143022" lon="-120.33477414">
      </trkpt>
      <trkpt lat="53.31160301" lon="-120.33493085">
      </trkpt>
      <trkpt lat="53.31183851" lon="-120.33518408">
      </trkpt>
      <trkpt lat="53.31204753" lon="-120.3353509">
      </trkpt>
      <trkpt lat="53.31226242" lon="-120.33554693">
      </trkpt>
      <trkpt lat="53.31250199" lon="-120.33579213">
      </trkpt>
      <trkpt lat="53.31278116" lon="-120.33602451">
      </trkpt>
      <trkpt lat="53.313006" lon="-120.33624171">
      </trkpt>
      <trkpt lat="53.31317756" lon="-120.33646607">
      </trkpt>
      <trkpt lat="53.31339386" lon="-120.3366919">
      </trkpt>
      <trkpt lat="53.31360255" lon="-120.33703875">
      </trkpt>
      <trkpt lat="53.31383058" lon="-120.33732301">
      </trkpt>
      <trkpt lat="53.3141078" lon="-120.33760815">
      </trkpt>
      <trkpt lat="53.31442905" lon="-120.33787988">
      </trkpt>
      <trkpt lat="53.314661" lon="-120.3382461">
      </trkpt>
      <trkpt lat="53.31497836" lon="-120.33862334">
      </trkpt>
      <trkpt lat="53.31525416" lon="-120.33887871">
      </trkpt>
      <trkpt lat="53.31551822" lon="-120.33907565">
      </trkpt>
      <trkpt lat="53.3158004" lon="-120.33927766">
      </trkpt>
      <trkpt lat="53.31596076" lon="-120.33936108">
      </trkpt>
      <trkpt lat="53.31607512" lon="-120.33951068">
      </trkpt>
      <trkpt lat="53.31626266" lon="-120.33969542">
      </trkpt>
      <trkpt lat="53.31640704" lon="-120.33981848">
      </trkpt>
      <trkpt lat="53.31654644" lon="-120.34002471">
      </trkpt>
      <trkpt lat="53.31667164" lon="-120.34012035">
      </trkpt>
      <trkpt lat="53.31702841" lon="-120.34038733">
      </trkpt>
      <trkpt lat="53.3173493" lon="-120.34065166">
      </trkpt>
      <trkpt lat="53.31756772" lon="-120.34073476">
      </trkpt>
      <trkpt lat="53.31775702" lon="-120.34076931">
      </trkpt>
      <trkpt lat="53.31789854" lon="-120.34083277">
      </trkpt>
      <trkpt lat="53.31814556" lon="-120.34104704">
      </trkpt>
      <trkpt lat="53.31846254" lon="-120.34122939">
      </trkpt>
      <trkpt lat="53.31872873" lon="-120.34128359">
      </trkpt>
      <trkpt lat="53.31907803" lon="-120.34139411">
      </trkpt>
      <trkpt lat="53.31933213" lon="-120.34138245">
      </trkpt>
      <trkpt lat="53.31957487" lon="-120.34131981">
      </trkpt>
      <trkpt lat="53.32005591" lon="-120.34119513">
      </trkpt>
      <trkpt lat="53.32048617" lon="-120.34112977">
      </trkpt>
      <trkpt lat="53.32088859" lon="-120.34102783">
      </trkpt>
      <trkpt lat="53.32115601" lon="-120.34094875">
      </trkpt>
      <trkpt lat="53.32135683" lon="-120.34084985">
      </trkpt>
      <trkpt lat="53.32154676" lon="-120.34076202">
      </trkpt>
      <trkpt lat="53.32176346" lon="-120.34063704">
      </trkpt>
      <trkpt lat="53.32191096" lon="-120.3406172">
      </trkpt>
      <trkpt lat="53.32204144" lon="-120.34059965">
      </trkpt>
      <trkpt lat="53.32218724" lon="-120.340604">
      </trkpt>
      <trkpt lat="53.32230772" lon="-120.34049675">
      </trkpt>
      <trkpt lat="53.32242401" lon="-120.3403613">
      </trkpt>
      <trkpt lat="53.32255505" lon="-120.34017596">
      </trkpt>
      <trkpt lat="53.32290049" lon="-120.33969818">
      </trkpt>
      <trkpt lat="53.3231266" lon="-120.33935147">
      </trkpt>
      <trkpt lat="53.32326046" lon="-120.33904593">
      </trkpt>
      <trkpt lat="53.32336606" lon="-120.33868668">
      </trkpt>
      <trkpt lat="53.32347189" lon="-120.33833219">
      </trkpt>
      <trkpt lat="53.32354822" lon="-120.33795771">
      </trkpt>
      <trkpt lat="53.32357654" lon="-120.33747467">
      </trkpt>
      <trkpt lat="53.32355404" lon="-120.33712306">
      </trkpt>
      <trkpt lat="53.32352529" lon="-120.33670041">
      </trkpt>
      <trkpt lat="53.32345319" lon="-120.33620692">
      </trkpt>
      <trkpt lat="53.32343591" lon="-120.33584502">
      </trkpt>
      <trkpt lat="53.32341531" lon="-120.33535419">
      </trkpt>
      <trkpt lat="53.32340606" lon="-120.33474202">
      </trkpt>
      <trkpt lat="53.32339454" lon="-120.33432185">
      </trkpt>
      <trkpt lat="53.3233321" lon="-120.33397082">
      </trkpt>
      <trkpt lat="53.32324068" lon="-120.33331221">
      </trkpt>
      <trkpt lat="53.32322089" lon="-120.33289795">
      </trkpt>
      <trkpt lat="53.32319134" lon="-120.33251855">
      </trkpt>
      <trkpt lat="53.32310845" lon="-120.33209839">
      </trkpt>
      <trkpt lat="53.32301136" lon="-120.33156036">
      </trkpt>
      <trkpt lat="53.32296786" lon="-120.33118763">
      </trkpt>
      <trkpt lat="53.3228619" lon="-120.3305837">
      </trkpt>
      <trkpt lat="53.32271279" lon="-120.32967409">
      </trkpt>
      <trkpt lat="53.32256828" lon="-120.32856259">
      </trkpt>
      <trkpt lat="53.32245401" lon="-120.32784477">
      </trkpt>
      <trkpt lat="53.32232354" lon="-120.32720582">
      </trkpt>
      <trkpt lat="53.3221501" lon="-120.32626597">
      </trkpt>
      <trkpt lat="53.32201313" lon="-120.32555122">
      </trkpt>
      <trkpt lat="53.32198412" lon="-120.32512384">
      </trkpt>
      <trkpt lat="53.32184972" lon="-120.32428415">
      </trkpt>
      <trkpt lat="53.32169859" lon="-120.32369114">
      </trkpt>
      <trkpt lat="53.3215441" lon="-120.32284938">
      </trkpt>
      <trkpt lat="53.32142188" lon="-120.32220456">
      </trkpt>
      <trkpt lat="53.32122739" lon="-120.32166054">
      </trkpt>
      <trkpt lat="53.32113082" lon="-120.32107455">
      </trkpt>
      <trkpt lat="53.320999" lon="-120.32022975">
      </trkpt>
      <trkpt lat="53.3207432" lon="-120.31906146">
      </trkpt>
      <trkpt lat="53.32056156" lon="-120.31818986">
      </trkpt>
      <trkpt lat="53.32040446" lon="-120.31747308">
      </trkpt>
      <trkpt lat="53.32028699" lon="-120.31692828">
      </trkpt>
      <trkpt lat="53.32018195" lon="-120.31658306">
      </trkpt>
      <trkpt lat="53.31995537" lon="-120.31614404">
      </trkpt>
      <trkpt lat="53.3197667" lon="-120.31578138">
      </trkpt>
      <trkpt lat="53.31956954" lon="-120.31553965">
      </trkpt>
      <trkpt lat="53.31931315" lon="-120.31525322">
      </trkpt>
      <trkpt lat="53.31915774" lon="-120.31492919">
      </trkpt>
      <trkpt lat="53.31905767" lon="-120.31456894">
      </trkpt>
      <trkpt lat="53.31887069" lon="-120.3141821">
      </trkpt>
      <trkpt lat="53.31861687" lon="-120.31377074">
      </trkpt>
      <trkpt lat="53.31832902" lon="-120.313364">
      </trkpt>
      <trkpt lat="53.31814728" lon="-120.31308666">
      </trkpt>
      <trkpt lat="53.3180106" lon="-120.31285595">
      </trkpt>
      <trkpt lat="53.31791269" lon="-120.31248106">
      </trkpt>
      <trkpt lat="53.31777881" lon="-120.31213017">
      </trkpt>
      <trkpt lat="53.31757151" lon="-120.31173651">
      </trkpt>
      <trkpt lat="53.31738657" lon="-120.31139255">
      </trkpt>
      <trkpt lat="53.31719436" lon="-120.31101603">
      </trkpt>
      <trkpt lat="53.31699332" lon="-120.3106934">
      </trkpt>
      <trkpt lat="53.31677187" lon="-120.31042145">
      </trkpt>
      <trkpt lat="53.31653985" lon="-120.31010782">
      </trkpt>
      <trkpt lat="53.31623428" lon="-120.30968913">
      </trkpt>
      <trkpt lat="53.31605559" lon="-120.3094737">
      </trkpt>
      <trkpt lat="53.31592969" lon="-120.30934557">
      </trkpt>
      <trkpt lat="53.3157676" lon="-120.30912853">
      </trkpt>
      <trkpt lat="53.315653" lon="-120.30895867">
      </trkpt>
      <trkpt lat="53.3155188" lon="-120.30885175">
      </trkpt>
      <trkpt lat="53.31539601" lon="-120.30870534">
      </trkpt>
      <trkpt lat="53.3153063" lon="-120.30861027">
      </trkpt>
      <trkpt lat="53.31525161" lon="-120.30844123">
      </trkpt>
      <trkpt lat="53.31522973" lon="-120.30829011">
      </trkpt>
      <trkpt lat="53.31527766" lon="-120.30820769">
      </trkpt>
      <trkpt lat="53.31535777" lon="-120.3081857">
      </trkpt>
      <trkpt lat="53.31539399" lon="-120.30819196">
      </trkpt>
      <trkpt lat="53.31545994" lon="-120.30820761">
      </trkpt>
      <trkpt lat="53.31556286" lon="-120.30824506">
      </trkpt>
      <trkpt lat="53.31567367" lon="-120.30830823">
      </trkpt>
      <trkpt lat="53.31579627" lon="-120.30836758">
      </trkpt>
      <trkpt lat="53.31589718" lon="-120.3084187">
      </trkpt>
      <trkpt lat="53.31593419" lon="-120.3084137">
      </trkpt>
      <trkpt lat="53.31596671" lon="-120.30839813">
      </trkpt>
      <trkpt lat="53.31599696" lon="-120.30837198">
      </trkpt>
    </trkseg>
  </trk>
</gpx>