<?xml version="1.0" encoding="UTF-8"?>
<gpx xmlns="http://www.topografix.com/GPX/1/1" xmlns:xsi="http://www.w3.org/2001/XMLSchema-instance" xsi:schemaLocation="http://www.topografix.com/GPX/1/1 http://www.topografix.com/GPX/1/1/gpx.xsd" version="1.1" creator="gpx.py -- https://github.com/tkrajina/gpxpy">
  <trk>
    <name>Fred Laing Ridge</name>
    <trkseg>
      <trkpt lat="52.05314576" lon="-118.5493807">
      </trkpt>
      <trkpt lat="52.053111" lon="-118.549188">
      </trkpt>
      <trkpt lat="52.053106" lon="-118.549104">
      </trkpt>
      <trkpt lat="52.053137" lon="-118.548921">
      </trkpt>
      <trkpt lat="52.053124" lon="-118.548845">
      </trkpt>
      <trkpt lat="52.05314" lon="-118.548715">
      </trkpt>
      <trkpt lat="52.053131" lon="-118.548507">
      </trkpt>
      <trkpt lat="52.053137" lon="-118.54842201">
      </trkpt>
      <trkpt lat="52.053098" lon="-118.548312">
      </trkpt>
      <trkpt lat="52.053073" lon="-118.548287">
      </trkpt>
      <trkpt lat="52.052932" lon="-118.54826199">
      </trkpt>
      <trkpt lat="52.052884" lon="-118.548273">
      </trkpt>
      <trkpt lat="52.052833" lon="-118.54823299">
      </trkpt>
      <trkpt lat="52.052814" lon="-118.548201">
      </trkpt>
      <trkpt lat="52.052804" lon="-118.54816199">
      </trkpt>
      <trkpt lat="52.052802" lon="-118.548061">
      </trkpt>
      <trkpt lat="52.052772" lon="-118.547881">
      </trkpt>
      <trkpt lat="52.052771" lon="-118.54777001">
      </trkpt>
      <trkpt lat="52.052708" lon="-118.54767599">
      </trkpt>
      <trkpt lat="52.052674" lon="-118.547538">
      </trkpt>
      <trkpt lat="52.05268" lon="-118.547398">
      </trkpt>
      <trkpt lat="52.052664" lon="-118.547207">
      </trkpt>
      <trkpt lat="52.052607" lon="-118.547067">
      </trkpt>
      <trkpt lat="52.052608" lon="-118.547027">
      </trkpt>
      <trkpt lat="52.05257" lon="-118.54691899">
      </trkpt>
      <trkpt lat="52.052561" lon="-118.546829">
      </trkpt>
      <trkpt lat="52.052564" lon="-118.546704">
      </trkpt>
      <trkpt lat="52.052613" lon="-118.546497">
      </trkpt>
      <trkpt lat="52.05264" lon="-118.546467">
      </trkpt>
      <trkpt lat="52.052737" lon="-118.54641099">
      </trkpt>
      <trkpt lat="52.052808" lon="-118.546285">
      </trkpt>
      <trkpt lat="52.052842" lon="-118.546046">
      </trkpt>
      <trkpt lat="52.052842" lon="-118.545981">
      </trkpt>
      <trkpt lat="52.0529" lon="-118.545881">
      </trkpt>
      <trkpt lat="52.052937" lon="-118.545865">
      </trkpt>
      <trkpt lat="52.05307" lon="-118.545615">
      </trkpt>
      <trkpt lat="52.05315" lon="-118.545545">
      </trkpt>
      <trkpt lat="52.053297" lon="-118.54530201">
      </trkpt>
      <trkpt lat="52.053373" lon="-118.545049">
      </trkpt>
      <trkpt lat="52.053428" lon="-118.544932">
      </trkpt>
      <trkpt lat="52.053446" lon="-118.544853">
      </trkpt>
      <trkpt lat="52.053478" lon="-118.544787">
      </trkpt>
      <trkpt lat="52.053481" lon="-118.54470799">
      </trkpt>
      <trkpt lat="52.05344" lon="-118.544448">
      </trkpt>
      <trkpt lat="52.053457" lon="-118.54429199">
      </trkpt>
      <trkpt lat="52.05345" lon="-118.544183">
      </trkpt>
      <trkpt lat="52.053418" lon="-118.544134">
      </trkpt>
      <trkpt lat="52.053401" lon="-118.544078">
      </trkpt>
      <trkpt lat="52.053397" lon="-118.54392199">
      </trkpt>
      <trkpt lat="52.053284" lon="-118.54352301">
      </trkpt>
      <trkpt lat="52.053215" lon="-118.543429">
      </trkpt>
      <trkpt lat="52.053106" lon="-118.543425">
      </trkpt>
      <trkpt lat="52.052958" lon="-118.54349">
      </trkpt>
      <trkpt lat="52.052881" lon="-118.543497">
      </trkpt>
      <trkpt lat="52.052724" lon="-118.543437">
      </trkpt>
      <trkpt lat="52.052692" lon="-118.54344">
      </trkpt>
      <trkpt lat="52.052626" lon="-118.543413">
      </trkpt>
      <trkpt lat="52.052503" lon="-118.543409">
      </trkpt>
      <trkpt lat="52.052477" lon="-118.54339999">
      </trkpt>
      <trkpt lat="52.052442" lon="-118.543424">
      </trkpt>
      <trkpt lat="52.052391" lon="-118.54343601">
      </trkpt>
      <trkpt lat="52.052364" lon="-118.54339501">
      </trkpt>
      <trkpt lat="52.052373" lon="-118.543349">
      </trkpt>
      <trkpt lat="52.05242" lon="-118.54325401">
      </trkpt>
      <trkpt lat="52.052476" lon="-118.543094">
      </trkpt>
      <trkpt lat="52.052487" lon="-118.542979">
      </trkpt>
      <trkpt lat="52.052558" lon="-118.542706">
      </trkpt>
      <trkpt lat="52.052557" lon="-118.542594">
      </trkpt>
      <trkpt lat="52.052593" lon="-118.542525">
      </trkpt>
      <trkpt lat="52.052601" lon="-118.54247999">
      </trkpt>
      <trkpt lat="52.052708" lon="-118.542299">
      </trkpt>
      <trkpt lat="52.052764" lon="-118.542122">
      </trkpt>
      <trkpt lat="52.052803" lon="-118.541943">
      </trkpt>
      <trkpt lat="52.052798" lon="-118.541835">
      </trkpt>
      <trkpt lat="52.052771" lon="-118.54176799">
      </trkpt>
      <trkpt lat="52.052739" lon="-118.541746">
      </trkpt>
      <trkpt lat="52.052723" lon="-118.54171999">
      </trkpt>
      <trkpt lat="52.052669" lon="-118.541539">
      </trkpt>
      <trkpt lat="52.052624" lon="-118.541479">
      </trkpt>
      <trkpt lat="52.052579" lon="-118.541357">
      </trkpt>
      <trkpt lat="52.052558" lon="-118.54122999">
      </trkpt>
      <trkpt lat="52.052565" lon="-118.54118501">
      </trkpt>
      <trkpt lat="52.052631" lon="-118.54109501">
      </trkpt>
      <trkpt lat="52.052705" lon="-118.54091399">
      </trkpt>
      <trkpt lat="52.052728" lon="-118.54088601">
      </trkpt>
      <trkpt lat="52.052758" lon="-118.540881">
      </trkpt>
      <trkpt lat="52.05293" lon="-118.540702">
      </trkpt>
      <trkpt lat="52.052953" lon="-118.540333">
      </trkpt>
      <trkpt lat="52.05282" lon="-118.540168">
      </trkpt>
      <trkpt lat="52.052679" lon="-118.540124">
      </trkpt>
      <trkpt lat="52.052638" lon="-118.540166">
      </trkpt>
      <trkpt lat="52.0526" lon="-118.54009899">
      </trkpt>
      <trkpt lat="52.052569" lon="-118.539926">
      </trkpt>
      <trkpt lat="52.052531" lon="-118.53985799">
      </trkpt>
      <trkpt lat="52.052458" lon="-118.539776">
      </trkpt>
      <trkpt lat="52.052439" lon="-118.539734">
      </trkpt>
      <trkpt lat="52.052411" lon="-118.53953999">
      </trkpt>
      <trkpt lat="52.052386" lon="-118.539517">
      </trkpt>
      <trkpt lat="52.052324" lon="-118.53953099">
      </trkpt>
      <trkpt lat="52.052257" lon="-118.539513">
      </trkpt>
      <trkpt lat="52.052164" lon="-118.539533">
      </trkpt>
      <trkpt lat="52.052095" lon="-118.539568">
      </trkpt>
      <trkpt lat="52.052047" lon="-118.53961501">
      </trkpt>
      <trkpt lat="52.052017" lon="-118.539627">
      </trkpt>
      <trkpt lat="52.051966" lon="-118.539685">
      </trkpt>
      <trkpt lat="52.051762" lon="-118.53966099">
      </trkpt>
      <trkpt lat="52.051688" lon="-118.539618">
      </trkpt>
      <trkpt lat="52.051569" lon="-118.539599">
      </trkpt>
      <trkpt lat="52.051536" lon="-118.53940501">
      </trkpt>
      <trkpt lat="52.051503" lon="-118.539367">
      </trkpt>
      <trkpt lat="52.051487" lon="-118.53926399">
      </trkpt>
      <trkpt lat="52.051588" lon="-118.53905701">
      </trkpt>
      <trkpt lat="52.05164" lon="-118.539097">
      </trkpt>
      <trkpt lat="52.051655" lon="-118.53912599">
      </trkpt>
      <trkpt lat="52.051726" lon="-118.539034">
      </trkpt>
      <trkpt lat="52.051767" lon="-118.539021">
      </trkpt>
      <trkpt lat="52.051786" lon="-118.538905">
      </trkpt>
      <trkpt lat="52.051906" lon="-118.538775">
      </trkpt>
      <trkpt lat="52.051927" lon="-118.53870801">
      </trkpt>
      <trkpt lat="52.051964" lon="-118.538665">
      </trkpt>
      <trkpt lat="52.052016" lon="-118.538524">
      </trkpt>
      <trkpt lat="52.052051" lon="-118.538346">
      </trkpt>
      <trkpt lat="52.052037" lon="-118.538162">
      </trkpt>
      <trkpt lat="52.052005" lon="-118.537962">
      </trkpt>
      <trkpt lat="52.052029" lon="-118.53789601">
      </trkpt>
      <trkpt lat="52.052033" lon="-118.537825">
      </trkpt>
      <trkpt lat="52.052092" lon="-118.537727">
      </trkpt>
      <trkpt lat="52.052165" lon="-118.537521">
      </trkpt>
      <trkpt lat="52.052108" lon="-118.537377">
      </trkpt>
      <trkpt lat="52.052101" lon="-118.537189">
      </trkpt>
      <trkpt lat="52.052117" lon="-118.537109">
      </trkpt>
      <trkpt lat="52.052152" lon="-118.537037">
      </trkpt>
      <trkpt lat="52.052188" lon="-118.53688699">
      </trkpt>
      <trkpt lat="52.05223" lon="-118.536782">
      </trkpt>
      <trkpt lat="52.052229" lon="-118.536708">
      </trkpt>
      <trkpt lat="52.052268" lon="-118.53645499">
      </trkpt>
      <trkpt lat="52.052282" lon="-118.53619999">
      </trkpt>
      <trkpt lat="52.052343" lon="-118.53601101">
      </trkpt>
      <trkpt lat="52.052348" lon="-118.535925">
      </trkpt>
      <trkpt lat="52.052391" lon="-118.535659">
      </trkpt>
      <trkpt lat="52.052432" lon="-118.535506">
      </trkpt>
      <trkpt lat="52.052465" lon="-118.535432">
      </trkpt>
      <trkpt lat="52.052471" lon="-118.535282">
      </trkpt>
      <trkpt lat="52.052511" lon="-118.535048">
      </trkpt>
      <trkpt lat="52.052549" lon="-118.534958">
      </trkpt>
      <trkpt lat="52.052564" lon="-118.534796">
      </trkpt>
      <trkpt lat="52.052642" lon="-118.534592">
      </trkpt>
      <trkpt lat="52.052641" lon="-118.534474">
      </trkpt>
      <trkpt lat="52.052664" lon="-118.534199">
      </trkpt>
      <trkpt lat="52.05266" lon="-118.53407501">
      </trkpt>
      <trkpt lat="52.052678" lon="-118.533985">
      </trkpt>
      <trkpt lat="52.052664" lon="-118.533894">
      </trkpt>
      <trkpt lat="52.052666" lon="-118.533772">
      </trkpt>
      <trkpt lat="52.052624" lon="-118.53356001">
      </trkpt>
      <trkpt lat="52.052626" lon="-118.533444">
      </trkpt>
      <trkpt lat="52.052608" lon="-118.53338099">
      </trkpt>
      <trkpt lat="52.052488" lon="-118.53314">
      </trkpt>
      <trkpt lat="52.052391" lon="-118.53279101">
      </trkpt>
      <trkpt lat="52.052337" lon="-118.532656">
      </trkpt>
      <trkpt lat="52.052312" lon="-118.53255099">
      </trkpt>
      <trkpt lat="52.052247" lon="-118.53240101">
      </trkpt>
      <trkpt lat="52.052233" lon="-118.532322">
      </trkpt>
      <trkpt lat="52.052184" lon="-118.53217701">
      </trkpt>
      <trkpt lat="52.052135" lon="-118.532119">
      </trkpt>
      <trkpt lat="52.052028" lon="-118.531897">
      </trkpt>
      <trkpt lat="52.051957" lon="-118.531417">
      </trkpt>
      <trkpt lat="52.051936" lon="-118.53139">
      </trkpt>
      <trkpt lat="52.051912" lon="-118.531311">
      </trkpt>
      <trkpt lat="52.051829" lon="-118.531142">
      </trkpt>
      <trkpt lat="52.05175" lon="-118.531023">
      </trkpt>
      <trkpt lat="52.05168" lon="-118.53079">
      </trkpt>
      <trkpt lat="52.05166" lon="-118.530682">
      </trkpt>
      <trkpt lat="52.051619" lon="-118.530572">
      </trkpt>
      <trkpt lat="52.051602" lon="-118.530456">
      </trkpt>
      <trkpt lat="52.051538" lon="-118.53036299">
      </trkpt>
      <trkpt lat="52.051509" lon="-118.530274">
      </trkpt>
      <trkpt lat="52.05146" lon="-118.53021">
      </trkpt>
      <trkpt lat="52.051463" lon="-118.530254">
      </trkpt>
      <trkpt lat="52.051445" lon="-118.530322">
      </trkpt>
      <trkpt lat="52.05143229" lon="-118.53033873">
      </trkpt>
      <trkpt lat="52.05141968" lon="-118.53033519">
      </trkpt>
      <trkpt lat="52.05141007" lon="-118.530338">
      </trkpt>
      <trkpt lat="52.05140328" lon="-118.53033279">
      </trkpt>
      <trkpt lat="52.05139561" lon="-118.53033504">
      </trkpt>
      <trkpt lat="52.05138988" lon="-118.53033672">
      </trkpt>
      <trkpt lat="52.05137365" lon="-118.53033433">
      </trkpt>
      <trkpt lat="52.0513663" lon="-118.53033657">
      </trkpt>
      <trkpt lat="52.05135837" lon="-118.53033538">
      </trkpt>
      <trkpt lat="52.05134742" lon="-118.53033874">
      </trkpt>
      <trkpt lat="52.0513329" lon="-118.53034317">
      </trkpt>
      <trkpt lat="52.05132567" lon="-118.53034538">
      </trkpt>
      <trkpt lat="52.05131667" lon="-118.53034812">
      </trkpt>
      <trkpt lat="52.05131135" lon="-118.53034978">
      </trkpt>
      <trkpt lat="52.05130487" lon="-118.53035533">
      </trkpt>
      <trkpt lat="52.05130076" lon="-118.53036369">
      </trkpt>
      <trkpt lat="52.05129375" lon="-118.53037644">
      </trkpt>
      <trkpt lat="52.05128678" lon="-118.53038911">
      </trkpt>
      <trkpt lat="52.051281" lon="-118.53039787">
      </trkpt>
      <trkpt lat="52.05127583" lon="-118.53040989">
      </trkpt>
      <trkpt lat="52.05126901" lon="-118.53043274">
      </trkpt>
      <trkpt lat="52.0512605" lon="-118.53044558">
      </trkpt>
      <trkpt lat="52.05125714" lon="-118.53045687">
      </trkpt>
      <trkpt lat="52.0512504" lon="-118.53046906">
      </trkpt>
      <trkpt lat="52.05124371" lon="-118.53048118">
      </trkpt>
      <trkpt lat="52.05123764" lon="-118.53049646">
      </trkpt>
      <trkpt lat="52.0512327" lon="-118.53050796">
      </trkpt>
      <trkpt lat="52.05122953" lon="-118.53052899">
      </trkpt>
      <trkpt lat="52.05122581" lon="-118.53054669">
      </trkpt>
      <trkpt lat="52.05122318" lon="-118.53056068">
      </trkpt>
      <trkpt lat="52.05122114" lon="-118.53057775">
      </trkpt>
      <trkpt lat="52.05121747" lon="-118.53059514">
      </trkpt>
      <trkpt lat="52.05121757" lon="-118.53060495">
      </trkpt>
      <trkpt lat="52.05121394" lon="-118.53062217">
      </trkpt>
      <trkpt lat="52.0512131" lon="-118.53064508">
      </trkpt>
      <trkpt lat="52.05121216" lon="-118.53065821">
      </trkpt>
      <trkpt lat="52.05121024" lon="-118.53067473">
      </trkpt>
      <trkpt lat="52.05121059" lon="-118.53069379">
      </trkpt>
      <trkpt lat="52.05121136" lon="-118.53070631">
      </trkpt>
      <trkpt lat="52.05121273" lon="-118.53072182">
      </trkpt>
      <trkpt lat="52.05121408" lon="-118.53073726">
      </trkpt>
      <trkpt lat="52.05121707" lon="-118.53075227">
      </trkpt>
      <trkpt lat="52.05121516" lon="-118.53077157">
      </trkpt>
      <trkpt lat="52.05121748" lon="-118.5307868">
      </trkpt>
      <trkpt lat="52.05121777" lon="-118.53079928">
      </trkpt>
      <trkpt lat="52.05121788" lon="-118.53082113">
      </trkpt>
      <trkpt lat="52.05121954" lon="-118.53084258">
      </trkpt>
      <trkpt lat="52.05121918" lon="-118.53086125">
      </trkpt>
      <trkpt lat="52.05122046" lon="-118.5308795">
      </trkpt>
      <trkpt lat="52.05122426" lon="-118.53090337">
      </trkpt>
      <trkpt lat="52.05122664" lon="-118.53091825">
      </trkpt>
      <trkpt lat="52.05122948" lon="-118.53093608">
      </trkpt>
      <trkpt lat="52.05123277" lon="-118.53095681">
      </trkpt>
      <trkpt lat="52.05123512" lon="-118.53097159">
      </trkpt>
      <trkpt lat="52.0512384" lon="-118.53099223">
      </trkpt>
      <trkpt lat="52.05124168" lon="-118.5310128">
      </trkpt>
      <trkpt lat="52.05124449" lon="-118.5310304">
      </trkpt>
      <trkpt lat="52.05124681" lon="-118.53104502">
      </trkpt>
      <trkpt lat="52.05125238" lon="-118.53108">
      </trkpt>
      <trkpt lat="52.0512533" lon="-118.53108582">
      </trkpt>
      <trkpt lat="52.05125746" lon="-118.53111192">
      </trkpt>
      <trkpt lat="52.05125976" lon="-118.53112638">
      </trkpt>
      <trkpt lat="52.05126298" lon="-118.53114658">
      </trkpt>
      <trkpt lat="52.05126479" lon="-118.53116147">
      </trkpt>
      <trkpt lat="52.05126673" lon="-118.53117955">
      </trkpt>
      <trkpt lat="52.05126835" lon="-118.53119464">
      </trkpt>
      <trkpt lat="52.05127029" lon="-118.53121272">
      </trkpt>
      <trkpt lat="52.05127222" lon="-118.5312308">
      </trkpt>
      <trkpt lat="52.05127384" lon="-118.53124586">
      </trkpt>
      <trkpt lat="52.05127707" lon="-118.53127597">
      </trkpt>
      <trkpt lat="52.05127997" lon="-118.53130305">
      </trkpt>
      <trkpt lat="52.05128215" lon="-118.5313242">
      </trkpt>
      <trkpt lat="52.05128374" lon="-118.53135298">
      </trkpt>
      <trkpt lat="52.0512848" lon="-118.53137221">
      </trkpt>
      <trkpt lat="52.05128605" lon="-118.5313947">
      </trkpt>
      <trkpt lat="52.05128729" lon="-118.53141724">
      </trkpt>
      <trkpt lat="52.05128993" lon="-118.53143654">
      </trkpt>
      <trkpt lat="52.05129012" lon="-118.53143978">
      </trkpt>
      <trkpt lat="52.05129647" lon="-118.53146876">
      </trkpt>
      <trkpt lat="52.05129913" lon="-118.53148822">
      </trkpt>
      <trkpt lat="52.05130276" lon="-118.53149807">
      </trkpt>
      <trkpt lat="52.05130825" lon="-118.53152171">
      </trkpt>
      <trkpt lat="52.05131198" lon="-118.53153869">
      </trkpt>
      <trkpt lat="52.05131742" lon="-118.53155916">
      </trkpt>
      <trkpt lat="52.05132118" lon="-118.53157632">
      </trkpt>
      <trkpt lat="52.05132302" lon="-118.53158319">
      </trkpt>
      <trkpt lat="52.05132853" lon="-118.53160392">
      </trkpt>
      <trkpt lat="52.05133037" lon="-118.53161086">
      </trkpt>
      <trkpt lat="52.05133604" lon="-118.53163522">
      </trkpt>
      <trkpt lat="52.05133801" lon="-118.5316457">
      </trkpt>
      <trkpt lat="52.05134237" lon="-118.53166603">
      </trkpt>
      <trkpt lat="52.05134441" lon="-118.53168079">
      </trkpt>
      <trkpt lat="52.05134727" lon="-118.53170144">
      </trkpt>
      <trkpt lat="52.05134971" lon="-118.5317191">
      </trkpt>
      <trkpt lat="52.05135174" lon="-118.53173381">
      </trkpt>
      <trkpt lat="52.05135255" lon="-118.53173967">
      </trkpt>
      <trkpt lat="52.05135704" lon="-118.53175616">
      </trkpt>
      <trkpt lat="52.05135762" lon="-118.53176625">
      </trkpt>
      <trkpt lat="52.05135901" lon="-118.53178985">
      </trkpt>
      <trkpt lat="52.05136087" lon="-118.53179327">
      </trkpt>
      <trkpt lat="52.05136205" lon="-118.53181354">
      </trkpt>
      <trkpt lat="52.05136284" lon="-118.53182709">
      </trkpt>
      <trkpt lat="52.05136384" lon="-118.53184405">
      </trkpt>
      <trkpt lat="52.05137516" lon="-118.53210838">
      </trkpt>
      <trkpt lat="52.05137207" lon="-118.53213282">
      </trkpt>
      <trkpt lat="52.05136714" lon="-118.53219048">
      </trkpt>
      <trkpt lat="52.05136119" lon="-118.53223906">
      </trkpt>
      <trkpt lat="52.05134616" lon="-118.53237416">
      </trkpt>
      <trkpt lat="52.05134069" lon="-118.53239903">
      </trkpt>
      <trkpt lat="52.05133139" lon="-118.5324587">
      </trkpt>
      <trkpt lat="52.05133012" lon="-118.53247028">
      </trkpt>
      <trkpt lat="52.05133077" lon="-118.53253561">
      </trkpt>
      <trkpt lat="52.05133721" lon="-118.53263907">
      </trkpt>
      <trkpt lat="52.05134523" lon="-118.53271287">
      </trkpt>
      <trkpt lat="52.05134365" lon="-118.53273991">
      </trkpt>
      <trkpt lat="52.05134295" lon="-118.53277262">
      </trkpt>
      <trkpt lat="52.05134139" lon="-118.53279912">
      </trkpt>
      <trkpt lat="52.05133742" lon="-118.53284569">
      </trkpt>
      <trkpt lat="52.05133917" lon="-118.53285714">
      </trkpt>
      <trkpt lat="52.05133514" lon="-118.53293701">
      </trkpt>
      <trkpt lat="52.05131669" lon="-118.5329742">
      </trkpt>
      <trkpt lat="52.05131188" lon="-118.53297788">
      </trkpt>
      <trkpt lat="52.05128657" lon="-118.53302037">
      </trkpt>
      <trkpt lat="52.05126992" lon="-118.53303311">
      </trkpt>
      <trkpt lat="52.05125092" lon="-118.5330323">
      </trkpt>
      <trkpt lat="52.05123784" lon="-118.53303463">
      </trkpt>
      <trkpt lat="52.05122" lon="-118.53304061">
      </trkpt>
      <trkpt lat="52.05120073" lon="-118.5330244">
      </trkpt>
      <trkpt lat="52.0511789" lon="-118.53300988">
      </trkpt>
      <trkpt lat="52.05115256" lon="-118.53298712">
      </trkpt>
      <trkpt lat="52.05113891" lon="-118.53298771">
      </trkpt>
      <trkpt lat="52.05112394" lon="-118.53298183">
      </trkpt>
      <trkpt lat="52.05109605" lon="-118.53296727">
      </trkpt>
      <trkpt lat="52.05108621" lon="-118.53294648">
      </trkpt>
      <trkpt lat="52.05107628" lon="-118.53292551">
      </trkpt>
      <trkpt lat="52.05106487" lon="-118.53289764">
      </trkpt>
      <trkpt lat="52.05104821" lon="-118.53285864">
      </trkpt>
      <trkpt lat="52.05103501" lon="-118.53282305">
      </trkpt>
      <trkpt lat="52.05102459" lon="-118.53280096">
      </trkpt>
      <trkpt lat="52.05101032" lon="-118.53274737">
      </trkpt>
      <trkpt lat="52.05100728" lon="-118.53270544">
      </trkpt>
      <trkpt lat="52.05100962" lon="-118.53267457">
      </trkpt>
      <trkpt lat="52.05102374" lon="-118.53259949">
      </trkpt>
      <trkpt lat="52.05102707" lon="-118.53258651">
      </trkpt>
      <trkpt lat="52.05103469" lon="-118.53253483">
      </trkpt>
      <trkpt lat="52.05103928" lon="-118.53251236">
      </trkpt>
      <trkpt lat="52.05103787" lon="-118.53244381">
      </trkpt>
      <trkpt lat="52.05104311" lon="-118.53237597">
      </trkpt>
      <trkpt lat="52.05104353" lon="-118.5323134">
      </trkpt>
      <trkpt lat="52.05104431" lon="-118.5322679">
      </trkpt>
      <trkpt lat="52.05104731" lon="-118.53219962">
      </trkpt>
      <trkpt lat="52.05105179" lon="-118.53215497">
      </trkpt>
      <trkpt lat="52.05105264" lon="-118.5321071">
      </trkpt>
      <trkpt lat="52.05105607" lon="-118.53207269">
      </trkpt>
      <trkpt lat="52.05105941" lon="-118.53201905">
      </trkpt>
      <trkpt lat="52.05105543" lon="-118.53197827">
      </trkpt>
      <trkpt lat="52.05104748" lon="-118.53191474">
      </trkpt>
      <trkpt lat="52.05104219" lon="-118.53188486">
      </trkpt>
      <trkpt lat="52.05102287" lon="-118.53185093">
      </trkpt>
      <trkpt lat="52.05100347" lon="-118.53179898">
      </trkpt>
      <trkpt lat="52.05098069" lon="-118.53172953">
      </trkpt>
      <trkpt lat="52.05095379" lon="-118.53169497">
      </trkpt>
      <trkpt lat="52.05091866" lon="-118.53167321">
      </trkpt>
      <trkpt lat="52.05090427" lon="-118.53167031">
      </trkpt>
      <trkpt lat="52.05088262" lon="-118.53166597">
      </trkpt>
      <trkpt lat="52.05087335" lon="-118.5316542">
      </trkpt>
      <trkpt lat="52.05085022" lon="-118.53162564">
      </trkpt>
      <trkpt lat="52.05083493" lon="-118.53160179">
      </trkpt>
      <trkpt lat="52.05082481" lon="-118.53156904">
      </trkpt>
      <trkpt lat="52.05081459" lon="-118.53153596">
      </trkpt>
      <trkpt lat="52.0508037" lon="-118.53149982">
      </trkpt>
      <trkpt lat="52.05078528" lon="-118.53144475">
      </trkpt>
      <trkpt lat="52.05077054" lon="-118.53139032">
      </trkpt>
      <trkpt lat="52.05074233" lon="-118.53132433">
      </trkpt>
      <trkpt lat="52.05071786" lon="-118.53122596">
      </trkpt>
      <trkpt lat="52.05061849" lon="-118.53083382">
      </trkpt>
      <trkpt lat="52.05060283" lon="-118.53081547">
      </trkpt>
      <trkpt lat="52.05057811" lon="-118.53081054">
      </trkpt>
      <trkpt lat="52.05056878" lon="-118.53078557">
      </trkpt>
      <trkpt lat="52.05055474" lon="-118.53077565">
      </trkpt>
      <trkpt lat="52.05053105" lon="-118.53073964">
      </trkpt>
      <trkpt lat="52.05051206" lon="-118.53074017">
      </trkpt>
      <trkpt lat="52.05050255" lon="-118.53074106">
      </trkpt>
      <trkpt lat="52.05049641" lon="-118.53072577">
      </trkpt>
      <trkpt lat="52.05049455" lon="-118.5307118">
      </trkpt>
      <trkpt lat="52.05049415" lon="-118.53070312">
      </trkpt>
      <trkpt lat="52.05049802" lon="-118.53068099">
      </trkpt>
      <trkpt lat="52.05049904" lon="-118.53066267">
      </trkpt>
      <trkpt lat="52.05050041" lon="-118.53063798">
      </trkpt>
      <trkpt lat="52.0505018" lon="-118.53061296">
      </trkpt>
      <trkpt lat="52.05050165" lon="-118.53056625">
      </trkpt>
      <trkpt lat="52.05050115" lon="-118.53052504">
      </trkpt>
      <trkpt lat="52.05050069" lon="-118.53049932">
      </trkpt>
      <trkpt lat="52.05049874" lon="-118.5304837">
      </trkpt>
      <trkpt lat="52.05049331" lon="-118.53046265">
      </trkpt>
      <trkpt lat="52.05048862" lon="-118.53044443">
      </trkpt>
      <trkpt lat="52.05048196" lon="-118.53042679">
      </trkpt>
      <trkpt lat="52.05047048" lon="-118.53039122">
      </trkpt>
      <trkpt lat="52.05045448" lon="-118.5303561">
      </trkpt>
      <trkpt lat="52.0504425" lon="-118.53031978">
      </trkpt>
      <trkpt lat="52.05043663" lon="-118.53029795">
      </trkpt>
      <trkpt lat="52.05042235" lon="-118.53027004">
      </trkpt>
      <trkpt lat="52.05040944" lon="-118.53023919">
      </trkpt>
      <trkpt lat="52.05041091" lon="-118.5302108">
      </trkpt>
      <trkpt lat="52.05041041" lon="-118.53019185">
      </trkpt>
      <trkpt lat="52.05040903" lon="-118.53016079">
      </trkpt>
      <trkpt lat="52.05040712" lon="-118.53010966">
      </trkpt>
      <trkpt lat="52.05040532" lon="-118.530085">
      </trkpt>
      <trkpt lat="52.05040552" lon="-118.53004969">
      </trkpt>
      <trkpt lat="52.05040703" lon="-118.53001884">
      </trkpt>
      <trkpt lat="52.05040451" lon="-118.52999072">
      </trkpt>
      <trkpt lat="52.05039303" lon="-118.52992764">
      </trkpt>
      <trkpt lat="52.05038517" lon="-118.52991616">
      </trkpt>
      <trkpt lat="52.05037561" lon="-118.52990762">
      </trkpt>
      <trkpt lat="52.0503532" lon="-118.52987855">
      </trkpt>
      <trkpt lat="52.05033869" lon="-118.52985188">
      </trkpt>
      <trkpt lat="52.05031906" lon="-118.52980649">
      </trkpt>
      <trkpt lat="52.05029489" lon="-118.52973734">
      </trkpt>
      <trkpt lat="52.05025965" lon="-118.52963064">
      </trkpt>
      <trkpt lat="52.05023682" lon="-118.52956694">
      </trkpt>
      <trkpt lat="52.05021347" lon="-118.52951184">
      </trkpt>
      <trkpt lat="52.05020124" lon="-118.52949542">
      </trkpt>
      <trkpt lat="52.05018628" lon="-118.52947895">
      </trkpt>
      <trkpt lat="52.050175" lon="-118.52946653">
      </trkpt>
      <trkpt lat="52.05015005" lon="-118.52941522">
      </trkpt>
      <trkpt lat="52.05013664" lon="-118.52938623">
      </trkpt>
      <trkpt lat="52.0500989" lon="-118.52928667">
      </trkpt>
      <trkpt lat="52.05008576" lon="-118.52925005">
      </trkpt>
      <trkpt lat="52.05005452" lon="-118.52916406">
      </trkpt>
      <trkpt lat="52.05004275" lon="-118.52915199">
      </trkpt>
      <trkpt lat="52.0500366" lon="-118.52913976">
      </trkpt>
      <trkpt lat="52.05002361" lon="-118.52912348">
      </trkpt>
      <trkpt lat="52.05001115" lon="-118.52909874">
      </trkpt>
      <trkpt lat="52.04999042" lon="-118.52902806">
      </trkpt>
      <trkpt lat="52.04998149" lon="-118.52899664">
      </trkpt>
      <trkpt lat="52.04997065" lon="-118.52895848">
      </trkpt>
      <trkpt lat="52.0499615" lon="-118.52892627">
      </trkpt>
      <trkpt lat="52.04987208" lon="-118.52863341">
      </trkpt>
      <trkpt lat="52.04986513" lon="-118.52860764">
      </trkpt>
      <trkpt lat="52.04985513" lon="-118.52859412">
      </trkpt>
      <trkpt lat="52.0498371" lon="-118.52857468">
      </trkpt>
      <trkpt lat="52.04982092" lon="-118.52854211">
      </trkpt>
      <trkpt lat="52.04980589" lon="-118.52855576">
      </trkpt>
      <trkpt lat="52.04979389" lon="-118.52853528">
      </trkpt>
      <trkpt lat="52.04978993" lon="-118.52852113">
      </trkpt>
      <trkpt lat="52.04978275" lon="-118.52847416">
      </trkpt>
      <trkpt lat="52.04977765" lon="-118.52843402">
      </trkpt>
      <trkpt lat="52.04975347" lon="-118.52833083">
      </trkpt>
      <trkpt lat="52.04973713" lon="-118.52826436">
      </trkpt>
      <trkpt lat="52.04972297" lon="-118.52821546">
      </trkpt>
      <trkpt lat="52.0496971" lon="-118.52812713">
      </trkpt>
      <trkpt lat="52.04969086" lon="-118.52809201">
      </trkpt>
      <trkpt lat="52.04968891" lon="-118.52807229">
      </trkpt>
      <trkpt lat="52.04968195" lon="-118.52799959">
      </trkpt>
      <trkpt lat="52.04968401" lon="-118.52794337">
      </trkpt>
      <trkpt lat="52.04968443" lon="-118.52789306">
      </trkpt>
      <trkpt lat="52.04966978" lon="-118.52782405">
      </trkpt>
      <trkpt lat="52.04965424" lon="-118.52783928">
      </trkpt>
      <trkpt lat="52.04964189" lon="-118.52783497">
      </trkpt>
      <trkpt lat="52.04962136" lon="-118.527814">
      </trkpt>
      <trkpt lat="52.04959641" lon="-118.52775961">
      </trkpt>
      <trkpt lat="52.04957349" lon="-118.52772077">
      </trkpt>
      <trkpt lat="52.04954286" lon="-118.52758202">
      </trkpt>
      <trkpt lat="52.04950373" lon="-118.52755821">
      </trkpt>
      <trkpt lat="52.0494697" lon="-118.52748786">
      </trkpt>
      <trkpt lat="52.04943276" lon="-118.5274003">
      </trkpt>
      <trkpt lat="52.04941358" lon="-118.52735262">
      </trkpt>
      <trkpt lat="52.04939896" lon="-118.52729518">
      </trkpt>
      <trkpt lat="52.04936289" lon="-118.52721871">
      </trkpt>
      <trkpt lat="52.0493447" lon="-118.52718025">
      </trkpt>
      <trkpt lat="52.04932779" lon="-118.5271102">
      </trkpt>
      <trkpt lat="52.04931771" lon="-118.5270445">
      </trkpt>
      <trkpt lat="52.04931094" lon="-118.52700032">
      </trkpt>
      <trkpt lat="52.04929726" lon="-118.52691102">
      </trkpt>
      <trkpt lat="52.04929893" lon="-118.52688052">
      </trkpt>
      <trkpt lat="52.04929201" lon="-118.52683519">
      </trkpt>
      <trkpt lat="52.04929361" lon="-118.52676186">
      </trkpt>
      <trkpt lat="52.04930131" lon="-118.5266421">
      </trkpt>
      <trkpt lat="52.04932495" lon="-118.52649417">
      </trkpt>
      <trkpt lat="52.04933846" lon="-118.52640641">
      </trkpt>
      <trkpt lat="52.04934455" lon="-118.52631105">
      </trkpt>
      <trkpt lat="52.04935665" lon="-118.52620961">
      </trkpt>
      <trkpt lat="52.04936087" lon="-118.52614523">
      </trkpt>
      <trkpt lat="52.04935702" lon="-118.52611815">
      </trkpt>
      <trkpt lat="52.04936789" lon="-118.52605216">
      </trkpt>
      <trkpt lat="52.04937555" lon="-118.52596208">
      </trkpt>
      <trkpt lat="52.04938862" lon="-118.52590962">
      </trkpt>
      <trkpt lat="52.04938021" lon="-118.52579781">
      </trkpt>
      <trkpt lat="52.04937224" lon="-118.52568686">
      </trkpt>
      <trkpt lat="52.04935703" lon="-118.52557296">
      </trkpt>
      <trkpt lat="52.04934601" lon="-118.52549042">
      </trkpt>
      <trkpt lat="52.04932835" lon="-118.52540993">
      </trkpt>
      <trkpt lat="52.04930274" lon="-118.52527142">
      </trkpt>
      <trkpt lat="52.04928759" lon="-118.52521177">
      </trkpt>
      <trkpt lat="52.04927333" lon="-118.52510671">
      </trkpt>
      <trkpt lat="52.04926843" lon="-118.52507099">
      </trkpt>
      <trkpt lat="52.04927461" lon="-118.5250116">
      </trkpt>
      <trkpt lat="52.04930977" lon="-118.52489618">
      </trkpt>
      <trkpt lat="52.04931312" lon="-118.52486676">
      </trkpt>
      <trkpt lat="52.04932927" lon="-118.52476821">
      </trkpt>
      <trkpt lat="52.04932864" lon="-118.52470792">
      </trkpt>
      <trkpt lat="52.04932251" lon="-118.52466199">
      </trkpt>
      <trkpt lat="52.04932489" lon="-118.52462509">
      </trkpt>
      <trkpt lat="52.0493277" lon="-118.52459052">
      </trkpt>
      <trkpt lat="52.04933989" lon="-118.52451447">
      </trkpt>
      <trkpt lat="52.04934925" lon="-118.52447235">
      </trkpt>
      <trkpt lat="52.0493771" lon="-118.52439957">
      </trkpt>
      <trkpt lat="52.0493966" lon="-118.52431711">
      </trkpt>
      <trkpt lat="52.0494065" lon="-118.52427574">
      </trkpt>
      <trkpt lat="52.04941962" lon="-118.52419809">
      </trkpt>
      <trkpt lat="52.04943286" lon="-118.52411973">
      </trkpt>
      <trkpt lat="52.04944586" lon="-118.52397245">
      </trkpt>
      <trkpt lat="52.04944026" lon="-118.52371648">
      </trkpt>
      <trkpt lat="52.04942761" lon="-118.52360171">
      </trkpt>
      <trkpt lat="52.04940547" lon="-118.52340417">
      </trkpt>
      <trkpt lat="52.04939548" lon="-118.52331817">
      </trkpt>
      <trkpt lat="52.04938249" lon="-118.52320355">
      </trkpt>
      <trkpt lat="52.04940342" lon="-118.52310809">
      </trkpt>
      <trkpt lat="52.04943879" lon="-118.5230695">
      </trkpt>
      <trkpt lat="52.04946185" lon="-118.52298667">
      </trkpt>
      <trkpt lat="52.0494863" lon="-118.5229136">
      </trkpt>
      <trkpt lat="52.04951199" lon="-118.52285563">
      </trkpt>
      <trkpt lat="52.04953005" lon="-118.52279785">
      </trkpt>
      <trkpt lat="52.04955577" lon="-118.52273477">
      </trkpt>
      <trkpt lat="52.04957661" lon="-118.52270557">
      </trkpt>
      <trkpt lat="52.04961359" lon="-118.52267709">
      </trkpt>
      <trkpt lat="52.04965281" lon="-118.52258373">
      </trkpt>
      <trkpt lat="52.0496795" lon="-118.52252466">
      </trkpt>
      <trkpt lat="52.04970494" lon="-118.52244747">
      </trkpt>
      <trkpt lat="52.04972284" lon="-118.5223744">
      </trkpt>
      <trkpt lat="52.0497729" lon="-118.52229852">
      </trkpt>
      <trkpt lat="52.04981498" lon="-118.52222038">
      </trkpt>
      <trkpt lat="52.04983611" lon="-118.52218091">
      </trkpt>
      <trkpt lat="52.0498726" lon="-118.52212621">
      </trkpt>
      <trkpt lat="52.049906" lon="-118.52203394">
      </trkpt>
      <trkpt lat="52.04993502" lon="-118.52198429">
      </trkpt>
      <trkpt lat="52.04997809" lon="-118.52190313">
      </trkpt>
      <trkpt lat="52.05001473" lon="-118.52184278">
      </trkpt>
      <trkpt lat="52.05002159" lon="-118.52182417">
      </trkpt>
      <trkpt lat="52.05006383" lon="-118.52181033">
      </trkpt>
      <trkpt lat="52.05009201" lon="-118.52178136">
      </trkpt>
      <trkpt lat="52.05016022" lon="-118.52174541">
      </trkpt>
      <trkpt lat="52.05020098" lon="-118.52172622">
      </trkpt>
      <trkpt lat="52.05022516" lon="-118.52172724">
      </trkpt>
      <trkpt lat="52.05022822" lon="-118.52172541">
      </trkpt>
      <trkpt lat="52.0502497" lon="-118.52171259">
      </trkpt>
      <trkpt lat="52.05027523" lon="-118.52170329">
      </trkpt>
      <trkpt lat="52.05030073" lon="-118.52169375">
      </trkpt>
      <trkpt lat="52.05032711" lon="-118.52167033">
      </trkpt>
      <trkpt lat="52.05034874" lon="-118.5216387">
      </trkpt>
      <trkpt lat="52.05036506" lon="-118.52161481">
      </trkpt>
      <trkpt lat="52.05037873" lon="-118.52159481">
      </trkpt>
      <trkpt lat="52.05039247" lon="-118.5215747">
      </trkpt>
      <trkpt lat="52.05042014" lon="-118.52153422">
      </trkpt>
      <trkpt lat="52.05043687" lon="-118.52150972">
      </trkpt>
      <trkpt lat="52.05044105" lon="-118.52147107">
      </trkpt>
      <trkpt lat="52.05044633" lon="-118.52143869">
      </trkpt>
      <trkpt lat="52.05044227" lon="-118.52136859">
      </trkpt>
      <trkpt lat="52.0504367" lon="-118.52133329">
      </trkpt>
      <trkpt lat="52.05042972" lon="-118.52128897">
      </trkpt>
      <trkpt lat="52.05040835" lon="-118.52119904">
      </trkpt>
      <trkpt lat="52.05038856" lon="-118.5211431">
      </trkpt>
      <trkpt lat="52.05036211" lon="-118.52111544">
      </trkpt>
      <trkpt lat="52.05035324" lon="-118.52110615">
      </trkpt>
      <trkpt lat="52.0503525" lon="-118.52103381">
      </trkpt>
      <trkpt lat="52.05034809" lon="-118.52084222">
      </trkpt>
      <trkpt lat="52.05035694" lon="-118.52080145">
      </trkpt>
      <trkpt lat="52.05036704" lon="-118.52079249">
      </trkpt>
      <trkpt lat="52.05039576" lon="-118.52078026">
      </trkpt>
      <trkpt lat="52.05042022" lon="-118.52076519">
      </trkpt>
      <trkpt lat="52.05044389" lon="-118.5207177">
      </trkpt>
      <trkpt lat="52.05046512" lon="-118.52062199">
      </trkpt>
      <trkpt lat="52.05048994" lon="-118.52054787">
      </trkpt>
      <trkpt lat="52.05050689" lon="-118.52049906">
      </trkpt>
      <trkpt lat="52.05052803" lon="-118.52048181">
      </trkpt>
      <trkpt lat="52.05054363" lon="-118.52041857">
      </trkpt>
      <trkpt lat="52.05053097" lon="-118.52007386">
      </trkpt>
      <trkpt lat="52.05051026" lon="-118.51963357">
      </trkpt>
      <trkpt lat="52.05053026" lon="-118.51958024">
      </trkpt>
      <trkpt lat="52.05053501" lon="-118.51933771">
      </trkpt>
      <trkpt lat="52.05054176" lon="-118.51918964">
      </trkpt>
      <trkpt lat="52.05053472" lon="-118.51898843">
      </trkpt>
      <trkpt lat="52.05053509" lon="-118.5189024">
      </trkpt>
      <trkpt lat="52.05054485" lon="-118.51886156">
      </trkpt>
      <trkpt lat="52.05056029" lon="-118.51882973">
      </trkpt>
      <trkpt lat="52.05057578" lon="-118.51879774">
      </trkpt>
      <trkpt lat="52.05059136" lon="-118.5187656">
      </trkpt>
      <trkpt lat="52.05061039" lon="-118.51871937">
      </trkpt>
      <trkpt lat="52.05063168" lon="-118.51869642">
      </trkpt>
      <trkpt lat="52.0506572" lon="-118.51866684">
      </trkpt>
      <trkpt lat="52.0506702" lon="-118.51859781">
      </trkpt>
      <trkpt lat="52.05069416" lon="-118.51854169">
      </trkpt>
      <trkpt lat="52.05071834" lon="-118.51848502">
      </trkpt>
      <trkpt lat="52.05074493" lon="-118.51845662">
      </trkpt>
      <trkpt lat="52.05076469" lon="-118.51839911">
      </trkpt>
      <trkpt lat="52.0507895" lon="-118.5183411">
      </trkpt>
      <trkpt lat="52.0508165" lon="-118.5183121">
      </trkpt>
      <trkpt lat="52.05084224" lon="-118.51826584">
      </trkpt>
      <trkpt lat="52.05086526" lon="-118.51825167">
      </trkpt>
      <trkpt lat="52.05088319" lon="-118.5182325">
      </trkpt>
      <trkpt lat="52.05091914" lon="-118.51819401">
      </trkpt>
      <trkpt lat="52.05094506" lon="-118.51814516">
      </trkpt>
      <trkpt lat="52.05097222" lon="-118.51811606">
      </trkpt>
      <trkpt lat="52.05099557" lon="-118.51810603">
      </trkpt>
      <trkpt lat="52.05102376" lon="-118.51810334">
      </trkpt>
      <trkpt lat="52.05104157" lon="-118.51808052">
      </trkpt>
      <trkpt lat="52.05106633" lon="-118.51810977">
      </trkpt>
      <trkpt lat="52.05107988" lon="-118.51809798">
      </trkpt>
      <trkpt lat="52.05109763" lon="-118.51807353">
      </trkpt>
      <trkpt lat="52.0511197" lon="-118.51803828">
      </trkpt>
      <trkpt lat="52.05113756" lon="-118.51801361">
      </trkpt>
      <trkpt lat="52.05115915" lon="-118.51795997">
      </trkpt>
      <trkpt lat="52.05119028" lon="-118.51790597">
      </trkpt>
      <trkpt lat="52.05121524" lon="-118.51780021">
      </trkpt>
      <trkpt lat="52.05123259" lon="-118.51774503">
      </trkpt>
      <trkpt lat="52.05125053" lon="-118.51770607">
      </trkpt>
      <trkpt lat="52.05126856" lon="-118.51766689">
      </trkpt>
      <trkpt lat="52.05129692" lon="-118.51765823">
      </trkpt>
      <trkpt lat="52.05133012" lon="-118.51765653">
      </trkpt>
      <trkpt lat="52.05135834" lon="-118.5176418">
      </trkpt>
      <trkpt lat="52.05140076" lon="-118.51762643">
      </trkpt>
      <trkpt lat="52.05143371" lon="-118.51761635">
      </trkpt>
      <trkpt lat="52.05146197" lon="-118.51761724">
      </trkpt>
      <trkpt lat="52.05149005" lon="-118.51760151">
      </trkpt>
      <trkpt lat="52.05152325" lon="-118.51756641">
      </trkpt>
      <trkpt lat="52.05154706" lon="-118.51755853">
      </trkpt>
      <trkpt lat="52.05159089" lon="-118.51748728">
      </trkpt>
      <trkpt lat="52.05161953" lon="-118.51748093">
      </trkpt>
      <trkpt lat="52.05165183" lon="-118.51750945">
      </trkpt>
      <trkpt lat="52.05168679" lon="-118.51744212">
      </trkpt>
      <trkpt lat="52.05170533" lon="-118.51745831">
      </trkpt>
      <trkpt lat="52.0517352" lon="-118.5174071">
      </trkpt>
      <trkpt lat="52.051765" lon="-118.51736264">
      </trkpt>
      <trkpt lat="52.05178914" lon="-118.51734921">
      </trkpt>
      <trkpt lat="52.0518146" lon="-118.51729995">
      </trkpt>
      <trkpt lat="52.05185737" lon="-118.51729077">
      </trkpt>
      <trkpt lat="52.05188895" lon="-118.51730244">
      </trkpt>
      <trkpt lat="52.05191261" lon="-118.51728303">
      </trkpt>
      <trkpt lat="52.051945" lon="-118.5172698">
      </trkpt>
      <trkpt lat="52.05196825" lon="-118.5172571">
      </trkpt>
      <trkpt lat="52.05199299" lon="-118.51721459">
      </trkpt>
      <trkpt lat="52.05201415" lon="-118.51715632">
      </trkpt>
      <trkpt lat="52.05203687" lon="-118.51707089">
      </trkpt>
      <trkpt lat="52.05205264" lon="-118.51701938">
      </trkpt>
      <trkpt lat="52.05206851" lon="-118.51696749">
      </trkpt>
      <trkpt lat="52.0520889" lon="-118.5169213">
      </trkpt>
      <trkpt lat="52.05211517" lon="-118.51685038">
      </trkpt>
      <trkpt lat="52.05214855" lon="-118.51682745">
      </trkpt>
      <trkpt lat="52.05216854" lon="-118.51679599">
      </trkpt>
      <trkpt lat="52.05219278" lon="-118.5167727">
      </trkpt>
      <trkpt lat="52.05222149" lon="-118.51674829">
      </trkpt>
      <trkpt lat="52.05224931" lon="-118.51673984">
      </trkpt>
      <trkpt lat="52.05227801" lon="-118.51671545">
      </trkpt>
      <trkpt lat="52.05230672" lon="-118.51669103">
      </trkpt>
      <trkpt lat="52.05232938" lon="-118.51669033">
      </trkpt>
      <trkpt lat="52.05235571" lon="-118.5167005">
      </trkpt>
      <trkpt lat="52.05237712" lon="-118.51671576">
      </trkpt>
      <trkpt lat="52.0524023" lon="-118.51673938">
      </trkpt>
      <trkpt lat="52.05242639" lon="-118.5167763">
      </trkpt>
      <trkpt lat="52.05244644" lon="-118.51680454">
      </trkpt>
      <trkpt lat="52.05247004" lon="-118.5168414">
      </trkpt>
      <trkpt lat="52.05249546" lon="-118.51685034">
      </trkpt>
      <trkpt lat="52.05251229" lon="-118.51685666">
      </trkpt>
      <trkpt lat="52.05253105" lon="-118.51683659">
      </trkpt>
      <trkpt lat="52.0525501" lon="-118.51681861">
      </trkpt>
      <trkpt lat="52.05259264" lon="-118.51673221">
      </trkpt>
      <trkpt lat="52.052619" lon="-118.51671256">
      </trkpt>
      <trkpt lat="52.05266748" lon="-118.51668682">
      </trkpt>
      <trkpt lat="52.05266936" lon="-118.51665145">
      </trkpt>
      <trkpt lat="52.05268917" lon="-118.516569">
      </trkpt>
      <trkpt lat="52.05268063" lon="-118.51642348">
      </trkpt>
      <trkpt lat="52.05269342" lon="-118.51637657">
      </trkpt>
      <trkpt lat="52.05272155" lon="-118.51630249">
      </trkpt>
      <trkpt lat="52.05275277" lon="-118.51619196">
      </trkpt>
      <trkpt lat="52.05278" lon="-118.51616912">
      </trkpt>
      <trkpt lat="52.05279767" lon="-118.51616913">
      </trkpt>
      <trkpt lat="52.05283007" lon="-118.51613867">
      </trkpt>
      <trkpt lat="52.05285287" lon="-118.51613107">
      </trkpt>
      <trkpt lat="52.05288577" lon="-118.51610446">
      </trkpt>
      <trkpt lat="52.05289645" lon="-118.51609058">
      </trkpt>
      <trkpt lat="52.05292788" lon="-118.51604122">
      </trkpt>
      <trkpt lat="52.05294785" lon="-118.51599409">
      </trkpt>
      <trkpt lat="52.05295642" lon="-118.51595251">
      </trkpt>
      <trkpt lat="52.05297495" lon="-118.51588301">
      </trkpt>
      <trkpt lat="52.05298666" lon="-118.51579217">
      </trkpt>
      <trkpt lat="52.0530056" lon="-118.51572283">
      </trkpt>
      <trkpt lat="52.05302029" lon="-118.51567567">
      </trkpt>
      <trkpt lat="52.05302766" lon="-118.51560907">
      </trkpt>
      <trkpt lat="52.05304251" lon="-118.51556124">
      </trkpt>
      <trkpt lat="52.05306182" lon="-118.51548628">
      </trkpt>
      <trkpt lat="52.05306945" lon="-118.51541801">
      </trkpt>
      <trkpt lat="52.05308188" lon="-118.51533545">
      </trkpt>
      <trkpt lat="52.0530906" lon="-118.51528205">
      </trkpt>
      <trkpt lat="52.05310467" lon="-118.51521391">
      </trkpt>
      <trkpt lat="52.05313593" lon="-118.51512182">
      </trkpt>
      <trkpt lat="52.05315177" lon="-118.51507804">
      </trkpt>
      <trkpt lat="52.05316709" lon="-118.51502468">
      </trkpt>
      <trkpt lat="52.05318824" lon="-118.5149556">
      </trkpt>
      <trkpt lat="52.05320249" lon="-118.51486682">
      </trkpt>
      <trkpt lat="52.0532283" lon="-118.51474446">
      </trkpt>
      <trkpt lat="52.05324854" lon="-118.51463537">
      </trkpt>
      <trkpt lat="52.05327019" lon="-118.51454605">
      </trkpt>
      <trkpt lat="52.05328603" lon="-118.51447135">
      </trkpt>
      <trkpt lat="52.05330952" lon="-118.51443815">
      </trkpt>
      <trkpt lat="52.05334007" lon="-118.51442441">
      </trkpt>
      <trkpt lat="52.05335773" lon="-118.51439946">
      </trkpt>
      <trkpt lat="52.05337541" lon="-118.51437449">
      </trkpt>
      <trkpt lat="52.05341212" lon="-118.51434043">
      </trkpt>
      <trkpt lat="52.0534365" lon="-118.51429947">
      </trkpt>
      <trkpt lat="52.05347368" lon="-118.51425112">
      </trkpt>
      <trkpt lat="52.05350415" lon="-118.51414002">
      </trkpt>
      <trkpt lat="52.05355461" lon="-118.51412172">
      </trkpt>
      <trkpt lat="52.05358596" lon="-118.51407845">
      </trkpt>
      <trkpt lat="52.05362396" lon="-118.51401946">
      </trkpt>
      <trkpt lat="52.0536495" lon="-118.51398543">
      </trkpt>
      <trkpt lat="52.05367503" lon="-118.51396072">
      </trkpt>
      <trkpt lat="52.05371972" lon="-118.51391478">
      </trkpt>
      <trkpt lat="52.05374537" lon="-118.51389017">
      </trkpt>
      <trkpt lat="52.0537964" lon="-118.51381673">
      </trkpt>
      <trkpt lat="52.05382241" lon="-118.51378346">
      </trkpt>
      <trkpt lat="52.05387476" lon="-118.51369653">
      </trkpt>
      <trkpt lat="52.05392133" lon="-118.5136011">
      </trkpt>
      <trkpt lat="52.05394901" lon="-118.51348496">
      </trkpt>
      <trkpt lat="52.05396873" lon="-118.51342071">
      </trkpt>
      <trkpt lat="52.05398884" lon="-118.51336357">
      </trkpt>
      <trkpt lat="52.05401611" lon="-118.51327946">
      </trkpt>
      <trkpt lat="52.05403672" lon="-118.51321586">
      </trkpt>
      <trkpt lat="52.0540575" lon="-118.51315181">
      </trkpt>
      <trkpt lat="52.05408518" lon="-118.51305866">
      </trkpt>
      <trkpt lat="52.05410657" lon="-118.51294991">
      </trkpt>
      <trkpt lat="52.0541275" lon="-118.51284396">
      </trkpt>
      <trkpt lat="52.05414253" lon="-118.51275042">
      </trkpt>
      <trkpt lat="52.05414116" lon="-118.51274184">
      </trkpt>
      <trkpt lat="52.05414757" lon="-118.51269628">
      </trkpt>
      <trkpt lat="52.05415523" lon="-118.5126287">
      </trkpt>
      <trkpt lat="52.05416806" lon="-118.51256328">
      </trkpt>
      <trkpt lat="52.05418548" lon="-118.51249599">
      </trkpt>
      <trkpt lat="52.05419809" lon="-118.51242537">
      </trkpt>
      <trkpt lat="52.05420814" lon="-118.51239916">
      </trkpt>
      <trkpt lat="52.05422933" lon="-118.5123531">
      </trkpt>
      <trkpt lat="52.05425774" lon="-118.51232352">
      </trkpt>
      <trkpt lat="52.05427657" lon="-118.51229122">
      </trkpt>
      <trkpt lat="52.05429089" lon="-118.51225972">
      </trkpt>
      <trkpt lat="52.05430629" lon="-118.512236">
      </trkpt>
      <trkpt lat="52.05432115" lon="-118.51220814">
      </trkpt>
      <trkpt lat="52.05433358" lon="-118.51216135">
      </trkpt>
      <trkpt lat="52.05433686" lon="-118.51211507">
      </trkpt>
      <trkpt lat="52.0543417" lon="-118.51208041">
      </trkpt>
      <trkpt lat="52.0543526" lon="-118.5120558">
      </trkpt>
      <trkpt lat="52.05436745" lon="-118.51202499">
      </trkpt>
      <trkpt lat="52.05438236" lon="-118.51199406">
      </trkpt>
      <trkpt lat="52.05440046" lon="-118.51195048">
      </trkpt>
      <trkpt lat="52.05441473" lon="-118.5119124">
      </trkpt>
      <trkpt lat="52.0544319" lon="-118.51185718">
      </trkpt>
      <trkpt lat="52.05443432" lon="-118.51183709">
      </trkpt>
      <trkpt lat="52.05444592" lon="-118.51180025">
      </trkpt>
      <trkpt lat="52.05445484" lon="-118.51178365">
      </trkpt>
      <trkpt lat="52.05446441" lon="-118.51175681">
      </trkpt>
      <trkpt lat="52.05447046" lon="-118.51174279">
      </trkpt>
      <trkpt lat="52.05447484" lon="-118.51173272">
      </trkpt>
      <trkpt lat="52.05448355" lon="-118.51170832">
      </trkpt>
      <trkpt lat="52.05449014" lon="-118.51168874">
      </trkpt>
      <trkpt lat="52.05449167" lon="-118.51166329">
      </trkpt>
      <trkpt lat="52.05449095" lon="-118.51164279">
      </trkpt>
      <trkpt lat="52.05448088" lon="-118.51163068">
      </trkpt>
      <trkpt lat="52.05446669" lon="-118.51163727">
      </trkpt>
      <trkpt lat="52.05445728" lon="-118.51164165">
      </trkpt>
      <trkpt lat="52.05444988" lon="-118.51163671">
      </trkpt>
      <trkpt lat="52.05443742" lon="-118.51162574">
      </trkpt>
      <trkpt lat="52.05442747" lon="-118.51161775">
      </trkpt>
      <trkpt lat="52.05441574" lon="-118.51160421">
      </trkpt>
      <trkpt lat="52.05440694" lon="-118.51160192">
      </trkpt>
      <trkpt lat="52.05439514" lon="-118.51159793">
      </trkpt>
      <trkpt lat="52.05438318" lon="-118.51159438">
      </trkpt>
      <trkpt lat="52.05437304" lon="-118.51158652">
      </trkpt>
      <trkpt lat="52.05436338" lon="-118.5115766">
      </trkpt>
      <trkpt lat="52.05435649" lon="-118.51157413">
      </trkpt>
    </trkseg>
  </trk>
</gpx>