<?xml version="1.0" encoding="UTF-8"?>
<gpx xmlns="http://www.topografix.com/GPX/1/1" xmlns:xsi="http://www.w3.org/2001/XMLSchema-instance" xsi:schemaLocation="http://www.topografix.com/GPX/1/1 http://www.topografix.com/GPX/1/1/gpx.xsd" version="1.1" creator="gpx.py -- https://github.com/tkrajina/gpxpy">
  <trk>
    <name>Pulpit Rock Trail</name>
    <trkseg>
      <trkpt lat="49.50058807" lon="-117.30157693">
      </trkpt>
      <trkpt lat="49.50056614" lon="-117.30167179">
      </trkpt>
      <trkpt lat="49.50057385" lon="-117.30176751">
      </trkpt>
      <trkpt lat="49.50059296" lon="-117.30189994">
      </trkpt>
      <trkpt lat="49.50059959" lon="-117.30203474">
      </trkpt>
      <trkpt lat="49.50060258" lon="-117.30217671">
      </trkpt>
      <trkpt lat="49.50061547" lon="-117.3022844">
      </trkpt>
      <trkpt lat="49.50065703" lon="-117.30232837">
      </trkpt>
      <trkpt lat="49.50068776" lon="-117.30229014">
      </trkpt>
      <trkpt lat="49.50071123" lon="-117.30221444">
      </trkpt>
      <trkpt lat="49.50072895" lon="-117.30217221">
      </trkpt>
      <trkpt lat="49.50076327" lon="-117.30217867">
      </trkpt>
      <trkpt lat="49.50081989" lon="-117.30225217">
      </trkpt>
      <trkpt lat="49.50083288" lon="-117.30225618">
      </trkpt>
      <trkpt lat="49.50085009" lon="-117.30220758">
      </trkpt>
      <trkpt lat="49.50086519" lon="-117.30218528">
      </trkpt>
      <trkpt lat="49.50087814" lon="-117.30224113">
      </trkpt>
      <trkpt lat="49.5009493" lon="-117.3023378">
      </trkpt>
      <trkpt lat="49.50097062" lon="-117.30234024">
      </trkpt>
      <trkpt lat="49.50099301" lon="-117.30230361">
      </trkpt>
      <trkpt lat="49.50101809" lon="-117.3021952">
      </trkpt>
      <trkpt lat="49.50103899" lon="-117.30208759">
      </trkpt>
      <trkpt lat="49.50105204" lon="-117.30203975">
      </trkpt>
      <trkpt lat="49.50108328" lon="-117.30200793">
      </trkpt>
      <trkpt lat="49.5011124" lon="-117.30200241">
      </trkpt>
      <trkpt lat="49.50112484" lon="-117.30205188">
      </trkpt>
      <trkpt lat="49.5011476" lon="-117.30217715">
      </trkpt>
      <trkpt lat="49.50117554" lon="-117.30231439">
      </trkpt>
      <trkpt lat="49.50119563" lon="-117.30251143">
      </trkpt>
      <trkpt lat="49.50121264" lon="-117.30267018">
      </trkpt>
      <trkpt lat="49.501226" lon="-117.3028361">
      </trkpt>
      <trkpt lat="49.50125493" lon="-117.30303795">
      </trkpt>
      <trkpt lat="49.50127394" lon="-117.30327406">
      </trkpt>
      <trkpt lat="49.50129459" lon="-117.30342564">
      </trkpt>
      <trkpt lat="49.50129659" lon="-117.30350302">
      </trkpt>
      <trkpt lat="49.50131998" lon="-117.30353098">
      </trkpt>
      <trkpt lat="49.50136996" lon="-117.30346968">
      </trkpt>
      <trkpt lat="49.50139405" lon="-117.30329667">
      </trkpt>
      <trkpt lat="49.50141604" lon="-117.30314997">
      </trkpt>
      <trkpt lat="49.50143432" lon="-117.30306229">
      </trkpt>
      <trkpt lat="49.50146925" lon="-117.30297144">
      </trkpt>
      <trkpt lat="49.50150573" lon="-117.30289975">
      </trkpt>
      <trkpt lat="49.5015112" lon="-117.30278147">
      </trkpt>
      <trkpt lat="49.50151662" lon="-117.30269058">
      </trkpt>
      <trkpt lat="49.5015698" lon="-117.30258435">
      </trkpt>
      <trkpt lat="49.50161134" lon="-117.30250137">
      </trkpt>
      <trkpt lat="49.50164741" lon="-117.3024293">
      </trkpt>
      <trkpt lat="49.50166935" lon="-117.30238548">
      </trkpt>
      <trkpt lat="49.50174123" lon="-117.30234727">
      </trkpt>
      <trkpt lat="49.50180668" lon="-117.30231248">
      </trkpt>
      <trkpt lat="49.50184841" lon="-117.30233343">
      </trkpt>
      <trkpt lat="49.50183713" lon="-117.30248479">
      </trkpt>
      <trkpt lat="49.50182664" lon="-117.30262547">
      </trkpt>
      <trkpt lat="49.5018219" lon="-117.30268907">
      </trkpt>
      <trkpt lat="49.50181531" lon="-117.30277751">
      </trkpt>
      <trkpt lat="49.50180849" lon="-117.30286896">
      </trkpt>
      <trkpt lat="49.50180368" lon="-117.30293356">
      </trkpt>
      <trkpt lat="49.50177847" lon="-117.30305476">
      </trkpt>
      <trkpt lat="49.50175864" lon="-117.30315017">
      </trkpt>
      <trkpt lat="49.50173586" lon="-117.30325969">
      </trkpt>
      <trkpt lat="49.50172284" lon="-117.3033223">
      </trkpt>
      <trkpt lat="49.50174718" lon="-117.30346531">
      </trkpt>
      <trkpt lat="49.50177188" lon="-117.30361044">
      </trkpt>
      <trkpt lat="49.50178239" lon="-117.30367211">
      </trkpt>
      <trkpt lat="49.50179105" lon="-117.30372302">
      </trkpt>
      <trkpt lat="49.50177228" lon="-117.30381077">
      </trkpt>
      <trkpt lat="49.50179995" lon="-117.30384876">
      </trkpt>
      <trkpt lat="49.50188863" lon="-117.30382499">
      </trkpt>
      <trkpt lat="49.50189667" lon="-117.30376505">
      </trkpt>
      <trkpt lat="49.50188917" lon="-117.30371953">
      </trkpt>
      <trkpt lat="49.50187678" lon="-117.30364454">
      </trkpt>
      <trkpt lat="49.50195121" lon="-117.30349737">
      </trkpt>
      <trkpt lat="49.50201636" lon="-117.30340612">
      </trkpt>
      <trkpt lat="49.50205188" lon="-117.30340524">
      </trkpt>
      <trkpt lat="49.50204275" lon="-117.30352404">
      </trkpt>
      <trkpt lat="49.50203268" lon="-117.30365511">
      </trkpt>
      <trkpt lat="49.50203737" lon="-117.30370042">
      </trkpt>
      <trkpt lat="49.50203219" lon="-117.30382505">
      </trkpt>
      <trkpt lat="49.50200833" lon="-117.30398795">
      </trkpt>
      <trkpt lat="49.50198768" lon="-117.30412899">
      </trkpt>
      <trkpt lat="49.50200384" lon="-117.30420954">
      </trkpt>
      <trkpt lat="49.50202691" lon="-117.3043245">
      </trkpt>
      <trkpt lat="49.50204614" lon="-117.3044203">
      </trkpt>
      <trkpt lat="49.50200707" lon="-117.3045251">
      </trkpt>
      <trkpt lat="49.50196129" lon="-117.3046479">
      </trkpt>
      <trkpt lat="49.50191802" lon="-117.30476402">
      </trkpt>
      <trkpt lat="49.50188055" lon="-117.30486452">
      </trkpt>
      <trkpt lat="49.5018655" lon="-117.30490489">
      </trkpt>
      <trkpt lat="49.50187105" lon="-117.30507825">
      </trkpt>
      <trkpt lat="49.50187495" lon="-117.30519995">
      </trkpt>
      <trkpt lat="49.50187908" lon="-117.30532898">
      </trkpt>
      <trkpt lat="49.50188137" lon="-117.3054003">
      </trkpt>
      <trkpt lat="49.50184715" lon="-117.3055326">
      </trkpt>
      <trkpt lat="49.50182211" lon="-117.30562946">
      </trkpt>
      <trkpt lat="49.50180414" lon="-117.30569896">
      </trkpt>
      <trkpt lat="49.50186145" lon="-117.30569447">
      </trkpt>
      <trkpt lat="49.50194919" lon="-117.30568758">
      </trkpt>
      <trkpt lat="49.50198123" lon="-117.30563437">
      </trkpt>
      <trkpt lat="49.50202936" lon="-117.30555447">
      </trkpt>
      <trkpt lat="49.50206699" lon="-117.30542608">
      </trkpt>
      <trkpt lat="49.50212281" lon="-117.30519714">
      </trkpt>
      <trkpt lat="49.50214163" lon="-117.30511991">
      </trkpt>
      <trkpt lat="49.50218676" lon="-117.30509068">
      </trkpt>
      <trkpt lat="49.50221849" lon="-117.30507013">
      </trkpt>
      <trkpt lat="49.50225612" lon="-117.30497395">
      </trkpt>
      <trkpt lat="49.50230304" lon="-117.30485406">
      </trkpt>
      <trkpt lat="49.5023372" lon="-117.30476676">
      </trkpt>
      <trkpt lat="49.50236137" lon="-117.30478451">
      </trkpt>
      <trkpt lat="49.50235426" lon="-117.30482951">
      </trkpt>
      <trkpt lat="49.50233921" lon="-117.3049246">
      </trkpt>
      <trkpt lat="49.50232471" lon="-117.30504467">
      </trkpt>
      <trkpt lat="49.50231147" lon="-117.3052103">
      </trkpt>
      <trkpt lat="49.50230157" lon="-117.30533414">
      </trkpt>
      <trkpt lat="49.50229107" lon="-117.30550372">
      </trkpt>
      <trkpt lat="49.50230242" lon="-117.30557167">
      </trkpt>
      <trkpt lat="49.50232731" lon="-117.30572075">
      </trkpt>
      <trkpt lat="49.50235282" lon="-117.30587344">
      </trkpt>
      <trkpt lat="49.50234619" lon="-117.30592252">
      </trkpt>
      <trkpt lat="49.50233166" lon="-117.30603005">
      </trkpt>
      <trkpt lat="49.50230991" lon="-117.30619103">
      </trkpt>
      <trkpt lat="49.50227919" lon="-117.30626289">
      </trkpt>
      <trkpt lat="49.50222991" lon="-117.30637817">
      </trkpt>
      <trkpt lat="49.50214631" lon="-117.30649318">
      </trkpt>
      <trkpt lat="49.50206065" lon="-117.30661102">
      </trkpt>
      <trkpt lat="49.50197266" lon="-117.3067214">
      </trkpt>
      <trkpt lat="49.50187446" lon="-117.3068385">
      </trkpt>
      <trkpt lat="49.5018109" lon="-117.3069143">
      </trkpt>
      <trkpt lat="49.50177615" lon="-117.30707296">
      </trkpt>
      <trkpt lat="49.50172844" lon="-117.30719164">
      </trkpt>
      <trkpt lat="49.50162949" lon="-117.30743783">
      </trkpt>
      <trkpt lat="49.5015587" lon="-117.30761394">
      </trkpt>
      <trkpt lat="49.50153572" lon="-117.30781902">
      </trkpt>
      <trkpt lat="49.50152206" lon="-117.30798576">
      </trkpt>
      <trkpt lat="49.50150699" lon="-117.30816981">
      </trkpt>
      <trkpt lat="49.50148619" lon="-117.30842362">
      </trkpt>
      <trkpt lat="49.50146803" lon="-117.3085778">
      </trkpt>
      <trkpt lat="49.50144239" lon="-117.30877111">
      </trkpt>
      <trkpt lat="49.50143023" lon="-117.30886277">
      </trkpt>
      <trkpt lat="49.50142141" lon="-117.3089293">
      </trkpt>
      <trkpt lat="49.50147568" lon="-117.30889853">
      </trkpt>
      <trkpt lat="49.50152037" lon="-117.30881105">
      </trkpt>
      <trkpt lat="49.50158985" lon="-117.30867507">
      </trkpt>
      <trkpt lat="49.50166296" lon="-117.30853198">
      </trkpt>
      <trkpt lat="49.50171627" lon="-117.30845006">
      </trkpt>
      <trkpt lat="49.50176727" lon="-117.30837169">
      </trkpt>
      <trkpt lat="49.50178264" lon="-117.30837135">
      </trkpt>
      <trkpt lat="49.50175757" lon="-117.30848309">
      </trkpt>
      <trkpt lat="49.50173806" lon="-117.30856999">
      </trkpt>
      <trkpt lat="49.50170325" lon="-117.30872512">
      </trkpt>
      <trkpt lat="49.50169126" lon="-117.30883452">
      </trkpt>
      <trkpt lat="49.5016904" lon="-117.30896368">
      </trkpt>
      <trkpt lat="49.50168981" lon="-117.30905461">
      </trkpt>
      <trkpt lat="49.50168921" lon="-117.30914422">
      </trkpt>
      <trkpt lat="49.50165937" lon="-117.30926006">
      </trkpt>
      <trkpt lat="49.50163606" lon="-117.30935053">
      </trkpt>
      <trkpt lat="49.50169414" lon="-117.30928894">
      </trkpt>
      <trkpt lat="49.50178215" lon="-117.30919562">
      </trkpt>
      <trkpt lat="49.50184924" lon="-117.30909466">
      </trkpt>
      <trkpt lat="49.50192176" lon="-117.30896591">
      </trkpt>
      <trkpt lat="49.50197383" lon="-117.30885235">
      </trkpt>
      <trkpt lat="49.50201505" lon="-117.30876246">
      </trkpt>
      <trkpt lat="49.50203405" lon="-117.3087778">
      </trkpt>
      <trkpt lat="49.50203905" lon="-117.3088999">
      </trkpt>
      <trkpt lat="49.50204459" lon="-117.3090352">
      </trkpt>
      <trkpt lat="49.5020461" lon="-117.30918158">
      </trkpt>
      <trkpt lat="49.50203527" lon="-117.30930581">
      </trkpt>
      <trkpt lat="49.50201769" lon="-117.30939322">
      </trkpt>
      <trkpt lat="49.50200113" lon="-117.30947558">
      </trkpt>
      <trkpt lat="49.50204038" lon="-117.30946732">
      </trkpt>
      <trkpt lat="49.50212083" lon="-117.30937343">
      </trkpt>
      <trkpt lat="49.50222795" lon="-117.30924842">
      </trkpt>
      <trkpt lat="49.50229514" lon="-117.30917002">
      </trkpt>
      <trkpt lat="49.50233034" lon="-117.30908716">
      </trkpt>
      <trkpt lat="49.50236637" lon="-117.30900235">
      </trkpt>
      <trkpt lat="49.50240839" lon="-117.30890347">
      </trkpt>
      <trkpt lat="49.50239617" lon="-117.30900404">
      </trkpt>
      <trkpt lat="49.50238187" lon="-117.30912177">
      </trkpt>
      <trkpt lat="49.50236731" lon="-117.30924169">
      </trkpt>
      <trkpt lat="49.50234418" lon="-117.30943202">
      </trkpt>
      <trkpt lat="49.50233205" lon="-117.30953197">
      </trkpt>
      <trkpt lat="49.50230848" lon="-117.30967385">
      </trkpt>
      <trkpt lat="49.50227133" lon="-117.30984257">
      </trkpt>
      <trkpt lat="49.50224554" lon="-117.30995967">
      </trkpt>
      <trkpt lat="49.50222996" lon="-117.31003041">
      </trkpt>
      <trkpt lat="49.50221111" lon="-117.31011606">
      </trkpt>
      <trkpt lat="49.50228216" lon="-117.31006627">
      </trkpt>
      <trkpt lat="49.50237984" lon="-117.30998806">
      </trkpt>
      <trkpt lat="49.50242844" lon="-117.30990784">
      </trkpt>
      <trkpt lat="49.50248357" lon="-117.30981686">
      </trkpt>
      <trkpt lat="49.5025167" lon="-117.309794">
      </trkpt>
      <trkpt lat="49.50255342" lon="-117.30976869">
      </trkpt>
      <trkpt lat="49.50252426" lon="-117.30986716">
      </trkpt>
      <trkpt lat="49.50249927" lon="-117.30995154">
      </trkpt>
      <trkpt lat="49.50246237" lon="-117.31007616">
      </trkpt>
      <trkpt lat="49.50243205" lon="-117.31017853">
      </trkpt>
      <trkpt lat="49.50238286" lon="-117.31027725">
      </trkpt>
      <trkpt lat="49.50233318" lon="-117.31040349">
      </trkpt>
      <trkpt lat="49.50221397" lon="-117.31048516">
      </trkpt>
      <trkpt lat="49.50218268" lon="-117.31054367">
      </trkpt>
      <trkpt lat="49.50213371" lon="-117.31063522">
      </trkpt>
      <trkpt lat="49.50209138" lon="-117.31071436">
      </trkpt>
      <trkpt lat="49.50195072" lon="-117.31079259">
      </trkpt>
      <trkpt lat="49.50189173" lon="-117.3108254">
      </trkpt>
      <trkpt lat="49.50182471" lon="-117.31080267">
      </trkpt>
      <trkpt lat="49.50171976" lon="-117.31076708">
      </trkpt>
      <trkpt lat="49.50160765" lon="-117.31082319">
      </trkpt>
      <trkpt lat="49.50155921" lon="-117.31084743">
      </trkpt>
      <trkpt lat="49.50153687" lon="-117.31093358">
      </trkpt>
      <trkpt lat="49.50151484" lon="-117.31106565">
      </trkpt>
      <trkpt lat="49.50150402" lon="-117.31113049">
      </trkpt>
      <trkpt lat="49.50151191" lon="-117.3112078">
      </trkpt>
      <trkpt lat="49.5015596" lon="-117.31129448">
      </trkpt>
      <trkpt lat="49.50160942" lon="-117.31138498">
      </trkpt>
      <trkpt lat="49.50169235" lon="-117.31149855">
      </trkpt>
      <trkpt lat="49.5017372" lon="-117.31154843">
      </trkpt>
      <trkpt lat="49.50179783" lon="-117.31161587">
      </trkpt>
      <trkpt lat="49.50186279" lon="-117.3116881">
      </trkpt>
      <trkpt lat="49.50188975" lon="-117.31177599">
      </trkpt>
      <trkpt lat="49.50190917" lon="-117.31185673">
      </trkpt>
      <trkpt lat="49.50193196" lon="-117.31195134">
      </trkpt>
      <trkpt lat="49.50191895" lon="-117.31204344">
      </trkpt>
      <trkpt lat="49.50187709" lon="-117.31217936">
      </trkpt>
      <trkpt lat="49.5018328" lon="-117.31232271">
      </trkpt>
      <trkpt lat="49.50178672" lon="-117.31247189">
      </trkpt>
      <trkpt lat="49.50174152" lon="-117.31261815">
      </trkpt>
      <trkpt lat="49.50169415" lon="-117.31277145">
      </trkpt>
      <trkpt lat="49.50163894" lon="-117.31294636">
      </trkpt>
      <trkpt lat="49.50157987" lon="-117.31307606">
      </trkpt>
      <trkpt lat="49.50150996" lon="-117.31322956">
      </trkpt>
      <trkpt lat="49.50144173" lon="-117.3133794">
      </trkpt>
      <trkpt lat="49.50138207" lon="-117.31349746">
      </trkpt>
      <trkpt lat="49.50128702" lon="-117.31358737">
      </trkpt>
      <trkpt lat="49.50123167" lon="-117.31368963">
      </trkpt>
      <trkpt lat="49.50116255" lon="-117.31376327">
      </trkpt>
      <trkpt lat="49.50108242" lon="-117.3137809">
      </trkpt>
      <trkpt lat="49.50098826" lon="-117.31386995">
      </trkpt>
      <trkpt lat="49.50090184" lon="-117.31392554">
      </trkpt>
      <trkpt lat="49.50082936" lon="-117.31395434">
      </trkpt>
      <trkpt lat="49.50076016" lon="-117.31398184">
      </trkpt>
      <trkpt lat="49.50063423" lon="-117.31402894">
      </trkpt>
      <trkpt lat="49.5005612" lon="-117.31405439">
      </trkpt>
      <trkpt lat="49.50046497" lon="-117.31408792">
      </trkpt>
      <trkpt lat="49.5003539" lon="-117.31412663">
      </trkpt>
      <trkpt lat="49.50025766" lon="-117.31416017">
      </trkpt>
      <trkpt lat="49.5001348" lon="-117.31420297">
      </trkpt>
      <trkpt lat="49.500039" lon="-117.31420958">
      </trkpt>
      <trkpt lat="49.4999758" lon="-117.31420841">
      </trkpt>
      <trkpt lat="49.49991207" lon="-117.31420723">
      </trkpt>
      <trkpt lat="49.49987942" lon="-117.31420662">
      </trkpt>
      <trkpt lat="49.4998209" lon="-117.31417485">
      </trkpt>
      <trkpt lat="49.4997781" lon="-117.31415099">
      </trkpt>
      <trkpt lat="49.4997221" lon="-117.31411978">
      </trkpt>
      <trkpt lat="49.4996842" lon="-117.31409864">
      </trkpt>
      <trkpt lat="49.4996415" lon="-117.31405853">
      </trkpt>
      <trkpt lat="49.49961487" lon="-117.31401991">
      </trkpt>
      <trkpt lat="49.49957859" lon="-117.31397981">
      </trkpt>
      <trkpt lat="49.49954577" lon="-117.31399921">
      </trkpt>
      <trkpt lat="49.49948544" lon="-117.31403488">
      </trkpt>
      <trkpt lat="49.49943399" lon="-117.3140653">
      </trkpt>
      <trkpt lat="49.49937722" lon="-117.31409888">
      </trkpt>
      <trkpt lat="49.49931245" lon="-117.31413716">
      </trkpt>
      <trkpt lat="49.49923835" lon="-117.314125">
      </trkpt>
      <trkpt lat="49.49919751" lon="-117.31416043">
      </trkpt>
      <trkpt lat="49.49919082" lon="-117.31424517">
      </trkpt>
      <trkpt lat="49.49914593" lon="-117.31423593">
      </trkpt>
      <trkpt lat="49.49914278" lon="-117.31421724">
      </trkpt>
      <trkpt lat="49.49909031" lon="-117.31412487">
      </trkpt>
      <trkpt lat="49.49907442" lon="-117.31397644">
      </trkpt>
      <trkpt lat="49.49907212" lon="-117.31384968">
      </trkpt>
      <trkpt lat="49.49910178" lon="-117.31372867">
      </trkpt>
      <trkpt lat="49.49914321" lon="-117.31354008">
      </trkpt>
      <trkpt lat="49.49917678" lon="-117.31338723">
      </trkpt>
      <trkpt lat="49.49921541" lon="-117.31321137">
      </trkpt>
      <trkpt lat="49.4992563" lon="-117.31302525">
      </trkpt>
      <trkpt lat="49.4992882" lon="-117.31288">
      </trkpt>
      <trkpt lat="49.49932011" lon="-117.31273476">
      </trkpt>
      <trkpt lat="49.4993531" lon="-117.31258457">
      </trkpt>
      <trkpt lat="49.49933093" lon="-117.31253597">
      </trkpt>
      <trkpt lat="49.49927067" lon="-117.31248002">
      </trkpt>
      <trkpt lat="49.49918797" lon="-117.31240324">
      </trkpt>
      <trkpt lat="49.49910472" lon="-117.31232595">
      </trkpt>
      <trkpt lat="49.49901297" lon="-117.31223813">
      </trkpt>
      <trkpt lat="49.49895054" lon="-117.31216085">
      </trkpt>
      <trkpt lat="49.49886632" lon="-117.31205659">
      </trkpt>
      <trkpt lat="49.49882539" lon="-117.31200591">
      </trkpt>
      <trkpt lat="49.49881882" lon="-117.31193987">
      </trkpt>
      <trkpt lat="49.49884424" lon="-117.31181333">
      </trkpt>
      <trkpt lat="49.49886018" lon="-117.31173397">
      </trkpt>
      <trkpt lat="49.49888186" lon="-117.31162604">
      </trkpt>
      <trkpt lat="49.4988963" lon="-117.31153392">
      </trkpt>
      <trkpt lat="49.49889564" lon="-117.31143238">
      </trkpt>
      <trkpt lat="49.49889502" lon="-117.31133614">
      </trkpt>
      <trkpt lat="49.49886831" lon="-117.31122462">
      </trkpt>
      <trkpt lat="49.49881524" lon="-117.31118938">
      </trkpt>
      <trkpt lat="49.49879502" lon="-117.31117595">
      </trkpt>
      <trkpt lat="49.4988299" lon="-117.311125">
      </trkpt>
      <trkpt lat="49.49887137" lon="-117.3110644">
      </trkpt>
      <trkpt lat="49.49891732" lon="-117.31099725">
      </trkpt>
      <trkpt lat="49.49892434" lon="-117.31094152">
      </trkpt>
      <trkpt lat="49.49887151" lon="-117.31087952">
      </trkpt>
      <trkpt lat="49.49875033" lon="-117.31073734">
      </trkpt>
      <trkpt lat="49.4987128" lon="-117.3106933">
      </trkpt>
      <trkpt lat="49.49870437" lon="-117.31056546">
      </trkpt>
      <trkpt lat="49.49870848" lon="-117.31045754">
      </trkpt>
      <trkpt lat="49.49865521" lon="-117.31038516">
      </trkpt>
    </trkseg>
    <trkseg>
      <trkpt lat="49.50189173" lon="-117.3108254">
      </trkpt>
      <trkpt lat="49.50196198" lon="-117.31087747">
      </trkpt>
      <trkpt lat="49.50201395" lon="-117.31090988">
      </trkpt>
      <trkpt lat="49.50205242" lon="-117.31097301">
      </trkpt>
      <trkpt lat="49.50210869" lon="-117.31109142">
      </trkpt>
      <trkpt lat="49.50214076" lon="-117.31115893">
      </trkpt>
      <trkpt lat="49.50220403" lon="-117.31121925">
      </trkpt>
      <trkpt lat="49.50226912" lon="-117.31127735">
      </trkpt>
      <trkpt lat="49.5023558" lon="-117.31135689">
      </trkpt>
      <trkpt lat="49.50241492" lon="-117.31141665">
      </trkpt>
      <trkpt lat="49.5024685" lon="-117.31145573">
      </trkpt>
      <trkpt lat="49.502538" lon="-117.3114127">
      </trkpt>
      <trkpt lat="49.50260086" lon="-117.31138063">
      </trkpt>
      <trkpt lat="49.50263787" lon="-117.3114052">
      </trkpt>
      <trkpt lat="49.50270233" lon="-117.31144798">
      </trkpt>
      <trkpt lat="49.50274846" lon="-117.31147797">
      </trkpt>
      <trkpt lat="49.50281848" lon="-117.3114009">
      </trkpt>
      <trkpt lat="49.50288044" lon="-117.31135006">
      </trkpt>
      <trkpt lat="49.50299056" lon="-117.31134529">
      </trkpt>
      <trkpt lat="49.50302555" lon="-117.31139973">
      </trkpt>
      <trkpt lat="49.50306506" lon="-117.31144037">
      </trkpt>
      <trkpt lat="49.50307535" lon="-117.31134983">
      </trkpt>
      <trkpt lat="49.50310972" lon="-117.31131542">
      </trkpt>
      <trkpt lat="49.50312545" lon="-117.31129965">
      </trkpt>
      <trkpt lat="49.50317556" lon="-117.31131354">
      </trkpt>
      <trkpt lat="49.50324959" lon="-117.31136447">
      </trkpt>
      <trkpt lat="49.50330349" lon="-117.31140975">
      </trkpt>
      <trkpt lat="49.50335845" lon="-117.31136547">
      </trkpt>
      <trkpt lat="49.50344204" lon="-117.31135612">
      </trkpt>
      <trkpt lat="49.50352512" lon="-117.3113404">
      </trkpt>
      <trkpt lat="49.50360138" lon="-117.31139711">
      </trkpt>
      <trkpt lat="49.50365948" lon="-117.31143787">
      </trkpt>
      <trkpt lat="49.50372281" lon="-117.31143882">
      </trkpt>
      <trkpt lat="49.50375086" lon="-117.31142058">
      </trkpt>
      <trkpt lat="49.50378245" lon="-117.31149869">
      </trkpt>
      <trkpt lat="49.50382501" lon="-117.31150356">
      </trkpt>
      <trkpt lat="49.50386296" lon="-117.31145112">
      </trkpt>
      <trkpt lat="49.50392993" lon="-117.31144491">
      </trkpt>
      <trkpt lat="49.50397199" lon="-117.31144342">
      </trkpt>
      <trkpt lat="49.50400414" lon="-117.31147614">
      </trkpt>
      <trkpt lat="49.50405604" lon="-117.31149219">
      </trkpt>
      <trkpt lat="49.50408973" lon="-117.31154403">
      </trkpt>
      <trkpt lat="49.50411927" lon="-117.31159665">
      </trkpt>
      <trkpt lat="49.50416906" lon="-117.31163898">
      </trkpt>
      <trkpt lat="49.50420854" lon="-117.31160563">
      </trkpt>
      <trkpt lat="49.50423717" lon="-117.31154201">
      </trkpt>
      <trkpt lat="49.50426675" lon="-117.31154288">
      </trkpt>
      <trkpt lat="49.50429794" lon="-117.31151111">
      </trkpt>
      <trkpt lat="49.50432446" lon="-117.31147375">
      </trkpt>
      <trkpt lat="49.50437112" lon="-117.31152961">
      </trkpt>
      <trkpt lat="49.50441988" lon="-117.31155919">
      </trkpt>
      <trkpt lat="49.50447804" lon="-117.31154819">
      </trkpt>
      <trkpt lat="49.50452943" lon="-117.31155787">
      </trkpt>
      <trkpt lat="49.50457245" lon="-117.31162087">
      </trkpt>
      <trkpt lat="49.50464255" lon="-117.31160115">
      </trkpt>
      <trkpt lat="49.50468778" lon="-117.31153438">
      </trkpt>
      <trkpt lat="49.50474025" lon="-117.31150505">
      </trkpt>
      <trkpt lat="49.50476614" lon="-117.31156482">
      </trkpt>
      <trkpt lat="49.50479465" lon="-117.31160471">
      </trkpt>
      <trkpt lat="49.50484706" lon="-117.31162713">
      </trkpt>
      <trkpt lat="49.50490676" lon="-117.31163525">
      </trkpt>
      <trkpt lat="49.5049747" lon="-117.31169353">
      </trkpt>
      <trkpt lat="49.50500372" lon="-117.31173979">
      </trkpt>
      <trkpt lat="49.50504783" lon="-117.31176378">
      </trkpt>
      <trkpt lat="49.50506034" lon="-117.31170967">
      </trkpt>
      <trkpt lat="49.50506353" lon="-117.31164439">
      </trkpt>
      <trkpt lat="49.50509937" lon="-117.3116182">
      </trkpt>
      <trkpt lat="49.50515491" lon="-117.3116271">
      </trkpt>
      <trkpt lat="49.50518769" lon="-117.31156269">
      </trkpt>
      <trkpt lat="49.50521995" lon="-117.31149191">
      </trkpt>
      <trkpt lat="49.50526364" lon="-117.31140603">
      </trkpt>
      <trkpt lat="49.50529903" lon="-117.31132171">
      </trkpt>
      <trkpt lat="49.5053453" lon="-117.31126769">
      </trkpt>
      <trkpt lat="49.50539469" lon="-117.31120013">
      </trkpt>
      <trkpt lat="49.50543059" lon="-117.3111222">
      </trkpt>
      <trkpt lat="49.50546177" lon="-117.31109043">
      </trkpt>
      <trkpt lat="49.5055028" lon="-117.3110762">
      </trkpt>
      <trkpt lat="49.50552311" lon="-117.31101415">
      </trkpt>
      <trkpt lat="49.50555332" lon="-117.31091788">
      </trkpt>
      <trkpt lat="49.50557574" lon="-117.31082955">
      </trkpt>
      <trkpt lat="49.50558621" lon="-117.31074995">
      </trkpt>
      <trkpt lat="49.50560498" lon="-117.3106688">
      </trkpt>
      <trkpt lat="49.50564139" lon="-117.31059722">
      </trkpt>
      <trkpt lat="49.50568298" lon="-117.31053761">
      </trkpt>
      <trkpt lat="49.5057095" lon="-117.31050026">
      </trkpt>
      <trkpt lat="49.50572612" lon="-117.31049711">
      </trkpt>
      <trkpt lat="49.50575058" lon="-117.31043427">
      </trkpt>
      <trkpt lat="49.50578284" lon="-117.31036348">
      </trkpt>
      <trkpt lat="49.50581817" lon="-117.31033093">
      </trkpt>
      <trkpt lat="49.50589028" lon="-117.31038843">
      </trkpt>
      <trkpt lat="49.50593745" lon="-117.31045065">
      </trkpt>
      <trkpt lat="49.50596647" lon="-117.3104969">
      </trkpt>
      <trkpt lat="49.50600073" lon="-117.31050335">
      </trkpt>
      <trkpt lat="49.50604068" lon="-117.31052814">
      </trkpt>
      <trkpt lat="49.50608581" lon="-117.31056487">
      </trkpt>
      <trkpt lat="49.50614493" lon="-117.31061836">
      </trkpt>
      <trkpt lat="49.50618903" lon="-117.31064236">
      </trkpt>
      <trkpt lat="49.50621856" lon="-117.31069498">
      </trkpt>
      <trkpt lat="49.50625903" lon="-117.31072615">
      </trkpt>
      <trkpt lat="49.506298" lon="-117.31068643">
      </trkpt>
      <trkpt lat="49.50634262" lon="-117.31071679">
      </trkpt>
      <trkpt lat="49.50637477" lon="-117.31074951">
      </trkpt>
      <trkpt lat="49.50642923" lon="-117.31079742">
      </trkpt>
      <trkpt lat="49.50647128" lon="-117.31079593">
      </trkpt>
      <trkpt lat="49.50650195" lon="-117.31075779">
      </trkpt>
      <trkpt lat="49.50650718" lon="-117.310718">
      </trkpt>
      <trkpt lat="49.50652807" lon="-117.31061055">
      </trkpt>
      <trkpt lat="49.50656032" lon="-117.31053977">
      </trkpt>
      <trkpt lat="49.50660402" lon="-117.31045389">
      </trkpt>
      <trkpt lat="49.50663418" lon="-117.31040937">
      </trkpt>
      <trkpt lat="49.50666422" lon="-117.31046837">
      </trkpt>
      <trkpt lat="49.50671459" lon="-117.31046531">
      </trkpt>
      <trkpt lat="49.50677587" lon="-117.31044077">
      </trkpt>
      <trkpt lat="49.50684495" lon="-117.3104083">
      </trkpt>
      <trkpt lat="49.50688182" lon="-117.31039485">
      </trkpt>
      <trkpt lat="49.50690772" lon="-117.31045464">
      </trkpt>
      <trkpt lat="49.50694658" lon="-117.31051843">
      </trkpt>
      <trkpt lat="49.50699171" lon="-117.31055517">
      </trkpt>
      <trkpt lat="49.50705709" lon="-117.31058161">
      </trkpt>
      <trkpt lat="49.50712406" lon="-117.3105754">
      </trkpt>
      <trkpt lat="49.50716401" lon="-117.31060018">
      </trkpt>
      <trkpt lat="49.50722006" lon="-117.31061545">
      </trkpt>
      <trkpt lat="49.50728135" lon="-117.31059092">
      </trkpt>
      <trkpt lat="49.50737222" lon="-117.31056725">
      </trkpt>
      <trkpt lat="49.50743818" lon="-117.3105483">
      </trkpt>
      <trkpt lat="49.50748956" lon="-117.31055799">
      </trkpt>
      <trkpt lat="49.50754094" lon="-117.31056766">
      </trkpt>
      <trkpt lat="49.50758504" lon="-117.31059167">
      </trkpt>
      <trkpt lat="49.50763688" lon="-117.31065947">
      </trkpt>
      <trkpt lat="49.50766443" lon="-117.31063485">
      </trkpt>
      <trkpt lat="49.50766504" lon="-117.31053772">
      </trkpt>
      <trkpt lat="49.50766464" lon="-117.31042784">
      </trkpt>
      <trkpt lat="49.5076787" lon="-117.31039283">
      </trkpt>
      <trkpt lat="49.50770828" lon="-117.31039371">
      </trkpt>
      <trkpt lat="49.50776326" lon="-117.31044799">
      </trkpt>
      <trkpt lat="49.50780423" lon="-117.3104855">
      </trkpt>
      <trkpt lat="49.50784412" lon="-117.31056205">
      </trkpt>
      <trkpt lat="49.50789392" lon="-117.31060437">
      </trkpt>
      <trkpt lat="49.50794325" lon="-117.31058857">
      </trkpt>
      <trkpt lat="49.50793535" lon="-117.31070002">
      </trkpt>
      <trkpt lat="49.50794186" lon="-117.3108152">
      </trkpt>
      <trkpt lat="49.50794579" lon="-117.31086624">
      </trkpt>
      <trkpt lat="49.5079396" lon="-117.31097901">
      </trkpt>
      <trkpt lat="49.50793289" lon="-117.31102216">
      </trkpt>
      <trkpt lat="49.50795207" lon="-117.31107303">
      </trkpt>
      <trkpt lat="49.50800673" lon="-117.3111345">
      </trkpt>
      <trkpt lat="49.50806629" lon="-117.3112015">
      </trkpt>
      <trkpt lat="49.50813545" lon="-117.31128015">
      </trkpt>
      <trkpt lat="49.50820393" lon="-117.31135957">
      </trkpt>
      <trkpt lat="49.50824409" lon="-117.31140615">
      </trkpt>
      <trkpt lat="49.50825764" lon="-117.31147371">
      </trkpt>
      <trkpt lat="49.50826122" lon="-117.31152476">
      </trkpt>
      <trkpt lat="49.5082039" lon="-117.31159676">
      </trkpt>
      <trkpt lat="49.50815241" lon="-117.31162969">
      </trkpt>
      <trkpt lat="49.5080852" lon="-117.31168705">
      </trkpt>
      <trkpt lat="49.50802631" lon="-117.31177148">
      </trkpt>
      <trkpt lat="49.50795685" lon="-117.31187109">
      </trkpt>
      <trkpt lat="49.50789716" lon="-117.31183654">
      </trkpt>
      <trkpt lat="49.50784457" lon="-117.3118917">
      </trkpt>
      <trkpt lat="49.50778947" lon="-117.31192595">
      </trkpt>
      <trkpt lat="49.50773803" lon="-117.31194594">
      </trkpt>
      <trkpt lat="49.50773251" lon="-117.31200499">
      </trkpt>
      <trkpt lat="49.50772487" lon="-117.31208691">
      </trkpt>
      <trkpt lat="49.50765635" lon="-117.31218723">
      </trkpt>
      <trkpt lat="49.50763341" lon="-117.3122319">
      </trkpt>
      <trkpt lat="49.5076416" lon="-117.31233384">
      </trkpt>
      <trkpt lat="49.50765646" lon="-117.31251861">
      </trkpt>
      <trkpt lat="49.50766773" lon="-117.31265877">
      </trkpt>
      <trkpt lat="49.50768054" lon="-117.31281806">
      </trkpt>
      <trkpt lat="49.50769642" lon="-117.31301557">
      </trkpt>
      <trkpt lat="49.50770411" lon="-117.31311114">
      </trkpt>
      <trkpt lat="49.50768949" lon="-117.31320412">
      </trkpt>
      <trkpt lat="49.50766153" lon="-117.3132627">
      </trkpt>
      <trkpt lat="49.50760583" lon="-117.31337942">
      </trkpt>
      <trkpt lat="49.50755344" lon="-117.31344514">
      </trkpt>
      <trkpt lat="49.50747764" lon="-117.31346821">
      </trkpt>
      <trkpt lat="49.5074483" lon="-117.31345593">
      </trkpt>
      <trkpt lat="49.50736995" lon="-117.31341671">
      </trkpt>
      <trkpt lat="49.50729711" lon="-117.31338026">
      </trkpt>
      <trkpt lat="49.50723991" lon="-117.31335162">
      </trkpt>
      <trkpt lat="49.50716469" lon="-117.31338781">
      </trkpt>
      <trkpt lat="49.50711905" lon="-117.3133447">
      </trkpt>
      <trkpt lat="49.50710834" lon="-117.31325618">
      </trkpt>
      <trkpt lat="49.50707138" lon="-117.31321024">
      </trkpt>
      <trkpt lat="49.50703791" lon="-117.31323557">
      </trkpt>
      <trkpt lat="49.50700731" lon="-117.31333758">
      </trkpt>
      <trkpt lat="49.50696227" lon="-117.31348775">
      </trkpt>
      <trkpt lat="49.50693201" lon="-117.31358858">
      </trkpt>
      <trkpt lat="49.50689696" lon="-117.31370547">
      </trkpt>
      <trkpt lat="49.50685877" lon="-117.31383273">
      </trkpt>
      <trkpt lat="49.50680698" lon="-117.31392197">
      </trkpt>
      <trkpt lat="49.50674054" lon="-117.3139343">
      </trkpt>
      <trkpt lat="49.50664546" lon="-117.31392257">
      </trkpt>
      <trkpt lat="49.50654789" lon="-117.31387228">
      </trkpt>
      <trkpt lat="49.50644503" lon="-117.31381925">
      </trkpt>
      <trkpt lat="49.5063901" lon="-117.31379094">
      </trkpt>
      <trkpt lat="49.50627801" lon="-117.31372736">
      </trkpt>
      <trkpt lat="49.50625434" lon="-117.31365259">
      </trkpt>
      <trkpt lat="49.50622598" lon="-117.31356301">
      </trkpt>
      <trkpt lat="49.50618196" lon="-117.31342399">
      </trkpt>
      <trkpt lat="49.50611658" lon="-117.31335968">
      </trkpt>
      <trkpt lat="49.5060933" lon="-117.31328">
      </trkpt>
      <trkpt lat="49.50610346" lon="-117.31315834">
      </trkpt>
      <trkpt lat="49.50609374" lon="-117.31308902">
      </trkpt>
      <trkpt lat="49.50608234" lon="-117.31300776">
      </trkpt>
      <trkpt lat="49.50602495" lon="-117.31295922">
      </trkpt>
      <trkpt lat="49.50595917" lon="-117.31292761">
      </trkpt>
      <trkpt lat="49.50589812" lon="-117.3128681">
      </trkpt>
      <trkpt lat="49.50582674" lon="-117.3127631">
      </trkpt>
      <trkpt lat="49.50577955" lon="-117.31269371">
      </trkpt>
      <trkpt lat="49.50573662" lon="-117.31263056">
      </trkpt>
      <trkpt lat="49.50566628" lon="-117.3125271">
      </trkpt>
      <trkpt lat="49.50562291" lon="-117.31246332">
      </trkpt>
      <trkpt lat="49.50559147" lon="-117.31243384">
      </trkpt>
      <trkpt lat="49.50552992" lon="-117.31242633">
      </trkpt>
      <trkpt lat="49.50547269" lon="-117.31238823">
      </trkpt>
      <trkpt lat="49.50539891" lon="-117.31233912">
      </trkpt>
      <trkpt lat="49.50533098" lon="-117.3122939">
      </trkpt>
      <trkpt lat="49.50526657" lon="-117.31225812">
      </trkpt>
      <trkpt lat="49.50521754" lon="-117.31223983">
      </trkpt>
      <trkpt lat="49.50516943" lon="-117.31222189">
      </trkpt>
      <trkpt lat="49.50513654" lon="-117.31221931">
      </trkpt>
      <trkpt lat="49.50514719" lon="-117.31231988">
      </trkpt>
      <trkpt lat="49.50515663" lon="-117.31240901">
      </trkpt>
      <trkpt lat="49.50517609" lon="-117.31259287">
      </trkpt>
      <trkpt lat="49.50519419" lon="-117.31276382">
      </trkpt>
      <trkpt lat="49.50520695" lon="-117.31291824">
      </trkpt>
      <trkpt lat="49.50521586" lon="-117.31311648">
      </trkpt>
      <trkpt lat="49.50522563" lon="-117.31333389">
      </trkpt>
      <trkpt lat="49.50523194" lon="-117.31347423">
      </trkpt>
      <trkpt lat="49.50523564" lon="-117.31355667">
      </trkpt>
      <trkpt lat="49.5052391" lon="-117.31363376">
      </trkpt>
      <trkpt lat="49.50521349" lon="-117.3136663">
      </trkpt>
      <trkpt lat="49.50517905" lon="-117.3136059">
      </trkpt>
      <trkpt lat="49.50512489" lon="-117.31351092">
      </trkpt>
      <trkpt lat="49.50507603" lon="-117.31342525">
      </trkpt>
      <trkpt lat="49.50504086" lon="-117.31336356">
      </trkpt>
      <trkpt lat="49.50500395" lon="-117.31329883">
      </trkpt>
      <trkpt lat="49.50494645" lon="-117.31325839">
      </trkpt>
      <trkpt lat="49.50488389" lon="-117.3132144">
      </trkpt>
      <trkpt lat="49.50475922" lon="-117.31318029">
      </trkpt>
      <trkpt lat="49.50469902" lon="-117.3131658">
      </trkpt>
      <trkpt lat="49.50461837" lon="-117.31314638">
      </trkpt>
      <trkpt lat="49.5045298" lon="-117.31310071">
      </trkpt>
      <trkpt lat="49.5044601" lon="-117.31305378">
      </trkpt>
      <trkpt lat="49.50440428" lon="-117.3130162">
      </trkpt>
      <trkpt lat="49.50433356" lon="-117.31294014">
      </trkpt>
      <trkpt lat="49.50427732" lon="-117.31286021">
      </trkpt>
      <trkpt lat="49.50422343" lon="-117.31278363">
      </trkpt>
      <trkpt lat="49.5041515" lon="-117.31268141">
      </trkpt>
      <trkpt lat="49.50407844" lon="-117.31258481">
      </trkpt>
      <trkpt lat="49.50397566" lon="-117.31248937">
      </trkpt>
      <trkpt lat="49.50390348" lon="-117.31242234">
      </trkpt>
      <trkpt lat="49.50381742" lon="-117.3123424">
      </trkpt>
      <trkpt lat="49.5037593" lon="-117.31228843">
      </trkpt>
      <trkpt lat="49.50370908" lon="-117.31224293">
      </trkpt>
      <trkpt lat="49.50363962" lon="-117.31221676">
      </trkpt>
      <trkpt lat="49.50357107" lon="-117.31219094">
      </trkpt>
      <trkpt lat="49.50351388" lon="-117.31207358">
      </trkpt>
      <trkpt lat="49.5034796" lon="-117.31198017">
      </trkpt>
      <trkpt lat="49.50343683" lon="-117.31186365">
      </trkpt>
      <trkpt lat="49.50340713" lon="-117.31178271">
      </trkpt>
      <trkpt lat="49.5033765" lon="-117.31168328">
      </trkpt>
      <trkpt lat="49.50334619" lon="-117.31156969">
      </trkpt>
      <trkpt lat="49.50330349" lon="-117.31140975">
      </trkpt>
    </trkseg>
    <trkseg>
      <trkpt lat="49.50794325" lon="-117.31058857">
      </trkpt>
      <trkpt lat="49.50803676" lon="-117.31054989">
      </trkpt>
      <trkpt lat="49.50810347" lon="-117.31052973">
      </trkpt>
      <trkpt lat="49.50819856" lon="-117.310501">
      </trkpt>
      <trkpt lat="49.50825352" lon="-117.31044864">
      </trkpt>
      <trkpt lat="49.50831615" lon="-117.31037946">
      </trkpt>
      <trkpt lat="49.50836764" lon="-117.31032258">
      </trkpt>
      <trkpt lat="49.5084382" lon="-117.31030893">
      </trkpt>
      <trkpt lat="49.50849624" lon="-117.31028312">
      </trkpt>
      <trkpt lat="49.50855017" lon="-117.31018046">
      </trkpt>
      <trkpt lat="49.50860853" lon="-117.31011519">
      </trkpt>
      <trkpt lat="49.50866916" lon="-117.31007466">
      </trkpt>
      <trkpt lat="49.5087268" lon="-117.30998935">
      </trkpt>
      <trkpt lat="49.50877189" lon="-117.30989418">
      </trkpt>
      <trkpt lat="49.50882212" lon="-117.30978811">
      </trkpt>
      <trkpt lat="49.50888786" lon="-117.30969368">
      </trkpt>
      <trkpt lat="49.50893931" lon="-117.30971719">
      </trkpt>
      <trkpt lat="49.50902727" lon="-117.30975739">
      </trkpt>
      <trkpt lat="49.50913522" lon="-117.30980674">
      </trkpt>
      <trkpt lat="49.50920047" lon="-117.30990093">
      </trkpt>
      <trkpt lat="49.50925498" lon="-117.31000481">
      </trkpt>
      <trkpt lat="49.50930365" lon="-117.31009756">
      </trkpt>
      <trkpt lat="49.50939357" lon="-117.31014213">
      </trkpt>
      <trkpt lat="49.50947619" lon="-117.31017617">
      </trkpt>
      <trkpt lat="49.50954149" lon="-117.3102031">
      </trkpt>
      <trkpt lat="49.50960715" lon="-117.31026183">
      </trkpt>
      <trkpt lat="49.50964841" lon="-117.3103251">
      </trkpt>
      <trkpt lat="49.50970529" lon="-117.31038408">
      </trkpt>
      <trkpt lat="49.50977793" lon="-117.31039652">
      </trkpt>
      <trkpt lat="49.50983343" lon="-117.31040602">
      </trkpt>
      <trkpt lat="49.50987696" lon="-117.31044704">
      </trkpt>
      <trkpt lat="49.50993435" lon="-117.31049535">
      </trkpt>
      <trkpt lat="49.51000885" lon="-117.31047722">
      </trkpt>
      <trkpt lat="49.51006684" lon="-117.31046309">
      </trkpt>
      <trkpt lat="49.51012212" lon="-117.3104876">
      </trkpt>
      <trkpt lat="49.51018596" lon="-117.31053869">
      </trkpt>
      <trkpt lat="49.5102434" lon="-117.31057009">
      </trkpt>
      <trkpt lat="49.51032386" lon="-117.31057356">
      </trkpt>
      <trkpt lat="49.51039957" lon="-117.31057684">
      </trkpt>
      <trkpt lat="49.51048169" lon="-117.31057058">
      </trkpt>
      <trkpt lat="49.51056394" lon="-117.31053021">
      </trkpt>
      <trkpt lat="49.51065476" lon="-117.31048563">
      </trkpt>
      <trkpt lat="49.51073993" lon="-117.31049275">
      </trkpt>
      <trkpt lat="49.51080805" lon="-117.3104104">
      </trkpt>
      <trkpt lat="49.51088639" lon="-117.31042622">
      </trkpt>
      <trkpt lat="49.51092315" lon="-117.31036862">
      </trkpt>
      <trkpt lat="49.51096434" lon="-117.31029051">
      </trkpt>
      <trkpt lat="49.51100451" lon="-117.31018373">
      </trkpt>
      <trkpt lat="49.51104007" lon="-117.31008919">
      </trkpt>
      <trkpt lat="49.51110451" lon="-117.31001914">
      </trkpt>
      <trkpt lat="49.51118779" lon="-117.30997648">
      </trkpt>
      <trkpt lat="49.51125753" lon="-117.30996823">
      </trkpt>
      <trkpt lat="49.51133365" lon="-117.30999704">
      </trkpt>
      <trkpt lat="49.51141687" lon="-117.31006258">
      </trkpt>
      <trkpt lat="49.51147315" lon="-117.3101231">
      </trkpt>
      <trkpt lat="49.51153582" lon="-117.3101905">
      </trkpt>
      <trkpt lat="49.5115944" lon="-117.3102535">
      </trkpt>
      <trkpt lat="49.51166076" lon="-117.31027124">
      </trkpt>
      <trkpt lat="49.51171764" lon="-117.31031009">
      </trkpt>
      <trkpt lat="49.5117723" lon="-117.31039043">
      </trkpt>
      <trkpt lat="49.51183737" lon="-117.31048608">
      </trkpt>
      <trkpt lat="49.51188605" lon="-117.31055762">
      </trkpt>
      <trkpt lat="49.51194261" lon="-117.31055981">
      </trkpt>
      <trkpt lat="49.51201705" lon="-117.31053867">
      </trkpt>
      <trkpt lat="49.51208277" lon="-117.31052001">
      </trkpt>
      <trkpt lat="49.51213618" lon="-117.31050484">
      </trkpt>
      <trkpt lat="49.5121978" lon="-117.31048734">
      </trkpt>
      <trkpt lat="49.51223725" lon="-117.31054634">
      </trkpt>
      <trkpt lat="49.51226105" lon="-117.31060666">
      </trkpt>
      <trkpt lat="49.51233477" lon="-117.31060407">
      </trkpt>
      <trkpt lat="49.51242488" lon="-117.31057681">
      </trkpt>
      <trkpt lat="49.5125106" lon="-117.3105509">
      </trkpt>
      <trkpt lat="49.51259707" lon="-117.3105212">
      </trkpt>
      <trkpt lat="49.51266654" lon="-117.31049434">
      </trkpt>
      <trkpt lat="49.51273198" lon="-117.31046905">
      </trkpt>
      <trkpt lat="49.51280207" lon="-117.31046317">
      </trkpt>
      <trkpt lat="49.51285606" lon="-117.31048868">
      </trkpt>
      <trkpt lat="49.51299941" lon="-117.31055641">
      </trkpt>
      <trkpt lat="49.51307176" lon="-117.31059485">
      </trkpt>
      <trkpt lat="49.51313407" lon="-117.31058306">
      </trkpt>
      <trkpt lat="49.51317046" lon="-117.31048415">
      </trkpt>
      <trkpt lat="49.51321086" lon="-117.31046524">
      </trkpt>
      <trkpt lat="49.51325651" lon="-117.31044571">
      </trkpt>
      <trkpt lat="49.51330594" lon="-117.31042455">
      </trkpt>
      <trkpt lat="49.51336699" lon="-117.3104559">
      </trkpt>
      <trkpt lat="49.51343229" lon="-117.31052583">
      </trkpt>
      <trkpt lat="49.51351167" lon="-117.31061012">
      </trkpt>
      <trkpt lat="49.51361625" lon="-117.31067828">
      </trkpt>
      <trkpt lat="49.51369608" lon="-117.31073031">
      </trkpt>
      <trkpt lat="49.51376012" lon="-117.31077205">
      </trkpt>
      <trkpt lat="49.51385873" lon="-117.31083426">
      </trkpt>
      <trkpt lat="49.51394791" lon="-117.31088674">
      </trkpt>
      <trkpt lat="49.5140516" lon="-117.31093239">
      </trkpt>
      <trkpt lat="49.51413987" lon="-117.31092971">
      </trkpt>
      <trkpt lat="49.51423188" lon="-117.31092691">
      </trkpt>
      <trkpt lat="49.51432953" lon="-117.31091303">
      </trkpt>
      <trkpt lat="49.51440753" lon="-117.31089053">
      </trkpt>
      <trkpt lat="49.51449374" lon="-117.31086563">
      </trkpt>
      <trkpt lat="49.51461278" lon="-117.31083127">
      </trkpt>
      <trkpt lat="49.51468008" lon="-117.31083533">
      </trkpt>
      <trkpt lat="49.51474057" lon="-117.31090154">
      </trkpt>
      <trkpt lat="49.51479372" lon="-117.31095973">
      </trkpt>
      <trkpt lat="49.51485793" lon="-117.31104635">
      </trkpt>
      <trkpt lat="49.51491362" lon="-117.31110576">
      </trkpt>
      <trkpt lat="49.51499409" lon="-117.31110618">
      </trkpt>
      <trkpt lat="49.51506935" lon="-117.31110658">
      </trkpt>
      <trkpt lat="49.51512628" lon="-117.31112393">
      </trkpt>
      <trkpt lat="49.51518461" lon="-117.3111846">
      </trkpt>
      <trkpt lat="49.51525338" lon="-117.31125611">
      </trkpt>
      <trkpt lat="49.51531725" lon="-117.31132254">
      </trkpt>
      <trkpt lat="49.51536791" lon="-117.31134133">
      </trkpt>
      <trkpt lat="49.51543863" lon="-117.31134681">
      </trkpt>
      <trkpt lat="49.51551662" lon="-117.3113958">
      </trkpt>
      <trkpt lat="49.51559742" lon="-117.3114632">
      </trkpt>
      <trkpt lat="49.51565212" lon="-117.31150883">
      </trkpt>
      <trkpt lat="49.51572663" lon="-117.31145869">
      </trkpt>
      <trkpt lat="49.51580302" lon="-117.3113949">
      </trkpt>
      <trkpt lat="49.51585152" lon="-117.3113544">
      </trkpt>
      <trkpt lat="49.51589114" lon="-117.31138533">
      </trkpt>
      <trkpt lat="49.51594427" lon="-117.31144287">
      </trkpt>
      <trkpt lat="49.51600235" lon="-117.31145816">
      </trkpt>
      <trkpt lat="49.51606233" lon="-117.31138173">
      </trkpt>
      <trkpt lat="49.51611689" lon="-117.31131222">
      </trkpt>
      <trkpt lat="49.51615452" lon="-117.3112561">
      </trkpt>
      <trkpt lat="49.51617681" lon="-117.31117372">
      </trkpt>
      <trkpt lat="49.51621064" lon="-117.31104869">
      </trkpt>
      <trkpt lat="49.51624368" lon="-117.31092658">
      </trkpt>
      <trkpt lat="49.51628704" lon="-117.31081428">
      </trkpt>
      <trkpt lat="49.51633085" lon="-117.31070631">
      </trkpt>
      <trkpt lat="49.5163652" lon="-117.31062165">
      </trkpt>
      <trkpt lat="49.5164259" lon="-117.31061477">
      </trkpt>
      <trkpt lat="49.51646443" lon="-117.31057339">
      </trkpt>
      <trkpt lat="49.51651041" lon="-117.31046025">
      </trkpt>
      <trkpt lat="49.51654704" lon="-117.31037012">
      </trkpt>
      <trkpt lat="49.51658818" lon="-117.31026887">
      </trkpt>
      <trkpt lat="49.51662036" lon="-117.31018969">
      </trkpt>
      <trkpt lat="49.51669357" lon="-117.31022837">
      </trkpt>
      <trkpt lat="49.51676755" lon="-117.31024948">
      </trkpt>
      <trkpt lat="49.5168668" lon="-117.31022704">
      </trkpt>
      <trkpt lat="49.51697058" lon="-117.31020356">
      </trkpt>
      <trkpt lat="49.51707291" lon="-117.31019461">
      </trkpt>
      <trkpt lat="49.51716454" lon="-117.31021352">
      </trkpt>
      <trkpt lat="49.51726103" lon="-117.31023341">
      </trkpt>
      <trkpt lat="49.51733766" lon="-117.31024923">
      </trkpt>
      <trkpt lat="49.51740633" lon="-117.31017745">
      </trkpt>
      <trkpt lat="49.51752003" lon="-117.3100506">
      </trkpt>
      <trkpt lat="49.5176133" lon="-117.30994652">
      </trkpt>
      <trkpt lat="49.51770657" lon="-117.30984244">
      </trkpt>
      <trkpt lat="49.51779861" lon="-117.30979191">
      </trkpt>
      <trkpt lat="49.51787506" lon="-117.30975021">
      </trkpt>
      <trkpt lat="49.5179474" lon="-117.30967774">
      </trkpt>
      <trkpt lat="49.51801702" lon="-117.30958325">
      </trkpt>
      <trkpt lat="49.51807311" lon="-117.30958398">
      </trkpt>
      <trkpt lat="49.51814325" lon="-117.3096141">
      </trkpt>
      <trkpt lat="49.51825177" lon="-117.30966068">
      </trkpt>
      <trkpt lat="49.51835773" lon="-117.30971032">
      </trkpt>
      <trkpt lat="49.51845098" lon="-117.3098222">
      </trkpt>
      <trkpt lat="49.51855207" lon="-117.30993764">
      </trkpt>
      <trkpt lat="49.5186101" lon="-117.30999875">
      </trkpt>
      <trkpt lat="49.51862116" lon="-117.31008071">
      </trkpt>
      <trkpt lat="49.5186116" lon="-117.31013697">
      </trkpt>
      <trkpt lat="49.51859565" lon="-117.3102307">
      </trkpt>
      <trkpt lat="49.51864532" lon="-117.31030199">
      </trkpt>
      <trkpt lat="49.51873652" lon="-117.31042544">
      </trkpt>
      <trkpt lat="49.51882748" lon="-117.31054077">
      </trkpt>
      <trkpt lat="49.51892252" lon="-117.31065876">
      </trkpt>
      <trkpt lat="49.51901099" lon="-117.31078042">
      </trkpt>
      <trkpt lat="49.51905872" lon="-117.31085693">
      </trkpt>
      <trkpt lat="49.51910207" lon="-117.31090859">
      </trkpt>
      <trkpt lat="49.51917517" lon="-117.31091257">
      </trkpt>
      <trkpt lat="49.51926459" lon="-117.31091743">
      </trkpt>
      <trkpt lat="49.51934099" lon="-117.31092159">
      </trkpt>
      <trkpt lat="49.51945458" lon="-117.31092777">
      </trkpt>
      <trkpt lat="49.51952335" lon="-117.31093151">
      </trkpt>
      <trkpt lat="49.5195924" lon="-117.31101218">
      </trkpt>
      <trkpt lat="49.51963984" lon="-117.31107492">
      </trkpt>
      <trkpt lat="49.51970584" lon="-117.31109163">
      </trkpt>
      <trkpt lat="49.51976943" lon="-117.31115921">
      </trkpt>
      <trkpt lat="49.51979187" lon="-117.31122886">
      </trkpt>
      <trkpt lat="49.51984261" lon="-117.31127693">
      </trkpt>
      <trkpt lat="49.51990387" lon="-117.31129914">
      </trkpt>
      <trkpt lat="49.51995431" lon="-117.31124686">
      </trkpt>
      <trkpt lat="49.52000663" lon="-117.31119262">
      </trkpt>
      <trkpt lat="49.52004117" lon="-117.31123502">
      </trkpt>
      <trkpt lat="49.52010808" lon="-117.31128437">
      </trkpt>
      <trkpt lat="49.52016277" lon="-117.31122896">
      </trkpt>
      <trkpt lat="49.52024279" lon="-117.31114785">
      </trkpt>
      <trkpt lat="49.52028789" lon="-117.31110992">
      </trkpt>
      <trkpt lat="49.52035663" lon="-117.31112744">
      </trkpt>
      <trkpt lat="49.52042053" lon="-117.31114676">
      </trkpt>
      <trkpt lat="49.52047048" lon="-117.31121288">
      </trkpt>
      <trkpt lat="49.52054838" lon="-117.31120414">
      </trkpt>
      <trkpt lat="49.52061587" lon="-117.31119657">
      </trkpt>
      <trkpt lat="49.52069456" lon="-117.31118774">
      </trkpt>
      <trkpt lat="49.52076489" lon="-117.31121902">
      </trkpt>
      <trkpt lat="49.5208214" lon="-117.31126465">
      </trkpt>
      <trkpt lat="49.52088173" lon="-117.31131334">
      </trkpt>
      <trkpt lat="49.52096567" lon="-117.31135331">
      </trkpt>
      <trkpt lat="49.52103565" lon="-117.31128705">
      </trkpt>
      <trkpt lat="49.52112705" lon="-117.31120051">
      </trkpt>
      <trkpt lat="49.52120075" lon="-117.31113075">
      </trkpt>
      <trkpt lat="49.52127041" lon="-117.31106481">
      </trkpt>
      <trkpt lat="49.52131535" lon="-117.31103272">
      </trkpt>
      <trkpt lat="49.52138945" lon="-117.31108236">
      </trkpt>
      <trkpt lat="49.52146507" lon="-117.31113302">
      </trkpt>
      <trkpt lat="49.52154481" lon="-117.31118644">
      </trkpt>
      <trkpt lat="49.52162168" lon="-117.31123794">
      </trkpt>
      <trkpt lat="49.5216765" lon="-117.31132698">
      </trkpt>
      <trkpt lat="49.52172535" lon="-117.31140634">
      </trkpt>
      <trkpt lat="49.52177924" lon="-117.31149387">
      </trkpt>
      <trkpt lat="49.52186821" lon="-117.31154693">
      </trkpt>
      <trkpt lat="49.52195136" lon="-117.31155141">
      </trkpt>
      <trkpt lat="49.52202481" lon="-117.31147448">
      </trkpt>
      <trkpt lat="49.52210791" lon="-117.31138743">
      </trkpt>
      <trkpt lat="49.52217728" lon="-117.31131478">
      </trkpt>
      <trkpt lat="49.52226807" lon="-117.3112197">
      </trkpt>
      <trkpt lat="49.52233022" lon="-117.31114666">
      </trkpt>
      <trkpt lat="49.52240772" lon="-117.31102132">
      </trkpt>
      <trkpt lat="49.52248423" lon="-117.31089756">
      </trkpt>
      <trkpt lat="49.5225511" lon="-117.31078942">
      </trkpt>
      <trkpt lat="49.5226299" lon="-117.31066195">
      </trkpt>
      <trkpt lat="49.52268288" lon="-117.31057628">
      </trkpt>
      <trkpt lat="49.5227262" lon="-117.31050622">
      </trkpt>
      <trkpt lat="49.52277341" lon="-117.31056849">
      </trkpt>
      <trkpt lat="49.52282641" lon="-117.31067669">
      </trkpt>
      <trkpt lat="49.52286461" lon="-117.31075472">
      </trkpt>
      <trkpt lat="49.52290934" lon="-117.31074554">
      </trkpt>
      <trkpt lat="49.52297001" lon="-117.31066099">
      </trkpt>
      <trkpt lat="49.52301003" lon="-117.31065063">
      </trkpt>
      <trkpt lat="49.52306687" lon="-117.31068222">
      </trkpt>
      <trkpt lat="49.52312865" lon="-117.3106536">
      </trkpt>
      <trkpt lat="49.52319537" lon="-117.3106227">
      </trkpt>
      <trkpt lat="49.52327815" lon="-117.3106031">
      </trkpt>
      <trkpt lat="49.52336028" lon="-117.31059335">
      </trkpt>
      <trkpt lat="49.52343512" lon="-117.31061321">
      </trkpt>
      <trkpt lat="49.52351659" lon="-117.31063486">
      </trkpt>
      <trkpt lat="49.52359313" lon="-117.31065518">
      </trkpt>
      <trkpt lat="49.52365188" lon="-117.31067078">
      </trkpt>
      <trkpt lat="49.52370807" lon="-117.31067824">
      </trkpt>
      <trkpt lat="49.52375751" lon="-117.31062448">
      </trkpt>
      <trkpt lat="49.52382053" lon="-117.31055595">
      </trkpt>
      <trkpt lat="49.52389107" lon="-117.31047924">
      </trkpt>
      <trkpt lat="49.52395409" lon="-117.31041072">
      </trkpt>
      <trkpt lat="49.52400179" lon="-117.31035885">
      </trkpt>
      <trkpt lat="49.5240495" lon="-117.31030698">
      </trkpt>
      <trkpt lat="49.52414345" lon="-117.31020483">
      </trkpt>
      <trkpt lat="49.52424089" lon="-117.31017724">
      </trkpt>
      <trkpt lat="49.52438527" lon="-117.31014185">
      </trkpt>
      <trkpt lat="49.52450917" lon="-117.31011147">
      </trkpt>
      <trkpt lat="49.52460798" lon="-117.3101089">
      </trkpt>
      <trkpt lat="49.52469603" lon="-117.31015753">
      </trkpt>
      <trkpt lat="49.52478852" lon="-117.31020862">
      </trkpt>
      <trkpt lat="49.5248986" lon="-117.31026941">
      </trkpt>
      <trkpt lat="49.52501523" lon="-117.31033382">
      </trkpt>
      <trkpt lat="49.52511429" lon="-117.31038853">
      </trkpt>
      <trkpt lat="49.52522263" lon="-117.31045747">
      </trkpt>
      <trkpt lat="49.52529546" lon="-117.3105179">
      </trkpt>
      <trkpt lat="49.52535045" lon="-117.3105364">
      </trkpt>
      <trkpt lat="49.52541508" lon="-117.31055811">
      </trkpt>
      <trkpt lat="49.5254912" lon="-117.31056504">
      </trkpt>
      <trkpt lat="49.52555927" lon="-117.3105227">
      </trkpt>
      <trkpt lat="49.52563831" lon="-117.31047353">
      </trkpt>
      <trkpt lat="49.52572294" lon="-117.31042089">
      </trkpt>
      <trkpt lat="49.52582036" lon="-117.31036029">
      </trkpt>
      <trkpt lat="49.52592863" lon="-117.31032762">
      </trkpt>
      <trkpt lat="49.52604287" lon="-117.31030615">
      </trkpt>
      <trkpt lat="49.52614673" lon="-117.31028663">
      </trkpt>
      <trkpt lat="49.52623121" lon="-117.31022692">
      </trkpt>
      <trkpt lat="49.52628915" lon="-117.31018267">
      </trkpt>
      <trkpt lat="49.52631237" lon="-117.31012365">
      </trkpt>
      <trkpt lat="49.52632959" lon="-117.31003037">
      </trkpt>
      <trkpt lat="49.52639228" lon="-117.30993655">
      </trkpt>
      <trkpt lat="49.526465" lon="-117.30985795">
      </trkpt>
      <trkpt lat="49.52654726" lon="-117.30976903">
      </trkpt>
      <trkpt lat="49.52662571" lon="-117.30968389">
      </trkpt>
      <trkpt lat="49.52668999" lon="-117.30959396">
      </trkpt>
      <trkpt lat="49.52675964" lon="-117.30949647">
      </trkpt>
      <trkpt lat="49.52684007" lon="-117.3093839">
      </trkpt>
      <trkpt lat="49.52690935" lon="-117.30928694">
      </trkpt>
      <trkpt lat="49.52695181" lon="-117.30919707">
      </trkpt>
      <trkpt lat="49.52700629" lon="-117.30908175">
      </trkpt>
      <trkpt lat="49.52704984" lon="-117.30898958">
      </trkpt>
      <trkpt lat="49.52708891" lon="-117.3089069">
      </trkpt>
      <trkpt lat="49.52714331" lon="-117.30881027">
      </trkpt>
      <trkpt lat="49.52726408" lon="-117.30872963">
      </trkpt>
      <trkpt lat="49.52736198" lon="-117.30866963">
      </trkpt>
      <trkpt lat="49.52746517" lon="-117.30861334">
      </trkpt>
      <trkpt lat="49.52761969" lon="-117.30852906">
      </trkpt>
      <trkpt lat="49.52772982" lon="-117.30846898">
      </trkpt>
      <trkpt lat="49.52786242" lon="-117.30839665">
      </trkpt>
      <trkpt lat="49.52796039" lon="-117.30833986">
      </trkpt>
      <trkpt lat="49.52806079" lon="-117.30827944">
      </trkpt>
      <trkpt lat="49.52815561" lon="-117.30822237">
      </trkpt>
      <trkpt lat="49.52820508" lon="-117.30809489">
      </trkpt>
      <trkpt lat="49.52825815" lon="-117.30795819">
      </trkpt>
      <trkpt lat="49.52836851" lon="-117.30767388">
      </trkpt>
      <trkpt lat="49.52843918" lon="-117.3074918">
      </trkpt>
      <trkpt lat="49.52852337" lon="-117.30726878">
      </trkpt>
      <trkpt lat="49.52860076" lon="-117.30705311">
      </trkpt>
      <trkpt lat="49.5286694" lon="-117.3068618">
      </trkpt>
      <trkpt lat="49.52874411" lon="-117.30664477">
      </trkpt>
      <trkpt lat="49.52881242" lon="-117.30644296">
      </trkpt>
      <trkpt lat="49.5288934" lon="-117.30620373">
      </trkpt>
      <trkpt lat="49.52896837" lon="-117.30598777">
      </trkpt>
      <trkpt lat="49.52904137" lon="-117.30585283">
      </trkpt>
      <trkpt lat="49.52911237" lon="-117.30572159">
      </trkpt>
      <trkpt lat="49.52918094" lon="-117.30559486">
      </trkpt>
      <trkpt lat="49.52920901" lon="-117.30545102">
      </trkpt>
      <trkpt lat="49.52922521" lon="-117.30534686">
      </trkpt>
      <trkpt lat="49.52924541" lon="-117.30521703">
      </trkpt>
      <trkpt lat="49.52926191" lon="-117.30511446">
      </trkpt>
      <trkpt lat="49.52931749" lon="-117.3049756">
      </trkpt>
      <trkpt lat="49.52937523" lon="-117.3048314">
      </trkpt>
      <trkpt lat="49.52943418" lon="-117.30466806">
      </trkpt>
      <trkpt lat="49.52946685" lon="-117.30448083">
      </trkpt>
      <trkpt lat="49.52951457" lon="-117.30420731">
      </trkpt>
      <trkpt lat="49.52954909" lon="-117.30397889">
      </trkpt>
      <trkpt lat="49.52958531" lon="-117.30371834">
      </trkpt>
      <trkpt lat="49.52960845" lon="-117.30355197">
      </trkpt>
      <trkpt lat="49.52962813" lon="-117.30341044">
      </trkpt>
      <trkpt lat="49.52964951" lon="-117.30325661">
      </trkpt>
      <trkpt lat="49.52965174" lon="-117.30311158">
      </trkpt>
      <trkpt lat="49.52965189" lon="-117.3029662">
      </trkpt>
      <trkpt lat="49.52965203" lon="-117.30282081">
      </trkpt>
      <trkpt lat="49.52965983" lon="-117.3027091">
      </trkpt>
      <trkpt lat="49.52968699" lon="-117.30255795">
      </trkpt>
      <trkpt lat="49.52971052" lon="-117.30242701">
      </trkpt>
      <trkpt lat="49.52975483" lon="-117.30218038">
      </trkpt>
      <trkpt lat="49.52976925" lon="-117.30210476">
      </trkpt>
      <trkpt lat="49.52981515" lon="-117.30199486">
      </trkpt>
      <trkpt lat="49.52987082" lon="-117.30186162">
      </trkpt>
      <trkpt lat="49.52993263" lon="-117.30171367">
      </trkpt>
      <trkpt lat="49.53004723" lon="-117.30169847">
      </trkpt>
      <trkpt lat="49.53011056" lon="-117.30165285">
      </trkpt>
      <trkpt lat="49.53014087" lon="-117.30148658">
      </trkpt>
      <trkpt lat="49.53016305" lon="-117.30136913">
      </trkpt>
      <trkpt lat="49.53017206" lon="-117.30121081">
      </trkpt>
      <trkpt lat="49.53018673" lon="-117.3011102">
      </trkpt>
      <trkpt lat="49.53026966" lon="-117.30101614">
      </trkpt>
      <trkpt lat="49.53033867" lon="-117.30093138">
      </trkpt>
      <trkpt lat="49.53040751" lon="-117.30086979">
      </trkpt>
      <trkpt lat="49.53045488" lon="-117.3008689">
      </trkpt>
      <trkpt lat="49.53050846" lon="-117.30096552">
      </trkpt>
      <trkpt lat="49.53055395" lon="-117.30094506">
      </trkpt>
      <trkpt lat="49.53057966" lon="-117.3009335">
      </trkpt>
    </trkseg>
  </trk>
</gpx>