<?xml version="1.0" encoding="UTF-8"?>
<gpx xmlns="http://www.topografix.com/GPX/1/1" xmlns:xsi="http://www.w3.org/2001/XMLSchema-instance" xsi:schemaLocation="http://www.topografix.com/GPX/1/1 http://www.topografix.com/GPX/1/1/gpx.xsd" version="1.1" creator="gpx.py -- https://github.com/tkrajina/gpxpy">
  <trk>
    <name>Evening Ridge Trail</name>
    <trkseg>
      <trkpt lat="49.4427193" lon="-117.180748">
      </trkpt>
      <trkpt lat="49.4434189" lon="-117.1809286">
      </trkpt>
      <trkpt lat="49.4434887" lon="-117.181229">
      </trkpt>
      <trkpt lat="49.4444653" lon="-117.1818084">
      </trkpt>
      <trkpt lat="49.4447164" lon="-117.1823019">
      </trkpt>
      <trkpt lat="49.4447583" lon="-117.1829886">
      </trkpt>
      <trkpt lat="49.4437956" lon="-117.1863789">
      </trkpt>
      <trkpt lat="49.4437816" lon="-117.1867436">
      </trkpt>
      <trkpt lat="49.4454977" lon="-117.1875376">
      </trkpt>
      <trkpt lat="49.445693" lon="-117.187838">
      </trkpt>
      <trkpt lat="49.4447722" lon="-117.1889538">
      </trkpt>
      <trkpt lat="49.4446048" lon="-117.1893829">
      </trkpt>
      <trkpt lat="49.4450931" lon="-117.1896404">
      </trkpt>
      <trkpt lat="49.446251" lon="-117.1898336">
      </trkpt>
      <trkpt lat="49.445679" lon="-117.1905417">
      </trkpt>
      <trkpt lat="49.4453721" lon="-117.1910352">
      </trkpt>
      <trkpt lat="49.4462546" lon="-117.1913542">
      </trkpt>
      <trkpt lat="49.4464231" lon="-117.1924109">
      </trkpt>
      <trkpt lat="49.4466175" lon="-117.1929293">
      </trkpt>
      <trkpt lat="49.4469545" lon="-117.1931685">
      </trkpt>
      <trkpt lat="49.4464231" lon="-117.1938663">
      </trkpt>
      <trkpt lat="49.4472786" lon="-117.1940258">
      </trkpt>
      <trkpt lat="49.4469157" lon="-117.1945442">
      </trkpt>
      <trkpt lat="49.4467731" lon="-117.1950028">
      </trkpt>
      <trkpt lat="49.4470453" lon="-117.195242">
      </trkpt>
      <trkpt lat="49.4473823" lon="-117.1951025">
      </trkpt>
      <trkpt lat="49.4473434" lon="-117.1958401">
      </trkpt>
      <trkpt lat="49.4478489" lon="-117.1957405">
      </trkpt>
      <trkpt lat="49.4477971" lon="-117.1966775">
      </trkpt>
      <trkpt lat="49.4480563" lon="-117.1969367">
      </trkpt>
      <trkpt lat="49.4481989" lon="-117.1986912">
      </trkpt>
      <trkpt lat="49.4482767" lon="-117.1988109">
      </trkpt>
      <trkpt lat="49.4487174" lon="-117.1988906">
      </trkpt>
      <trkpt lat="49.4477746" lon="-117.2002179">
      </trkpt>
    </trkseg>
  </trk>
</gpx>