<?xml version="1.0" encoding="UTF-8"?>
<gpx xmlns="http://www.topografix.com/GPX/1/1" xmlns:xsi="http://www.w3.org/2001/XMLSchema-instance" xsi:schemaLocation="http://www.topografix.com/GPX/1/1 http://www.topografix.com/GPX/1/1/gpx.xsd" version="1.1" creator="gpx.py -- https://github.com/tkrajina/gpxpy">
  <trk>
    <name>Trash Chutes Skin Track</name>
    <trkseg>
      <trkpt lat="49.4350657" lon="-117.1548508">
      </trkpt>
      <trkpt lat="49.4342906" lon="-117.1547141">
      </trkpt>
      <trkpt lat="49.4338859" lon="-117.1553578">
      </trkpt>
      <trkpt lat="49.433244" lon="-117.1547355">
      </trkpt>
      <trkpt lat="49.4327277" lon="-117.154993">
      </trkpt>
      <trkpt lat="49.4321137" lon="-117.1557655">
      </trkpt>
      <trkpt lat="49.4314159" lon="-117.1566453">
      </trkpt>
      <trkpt lat="49.4304041" lon="-117.1578362">
      </trkpt>
      <trkpt lat="49.4299506" lon="-117.1589519">
      </trkpt>
      <trkpt lat="49.4296226" lon="-117.1604755">
      </trkpt>
      <trkpt lat="49.4290644" lon="-117.1613981">
      </trkpt>
      <trkpt lat="49.4288481" lon="-117.1631255">
      </trkpt>
      <trkpt lat="49.4284459" lon="-117.1640963">
      </trkpt>
      <trkpt lat="49.4286248" lon="-117.1668377">
      </trkpt>
      <trkpt lat="49.4293784" lon="-117.1690907">
      </trkpt>
      <trkpt lat="49.4304111" lon="-117.171215">
      </trkpt>
      <trkpt lat="49.4315694" lon="-117.1726098">
      </trkpt>
      <trkpt lat="49.4321137" lon="-117.1733179">
      </trkpt>
      <trkpt lat="49.4326439" lon="-117.1760645">
      </trkpt>
    </trkseg>
  </trk>
</gpx>