<?xml version="1.0" encoding="UTF-8"?>
<gpx xmlns="http://www.topografix.com/GPX/1/1" xmlns:xsi="http://www.w3.org/2001/XMLSchema-instance" xsi:schemaLocation="http://www.topografix.com/GPX/1/1 http://www.topografix.com/GPX/1/1/gpx.xsd" version="1.1" creator="gpx.py -- https://github.com/tkrajina/gpxpy">
  <trk>
    <name>5 Mile Basin</name>
    <trkseg>
      <trkpt lat="49.4460663" lon="-117.1342584">
      </trkpt>
      <trkpt lat="49.4461193" lon="-117.1341682">
      </trkpt>
      <trkpt lat="49.4458661" lon="-117.1315478">
      </trkpt>
      <trkpt lat="49.4458856" lon="-117.13147">
      </trkpt>
      <trkpt lat="49.4459287" lon="-117.1314633">
      </trkpt>
      <trkpt lat="49.4463108" lon="-117.132087">
      </trkpt>
      <trkpt lat="49.446448" lon="-117.1320761">
      </trkpt>
      <trkpt lat="49.4465121" lon="-117.131887">
      </trkpt>
      <trkpt lat="49.4460038" lon="-117.1308103">
      </trkpt>
      <trkpt lat="49.4450301" lon="-117.1296139">
      </trkpt>
      <trkpt lat="49.4446924" lon="-117.1290024">
      </trkpt>
      <trkpt lat="49.4444158" lon="-117.128436">
      </trkpt>
      <trkpt lat="49.444203" lon="-117.128436">
      </trkpt>
      <trkpt lat="49.4441403" lon="-117.1283555">
      </trkpt>
      <trkpt lat="49.4441647" lon="-117.1279049">
      </trkpt>
      <trkpt lat="49.4441263" lon="-117.1278459">
      </trkpt>
      <trkpt lat="49.4439624" lon="-117.1278459">
      </trkpt>
      <trkpt lat="49.4438787" lon="-117.127744">
      </trkpt>
      <trkpt lat="49.4438996" lon="-117.1274704">
      </trkpt>
      <trkpt lat="49.4438089" lon="-117.1274328">
      </trkpt>
      <trkpt lat="49.4438473" lon="-117.1272504">
      </trkpt>
      <trkpt lat="49.4437287" lon="-117.1272343">
      </trkpt>
      <trkpt lat="49.443795" lon="-117.1270037">
      </trkpt>
      <trkpt lat="49.4437357" lon="-117.1269018">
      </trkpt>
      <trkpt lat="49.4435124" lon="-117.1267676">
      </trkpt>
      <trkpt lat="49.4435194" lon="-117.1265531">
      </trkpt>
      <trkpt lat="49.4432857" lon="-117.1264726">
      </trkpt>
      <trkpt lat="49.4431078" lon="-117.1259201">
      </trkpt>
      <trkpt lat="49.4427985" lon="-117.1252473">
      </trkpt>
      <trkpt lat="49.4419847" lon="-117.1245843">
      </trkpt>
      <trkpt lat="49.4418498" lon="-117.1242576">
      </trkpt>
      <trkpt lat="49.4414284" lon="-117.1229911">
      </trkpt>
      <trkpt lat="49.4414127" lon="-117.1227872">
      </trkpt>
      <trkpt lat="49.4412103" lon="-117.1224707">
      </trkpt>
      <trkpt lat="49.441072" lon="-117.1220126">
      </trkpt>
      <trkpt lat="49.4410848" lon="-117.1216929">
      </trkpt>
      <trkpt lat="49.4412103" lon="-117.1211457">
      </trkpt>
      <trkpt lat="49.4414347" lon="-117.1205856">
      </trkpt>
      <trkpt lat="49.4414929" lon="-117.1197885">
      </trkpt>
      <trkpt lat="49.441451" lon="-117.1194774">
      </trkpt>
      <trkpt lat="49.4414371" lon="-117.118721">
      </trkpt>
      <trkpt lat="49.4416859" lon="-117.1177586">
      </trkpt>
      <trkpt lat="49.441737" lon="-117.1186513">
      </trkpt>
      <trkpt lat="49.4419777" lon="-117.1186191">
      </trkpt>
      <trkpt lat="49.4420475" lon="-117.1186942">
      </trkpt>
      <trkpt lat="49.4420126" lon="-117.1193218">
      </trkpt>
      <trkpt lat="49.441901" lon="-117.1199334">
      </trkpt>
      <trkpt lat="49.4420266" lon="-117.1198636">
      </trkpt>
      <trkpt lat="49.4420893" lon="-117.119987">
      </trkpt>
      <trkpt lat="49.4421783" lon="-117.1196839">
      </trkpt>
      <trkpt lat="49.4424137" lon="-117.1194023">
      </trkpt>
      <trkpt lat="49.4424224" lon="-117.1200192">
      </trkpt>
      <trkpt lat="49.4425096" lon="-117.1203384">
      </trkpt>
      <trkpt lat="49.4425707" lon="-117.1203411">
      </trkpt>
      <trkpt lat="49.4426928" lon="-117.1200943">
      </trkpt>
      <trkpt lat="49.4427172" lon="-117.1203947">
      </trkpt>
      <trkpt lat="49.4427521" lon="-117.1204484">
      </trkpt>
      <trkpt lat="49.4432299" lon="-117.1198797">
      </trkpt>
      <trkpt lat="49.443502" lon="-117.1193808">
      </trkpt>
      <trkpt lat="49.4438159" lon="-117.1191555">
      </trkpt>
      <trkpt lat="49.4437112" lon="-117.1196652">
      </trkpt>
      <trkpt lat="49.4436659" lon="-117.1201533">
      </trkpt>
      <trkpt lat="49.4437671" lon="-117.1205396">
      </trkpt>
      <trkpt lat="49.4440391" lon="-117.1200407">
      </trkpt>
      <trkpt lat="49.4443495" lon="-117.1197885">
      </trkpt>
      <trkpt lat="49.4442902" lon="-117.1203733">
      </trkpt>
      <trkpt lat="49.4444263" lon="-117.120325">
      </trkpt>
      <trkpt lat="49.444367" lon="-117.1207166">
      </trkpt>
      <trkpt lat="49.4444088" lon="-117.1208078">
      </trkpt>
      <trkpt lat="49.4446181" lon="-117.1206683">
      </trkpt>
      <trkpt lat="49.4446704" lon="-117.120738">
      </trkpt>
      <trkpt lat="49.4452041" lon="-117.1203196">
      </trkpt>
      <trkpt lat="49.4453401" lon="-117.120164">
      </trkpt>
      <trkpt lat="49.4458005" lon="-117.1200138">
      </trkpt>
      <trkpt lat="49.44564" lon="-117.1205825">
      </trkpt>
      <trkpt lat="49.445647" lon="-117.1208507">
      </trkpt>
      <trkpt lat="49.4457237" lon="-117.1209526">
      </trkpt>
      <trkpt lat="49.4459783" lon="-117.1207166">
      </trkpt>
      <trkpt lat="49.4463725" lon="-117.1205396">
      </trkpt>
      <trkpt lat="49.4468817" lon="-117.1207434">
      </trkpt>
      <trkpt lat="49.4467073" lon="-117.1209365">
      </trkpt>
      <trkpt lat="49.4465887" lon="-117.1211833">
      </trkpt>
      <trkpt lat="49.4465643" lon="-117.1215427">
      </trkpt>
      <trkpt lat="49.4463829" lon="-117.1220791">
      </trkpt>
      <trkpt lat="49.4463934" lon="-117.1223366">
      </trkpt>
      <trkpt lat="49.4464945" lon="-117.1222079">
      </trkpt>
      <trkpt lat="49.4466689" lon="-117.1220309">
      </trkpt>
      <trkpt lat="49.447063" lon="-117.122004">
      </trkpt>
      <trkpt lat="49.4468642" lon="-117.1223849">
      </trkpt>
      <trkpt lat="49.4469689" lon="-117.1224546">
      </trkpt>
      <trkpt lat="49.4472862" lon="-117.1223259">
      </trkpt>
      <trkpt lat="49.4473664" lon="-117.1221918">
      </trkpt>
      <trkpt lat="49.4476559" lon="-117.1219933">
      </trkpt>
      <trkpt lat="49.447907" lon="-117.1220416">
      </trkpt>
      <trkpt lat="49.4477117" lon="-117.1223098">
      </trkpt>
      <trkpt lat="49.4476908" lon="-117.1225619">
      </trkpt>
      <trkpt lat="49.447628" lon="-117.1227872">
      </trkpt>
      <trkpt lat="49.447499" lon="-117.1229965">
      </trkpt>
      <trkpt lat="49.4474292" lon="-117.123372">
      </trkpt>
      <trkpt lat="49.4474397" lon="-117.1234632">
      </trkpt>
      <trkpt lat="49.447771" lon="-117.1233022">
      </trkpt>
      <trkpt lat="49.4479663" lon="-117.1232379">
      </trkpt>
      <trkpt lat="49.448057" lon="-117.1231145">
      </trkpt>
      <trkpt lat="49.4486569" lon="-117.1231252">
      </trkpt>
      <trkpt lat="49.4485697" lon="-117.123372">
      </trkpt>
      <trkpt lat="49.4482453" lon="-117.1238387">
      </trkpt>
      <trkpt lat="49.4481512" lon="-117.1241283">
      </trkpt>
      <trkpt lat="49.4481721" lon="-117.1247292">
      </trkpt>
      <trkpt lat="49.4485174" lon="-117.1246165">
      </trkpt>
      <trkpt lat="49.4489027" lon="-117.1246541">
      </trkpt>
      <trkpt lat="49.4490625" lon="-117.124802">
      </trkpt>
    </trkseg>
  </trk>
</gpx>