<?xml version="1.0" encoding="UTF-8"?>
<gpx xmlns="http://www.topografix.com/GPX/1/1" xmlns:xsi="http://www.w3.org/2001/XMLSchema-instance" xsi:schemaLocation="http://www.topografix.com/GPX/1/1 http://www.topografix.com/GPX/1/1/gpx.xsd" version="1.1" creator="gpx.py -- https://github.com/tkrajina/gpxpy">
  <trk>
    <name>Ling Lake Trail</name>
    <trkseg>
      <trkpt lat="49.16243384" lon="-121.53587452">
      </trkpt>
      <trkpt lat="49.16258383" lon="-121.53585451">
      </trkpt>
      <trkpt lat="49.16263384" lon="-121.53583451">
      </trkpt>
      <trkpt lat="49.16278383" lon="-121.5356845">
      </trkpt>
      <trkpt lat="49.16282383" lon="-121.53560451">
      </trkpt>
      <trkpt lat="49.16284383" lon="-121.5355545">
      </trkpt>
      <trkpt lat="49.16291382" lon="-121.53540451">
      </trkpt>
      <trkpt lat="49.16295382" lon="-121.53532449">
      </trkpt>
      <trkpt lat="49.16297383" lon="-121.5352745">
      </trkpt>
      <trkpt lat="49.16299382" lon="-121.5351945">
      </trkpt>
      <trkpt lat="49.16303382" lon="-121.5350845">
      </trkpt>
      <trkpt lat="49.16308382" lon="-121.53493449">
      </trkpt>
      <trkpt lat="49.16310382" lon="-121.53487449">
      </trkpt>
      <trkpt lat="49.16312382" lon="-121.53482449">
      </trkpt>
      <trkpt lat="49.16312382" lon="-121.5348045">
      </trkpt>
      <trkpt lat="49.16314382" lon="-121.53476449">
      </trkpt>
      <trkpt lat="49.16316382" lon="-121.53467449">
      </trkpt>
      <trkpt lat="49.16318382" lon="-121.53461449">
      </trkpt>
      <trkpt lat="49.16321382" lon="-121.53454449">
      </trkpt>
      <trkpt lat="49.16323382" lon="-121.53446449">
      </trkpt>
      <trkpt lat="49.16327382" lon="-121.53433448">
      </trkpt>
      <trkpt lat="49.16329381" lon="-121.53422448">
      </trkpt>
      <trkpt lat="49.16331381" lon="-121.53414449">
      </trkpt>
      <trkpt lat="49.16334381" lon="-121.53401449">
      </trkpt>
      <trkpt lat="49.16336381" lon="-121.53388449">
      </trkpt>
      <trkpt lat="49.16336381" lon="-121.53386448">
      </trkpt>
      <trkpt lat="49.16338381" lon="-121.53371449">
      </trkpt>
      <trkpt lat="49.1634238" lon="-121.53356448">
      </trkpt>
      <trkpt lat="49.1634638" lon="-121.53347449">
      </trkpt>
      <trkpt lat="49.1634938" lon="-121.53334448">
      </trkpt>
      <trkpt lat="49.16351381" lon="-121.53326448">
      </trkpt>
      <trkpt lat="49.1635338" lon="-121.53313448">
      </trkpt>
      <trkpt lat="49.1635538" lon="-121.53300449">
      </trkpt>
      <trkpt lat="49.1635738" lon="-121.53291448">
      </trkpt>
      <trkpt lat="49.1636138" lon="-121.53278448">
      </trkpt>
      <trkpt lat="49.1636438" lon="-121.53274447">
      </trkpt>
      <trkpt lat="49.16366379" lon="-121.53268448">
      </trkpt>
      <trkpt lat="49.16372379" lon="-121.53255448">
      </trkpt>
      <trkpt lat="49.16376379" lon="-121.53240447">
      </trkpt>
      <trkpt lat="49.16379379" lon="-121.53233448">
      </trkpt>
      <trkpt lat="49.1638138" lon="-121.53227447">
      </trkpt>
      <trkpt lat="49.16387379" lon="-121.53208448">
      </trkpt>
      <trkpt lat="49.16389379" lon="-121.53203447">
      </trkpt>
      <trkpt lat="49.16391379" lon="-121.53197448">
      </trkpt>
      <trkpt lat="49.16394379" lon="-121.53188447">
      </trkpt>
      <trkpt lat="49.16396378" lon="-121.53180447">
      </trkpt>
      <trkpt lat="49.16396378" lon="-121.53178447">
      </trkpt>
      <trkpt lat="49.16402379" lon="-121.53160447">
      </trkpt>
      <trkpt lat="49.16409378" lon="-121.53137447">
      </trkpt>
      <trkpt lat="49.16413378" lon="-121.53130447">
      </trkpt>
      <trkpt lat="49.16417378" lon="-121.53120447">
      </trkpt>
      <trkpt lat="49.16419378" lon="-121.53115447">
      </trkpt>
      <trkpt lat="49.16424378" lon="-121.53109446">
      </trkpt>
      <trkpt lat="49.16426378" lon="-121.53107446">
      </trkpt>
      <trkpt lat="49.16428377" lon="-121.53103447">
      </trkpt>
      <trkpt lat="49.16432378" lon="-121.53096447">
      </trkpt>
      <trkpt lat="49.16432378" lon="-121.53094446">
      </trkpt>
      <trkpt lat="49.16434377" lon="-121.53087446">
      </trkpt>
      <trkpt lat="49.16437378" lon="-121.53081447">
      </trkpt>
      <trkpt lat="49.16441377" lon="-121.53070446">
      </trkpt>
      <trkpt lat="49.16445377" lon="-121.53055446">
      </trkpt>
      <trkpt lat="49.16449377" lon="-121.53030446">
      </trkpt>
      <trkpt lat="49.16452377" lon="-121.53021446">
      </trkpt>
      <trkpt lat="49.16454377" lon="-121.53015446">
      </trkpt>
      <trkpt lat="49.16456377" lon="-121.53006445">
      </trkpt>
      <trkpt lat="49.16460377" lon="-121.52989446">
      </trkpt>
      <trkpt lat="49.16462377" lon="-121.52982446">
      </trkpt>
      <trkpt lat="49.16464376" lon="-121.52972446">
      </trkpt>
      <trkpt lat="49.16471376" lon="-121.52948446">
      </trkpt>
      <trkpt lat="49.16473376" lon="-121.52944445">
      </trkpt>
      <trkpt lat="49.16477376" lon="-121.52935445">
      </trkpt>
      <trkpt lat="49.16479375" lon="-121.52929445">
      </trkpt>
      <trkpt lat="49.16482376" lon="-121.52922444">
      </trkpt>
      <trkpt lat="49.16486376" lon="-121.52914445">
      </trkpt>
      <trkpt lat="49.16488375" lon="-121.52909445">
      </trkpt>
      <trkpt lat="49.16492375" lon="-121.52901444">
      </trkpt>
      <trkpt lat="49.16494376" lon="-121.52897444">
      </trkpt>
      <trkpt lat="49.16497375" lon="-121.52892444">
      </trkpt>
      <trkpt lat="49.16499375" lon="-121.52886445">
      </trkpt>
      <trkpt lat="49.16503375" lon="-121.52875445">
      </trkpt>
      <trkpt lat="49.16505375" lon="-121.52869444">
      </trkpt>
      <trkpt lat="49.16509375" lon="-121.52862444">
      </trkpt>
      <trkpt lat="49.16512375" lon="-121.52856444">
      </trkpt>
      <trkpt lat="49.16512375" lon="-121.52851445">
      </trkpt>
      <trkpt lat="49.16514375" lon="-121.52847445">
      </trkpt>
      <trkpt lat="49.16516374" lon="-121.52834444">
      </trkpt>
      <trkpt lat="49.16518375" lon="-121.52830445">
      </trkpt>
      <trkpt lat="49.16520375" lon="-121.52824444">
      </trkpt>
      <trkpt lat="49.16522375" lon="-121.52821445">
      </trkpt>
      <trkpt lat="49.16524375" lon="-121.52815444">
      </trkpt>
      <trkpt lat="49.16529375" lon="-121.52809444">
      </trkpt>
      <trkpt lat="49.16535374" lon="-121.52798444">
      </trkpt>
      <trkpt lat="49.16537374" lon="-121.52791444">
      </trkpt>
      <trkpt lat="49.16539374" lon="-121.52789444">
      </trkpt>
      <trkpt lat="49.16542374" lon="-121.52781443">
      </trkpt>
      <trkpt lat="49.16546374" lon="-121.52776443">
      </trkpt>
      <trkpt lat="49.16552374" lon="-121.52772443">
      </trkpt>
      <trkpt lat="49.16559374" lon="-121.52759443">
      </trkpt>
      <trkpt lat="49.16565374" lon="-121.52751443">
      </trkpt>
      <trkpt lat="49.16574373" lon="-121.52740443">
      </trkpt>
      <trkpt lat="49.16582373" lon="-121.52731442">
      </trkpt>
      <trkpt lat="49.16587374" lon="-121.52729443">
      </trkpt>
      <trkpt lat="49.16593373" lon="-121.52727442">
      </trkpt>
      <trkpt lat="49.16604374" lon="-121.52725441">
      </trkpt>
      <trkpt lat="49.16617373" lon="-121.52729441">
      </trkpt>
      <trkpt lat="49.16642373" lon="-121.52731441">
      </trkpt>
      <trkpt lat="49.16649374" lon="-121.5272944">
      </trkpt>
      <trkpt lat="49.16655374" lon="-121.52723441">
      </trkpt>
      <trkpt lat="49.16662374" lon="-121.5271444">
      </trkpt>
      <trkpt lat="49.16664373" lon="-121.5271044">
      </trkpt>
      <trkpt lat="49.16666374" lon="-121.5270344">
      </trkpt>
      <trkpt lat="49.16668373" lon="-121.5269744">
      </trkpt>
      <trkpt lat="49.16668373" lon="-121.5269544">
      </trkpt>
      <trkpt lat="49.16670373" lon="-121.52684441">
      </trkpt>
      <trkpt lat="49.16670373" lon="-121.52667441">
      </trkpt>
      <trkpt lat="49.16670372" lon="-121.52660439">
      </trkpt>
      <trkpt lat="49.16670373" lon="-121.5265644">
      </trkpt>
      <trkpt lat="49.16670373" lon="-121.52643441">
      </trkpt>
      <trkpt lat="49.16670372" lon="-121.5263744">
      </trkpt>
      <trkpt lat="49.16670372" lon="-121.5263544">
      </trkpt>
      <trkpt lat="49.16679372" lon="-121.5261844">
      </trkpt>
      <trkpt lat="49.16681372" lon="-121.5261544">
      </trkpt>
      <trkpt lat="49.16685372" lon="-121.5261144">
      </trkpt>
      <trkpt lat="49.16688372" lon="-121.5260744">
      </trkpt>
      <trkpt lat="49.16698372" lon="-121.52596439">
      </trkpt>
      <trkpt lat="49.16700372" lon="-121.52592439">
      </trkpt>
      <trkpt lat="49.16705372" lon="-121.5258544">
      </trkpt>
      <trkpt lat="49.16707372" lon="-121.5257944">
      </trkpt>
      <trkpt lat="49.16709371" lon="-121.52572439">
      </trkpt>
      <trkpt lat="49.16715371" lon="-121.52557439">
      </trkpt>
      <trkpt lat="49.16718371" lon="-121.52551439">
      </trkpt>
      <trkpt lat="49.16722371" lon="-121.52547438">
      </trkpt>
      <trkpt lat="49.16730371" lon="-121.52542439">
      </trkpt>
      <trkpt lat="49.16733371" lon="-121.52542438">
      </trkpt>
      <trkpt lat="49.16741371" lon="-121.52542438">
      </trkpt>
      <trkpt lat="49.16745371" lon="-121.52542438">
      </trkpt>
      <trkpt lat="49.16754371" lon="-121.52540438">
      </trkpt>
      <trkpt lat="49.16765371" lon="-121.52540438">
      </trkpt>
      <trkpt lat="49.16771371" lon="-121.52536438">
      </trkpt>
      <trkpt lat="49.16773371" lon="-121.52532438">
      </trkpt>
      <trkpt lat="49.16778371" lon="-121.52523437">
      </trkpt>
      <trkpt lat="49.16782371" lon="-121.52519438">
      </trkpt>
      <trkpt lat="49.16788371" lon="-121.52512438">
      </trkpt>
      <trkpt lat="49.16795371" lon="-121.52506436">
      </trkpt>
      <trkpt lat="49.16806371" lon="-121.52504437">
      </trkpt>
      <trkpt lat="49.16814371" lon="-121.52504436">
      </trkpt>
      <trkpt lat="49.1682537" lon="-121.52510436">
      </trkpt>
      <trkpt lat="49.16836371" lon="-121.52517436">
      </trkpt>
      <trkpt lat="49.16838371" lon="-121.52519435">
      </trkpt>
      <trkpt lat="49.16840371" lon="-121.52521436">
      </trkpt>
      <trkpt lat="49.16842371" lon="-121.52523435">
      </trkpt>
      <trkpt lat="49.16846371" lon="-121.52527435">
      </trkpt>
      <trkpt lat="49.16853371" lon="-121.52534435">
      </trkpt>
      <trkpt lat="49.16857371" lon="-121.52527435">
      </trkpt>
      <trkpt lat="49.16859371" lon="-121.52525435">
      </trkpt>
      <trkpt lat="49.16859371" lon="-121.52523435">
      </trkpt>
      <trkpt lat="49.16861371" lon="-121.52517435">
      </trkpt>
      <trkpt lat="49.16861371" lon="-121.52512435">
      </trkpt>
      <trkpt lat="49.16861371" lon="-121.52506435">
      </trkpt>
      <trkpt lat="49.16864371" lon="-121.52493435">
      </trkpt>
      <trkpt lat="49.1686437" lon="-121.52491435">
      </trkpt>
      <trkpt lat="49.16864371" lon="-121.52485435">
      </trkpt>
      <trkpt lat="49.1686437" lon="-121.52482435">
      </trkpt>
      <trkpt lat="49.16864371" lon="-121.52476435">
      </trkpt>
      <trkpt lat="49.1686637" lon="-121.52467435">
      </trkpt>
      <trkpt lat="49.1686837" lon="-121.52461435">
      </trkpt>
      <trkpt lat="49.1687037" lon="-121.52457435">
      </trkpt>
      <trkpt lat="49.1687437" lon="-121.52448435">
      </trkpt>
      <trkpt lat="49.1687637" lon="-121.52446434">
      </trkpt>
      <trkpt lat="49.1688137" lon="-121.52442435">
      </trkpt>
      <trkpt lat="49.1688737" lon="-121.52433435">
      </trkpt>
      <trkpt lat="49.1689437" lon="-121.52427435">
      </trkpt>
      <trkpt lat="49.1690037" lon="-121.52424434">
      </trkpt>
      <trkpt lat="49.1690237" lon="-121.52422433">
      </trkpt>
      <trkpt lat="49.1691137" lon="-121.52416434">
      </trkpt>
      <trkpt lat="49.1691337" lon="-121.52414434">
      </trkpt>
      <trkpt lat="49.1691537" lon="-121.52412433">
      </trkpt>
      <trkpt lat="49.1692437" lon="-121.52407433">
      </trkpt>
      <trkpt lat="49.1692637" lon="-121.52405433">
      </trkpt>
      <trkpt lat="49.1693037" lon="-121.52403433">
      </trkpt>
      <trkpt lat="49.16932369" lon="-121.52403433">
      </trkpt>
      <trkpt lat="49.1693937" lon="-121.52399433">
      </trkpt>
      <trkpt lat="49.1694137" lon="-121.52397433">
      </trkpt>
      <trkpt lat="49.16943369" lon="-121.52394432">
      </trkpt>
      <trkpt lat="49.16949369" lon="-121.52390432">
      </trkpt>
      <trkpt lat="49.16954369" lon="-121.52390432">
      </trkpt>
      <trkpt lat="49.1695637" lon="-121.52390432">
      </trkpt>
      <trkpt lat="49.16962369" lon="-121.52388432">
      </trkpt>
      <trkpt lat="49.16967369" lon="-121.52388432">
      </trkpt>
      <trkpt lat="49.16971369" lon="-121.52386432">
      </trkpt>
      <trkpt lat="49.16975369" lon="-121.52386432">
      </trkpt>
      <trkpt lat="49.1697737" lon="-121.52386432">
      </trkpt>
      <trkpt lat="49.16982369" lon="-121.52386432">
      </trkpt>
      <trkpt lat="49.1698437" lon="-121.52386431">
      </trkpt>
      <trkpt lat="49.16990369" lon="-121.52386431">
      </trkpt>
      <trkpt lat="49.16994369" lon="-121.52386431">
      </trkpt>
      <trkpt lat="49.16997369" lon="-121.52388432">
      </trkpt>
      <trkpt lat="49.1699937" lon="-121.52388431">
      </trkpt>
      <trkpt lat="49.17003369" lon="-121.52394431">
      </trkpt>
      <trkpt lat="49.1701437" lon="-121.52399431">
      </trkpt>
      <trkpt lat="49.17016369" lon="-121.52399431">
      </trkpt>
      <trkpt lat="49.17020369" lon="-121.52399431">
      </trkpt>
      <trkpt lat="49.17023399" lon="-121.52398741">
      </trkpt>
      <trkpt lat="49.17029329" lon="-121.52400671">
      </trkpt>
      <trkpt lat="49.17032379" lon="-121.52404521">
      </trkpt>
      <trkpt lat="49.1703598" lon="-121.5241001">
      </trkpt>
      <trkpt lat="49.1704065" lon="-121.52417441">
      </trkpt>
      <trkpt lat="49.1704388" lon="-121.52421551">
      </trkpt>
      <trkpt lat="49.1704478" lon="-121.5242155">
      </trkpt>
      <trkpt lat="49.1704693" lon="-121.5242952">
      </trkpt>
      <trkpt lat="49.1704999" lon="-121.5243557">
      </trkpt>
      <trkpt lat="49.1704981" lon="-121.524353">
      </trkpt>
      <trkpt lat="49.1705286" lon="-121.5244354">
      </trkpt>
      <trkpt lat="49.1705628" lon="-121.52452879">
      </trkpt>
      <trkpt lat="49.17060951" lon="-121.524614">
      </trkpt>
      <trkpt lat="49.17064181" lon="-121.52472119">
      </trkpt>
      <trkpt lat="49.17069211" lon="-121.52480639">
      </trkpt>
      <trkpt lat="49.17073351" lon="-121.5248943">
      </trkpt>
      <trkpt lat="49.17076581" lon="-121.5249575">
      </trkpt>
      <trkpt lat="49.17079271" lon="-121.52501249">
      </trkpt>
      <trkpt lat="49.17082151" lon="-121.52506469">
      </trkpt>
      <trkpt lat="49.17083761" lon="-121.5251196">
      </trkpt>
      <trkpt lat="49.17084661" lon="-121.52516639">
      </trkpt>
      <trkpt lat="49.17085371" lon="-121.5251943">
      </trkpt>
      <trkpt lat="49.17085371" lon="-121.52521429">
      </trkpt>
      <trkpt lat="49.17085371" lon="-121.52523429">
      </trkpt>
      <trkpt lat="49.17085371" lon="-121.52525429">
      </trkpt>
      <trkpt lat="49.17085371" lon="-121.52527429">
      </trkpt>
      <trkpt lat="49.17085371" lon="-121.52530429">
      </trkpt>
      <trkpt lat="49.17085371" lon="-121.52532428">
      </trkpt>
      <trkpt lat="49.17082371" lon="-121.52538429">
      </trkpt>
      <trkpt lat="49.17080371" lon="-121.52547429">
      </trkpt>
      <trkpt lat="49.17080371" lon="-121.52549429">
      </trkpt>
      <trkpt lat="49.17080371" lon="-121.5255343">
      </trkpt>
      <trkpt lat="49.17080372" lon="-121.52566429">
      </trkpt>
      <trkpt lat="49.17080371" lon="-121.52568429">
      </trkpt>
      <trkpt lat="49.17080371" lon="-121.52572429">
      </trkpt>
      <trkpt lat="49.17080372" lon="-121.52588429">
      </trkpt>
      <trkpt lat="49.17080371" lon="-121.52590429">
      </trkpt>
      <trkpt lat="49.17078372" lon="-121.5260043">
      </trkpt>
      <trkpt lat="49.17078372" lon="-121.52603429">
      </trkpt>
      <trkpt lat="49.17078372" lon="-121.52607429">
      </trkpt>
      <trkpt lat="49.17078372" lon="-121.52611428">
      </trkpt>
      <trkpt lat="49.17074373" lon="-121.5262843">
      </trkpt>
      <trkpt lat="49.17070373" lon="-121.5264843">
      </trkpt>
      <trkpt lat="49.17070373" lon="-121.5265043">
      </trkpt>
      <trkpt lat="49.17070372" lon="-121.5265443">
      </trkpt>
      <trkpt lat="49.17067372" lon="-121.52663429">
      </trkpt>
      <trkpt lat="49.17067372" lon="-121.52665429">
      </trkpt>
      <trkpt lat="49.17067373" lon="-121.52671429">
      </trkpt>
      <trkpt lat="49.17067373" lon="-121.52678429">
      </trkpt>
      <trkpt lat="49.17067373" lon="-121.52684429">
      </trkpt>
      <trkpt lat="49.17067373" lon="-121.52686429">
      </trkpt>
      <trkpt lat="49.17070373" lon="-121.52691429">
      </trkpt>
      <trkpt lat="49.17070373" lon="-121.52693429">
      </trkpt>
      <trkpt lat="49.17070373" lon="-121.52699429">
      </trkpt>
      <trkpt lat="49.17072373" lon="-121.5270343">
      </trkpt>
      <trkpt lat="49.17080373" lon="-121.52738429">
      </trkpt>
      <trkpt lat="49.17080374" lon="-121.52740429">
      </trkpt>
      <trkpt lat="49.17080374" lon="-121.52742429">
      </trkpt>
      <trkpt lat="49.17089374" lon="-121.52751429">
      </trkpt>
      <trkpt lat="49.17093374" lon="-121.52753428">
      </trkpt>
      <trkpt lat="49.17095374" lon="-121.52753429">
      </trkpt>
      <trkpt lat="49.17100374" lon="-121.52755428">
      </trkpt>
      <trkpt lat="49.17106373" lon="-121.52751428">
      </trkpt>
      <trkpt lat="49.17106374" lon="-121.52746428">
      </trkpt>
      <trkpt lat="49.17106373" lon="-121.52742428">
      </trkpt>
      <trkpt lat="49.17108374" lon="-121.52738429">
      </trkpt>
      <trkpt lat="49.17108373" lon="-121.52736429">
      </trkpt>
      <trkpt lat="49.17112374" lon="-121.52729428">
      </trkpt>
      <trkpt lat="49.17125374" lon="-121.52725428">
      </trkpt>
      <trkpt lat="49.17130373" lon="-121.52729428">
      </trkpt>
      <trkpt lat="49.17134373" lon="-121.52731427">
      </trkpt>
      <trkpt lat="49.17142374" lon="-121.52736428">
      </trkpt>
      <trkpt lat="49.17147373" lon="-121.52740427">
      </trkpt>
      <trkpt lat="49.17151374" lon="-121.52746427">
      </trkpt>
      <trkpt lat="49.17153374" lon="-121.52753427">
      </trkpt>
      <trkpt lat="49.17155374" lon="-121.52766427">
      </trkpt>
      <trkpt lat="49.17155374" lon="-121.52776427">
      </trkpt>
      <trkpt lat="49.17155374" lon="-121.52785426">
      </trkpt>
      <trkpt lat="49.17155374" lon="-121.52791426">
      </trkpt>
      <trkpt lat="49.17155374" lon="-121.52794427">
      </trkpt>
      <trkpt lat="49.17157374" lon="-121.52802427">
      </trkpt>
      <trkpt lat="49.17160374" lon="-121.52806427">
      </trkpt>
      <trkpt lat="49.17166375" lon="-121.52806426">
      </trkpt>
      <trkpt lat="49.17170374" lon="-121.52800427">
      </trkpt>
      <trkpt lat="49.17170374" lon="-121.52798427">
      </trkpt>
      <trkpt lat="49.17172374" lon="-121.52796427">
      </trkpt>
      <trkpt lat="49.17175374" lon="-121.52794426">
      </trkpt>
      <trkpt lat="49.17179374" lon="-121.52794427">
      </trkpt>
      <trkpt lat="49.17181374" lon="-121.52794426">
      </trkpt>
      <trkpt lat="49.17185374" lon="-121.52791426">
      </trkpt>
      <trkpt lat="49.17185374" lon="-121.52789426">
      </trkpt>
      <trkpt lat="49.17188374" lon="-121.52783426">
      </trkpt>
      <trkpt lat="49.17203374" lon="-121.52776425">
      </trkpt>
      <trkpt lat="49.17209374" lon="-121.52776425">
      </trkpt>
      <trkpt lat="49.17215374" lon="-121.52776426">
      </trkpt>
      <trkpt lat="49.17222374" lon="-121.52778426">
      </trkpt>
      <trkpt lat="49.17230374" lon="-121.52785425">
      </trkpt>
      <trkpt lat="49.17233374" lon="-121.52789426">
      </trkpt>
      <trkpt lat="49.17237375" lon="-121.52796424">
      </trkpt>
      <trkpt lat="49.17241374" lon="-121.52806425">
      </trkpt>
      <trkpt lat="49.17243375" lon="-121.52817425">
      </trkpt>
      <trkpt lat="49.17245375" lon="-121.52834424">
      </trkpt>
      <trkpt lat="49.17245375" lon="-121.52836424">
      </trkpt>
      <trkpt lat="49.17245375" lon="-121.52839425">
      </trkpt>
      <trkpt lat="49.17248374" lon="-121.52849424">
      </trkpt>
      <trkpt lat="49.17256375" lon="-121.52866424">
      </trkpt>
      <trkpt lat="49.17258375" lon="-121.52869424">
      </trkpt>
      <trkpt lat="49.17280375" lon="-121.52879423">
      </trkpt>
      <trkpt lat="49.17282375" lon="-121.52881423">
      </trkpt>
      <trkpt lat="49.17293375" lon="-121.52888423">
      </trkpt>
      <trkpt lat="49.17297375" lon="-121.52890423">
      </trkpt>
      <trkpt lat="49.17314376" lon="-121.52888423">
      </trkpt>
      <trkpt lat="49.17318375" lon="-121.52884423">
      </trkpt>
      <trkpt lat="49.17325375" lon="-121.52875422">
      </trkpt>
      <trkpt lat="49.17329375" lon="-121.52873422">
      </trkpt>
      <trkpt lat="49.17336375" lon="-121.52869422">
      </trkpt>
      <trkpt lat="49.17338375" lon="-121.52869422">
      </trkpt>
      <trkpt lat="49.17353375" lon="-121.52862422">
      </trkpt>
      <trkpt lat="49.17357375" lon="-121.52854421">
      </trkpt>
      <trkpt lat="49.17363374" lon="-121.52841422">
      </trkpt>
      <trkpt lat="49.17370375" lon="-121.52824421">
      </trkpt>
      <trkpt lat="49.17376375" lon="-121.52817422">
      </trkpt>
      <trkpt lat="49.17387374" lon="-121.52804421">
      </trkpt>
      <trkpt lat="49.17391374" lon="-121.5279842">
      </trkpt>
      <trkpt lat="49.17396374" lon="-121.5279142">
      </trkpt>
      <trkpt lat="49.17402374" lon="-121.5278542">
      </trkpt>
      <trkpt lat="49.17449374" lon="-121.52794419">
      </trkpt>
      <trkpt lat="49.17469374" lon="-121.52796418">
      </trkpt>
      <trkpt lat="49.17475374" lon="-121.52798419">
      </trkpt>
      <trkpt lat="49.17499375" lon="-121.52804417">
      </trkpt>
      <trkpt lat="49.17516374" lon="-121.52811417">
      </trkpt>
      <trkpt lat="49.17533375" lon="-121.52815416">
      </trkpt>
      <trkpt lat="49.17548375" lon="-121.52819417">
      </trkpt>
      <trkpt lat="49.17559375" lon="-121.52826416">
      </trkpt>
      <trkpt lat="49.17563375" lon="-121.52826417">
      </trkpt>
      <trkpt lat="49.17565374" lon="-121.52824416">
      </trkpt>
      <trkpt lat="49.17574375" lon="-121.52828416">
      </trkpt>
      <trkpt lat="49.17578375" lon="-121.52830416">
      </trkpt>
      <trkpt lat="49.17587375" lon="-121.52830415">
      </trkpt>
      <trkpt lat="49.17589375" lon="-121.52832415">
      </trkpt>
      <trkpt lat="49.17606374" lon="-121.52841415">
      </trkpt>
      <trkpt lat="49.17610374" lon="-121.52841414">
      </trkpt>
      <trkpt lat="49.17615375" lon="-121.52843415">
      </trkpt>
      <trkpt lat="49.17634375" lon="-121.52869414">
      </trkpt>
      <trkpt lat="49.17645375" lon="-121.52873414">
      </trkpt>
      <trkpt lat="49.17664375" lon="-121.52871413">
      </trkpt>
      <trkpt lat="49.17696375" lon="-121.52879413">
      </trkpt>
      <trkpt lat="49.17703375" lon="-121.52890412">
      </trkpt>
      <trkpt lat="49.17713376" lon="-121.52905412">
      </trkpt>
      <trkpt lat="49.17720376" lon="-121.52912411">
      </trkpt>
      <trkpt lat="49.17728376" lon="-121.52914412">
      </trkpt>
      <trkpt lat="49.17741376" lon="-121.52918411">
      </trkpt>
      <trkpt lat="49.17758376" lon="-121.5292741">
      </trkpt>
      <trkpt lat="49.17765376" lon="-121.5293541">
      </trkpt>
      <trkpt lat="49.17773376" lon="-121.52946411">
      </trkpt>
      <trkpt lat="49.17784376" lon="-121.5295741">
      </trkpt>
      <trkpt lat="49.17788376" lon="-121.5296541">
      </trkpt>
      <trkpt lat="49.17790376" lon="-121.5297241">
      </trkpt>
      <trkpt lat="49.17799376" lon="-121.5299141">
      </trkpt>
      <trkpt lat="49.17803376" lon="-121.5299541">
      </trkpt>
      <trkpt lat="49.17805377" lon="-121.5299741">
      </trkpt>
      <trkpt lat="49.17814376" lon="-121.53021409">
      </trkpt>
      <trkpt lat="49.17816377" lon="-121.53027409">
      </trkpt>
      <trkpt lat="49.17818377" lon="-121.53032409">
      </trkpt>
      <trkpt lat="49.17823377" lon="-121.53040409">
      </trkpt>
      <trkpt lat="49.17825377" lon="-121.53047409">
      </trkpt>
      <trkpt lat="49.17827377" lon="-121.53060409">
      </trkpt>
      <trkpt lat="49.17831377" lon="-121.53081409">
      </trkpt>
      <trkpt lat="49.17831377" lon="-121.53085409">
      </trkpt>
      <trkpt lat="49.17838378" lon="-121.53098408">
      </trkpt>
      <trkpt lat="49.17861378" lon="-121.53135408">
      </trkpt>
      <trkpt lat="49.17866378" lon="-121.53143407">
      </trkpt>
      <trkpt lat="49.17872379" lon="-121.53150407">
      </trkpt>
      <trkpt lat="49.17878378" lon="-121.53158407">
      </trkpt>
      <trkpt lat="49.17896378" lon="-121.53184406">
      </trkpt>
      <trkpt lat="49.17904379" lon="-121.53197407">
      </trkpt>
      <trkpt lat="49.17908379" lon="-121.53201407">
      </trkpt>
      <trkpt lat="49.17956379" lon="-121.53214405">
      </trkpt>
      <trkpt lat="49.17969379" lon="-121.53208405">
      </trkpt>
      <trkpt lat="49.17973379" lon="-121.53206405">
      </trkpt>
      <trkpt lat="49.18014379" lon="-121.53195403">
      </trkpt>
      <trkpt lat="49.1803938" lon="-121.53259404">
      </trkpt>
      <trkpt lat="49.18039379" lon="-121.53285403">
      </trkpt>
      <trkpt lat="49.1804838" lon="-121.53313403">
      </trkpt>
      <trkpt lat="49.18054381" lon="-121.53339402">
      </trkpt>
      <trkpt lat="49.18057381" lon="-121.53354403">
      </trkpt>
      <trkpt lat="49.18061381" lon="-121.53409402">
      </trkpt>
      <trkpt lat="49.18074382" lon="-121.53437402">
      </trkpt>
      <trkpt lat="49.18091382" lon="-121.53478401">
      </trkpt>
      <trkpt lat="49.18093382" lon="-121.53495402">
      </trkpt>
      <trkpt lat="49.18104383" lon="-121.53514401">
      </trkpt>
      <trkpt lat="49.18106382" lon="-121.53519402">
      </trkpt>
      <trkpt lat="49.18108382" lon="-121.53525401">
      </trkpt>
      <trkpt lat="49.18112382" lon="-121.535324">
      </trkpt>
      <trkpt lat="49.18114383" lon="-121.53536401">
      </trkpt>
      <trkpt lat="49.18117382" lon="-121.535404">
      </trkpt>
      <trkpt lat="49.18121383" lon="-121.535454">
      </trkpt>
      <trkpt lat="49.18125383" lon="-121.535514">
      </trkpt>
      <trkpt lat="49.18130383" lon="-121.53555401">
      </trkpt>
      <trkpt lat="49.18134383" lon="-121.53560401">
      </trkpt>
      <trkpt lat="49.18140383" lon="-121.53566401">
      </trkpt>
      <trkpt lat="49.18145383" lon="-121.535724">
      </trkpt>
      <trkpt lat="49.18147383" lon="-121.535754">
      </trkpt>
      <trkpt lat="49.18160384" lon="-121.53587399">
      </trkpt>
      <trkpt lat="49.18162383" lon="-121.535924">
      </trkpt>
      <trkpt lat="49.18164384" lon="-121.535944">
      </trkpt>
      <trkpt lat="49.18170384" lon="-121.53598399">
      </trkpt>
      <trkpt lat="49.18179384" lon="-121.53609399">
      </trkpt>
      <trkpt lat="49.18181383" lon="-121.53615399">
      </trkpt>
      <trkpt lat="49.18185384" lon="-121.53626399">
      </trkpt>
      <trkpt lat="49.18200384" lon="-121.53648398">
      </trkpt>
      <trkpt lat="49.18207384" lon="-121.53654398">
      </trkpt>
      <trkpt lat="49.18217384" lon="-121.53660398">
      </trkpt>
      <trkpt lat="49.18220384" lon="-121.53663398">
      </trkpt>
      <trkpt lat="49.18222384" lon="-121.53663398">
      </trkpt>
      <trkpt lat="49.18233384" lon="-121.53669398">
      </trkpt>
      <trkpt lat="49.18258384" lon="-121.53684397">
      </trkpt>
      <trkpt lat="49.18263384" lon="-121.53686396">
      </trkpt>
      <trkpt lat="49.18280385" lon="-121.53699396">
      </trkpt>
      <trkpt lat="49.18280385" lon="-121.53701396">
      </trkpt>
      <trkpt lat="49.18284384" lon="-121.53708396">
      </trkpt>
      <trkpt lat="49.18288385" lon="-121.53718397">
      </trkpt>
      <trkpt lat="49.18290385" lon="-121.53725396">
      </trkpt>
      <trkpt lat="49.18293385" lon="-121.53729396">
      </trkpt>
      <trkpt lat="49.18297385" lon="-121.53736495">
      </trkpt>
      <trkpt lat="49.18301385" lon="-121.53740496">
      </trkpt>
      <trkpt lat="49.18305385" lon="-121.53740495">
      </trkpt>
      <trkpt lat="49.18318385" lon="-121.53746495">
      </trkpt>
      <trkpt lat="49.18323385" lon="-121.53751494">
      </trkpt>
      <trkpt lat="49.18333385" lon="-121.53755494">
      </trkpt>
      <trkpt lat="49.18336385" lon="-121.53757495">
      </trkpt>
      <trkpt lat="49.18338386" lon="-121.53757495">
      </trkpt>
      <trkpt lat="49.18342385" lon="-121.53755494">
      </trkpt>
      <trkpt lat="49.18353385" lon="-121.53757494">
      </trkpt>
      <trkpt lat="49.18361386" lon="-121.53761495">
      </trkpt>
      <trkpt lat="49.18378385" lon="-121.53772494">
      </trkpt>
      <trkpt lat="49.18383386" lon="-121.53776494">
      </trkpt>
      <trkpt lat="49.18389386" lon="-121.53783494">
      </trkpt>
      <trkpt lat="49.18396385" lon="-121.53791493">
      </trkpt>
      <trkpt lat="49.18400386" lon="-121.53796492">
      </trkpt>
      <trkpt lat="49.18406386" lon="-121.53800492">
      </trkpt>
      <trkpt lat="49.18411386" lon="-121.53804493">
      </trkpt>
      <trkpt lat="49.18413385" lon="-121.53806493">
      </trkpt>
      <trkpt lat="49.18417386" lon="-121.53808493">
      </trkpt>
      <trkpt lat="49.18421386" lon="-121.53811492">
      </trkpt>
      <trkpt lat="49.18432386" lon="-121.53830492">
      </trkpt>
      <trkpt lat="49.18439386" lon="-121.53843492">
      </trkpt>
      <trkpt lat="49.18449386" lon="-121.53862491">
      </trkpt>
      <trkpt lat="49.18458386" lon="-121.53881492">
      </trkpt>
      <trkpt lat="49.18462387" lon="-121.53888492">
      </trkpt>
      <trkpt lat="49.18464387" lon="-121.53894492">
      </trkpt>
      <trkpt lat="49.18466387" lon="-121.53899491">
      </trkpt>
      <trkpt lat="49.18469387" lon="-121.53901491">
      </trkpt>
      <trkpt lat="49.18475387" lon="-121.53905491">
      </trkpt>
      <trkpt lat="49.18481387" lon="-121.53905491">
      </trkpt>
      <trkpt lat="49.18496386" lon="-121.5390549">
      </trkpt>
      <trkpt lat="49.18501387" lon="-121.53907491">
      </trkpt>
      <trkpt lat="49.18522387" lon="-121.5392249">
      </trkpt>
      <trkpt lat="49.18526387" lon="-121.5393549">
      </trkpt>
      <trkpt lat="49.18529387" lon="-121.5395049">
      </trkpt>
      <trkpt lat="49.18541388" lon="-121.53954489">
      </trkpt>
      <trkpt lat="49.18608387" lon="-121.53952487">
      </trkpt>
      <trkpt lat="49.18619387" lon="-121.53954487">
      </trkpt>
      <trkpt lat="49.18640387" lon="-121.53963487">
      </trkpt>
      <trkpt lat="49.18651388" lon="-121.53967486">
      </trkpt>
      <trkpt lat="49.18655387" lon="-121.53969486">
      </trkpt>
      <trkpt lat="49.18677388" lon="-121.53978485">
      </trkpt>
      <trkpt lat="49.18683388" lon="-121.53980485">
      </trkpt>
      <trkpt lat="49.18690388" lon="-121.53978485">
      </trkpt>
      <trkpt lat="49.18694387" lon="-121.53974485">
      </trkpt>
      <trkpt lat="49.18705387" lon="-121.53963484">
      </trkpt>
      <trkpt lat="49.18717387" lon="-121.53952484">
      </trkpt>
      <trkpt lat="49.18724387" lon="-121.53944485">
      </trkpt>
      <trkpt lat="49.18747387" lon="-121.53920484">
      </trkpt>
      <trkpt lat="49.18763387" lon="-121.53916483">
      </trkpt>
      <trkpt lat="49.18775387" lon="-121.53916483">
      </trkpt>
      <trkpt lat="49.18780387" lon="-121.53916483">
      </trkpt>
      <trkpt lat="49.18788387" lon="-121.53916482">
      </trkpt>
      <trkpt lat="49.18793387" lon="-121.53914483">
      </trkpt>
      <trkpt lat="49.18795387" lon="-121.53914483">
      </trkpt>
      <trkpt lat="49.18805387" lon="-121.53911482">
      </trkpt>
      <trkpt lat="49.18812387" lon="-121.53905482">
      </trkpt>
      <trkpt lat="49.18818386" lon="-121.53899481">
      </trkpt>
      <trkpt lat="49.18823387" lon="-121.53892481">
      </trkpt>
      <trkpt lat="49.18831387" lon="-121.53890481">
      </trkpt>
      <trkpt lat="49.18846387" lon="-121.53888481">
      </trkpt>
      <trkpt lat="49.18850387" lon="-121.53892481">
      </trkpt>
      <trkpt lat="49.18855386" lon="-121.53894481">
      </trkpt>
      <trkpt lat="49.18861387" lon="-121.5389248">
      </trkpt>
      <trkpt lat="49.18866387" lon="-121.53888481">
      </trkpt>
      <trkpt lat="49.18876386" lon="-121.5388648">
      </trkpt>
      <trkpt lat="49.18883387" lon="-121.5388848">
      </trkpt>
      <trkpt lat="49.18893387" lon="-121.53892479">
      </trkpt>
      <trkpt lat="49.18906386" lon="-121.5388848">
      </trkpt>
      <trkpt lat="49.18923387" lon="-121.53890479">
      </trkpt>
      <trkpt lat="49.18934387" lon="-121.53894479">
      </trkpt>
      <trkpt lat="49.18941387" lon="-121.53899478">
      </trkpt>
      <trkpt lat="49.18945387" lon="-121.53901479">
      </trkpt>
      <trkpt lat="49.18956387" lon="-121.53905478">
      </trkpt>
      <trkpt lat="49.18960387" lon="-121.53905478">
      </trkpt>
      <trkpt lat="49.18973387" lon="-121.53905478">
      </trkpt>
      <trkpt lat="49.18979387" lon="-121.53909478">
      </trkpt>
      <trkpt lat="49.18981387" lon="-121.53911477">
      </trkpt>
      <trkpt lat="49.18984387" lon="-121.53914478">
      </trkpt>
      <trkpt lat="49.18990387" lon="-121.53916478">
      </trkpt>
      <trkpt lat="49.18992387" lon="-121.53920476">
      </trkpt>
      <trkpt lat="49.18992388" lon="-121.53922477">
      </trkpt>
      <trkpt lat="49.18996387" lon="-121.53926478">
      </trkpt>
      <trkpt lat="49.19003387" lon="-121.53931476">
      </trkpt>
      <trkpt lat="49.19033387" lon="-121.53939476">
      </trkpt>
      <trkpt lat="49.19050387" lon="-121.53946476">
      </trkpt>
      <trkpt lat="49.19054388" lon="-121.53952476">
      </trkpt>
      <trkpt lat="49.19059388" lon="-121.53957476">
      </trkpt>
      <trkpt lat="49.19074388" lon="-121.53980475">
      </trkpt>
      <trkpt lat="49.19084388" lon="-121.53999474">
      </trkpt>
      <trkpt lat="49.19093388" lon="-121.54019475">
      </trkpt>
      <trkpt lat="49.19097388" lon="-121.54027474">
      </trkpt>
      <trkpt lat="49.19200388" lon="-121.54029472">
      </trkpt>
      <trkpt lat="49.19243389" lon="-121.5404247">
      </trkpt>
      <trkpt lat="49.19265388" lon="-121.5403847">
      </trkpt>
      <trkpt lat="49.19350389" lon="-121.54034467">
      </trkpt>
      <trkpt lat="49.19415387" lon="-121.53963466">
      </trkpt>
      <trkpt lat="49.19460387" lon="-121.53918465">
      </trkpt>
      <trkpt lat="49.19505386" lon="-121.53860463">
      </trkpt>
      <trkpt lat="49.19539387" lon="-121.53845463">
      </trkpt>
      <trkpt lat="49.19672385" lon="-121.53778459">
      </trkpt>
      <trkpt lat="49.19674386" lon="-121.53776459">
      </trkpt>
      <trkpt lat="49.19692385" lon="-121.53772459">
      </trkpt>
      <trkpt lat="49.19732386" lon="-121.53781457">
      </trkpt>
      <trkpt lat="49.19775385" lon="-121.53768456">
      </trkpt>
      <trkpt lat="49.19782385" lon="-121.53766456">
      </trkpt>
      <trkpt lat="49.19792385" lon="-121.53766456">
      </trkpt>
      <trkpt lat="49.19799386" lon="-121.53766455">
      </trkpt>
      <trkpt lat="49.19820385" lon="-121.53766455">
      </trkpt>
      <trkpt lat="49.19825385" lon="-121.53763455">
      </trkpt>
      <trkpt lat="49.19848385" lon="-121.53751454">
      </trkpt>
    </trkseg>
  </trk>
</gpx>