<?xml version="1.0" encoding="UTF-8"?>
<gpx xmlns="http://www.topografix.com/GPX/1/1" xmlns:xsi="http://www.w3.org/2001/XMLSchema-instance" xsi:schemaLocation="http://www.topografix.com/GPX/1/1 http://www.topografix.com/GPX/1/1/gpx.xsd" version="1.1" creator="gpx.py -- https://github.com/tkrajina/gpxpy">
  <trk>
    <name>Rolley Falls Trail</name>
    <trkseg>
      <trkpt lat="49.24962716" lon="-122.37180204">
      </trkpt>
      <trkpt lat="49.249524" lon="-122.37183498">
      </trkpt>
      <trkpt lat="49.24945078" lon="-122.37181227">
      </trkpt>
      <trkpt lat="49.24937812" lon="-122.37158381">
      </trkpt>
      <trkpt lat="49.24936666" lon="-122.37132873">
      </trkpt>
      <trkpt lat="49.24930624" lon="-122.37108132">
      </trkpt>
      <trkpt lat="49.24921522" lon="-122.37086187">
      </trkpt>
      <trkpt lat="49.24912368" lon="-122.37086779">
      </trkpt>
      <trkpt lat="49.24904398" lon="-122.37098189">
      </trkpt>
      <trkpt lat="49.24903719" lon="-122.37121669">
      </trkpt>
      <trkpt lat="49.24905461" lon="-122.3715602">
      </trkpt>
      <trkpt lat="49.24897992" lon="-122.37205643">
      </trkpt>
      <trkpt lat="49.24885676" lon="-122.37244295">
      </trkpt>
      <trkpt lat="49.24870879" lon="-122.37293611">
      </trkpt>
      <trkpt lat="49.24865223" lon="-122.37352133">
      </trkpt>
      <trkpt lat="49.24862591" lon="-122.37421547">
      </trkpt>
      <trkpt lat="49.2486301" lon="-122.37491107">
      </trkpt>
      <trkpt lat="49.24869561" lon="-122.37548193">
      </trkpt>
      <trkpt lat="49.24875551" lon="-122.37591542">
      </trkpt>
      <trkpt lat="49.24891964" lon="-122.37618688">
      </trkpt>
      <trkpt lat="49.2491094" lon="-122.37600897">
      </trkpt>
      <trkpt lat="49.24937225" lon="-122.37589294">
      </trkpt>
      <trkpt lat="49.24960435" lon="-122.37588332">
      </trkpt>
      <trkpt lat="49.24973221" lon="-122.37600634">
      </trkpt>
      <trkpt lat="49.24979863" lon="-122.37626387">
      </trkpt>
      <trkpt lat="49.2498404" lon="-122.37663778">
      </trkpt>
      <trkpt lat="49.25003582" lon="-122.37660699">
      </trkpt>
      <trkpt lat="49.25025573" lon="-122.37659682">
      </trkpt>
      <trkpt lat="49.25047596" lon="-122.37645939">
      </trkpt>
      <trkpt lat="49.25071568" lon="-122.37587221">
      </trkpt>
      <trkpt lat="49.25085136" lon="-122.37538838">
      </trkpt>
      <trkpt lat="49.25091936" lon="-122.37509754">
      </trkpt>
      <trkpt lat="49.25087151" lon="-122.37476243">
      </trkpt>
      <trkpt lat="49.25068333" lon="-122.37433318">
      </trkpt>
      <trkpt lat="49.25059921" lon="-122.37384963">
      </trkpt>
      <trkpt lat="49.25055756" lon="-122.37346595">
      </trkpt>
      <trkpt lat="49.25038738" lon="-122.37316473">
      </trkpt>
      <trkpt lat="49.25028409" lon="-122.37300366">
      </trkpt>
      <trkpt lat="49.25013239" lon="-122.37265429">
      </trkpt>
      <trkpt lat="49.25001333" lon="-122.37228697">
      </trkpt>
    </trkseg>
    <trkseg>
      <trkpt lat="49.2478013" lon="-122.37789155">
      </trkpt>
      <trkpt lat="49.24806684" lon="-122.37761938">
      </trkpt>
      <trkpt lat="49.24842804" lon="-122.37726265">
      </trkpt>
      <trkpt lat="49.24875346" lon="-122.3766401">
      </trkpt>
      <trkpt lat="49.24891964" lon="-122.37618688">
      </trkpt>
    </trkseg>
  </trk>
</gpx>