<?xml version="1.0" encoding="UTF-8"?>
<gpx xmlns="http://www.topografix.com/GPX/1/1" xmlns:xsi="http://www.w3.org/2001/XMLSchema-instance" xsi:schemaLocation="http://www.topografix.com/GPX/1/1 http://www.topografix.com/GPX/1/1/gpx.xsd" version="1.1" creator="gpx.py -- https://github.com/tkrajina/gpxpy">
  <trk>
    <name>79 Grind Trail</name>
    <trkseg>
      <trkpt lat="49.2791801" lon="-122.3751207">
      </trkpt>
      <trkpt lat="49.279166" lon="-122.3751161">
      </trkpt>
      <trkpt lat="49.2791556" lon="-122.3750973">
      </trkpt>
      <trkpt lat="49.2791455" lon="-122.3750885">
      </trkpt>
      <trkpt lat="49.2791346" lon="-122.3750841">
      </trkpt>
      <trkpt lat="49.2791229" lon="-122.3750894">
      </trkpt>
      <trkpt lat="49.2790705" lon="-122.3751542">
      </trkpt>
      <trkpt lat="49.2790394" lon="-122.3751817">
      </trkpt>
      <trkpt lat="49.2789023" lon="-122.3752256">
      </trkpt>
      <trkpt lat="49.2787489" lon="-122.3754004">
      </trkpt>
      <trkpt lat="49.2787053" lon="-122.3755065">
      </trkpt>
      <trkpt lat="49.2786406" lon="-122.37557">
      </trkpt>
      <trkpt lat="49.2785841" lon="-122.3756374">
      </trkpt>
      <trkpt lat="49.2784185" lon="-122.3756008">
      </trkpt>
      <trkpt lat="49.2783407" lon="-122.3756109">
      </trkpt>
      <trkpt lat="49.2782065" lon="-122.375725">
      </trkpt>
      <trkpt lat="49.2780603" lon="-122.3757599">
      </trkpt>
      <trkpt lat="49.2780222" lon="-122.3758227">
      </trkpt>
      <trkpt lat="49.2780276" lon="-122.3759163">
      </trkpt>
      <trkpt lat="49.2779918" lon="-122.3759383">
      </trkpt>
      <trkpt lat="49.2779061" lon="-122.3759524">
      </trkpt>
      <trkpt lat="49.2778042" lon="-122.3759175">
      </trkpt>
      <trkpt lat="49.2777216" lon="-122.3758735">
      </trkpt>
      <trkpt lat="49.2776702" lon="-122.3759155">
      </trkpt>
      <trkpt lat="49.2776186" lon="-122.3759321">
      </trkpt>
      <trkpt lat="49.277518" lon="-122.3758213">
      </trkpt>
      <trkpt lat="49.2774547" lon="-122.37581">
      </trkpt>
      <trkpt lat="49.2774087" lon="-122.3757599">
      </trkpt>
      <trkpt lat="49.2771973" lon="-122.3751102">
      </trkpt>
      <trkpt lat="49.2771076" lon="-122.374722">
      </trkpt>
      <trkpt lat="49.2769826" lon="-122.3744024">
      </trkpt>
      <trkpt lat="49.2768848" lon="-122.3741827">
      </trkpt>
      <trkpt lat="49.2767524" lon="-122.3740179">
      </trkpt>
      <trkpt lat="49.2766373" lon="-122.3739488">
      </trkpt>
      <trkpt lat="49.2765121" lon="-122.3739149">
      </trkpt>
      <trkpt lat="49.2763234" lon="-122.3738801">
      </trkpt>
      <trkpt lat="49.2762017" lon="-122.3738141">
      </trkpt>
      <trkpt lat="49.2761322" lon="-122.3737105">
      </trkpt>
      <trkpt lat="49.2760843" lon="-122.3736467">
      </trkpt>
      <trkpt lat="49.2760508" lon="-122.37364">
      </trkpt>
      <trkpt lat="49.2760234" lon="-122.3736492">
      </trkpt>
      <trkpt lat="49.2760031" lon="-122.3737002">
      </trkpt>
      <trkpt lat="49.2759909" lon="-122.3737674">
      </trkpt>
      <trkpt lat="49.2760389" lon="-122.3739306">
      </trkpt>
      <trkpt lat="49.2761252" lon="-122.374045">
      </trkpt>
      <trkpt lat="49.2764994" lon="-122.3743214">
      </trkpt>
      <trkpt lat="49.276613" lon="-122.3744483">
      </trkpt>
      <trkpt lat="49.2766447" lon="-122.374506">
      </trkpt>
      <trkpt lat="49.2766581" lon="-122.3745796">
      </trkpt>
      <trkpt lat="49.276641" lon="-122.3746394">
      </trkpt>
      <trkpt lat="49.2766014" lon="-122.3746689">
      </trkpt>
      <trkpt lat="49.2765305" lon="-122.3746724">
      </trkpt>
      <trkpt lat="49.2761253" lon="-122.3745947">
      </trkpt>
      <trkpt lat="49.2759385" lon="-122.3745309">
      </trkpt>
      <trkpt lat="49.2757181" lon="-122.3743984">
      </trkpt>
      <trkpt lat="49.2756545" lon="-122.3743743">
      </trkpt>
      <trkpt lat="49.2756186" lon="-122.3744511">
      </trkpt>
      <trkpt lat="49.2755244" lon="-122.3744911">
      </trkpt>
      <trkpt lat="49.275351" lon="-122.3745486">
      </trkpt>
      <trkpt lat="49.2752978" lon="-122.3746065">
      </trkpt>
      <trkpt lat="49.2752878" lon="-122.3746878">
      </trkpt>
      <trkpt lat="49.275288" lon="-122.3747634">
      </trkpt>
      <trkpt lat="49.2753246" lon="-122.3748464">
      </trkpt>
      <trkpt lat="49.2753877" lon="-122.3749178">
      </trkpt>
      <trkpt lat="49.2756624" lon="-122.3750503">
      </trkpt>
      <trkpt lat="49.2757629" lon="-122.3752359">
      </trkpt>
      <trkpt lat="49.2757645" lon="-122.3752686">
      </trkpt>
      <trkpt lat="49.2757531" lon="-122.3752967">
      </trkpt>
      <trkpt lat="49.2757175" lon="-122.3753354">
      </trkpt>
      <trkpt lat="49.2756212" lon="-122.3753682">
      </trkpt>
      <trkpt lat="49.2755654" lon="-122.3754744">
      </trkpt>
      <trkpt lat="49.2755656" lon="-122.3754982">
      </trkpt>
      <trkpt lat="49.2755737" lon="-122.3755326">
      </trkpt>
      <trkpt lat="49.2755745" lon="-122.3755543">
      </trkpt>
      <trkpt lat="49.275552" lon="-122.3755561">
      </trkpt>
      <trkpt lat="49.2755221" lon="-122.3755557">
      </trkpt>
      <trkpt lat="49.2755088" lon="-122.3755654">
      </trkpt>
      <trkpt lat="49.2755083" lon="-122.3755917">
      </trkpt>
      <trkpt lat="49.2755406" lon="-122.3756725">
      </trkpt>
      <trkpt lat="49.2755457" lon="-122.3756938">
      </trkpt>
      <trkpt lat="49.2755294" lon="-122.375707">
      </trkpt>
      <trkpt lat="49.275513" lon="-122.3757045">
      </trkpt>
      <trkpt lat="49.2754857" lon="-122.3756838">
      </trkpt>
      <trkpt lat="49.2754727" lon="-122.3756818">
      </trkpt>
      <trkpt lat="49.2754433" lon="-122.3757074">
      </trkpt>
      <trkpt lat="49.2753106" lon="-122.3758006">
      </trkpt>
      <trkpt lat="49.2751646" lon="-122.3759334">
      </trkpt>
      <trkpt lat="49.2750883" lon="-122.3760183">
      </trkpt>
      <trkpt lat="49.2750273" lon="-122.3760464">
      </trkpt>
      <trkpt lat="49.2749705" lon="-122.3760838">
      </trkpt>
      <trkpt lat="49.2749653" lon="-122.3761194">
      </trkpt>
      <trkpt lat="49.2749746" lon="-122.3761573">
      </trkpt>
      <trkpt lat="49.275012" lon="-122.3761784">
      </trkpt>
      <trkpt lat="49.2750479" lon="-122.3761848">
      </trkpt>
      <trkpt lat="49.2750998" lon="-122.3762144">
      </trkpt>
      <trkpt lat="49.2752728" lon="-122.3762117">
      </trkpt>
      <trkpt lat="49.2753269" lon="-122.3762361">
      </trkpt>
      <trkpt lat="49.27539" lon="-122.3763454">
      </trkpt>
      <trkpt lat="49.2755506" lon="-122.3764527">
      </trkpt>
      <trkpt lat="49.2756221" lon="-122.3764885">
      </trkpt>
      <trkpt lat="49.2756799" lon="-122.3765801">
      </trkpt>
      <trkpt lat="49.2757024" lon="-122.376665">
      </trkpt>
      <trkpt lat="49.2756735" lon="-122.3767749">
      </trkpt>
      <trkpt lat="49.2756746" lon="-122.3769308">
      </trkpt>
      <trkpt lat="49.2756476" lon="-122.37708">
      </trkpt>
      <trkpt lat="49.2756121" lon="-122.3771407">
      </trkpt>
      <trkpt lat="49.2755475" lon="-122.3771935">
      </trkpt>
      <trkpt lat="49.2754043" lon="-122.3772226">
      </trkpt>
      <trkpt lat="49.2754067" lon="-122.3772649">
      </trkpt>
      <trkpt lat="49.2754029" lon="-122.3773364">
      </trkpt>
      <trkpt lat="49.2753804" lon="-122.3773745">
      </trkpt>
      <trkpt lat="49.2753264" lon="-122.3773696">
      </trkpt>
      <trkpt lat="49.2753027" lon="-122.3774183">
      </trkpt>
      <trkpt lat="49.2752926" lon="-122.3774742">
      </trkpt>
      <trkpt lat="49.2753048" lon="-122.3775303">
      </trkpt>
      <trkpt lat="49.2752952" lon="-122.3775907">
      </trkpt>
      <trkpt lat="49.2752279" lon="-122.3776067">
      </trkpt>
      <trkpt lat="49.2751626" lon="-122.3776789">
      </trkpt>
      <trkpt lat="49.2751522" lon="-122.3777636">
      </trkpt>
      <trkpt lat="49.2751863" lon="-122.3778223">
      </trkpt>
      <trkpt lat="49.2752264" lon="-122.3778899">
      </trkpt>
      <trkpt lat="49.2752378" lon="-122.3780196">
      </trkpt>
      <trkpt lat="49.2752202" lon="-122.3781448">
      </trkpt>
      <trkpt lat="49.2752066" lon="-122.3782787">
      </trkpt>
      <trkpt lat="49.2751775" lon="-122.3784033">
      </trkpt>
      <trkpt lat="49.2751412" lon="-122.378536">
      </trkpt>
      <trkpt lat="49.2750896" lon="-122.3786428">
      </trkpt>
      <trkpt lat="49.2750358" lon="-122.3786789">
      </trkpt>
      <trkpt lat="49.2749352" lon="-122.3787219">
      </trkpt>
      <trkpt lat="49.2748638" lon="-122.3788581">
      </trkpt>
      <trkpt lat="49.2748012" lon="-122.3790502">
      </trkpt>
      <trkpt lat="49.2747981" lon="-122.379221">
      </trkpt>
      <trkpt lat="49.2747897" lon="-122.3793209">
      </trkpt>
      <trkpt lat="49.2747814" lon="-122.3793705">
      </trkpt>
      <trkpt lat="49.2747497" lon="-122.3793932">
      </trkpt>
      <trkpt lat="49.2746602" lon="-122.3794032">
      </trkpt>
      <trkpt lat="49.2746094" lon="-122.3794278">
      </trkpt>
      <trkpt lat="49.2745355" lon="-122.379535">
      </trkpt>
      <trkpt lat="49.2744753" lon="-122.3796527">
      </trkpt>
      <trkpt lat="49.2743955" lon="-122.3796989">
      </trkpt>
      <trkpt lat="49.2742985" lon="-122.3797162">
      </trkpt>
    </trkseg>
    <trkseg>
      <trkpt lat="49.2742985" lon="-122.3797162">
      </trkpt>
      <trkpt lat="49.2741423" lon="-122.379163">
      </trkpt>
      <trkpt lat="49.2740541" lon="-122.3789913">
      </trkpt>
      <trkpt lat="49.2739435" lon="-122.3788668">
      </trkpt>
      <trkpt lat="49.2738437" lon="-122.3787889">
      </trkpt>
    </trkseg>
    <trkseg>
      <trkpt lat="49.2738437" lon="-122.3787889">
      </trkpt>
      <trkpt lat="49.273854" lon="-122.3786216">
      </trkpt>
      <trkpt lat="49.2738307" lon="-122.3783974">
      </trkpt>
    </trkseg>
    <trkseg>
      <trkpt lat="49.2738307" lon="-122.3783974">
      </trkpt>
      <trkpt lat="49.2738468" lon="-122.378248">
      </trkpt>
    </trkseg>
    <trkseg>
      <trkpt lat="49.2799495" lon="-122.3751522">
      </trkpt>
      <trkpt lat="49.2799137" lon="-122.3751321">
      </trkpt>
      <trkpt lat="49.2798547" lon="-122.3751437">
      </trkpt>
      <trkpt lat="49.2792176" lon="-122.375125">
      </trkpt>
      <trkpt lat="49.2791936" lon="-122.375121">
      </trkpt>
    </trkseg>
    <trkseg>
      <trkpt lat="49.2799916" lon="-122.3751848">
      </trkpt>
      <trkpt lat="49.2799495" lon="-122.3751522">
      </trkpt>
    </trkseg>
    <trkseg>
      <trkpt lat="49.2802208" lon="-122.3733554">
      </trkpt>
      <trkpt lat="49.2801908" lon="-122.3734571">
      </trkpt>
      <trkpt lat="49.2801543" lon="-122.3736428">
      </trkpt>
      <trkpt lat="49.2801493" lon="-122.373796">
      </trkpt>
      <trkpt lat="49.2801809" lon="-122.3739502">
      </trkpt>
      <trkpt lat="49.2801955" lon="-122.3740864">
      </trkpt>
      <trkpt lat="49.2801859" lon="-122.37421">
      </trkpt>
      <trkpt lat="49.2802272" lon="-122.3743203">
      </trkpt>
      <trkpt lat="49.2802433" lon="-122.3743875">
      </trkpt>
      <trkpt lat="49.2802475" lon="-122.3744419">
      </trkpt>
      <trkpt lat="49.2802456" lon="-122.3744956">
      </trkpt>
      <trkpt lat="49.2802309" lon="-122.3745793">
      </trkpt>
      <trkpt lat="49.2802051" lon="-122.3746797">
      </trkpt>
      <trkpt lat="49.2801691" lon="-122.374782">
      </trkpt>
      <trkpt lat="49.2801446" lon="-122.3748641">
      </trkpt>
      <trkpt lat="49.2801279" lon="-122.3749355">
      </trkpt>
      <trkpt lat="49.280123" lon="-122.3749791">
      </trkpt>
      <trkpt lat="49.2801275" lon="-122.3750413">
      </trkpt>
      <trkpt lat="49.2801391" lon="-122.3751293">
      </trkpt>
      <trkpt lat="49.2801276" lon="-122.3751582">
      </trkpt>
      <trkpt lat="49.2801006" lon="-122.3751794">
      </trkpt>
      <trkpt lat="49.2800477" lon="-122.3751962">
      </trkpt>
      <trkpt lat="49.2799916" lon="-122.3751848">
      </trkpt>
    </trkseg>
    <trkseg>
      <trkpt lat="49.2802539" lon="-122.3733122">
      </trkpt>
      <trkpt lat="49.2802325" lon="-122.3733323">
      </trkpt>
    </trkseg>
    <trkseg>
      <trkpt lat="49.2802539" lon="-122.3733122">
      </trkpt>
      <trkpt lat="49.2803001" lon="-122.3733127">
      </trkpt>
      <trkpt lat="49.2803419" lon="-122.3733051">
      </trkpt>
      <trkpt lat="49.2803756" lon="-122.3732954">
      </trkpt>
      <trkpt lat="49.2804053" lon="-122.3732724">
      </trkpt>
      <trkpt lat="49.2804156" lon="-122.373257">
      </trkpt>
      <trkpt lat="49.280427" lon="-122.3732401">
      </trkpt>
      <trkpt lat="49.2804388" lon="-122.3731961">
      </trkpt>
      <trkpt lat="49.2804407" lon="-122.3731459">
      </trkpt>
      <trkpt lat="49.2804389" lon="-122.3731008">
      </trkpt>
    </trkseg>
    <trkseg>
      <trkpt lat="49.2813539" lon="-122.3651305">
      </trkpt>
      <trkpt lat="49.2813205" lon="-122.3651651">
      </trkpt>
      <trkpt lat="49.2812908" lon="-122.3652021">
      </trkpt>
      <trkpt lat="49.2812674" lon="-122.3652179">
      </trkpt>
      <trkpt lat="49.2812359" lon="-122.3652757">
      </trkpt>
      <trkpt lat="49.2812065" lon="-122.3653813">
      </trkpt>
      <trkpt lat="49.2811626" lon="-122.3654572">
      </trkpt>
      <trkpt lat="49.2809858" lon="-122.3657357">
      </trkpt>
      <trkpt lat="49.2807993" lon="-122.3659994">
      </trkpt>
      <trkpt lat="49.2807151" lon="-122.3663045">
      </trkpt>
      <trkpt lat="49.2806343" lon="-122.3664106">
      </trkpt>
      <trkpt lat="49.2806254" lon="-122.3665249">
      </trkpt>
      <trkpt lat="49.2805749" lon="-122.3666516">
      </trkpt>
      <trkpt lat="49.2804809" lon="-122.3667709">
      </trkpt>
      <trkpt lat="49.2804781" lon="-122.3668147">
      </trkpt>
      <trkpt lat="49.280486" lon="-122.3668558">
      </trkpt>
      <trkpt lat="49.2805005" lon="-122.3668919">
      </trkpt>
      <trkpt lat="49.2805859" lon="-122.3669449">
      </trkpt>
      <trkpt lat="49.2806296" lon="-122.3669821">
      </trkpt>
      <trkpt lat="49.2806544" lon="-122.3670314">
      </trkpt>
      <trkpt lat="49.2806636" lon="-122.3670692">
      </trkpt>
      <trkpt lat="49.2806634" lon="-122.3671147">
      </trkpt>
      <trkpt lat="49.2806523" lon="-122.3671803">
      </trkpt>
      <trkpt lat="49.2806514" lon="-122.3672339">
      </trkpt>
      <trkpt lat="49.2806848" lon="-122.3673294">
      </trkpt>
      <trkpt lat="49.2807248" lon="-122.3674514">
      </trkpt>
      <trkpt lat="49.2808134" lon="-122.3675982">
      </trkpt>
      <trkpt lat="49.2809363" lon="-122.3676792">
      </trkpt>
      <trkpt lat="49.2810293" lon="-122.3678106">
      </trkpt>
      <trkpt lat="49.2810765" lon="-122.3678421">
      </trkpt>
      <trkpt lat="49.2811204" lon="-122.3679024">
      </trkpt>
      <trkpt lat="49.2811399" lon="-122.3679845">
      </trkpt>
      <trkpt lat="49.2811343" lon="-122.3681352">
      </trkpt>
      <trkpt lat="49.2811513" lon="-122.3682635">
      </trkpt>
      <trkpt lat="49.2811656" lon="-122.3683192">
      </trkpt>
      <trkpt lat="49.2811775" lon="-122.3683523">
      </trkpt>
      <trkpt lat="49.2811827" lon="-122.3683968">
      </trkpt>
      <trkpt lat="49.2811688" lon="-122.3684376">
      </trkpt>
      <trkpt lat="49.2811227" lon="-122.3684815">
      </trkpt>
      <trkpt lat="49.281103" lon="-122.3685061">
      </trkpt>
      <trkpt lat="49.28109" lon="-122.3685446">
      </trkpt>
      <trkpt lat="49.2811035" lon="-122.3685902">
      </trkpt>
      <trkpt lat="49.2811213" lon="-122.3686281">
      </trkpt>
      <trkpt lat="49.2811423" lon="-122.3686622">
      </trkpt>
      <trkpt lat="49.2811453" lon="-122.3687239">
      </trkpt>
      <trkpt lat="49.2811392" lon="-122.3687946">
      </trkpt>
      <trkpt lat="49.2811217" lon="-122.3688718">
      </trkpt>
      <trkpt lat="49.281083" lon="-122.3689079">
      </trkpt>
      <trkpt lat="49.2810726" lon="-122.3689445">
      </trkpt>
      <trkpt lat="49.2810706" lon="-122.3690411">
      </trkpt>
      <trkpt lat="49.281062" lon="-122.3691007">
      </trkpt>
      <trkpt lat="49.2809931" lon="-122.3692684">
      </trkpt>
      <trkpt lat="49.280988" lon="-122.3693142">
      </trkpt>
      <trkpt lat="49.2810018" lon="-122.3693533">
      </trkpt>
      <trkpt lat="49.2810234" lon="-122.3693898">
      </trkpt>
      <trkpt lat="49.281042" lon="-122.3694467">
      </trkpt>
      <trkpt lat="49.281038" lon="-122.3694792">
      </trkpt>
      <trkpt lat="49.2810134" lon="-122.3695063">
      </trkpt>
      <trkpt lat="49.2809924" lon="-122.3695225">
      </trkpt>
      <trkpt lat="49.2809854" lon="-122.3695424">
      </trkpt>
      <trkpt lat="49.2809961" lon="-122.3695807">
      </trkpt>
      <trkpt lat="49.2813237" lon="-122.3699995">
      </trkpt>
      <trkpt lat="49.2814294" lon="-122.370106">
      </trkpt>
      <trkpt lat="49.2814915" lon="-122.3702384">
      </trkpt>
      <trkpt lat="49.2814172" lon="-122.3706814">
      </trkpt>
      <trkpt lat="49.2813023" lon="-122.3708875">
      </trkpt>
      <trkpt lat="49.2812693" lon="-122.3711442">
      </trkpt>
      <trkpt lat="49.2812758" lon="-122.3713785">
      </trkpt>
      <trkpt lat="49.2812449" lon="-122.3715818">
      </trkpt>
      <trkpt lat="49.2811716" lon="-122.3717996">
      </trkpt>
      <trkpt lat="49.2811358" lon="-122.3719829">
      </trkpt>
      <trkpt lat="49.2810684" lon="-122.3721529">
      </trkpt>
      <trkpt lat="49.2809792" lon="-122.3722423">
      </trkpt>
      <trkpt lat="49.2808842" lon="-122.3723008">
      </trkpt>
      <trkpt lat="49.2807864" lon="-122.3722921">
      </trkpt>
      <trkpt lat="49.2807325" lon="-122.3723473">
      </trkpt>
      <trkpt lat="49.280716" lon="-122.3724466">
      </trkpt>
      <trkpt lat="49.2806945" lon="-122.3726475">
      </trkpt>
      <trkpt lat="49.2805952" lon="-122.3727048">
      </trkpt>
      <trkpt lat="49.2806305" lon="-122.3728636">
      </trkpt>
      <trkpt lat="49.2805704" lon="-122.3729011">
      </trkpt>
      <trkpt lat="49.2804713" lon="-122.3730258">
      </trkpt>
      <trkpt lat="49.2804389" lon="-122.3731008">
      </trkpt>
    </trkseg>
    <trkseg>
      <trkpt lat="49.281343" lon="-122.3650815">
      </trkpt>
      <trkpt lat="49.2813539" lon="-122.3651305">
      </trkpt>
    </trkseg>
    <trkseg>
      <trkpt lat="49.2813235" lon="-122.3649969">
      </trkpt>
      <trkpt lat="49.281343" lon="-122.3650815">
      </trkpt>
    </trkseg>
  </trk>
</gpx>