<?xml version="1.0" encoding="UTF-8"?>
<gpx xmlns="http://www.topografix.com/GPX/1/1" xmlns:xsi="http://www.w3.org/2001/XMLSchema-instance" xsi:schemaLocation="http://www.topografix.com/GPX/1/1 http://www.topografix.com/GPX/1/1/gpx.xsd" version="1.1" creator="gpx.py -- https://github.com/tkrajina/gpxpy">
  <trk>
    <name>Unnamed ski tour</name>
    <trkseg>
      <trkpt lat="54.8862187" lon="-127.5088054">
      </trkpt>
      <trkpt lat="54.8857371" lon="-127.5092714">
      </trkpt>
      <trkpt lat="54.8854719" lon="-127.5094789">
      </trkpt>
      <trkpt lat="54.8852265" lon="-127.5104126">
      </trkpt>
      <trkpt lat="54.8849679" lon="-127.5109659">
      </trkpt>
      <trkpt lat="54.8846695" lon="-127.5114155">
      </trkpt>
      <trkpt lat="54.8841589" lon="-127.5118536">
      </trkpt>
      <trkpt lat="54.8835688" lon="-127.5119227">
      </trkpt>
      <trkpt lat="54.8831908" lon="-127.5116807">
      </trkpt>
      <trkpt lat="54.882594" lon="-127.5112887">
      </trkpt>
      <trkpt lat="54.8821364" lon="-127.5113003">
      </trkpt>
      <trkpt lat="54.8818579" lon="-127.5110466">
      </trkpt>
      <trkpt lat="54.8814003" lon="-127.5108737">
      </trkpt>
      <trkpt lat="54.8811947" lon="-127.5115193">
      </trkpt>
      <trkpt lat="54.8809825" lon="-127.5116461">
      </trkpt>
      <trkpt lat="54.8805714" lon="-127.5113579">
      </trkpt>
      <trkpt lat="54.8802332" lon="-127.5117614">
      </trkpt>
      <trkpt lat="54.8798353" lon="-127.5119458">
      </trkpt>
      <trkpt lat="54.8796695" lon="-127.5128911">
      </trkpt>
      <trkpt lat="54.8790262" lon="-127.5141361">
      </trkpt>
      <trkpt lat="54.8789002" lon="-127.5149084">
      </trkpt>
      <trkpt lat="54.8785354" lon="-127.5158191">
      </trkpt>
      <trkpt lat="54.8778125" lon="-127.5162456">
      </trkpt>
      <trkpt lat="54.8775737" lon="-127.5162341">
      </trkpt>
      <trkpt lat="54.8769967" lon="-127.5161419">
      </trkpt>
      <trkpt lat="54.8769304" lon="-127.5167413">
      </trkpt>
      <trkpt lat="54.8766784" lon="-127.5167183">
      </trkpt>
      <trkpt lat="54.8766585" lon="-127.5172946">
      </trkpt>
      <trkpt lat="54.876433" lon="-127.5173523">
      </trkpt>
      <trkpt lat="54.8760417" lon="-127.5167644">
      </trkpt>
      <trkpt lat="54.8752046" lon="-127.5171847">
      </trkpt>
    </trkseg>
  </trk>
</gpx>