<?xml version="1.0" encoding="UTF-8"?>
<gpx xmlns="http://www.topografix.com/GPX/1/1" xmlns:xsi="http://www.w3.org/2001/XMLSchema-instance" xsi:schemaLocation="http://www.topografix.com/GPX/1/1 http://www.topografix.com/GPX/1/1/gpx.xsd" version="1.1" creator="gpx.py -- https://github.com/tkrajina/gpxpy">
  <trk>
    <name>A</name>
    <trkseg>
      <trkpt lat="54.8883138" lon="-127.529437">
      </trkpt>
      <trkpt lat="54.8884527" lon="-127.5286752">
      </trkpt>
      <trkpt lat="54.8884527" lon="-127.527023">
      </trkpt>
      <trkpt lat="54.8886347" lon="-127.5255153">
      </trkpt>
      <trkpt lat="54.8887621" lon="-127.5252085">
      </trkpt>
      <trkpt lat="54.8890201" lon="-127.5244014">
      </trkpt>
      <trkpt lat="54.8891768" lon="-127.5232656">
      </trkpt>
      <trkpt lat="54.889241" lon="-127.522516">
      </trkpt>
      <trkpt lat="54.8893039" lon="-127.5215582">
      </trkpt>
      <trkpt lat="54.8893909" lon="-127.5211114">
      </trkpt>
      <trkpt lat="54.8895917" lon="-127.5207593">
      </trkpt>
      <trkpt lat="54.8896815" lon="-127.5204072">
      </trkpt>
      <trkpt lat="54.8896518" lon="-127.5200207">
      </trkpt>
      <trkpt lat="54.8896869" lon="-127.5197629">
      </trkpt>
      <trkpt lat="54.8899977" lon="-127.5191267">
      </trkpt>
      <trkpt lat="54.8900883" lon="-127.5187924">
      </trkpt>
      <trkpt lat="54.8902715" lon="-127.5183456">
      </trkpt>
      <trkpt lat="54.890255" lon="-127.5180635">
      </trkpt>
      <trkpt lat="54.890179" lon="-127.517763">
      </trkpt>
      <trkpt lat="54.8901662" lon="-127.517287">
      </trkpt>
      <trkpt lat="54.8902236" lon="-127.5170397">
      </trkpt>
      <trkpt lat="54.8902896" lon="-127.5169438">
      </trkpt>
      <trkpt lat="54.8903156" lon="-127.5168063">
      </trkpt>
      <trkpt lat="54.8902682" lon="-127.5165601">
      </trkpt>
      <trkpt lat="54.8902072" lon="-127.5161736">
      </trkpt>
      <trkpt lat="54.8902246" lon="-127.5160404">
      </trkpt>
      <trkpt lat="54.8902599" lon="-127.5159554">
      </trkpt>
      <trkpt lat="54.8902881" lon="-127.5158528">
      </trkpt>
      <trkpt lat="54.8902685" lon="-127.5156207">
      </trkpt>
      <trkpt lat="54.8903194" lon="-127.5154069">
      </trkpt>
      <trkpt lat="54.890313" lon="-127.5151752">
      </trkpt>
      <trkpt lat="54.8902353" lon="-127.514796">
      </trkpt>
      <trkpt lat="54.8902268" lon="-127.5143889">
      </trkpt>
      <trkpt lat="54.8902742" lon="-127.5141652">
      </trkpt>
      <trkpt lat="54.8904813" lon="-127.5138545">
      </trkpt>
      <trkpt lat="54.8910126" lon="-127.5125179">
      </trkpt>
      <trkpt lat="54.8910946" lon="-127.5119429">
      </trkpt>
      <trkpt lat="54.8912838" lon="-127.5112746">
      </trkpt>
      <trkpt lat="54.8914662" lon="-127.5105199">
      </trkpt>
      <trkpt lat="54.8914625" lon="-127.5103013">
      </trkpt>
      <trkpt lat="54.8913974" lon="-127.5100565">
      </trkpt>
      <trkpt lat="54.8913696" lon="-127.5099412">
      </trkpt>
      <trkpt lat="54.8913883" lon="-127.5097383">
      </trkpt>
      <trkpt lat="54.8914418" lon="-127.5094342">
      </trkpt>
      <trkpt lat="54.891538" lon="-127.5088269">
      </trkpt>
    </trkseg>
  </trk>
</gpx>