<?xml version="1.0" encoding="UTF-8"?>
<gpx xmlns="http://www.topografix.com/GPX/1/1" xmlns:xsi="http://www.w3.org/2001/XMLSchema-instance" xsi:schemaLocation="http://www.topografix.com/GPX/1/1 http://www.topografix.com/GPX/1/1/gpx.xsd" version="1.1" creator="gpx.py -- https://github.com/tkrajina/gpxpy">
  <trk>
    <name>Precipice Rimrock (Hotnarko Falls) Trail</name>
    <trkseg>
      <trkpt lat="52.46607363" lon="-125.48776836">
      </trkpt>
      <trkpt lat="52.46606504" lon="-125.48785164">
      </trkpt>
      <trkpt lat="52.46606702" lon="-125.48787327">
      </trkpt>
      <trkpt lat="52.46607267" lon="-125.4879485">
      </trkpt>
      <trkpt lat="52.46606992" lon="-125.48804951">
      </trkpt>
      <trkpt lat="52.46606788" lon="-125.48808644">
      </trkpt>
      <trkpt lat="52.46606918" lon="-125.48820343">
      </trkpt>
      <trkpt lat="52.4660764" lon="-125.48825361">
      </trkpt>
      <trkpt lat="52.46610948" lon="-125.48833925">
      </trkpt>
      <trkpt lat="52.46612391" lon="-125.48836504">
      </trkpt>
      <trkpt lat="52.46616345" lon="-125.48845254">
      </trkpt>
      <trkpt lat="52.46616941" lon="-125.48845962">
      </trkpt>
      <trkpt lat="52.46621062" lon="-125.48857537">
      </trkpt>
      <trkpt lat="52.46622186" lon="-125.48860054">
      </trkpt>
      <trkpt lat="52.46624859" lon="-125.48869617">
      </trkpt>
      <trkpt lat="52.46625485" lon="-125.48870852">
      </trkpt>
      <trkpt lat="52.46629236" lon="-125.48882829">
      </trkpt>
      <trkpt lat="52.46631393" lon="-125.48888317">
      </trkpt>
      <trkpt lat="52.46633476" lon="-125.48895502">
      </trkpt>
      <trkpt lat="52.46636274" lon="-125.48906897">
      </trkpt>
      <trkpt lat="52.46637674" lon="-125.48914131">
      </trkpt>
      <trkpt lat="52.46639487" lon="-125.48920319">
      </trkpt>
      <trkpt lat="52.46640675" lon="-125.48930378">
      </trkpt>
      <trkpt lat="52.46641873" lon="-125.48936418">
      </trkpt>
      <trkpt lat="52.4664294" lon="-125.48944157">
      </trkpt>
      <trkpt lat="52.46642549" lon="-125.48956754">
      </trkpt>
      <trkpt lat="52.46642914" lon="-125.48962595">
      </trkpt>
      <trkpt lat="52.466427" lon="-125.48970584">
      </trkpt>
      <trkpt lat="52.4664333" lon="-125.48977038">
      </trkpt>
      <trkpt lat="52.46643914" lon="-125.489869">
      </trkpt>
      <trkpt lat="52.46644859" lon="-125.4899457">
      </trkpt>
      <trkpt lat="52.46645009" lon="-125.49002096">
      </trkpt>
      <trkpt lat="52.46648133" lon="-125.49016164">
      </trkpt>
      <trkpt lat="52.4665003" lon="-125.490236">
      </trkpt>
      <trkpt lat="52.46651723" lon="-125.49029262">
      </trkpt>
      <trkpt lat="52.46654569" lon="-125.49042794">
      </trkpt>
      <trkpt lat="52.46657166" lon="-125.49051686">
      </trkpt>
      <trkpt lat="52.46655525" lon="-125.4906533">
      </trkpt>
      <trkpt lat="52.4665362" lon="-125.49070002">
      </trkpt>
      <trkpt lat="52.46650143" lon="-125.49079397">
      </trkpt>
      <trkpt lat="52.46645594" lon="-125.49087801">
      </trkpt>
      <trkpt lat="52.46644687" lon="-125.49089849">
      </trkpt>
      <trkpt lat="52.46638682" lon="-125.49094882">
      </trkpt>
      <trkpt lat="52.46638275" lon="-125.4909533">
      </trkpt>
      <trkpt lat="52.46632912" lon="-125.4909701">
      </trkpt>
      <trkpt lat="52.46626522" lon="-125.49102347">
      </trkpt>
      <trkpt lat="52.46626472" lon="-125.49102905">
      </trkpt>
      <trkpt lat="52.46620406" lon="-125.49108831">
      </trkpt>
      <trkpt lat="52.46618733" lon="-125.49111107">
      </trkpt>
      <trkpt lat="52.46613703" lon="-125.49115761">
      </trkpt>
      <trkpt lat="52.46607588" lon="-125.49124544">
      </trkpt>
      <trkpt lat="52.46607464" lon="-125.49125606">
      </trkpt>
      <trkpt lat="52.46604228" lon="-125.49135577">
      </trkpt>
      <trkpt lat="52.46604157" lon="-125.49136087">
      </trkpt>
      <trkpt lat="52.46601071" lon="-125.49146272">
      </trkpt>
      <trkpt lat="52.46599196" lon="-125.49151241">
      </trkpt>
      <trkpt lat="52.46594464" lon="-125.49156208">
      </trkpt>
      <trkpt lat="52.46592174" lon="-125.49158171">
      </trkpt>
      <trkpt lat="52.46586163" lon="-125.49162663">
      </trkpt>
      <trkpt lat="52.46583843" lon="-125.49165145">
      </trkpt>
      <trkpt lat="52.46576964" lon="-125.49171302">
      </trkpt>
      <trkpt lat="52.46575351" lon="-125.49173372">
      </trkpt>
      <trkpt lat="52.46570443" lon="-125.49178105">
      </trkpt>
      <trkpt lat="52.46568253" lon="-125.49180129">
      </trkpt>
      <trkpt lat="52.46563567" lon="-125.49184074">
      </trkpt>
      <trkpt lat="52.46563137" lon="-125.49184998">
      </trkpt>
      <trkpt lat="52.46558229" lon="-125.49193314">
      </trkpt>
      <trkpt lat="52.46556738" lon="-125.49203704">
      </trkpt>
      <trkpt lat="52.46556586" lon="-125.4920526">
      </trkpt>
      <trkpt lat="52.46553704" lon="-125.49214433">
      </trkpt>
      <trkpt lat="52.46553285" lon="-125.4921536">
      </trkpt>
      <trkpt lat="52.46548373" lon="-125.49218371">
      </trkpt>
      <trkpt lat="52.46541206" lon="-125.49220113">
      </trkpt>
      <trkpt lat="52.46535159" lon="-125.49226074">
      </trkpt>
      <trkpt lat="52.46534332" lon="-125.49227851">
      </trkpt>
      <trkpt lat="52.46530559" lon="-125.49233226">
      </trkpt>
      <trkpt lat="52.46530042" lon="-125.49235059">
      </trkpt>
      <trkpt lat="52.46525844" lon="-125.49244856">
      </trkpt>
      <trkpt lat="52.46524475" lon="-125.49249015">
      </trkpt>
      <trkpt lat="52.46522121" lon="-125.49260057">
      </trkpt>
      <trkpt lat="52.46519" lon="-125.49270383">
      </trkpt>
      <trkpt lat="52.46518443" lon="-125.49275461">
      </trkpt>
      <trkpt lat="52.46514121" lon="-125.49280515">
      </trkpt>
      <trkpt lat="52.46511315" lon="-125.49287662">
      </trkpt>
      <trkpt lat="52.46508766" lon="-125.49299334">
      </trkpt>
      <trkpt lat="52.46507333" lon="-125.49311902">
      </trkpt>
      <trkpt lat="52.46507124" lon="-125.49314089">
      </trkpt>
      <trkpt lat="52.46506127" lon="-125.49324468">
      </trkpt>
      <trkpt lat="52.46506022" lon="-125.49325559">
      </trkpt>
      <trkpt lat="52.46503422" lon="-125.49338876">
      </trkpt>
      <trkpt lat="52.46502688" lon="-125.49340424">
      </trkpt>
      <trkpt lat="52.46501128" lon="-125.49351923">
      </trkpt>
      <trkpt lat="52.46500438" lon="-125.49364791">
      </trkpt>
      <trkpt lat="52.46500264" lon="-125.49367022">
      </trkpt>
      <trkpt lat="52.46499122" lon="-125.49382368">
      </trkpt>
      <trkpt lat="52.46498812" lon="-125.49385642">
      </trkpt>
      <trkpt lat="52.46495803" lon="-125.4939742">
      </trkpt>
      <trkpt lat="52.46493885" lon="-125.4940296">
      </trkpt>
      <trkpt lat="52.46489007" lon="-125.49410918">
      </trkpt>
      <trkpt lat="52.46488615" lon="-125.49411337">
      </trkpt>
      <trkpt lat="52.46485047" lon="-125.49417602">
      </trkpt>
      <trkpt lat="52.46483953" lon="-125.49427592">
      </trkpt>
      <trkpt lat="52.46483437" lon="-125.49434285">
      </trkpt>
      <trkpt lat="52.4648263" lon="-125.49444934">
      </trkpt>
      <trkpt lat="52.46482629" lon="-125.49448889">
      </trkpt>
      <trkpt lat="52.46481297" lon="-125.49460303">
      </trkpt>
      <trkpt lat="52.46480817" lon="-125.49464424">
      </trkpt>
      <trkpt lat="52.46478961" lon="-125.49475148">
      </trkpt>
      <trkpt lat="52.46478654" lon="-125.49478366">
      </trkpt>
      <trkpt lat="52.46479362" lon="-125.49487838">
      </trkpt>
      <trkpt lat="52.46480107" lon="-125.49497422">
      </trkpt>
      <trkpt lat="52.46478339" lon="-125.49511131">
      </trkpt>
      <trkpt lat="52.46473268" lon="-125.49513895">
      </trkpt>
      <trkpt lat="52.46469578" lon="-125.49514482">
      </trkpt>
      <trkpt lat="52.46467793" lon="-125.49520235">
      </trkpt>
      <trkpt lat="52.46465502" lon="-125.49528115">
      </trkpt>
      <trkpt lat="52.46464847" lon="-125.49530358">
      </trkpt>
      <trkpt lat="52.46462252" lon="-125.49540818">
      </trkpt>
      <trkpt lat="52.46459554" lon="-125.49550525">
      </trkpt>
      <trkpt lat="52.46459016" lon="-125.4955246">
      </trkpt>
      <trkpt lat="52.46456372" lon="-125.49559146">
      </trkpt>
      <trkpt lat="52.46454122" lon="-125.49565493">
      </trkpt>
      <trkpt lat="52.46458264" lon="-125.4957215">
      </trkpt>
      <trkpt lat="52.46461174" lon="-125.49576942">
      </trkpt>
      <trkpt lat="52.46461356" lon="-125.49582576">
      </trkpt>
      <trkpt lat="52.46456222" lon="-125.49594036">
      </trkpt>
      <trkpt lat="52.46452557" lon="-125.49600366">
      </trkpt>
      <trkpt lat="52.46447441" lon="-125.49608415">
      </trkpt>
      <trkpt lat="52.46446699" lon="-125.4960926">
      </trkpt>
      <trkpt lat="52.46442465" lon="-125.49615419">
      </trkpt>
      <trkpt lat="52.46437914" lon="-125.49627708">
      </trkpt>
      <trkpt lat="52.4643781" lon="-125.49628734">
      </trkpt>
      <trkpt lat="52.4643523" lon="-125.49639394">
      </trkpt>
      <trkpt lat="52.46434711" lon="-125.49642117">
      </trkpt>
      <trkpt lat="52.46434534" lon="-125.49651367">
      </trkpt>
      <trkpt lat="52.46433924" lon="-125.49661469">
      </trkpt>
      <trkpt lat="52.46433589" lon="-125.4966518">
      </trkpt>
      <trkpt lat="52.46432234" lon="-125.49676817">
      </trkpt>
      <trkpt lat="52.46432186" lon="-125.49677347">
      </trkpt>
      <trkpt lat="52.46430792" lon="-125.49686457">
      </trkpt>
      <trkpt lat="52.46429955" lon="-125.49696163">
      </trkpt>
      <trkpt lat="52.46428102" lon="-125.49706481">
      </trkpt>
      <trkpt lat="52.46427372" lon="-125.49710357">
      </trkpt>
      <trkpt lat="52.46425145" lon="-125.4971946">
      </trkpt>
      <trkpt lat="52.4642262" lon="-125.49728448">
      </trkpt>
      <trkpt lat="52.46420565" lon="-125.49736007">
      </trkpt>
      <trkpt lat="52.46417112" lon="-125.49742461">
      </trkpt>
      <trkpt lat="52.46411015" lon="-125.49754348">
      </trkpt>
      <trkpt lat="52.4640868" lon="-125.49756699">
      </trkpt>
      <trkpt lat="52.46400798" lon="-125.49766307">
      </trkpt>
      <trkpt lat="52.46399983" lon="-125.4976726">
      </trkpt>
      <trkpt lat="52.46396907" lon="-125.49775132">
      </trkpt>
      <trkpt lat="52.46394566" lon="-125.49787681">
      </trkpt>
      <trkpt lat="52.46394475" lon="-125.49788214">
      </trkpt>
      <trkpt lat="52.46390634" lon="-125.49802037">
      </trkpt>
      <trkpt lat="52.46388456" lon="-125.49807657">
      </trkpt>
      <trkpt lat="52.46383603" lon="-125.49817589">
      </trkpt>
      <trkpt lat="52.46383119" lon="-125.49818578">
      </trkpt>
      <trkpt lat="52.4637717" lon="-125.4982647">
      </trkpt>
      <trkpt lat="52.46376633" lon="-125.49828008">
      </trkpt>
      <trkpt lat="52.46372083" lon="-125.49839004">
      </trkpt>
      <trkpt lat="52.46371335" lon="-125.49841482">
      </trkpt>
      <trkpt lat="52.46366458" lon="-125.49850318">
      </trkpt>
      <trkpt lat="52.46360465" lon="-125.49856106">
      </trkpt>
      <trkpt lat="52.46358463" lon="-125.4985814">
      </trkpt>
      <trkpt lat="52.46353464" lon="-125.49867237">
      </trkpt>
      <trkpt lat="52.46352823" lon="-125.49872401">
      </trkpt>
      <trkpt lat="52.46347533" lon="-125.49883397">
      </trkpt>
      <trkpt lat="52.46345809" lon="-125.49888245">
      </trkpt>
      <trkpt lat="52.4634523" lon="-125.49889617">
      </trkpt>
      <trkpt lat="52.4633984" lon="-125.49899999">
      </trkpt>
      <trkpt lat="52.46338494" lon="-125.49901544">
      </trkpt>
      <trkpt lat="52.46331986" lon="-125.49911565">
      </trkpt>
      <trkpt lat="52.46324126" lon="-125.4992428">
      </trkpt>
      <trkpt lat="52.46321935" lon="-125.49927623">
      </trkpt>
      <trkpt lat="52.46317045" lon="-125.49935555">
      </trkpt>
      <trkpt lat="52.46316658" lon="-125.49935945">
      </trkpt>
      <trkpt lat="52.46310653" lon="-125.49944579">
      </trkpt>
      <trkpt lat="52.46308807" lon="-125.4994681">
      </trkpt>
      <trkpt lat="52.46301775" lon="-125.4995269">
      </trkpt>
      <trkpt lat="52.46301032" lon="-125.49953554">
      </trkpt>
      <trkpt lat="52.46294644" lon="-125.49961997">
      </trkpt>
      <trkpt lat="52.46289176" lon="-125.49973549">
      </trkpt>
      <trkpt lat="52.46287343" lon="-125.4997805">
      </trkpt>
      <trkpt lat="52.46282564" lon="-125.49987564">
      </trkpt>
      <trkpt lat="52.46281752" lon="-125.49988898">
      </trkpt>
      <trkpt lat="52.46275379" lon="-125.50002965">
      </trkpt>
      <trkpt lat="52.4627484" lon="-125.50004896">
      </trkpt>
      <trkpt lat="52.46268736" lon="-125.50016774">
      </trkpt>
      <trkpt lat="52.46267056" lon="-125.50020453">
      </trkpt>
      <trkpt lat="52.46260906" lon="-125.5003008">
      </trkpt>
      <trkpt lat="52.46259077" lon="-125.50032066">
      </trkpt>
      <trkpt lat="52.4625494" lon="-125.50041133">
      </trkpt>
      <trkpt lat="52.46248502" lon="-125.50050836">
      </trkpt>
      <trkpt lat="52.46248142" lon="-125.50051225">
      </trkpt>
      <trkpt lat="52.46241375" lon="-125.50058906">
      </trkpt>
      <trkpt lat="52.46239958" lon="-125.50060534">
      </trkpt>
      <trkpt lat="52.46234538" lon="-125.50064394">
      </trkpt>
      <trkpt lat="52.46229432" lon="-125.50074861">
      </trkpt>
      <trkpt lat="52.46228893" lon="-125.50077225">
      </trkpt>
      <trkpt lat="52.46224365" lon="-125.50085182">
      </trkpt>
      <trkpt lat="52.46223622" lon="-125.5008643">
      </trkpt>
      <trkpt lat="52.4621791" lon="-125.5009079">
      </trkpt>
      <trkpt lat="52.46217174" lon="-125.50092029">
      </trkpt>
      <trkpt lat="52.4621227" lon="-125.50097831">
      </trkpt>
      <trkpt lat="52.4620954" lon="-125.50100637">
      </trkpt>
      <trkpt lat="52.46209155" lon="-125.50101432">
      </trkpt>
      <trkpt lat="52.46200126" lon="-125.50103778">
      </trkpt>
      <trkpt lat="52.46199677" lon="-125.50104214">
      </trkpt>
      <trkpt lat="52.46188809" lon="-125.50114085">
      </trkpt>
      <trkpt lat="52.4618362" lon="-125.50117135">
      </trkpt>
      <trkpt lat="52.46178457" lon="-125.50120172">
      </trkpt>
      <trkpt lat="52.4617183" lon="-125.50123566">
      </trkpt>
      <trkpt lat="52.46171028" lon="-125.50123859">
      </trkpt>
      <trkpt lat="52.4616255" lon="-125.50129216">
      </trkpt>
      <trkpt lat="52.46161697" lon="-125.5013005">
      </trkpt>
      <trkpt lat="52.46154136" lon="-125.50136985">
      </trkpt>
      <trkpt lat="52.46152872" lon="-125.50138221">
      </trkpt>
      <trkpt lat="52.46145684" lon="-125.50142179">
      </trkpt>
      <trkpt lat="52.46138996" lon="-125.50146441">
      </trkpt>
      <trkpt lat="52.4613814" lon="-125.50147858">
      </trkpt>
      <trkpt lat="52.46133188" lon="-125.50157405">
      </trkpt>
      <trkpt lat="52.46132752" lon="-125.50160454">
      </trkpt>
      <trkpt lat="52.46128216" lon="-125.50172131">
      </trkpt>
      <trkpt lat="52.46127929" lon="-125.50174143">
      </trkpt>
      <trkpt lat="52.46123716" lon="-125.50186529">
      </trkpt>
      <trkpt lat="52.46121202" lon="-125.5020503">
      </trkpt>
      <trkpt lat="52.46121159" lon="-125.50205604">
      </trkpt>
      <trkpt lat="52.46119956" lon="-125.5021773">
      </trkpt>
      <trkpt lat="52.46120253" lon="-125.50221074">
      </trkpt>
      <trkpt lat="52.46118852" lon="-125.50235963">
      </trkpt>
      <trkpt lat="52.46118271" lon="-125.50249667">
      </trkpt>
      <trkpt lat="52.46118032" lon="-125.50256267">
      </trkpt>
      <trkpt lat="52.46116032" lon="-125.50272273">
      </trkpt>
      <trkpt lat="52.46115893" lon="-125.50273233">
      </trkpt>
      <trkpt lat="52.46114408" lon="-125.5028209">
      </trkpt>
      <trkpt lat="52.46111377" lon="-125.50293589">
      </trkpt>
      <trkpt lat="52.46110773" lon="-125.50299048">
      </trkpt>
      <trkpt lat="52.46105884" lon="-125.50311878">
      </trkpt>
      <trkpt lat="52.46104367" lon="-125.50314322">
      </trkpt>
      <trkpt lat="52.46099869" lon="-125.50321112">
      </trkpt>
      <trkpt lat="52.46091168" lon="-125.50335357">
      </trkpt>
      <trkpt lat="52.46093134" lon="-125.50344732">
      </trkpt>
      <trkpt lat="52.46093837" lon="-125.50347698">
      </trkpt>
      <trkpt lat="52.46095609" lon="-125.50356505">
      </trkpt>
      <trkpt lat="52.4610058" lon="-125.50367274">
      </trkpt>
      <trkpt lat="52.46096851" lon="-125.5038137">
      </trkpt>
      <trkpt lat="52.46095957" lon="-125.50391229">
      </trkpt>
      <trkpt lat="52.46095353" lon="-125.50393843">
      </trkpt>
      <trkpt lat="52.46093101" lon="-125.50402652">
      </trkpt>
      <trkpt lat="52.46089828" lon="-125.5041629">
      </trkpt>
      <trkpt lat="52.46086971" lon="-125.50422732">
      </trkpt>
      <trkpt lat="52.46085971" lon="-125.50429448">
      </trkpt>
      <trkpt lat="52.46087977" lon="-125.50436612">
      </trkpt>
      <trkpt lat="52.46093313" lon="-125.50440238">
      </trkpt>
      <trkpt lat="52.46098622" lon="-125.5044881">
      </trkpt>
      <trkpt lat="52.46099945" lon="-125.50459403">
      </trkpt>
      <trkpt lat="52.46099059" lon="-125.50466803">
      </trkpt>
      <trkpt lat="52.46097809" lon="-125.50476629">
      </trkpt>
      <trkpt lat="52.46090392" lon="-125.50496233">
      </trkpt>
      <trkpt lat="52.46088485" lon="-125.50510299">
      </trkpt>
      <trkpt lat="52.46088432" lon="-125.50517559">
      </trkpt>
      <trkpt lat="52.46087978" lon="-125.50527393">
      </trkpt>
      <trkpt lat="52.46086873" lon="-125.50535203">
      </trkpt>
      <trkpt lat="52.46085033" lon="-125.50543891">
      </trkpt>
      <trkpt lat="52.46082856" lon="-125.50550928">
      </trkpt>
      <trkpt lat="52.46082371" lon="-125.50559694">
      </trkpt>
      <trkpt lat="52.46083576" lon="-125.50574168">
      </trkpt>
      <trkpt lat="52.46084265" lon="-125.50577716">
      </trkpt>
      <trkpt lat="52.46076433" lon="-125.50581676">
      </trkpt>
      <trkpt lat="52.46072378" lon="-125.50583579">
      </trkpt>
      <trkpt lat="52.46068588" lon="-125.50582771">
      </trkpt>
      <trkpt lat="52.46066169" lon="-125.50582455">
      </trkpt>
      <trkpt lat="52.46066214" lon="-125.50570236">
      </trkpt>
      <trkpt lat="52.46069796" lon="-125.50554312">
      </trkpt>
      <trkpt lat="52.46072595" lon="-125.50544268">
      </trkpt>
      <trkpt lat="52.46074425" lon="-125.50537807">
      </trkpt>
      <trkpt lat="52.46074599" lon="-125.50530825">
      </trkpt>
      <trkpt lat="52.46075596" lon="-125.50523892">
      </trkpt>
      <trkpt lat="52.46076826" lon="-125.50514496">
      </trkpt>
      <trkpt lat="52.46074992" lon="-125.50504137">
      </trkpt>
      <trkpt lat="52.46070002" lon="-125.5050157">
      </trkpt>
      <trkpt lat="52.46063832" lon="-125.50499695">
      </trkpt>
      <trkpt lat="52.46058873" lon="-125.50498898">
      </trkpt>
      <trkpt lat="52.46057237" lon="-125.5049845">
      </trkpt>
      <trkpt lat="52.46050243" lon="-125.50493113">
      </trkpt>
      <trkpt lat="52.46049889" lon="-125.50492989">
      </trkpt>
      <trkpt lat="52.46046405" lon="-125.50489135">
      </trkpt>
      <trkpt lat="52.46039118" lon="-125.5048779">
      </trkpt>
      <trkpt lat="52.46032773" lon="-125.50495298">
      </trkpt>
      <trkpt lat="52.46025444" lon="-125.50503939">
      </trkpt>
      <trkpt lat="52.46020043" lon="-125.50505941">
      </trkpt>
      <trkpt lat="52.46013942" lon="-125.50506204">
      </trkpt>
      <trkpt lat="52.46007072" lon="-125.5050332">
      </trkpt>
      <trkpt lat="52.46001455" lon="-125.5049894">
      </trkpt>
      <trkpt lat="52.45995805" lon="-125.50496253">
      </trkpt>
      <trkpt lat="52.4598961" lon="-125.50497365">
      </trkpt>
      <trkpt lat="52.45985608" lon="-125.50497347">
      </trkpt>
      <trkpt lat="52.45976388" lon="-125.50495186">
      </trkpt>
      <trkpt lat="52.45968911" lon="-125.50492373">
      </trkpt>
      <trkpt lat="52.45967139" lon="-125.5049128">
      </trkpt>
      <trkpt lat="52.45960796" lon="-125.50489211">
      </trkpt>
      <trkpt lat="52.45959513" lon="-125.50489355">
      </trkpt>
      <trkpt lat="52.45953444" lon="-125.50489102">
      </trkpt>
      <trkpt lat="52.45946626" lon="-125.50487543">
      </trkpt>
      <trkpt lat="52.45944416" lon="-125.50486865">
      </trkpt>
      <trkpt lat="52.45936379" lon="-125.5048319">
      </trkpt>
      <trkpt lat="52.45930475" lon="-125.50479115">
      </trkpt>
      <trkpt lat="52.45923355" lon="-125.50472176">
      </trkpt>
      <trkpt lat="52.45921744" lon="-125.50470593">
      </trkpt>
      <trkpt lat="52.45915751" lon="-125.5046425">
      </trkpt>
      <trkpt lat="52.45914852" lon="-125.50462886">
      </trkpt>
      <trkpt lat="52.4590904" lon="-125.50456513">
      </trkpt>
      <trkpt lat="52.45906948" lon="-125.50453149">
      </trkpt>
      <trkpt lat="52.45900664" lon="-125.5044679">
      </trkpt>
      <trkpt lat="52.45897617" lon="-125.50445351">
      </trkpt>
      <trkpt lat="52.45893571" lon="-125.50445179">
      </trkpt>
      <trkpt lat="52.45883337" lon="-125.5043867">
      </trkpt>
      <trkpt lat="52.45882141" lon="-125.50437259">
      </trkpt>
      <trkpt lat="52.45875279" lon="-125.50431185">
      </trkpt>
      <trkpt lat="52.45874297" lon="-125.50430915">
      </trkpt>
      <trkpt lat="52.45868755" lon="-125.50429385">
      </trkpt>
      <trkpt lat="52.45866485" lon="-125.50428758">
      </trkpt>
      <trkpt lat="52.45860274" lon="-125.5042756">
      </trkpt>
      <trkpt lat="52.45852769" lon="-125.50426511">
      </trkpt>
      <trkpt lat="52.45843426" lon="-125.50425485">
      </trkpt>
      <trkpt lat="52.458418" lon="-125.50425554">
      </trkpt>
      <trkpt lat="52.45834154" lon="-125.5042498">
      </trkpt>
      <trkpt lat="52.45832118" lon="-125.5042594">
      </trkpt>
      <trkpt lat="52.45825309" lon="-125.50427047">
      </trkpt>
      <trkpt lat="52.45824282" lon="-125.50427768">
      </trkpt>
      <trkpt lat="52.45817089" lon="-125.50426649">
      </trkpt>
      <trkpt lat="52.45808023" lon="-125.50426881">
      </trkpt>
      <trkpt lat="52.4580094" lon="-125.5042989">
      </trkpt>
      <trkpt lat="52.45794341" lon="-125.5043341">
      </trkpt>
      <trkpt lat="52.45793594" lon="-125.5043374">
      </trkpt>
      <trkpt lat="52.45786638" lon="-125.5043607">
      </trkpt>
      <trkpt lat="52.45786316" lon="-125.50435988">
      </trkpt>
      <trkpt lat="52.4578089" lon="-125.50438821">
      </trkpt>
      <trkpt lat="52.45780515" lon="-125.50439271">
      </trkpt>
      <trkpt lat="52.4577304" lon="-125.50445565">
      </trkpt>
      <trkpt lat="52.45772419" lon="-125.50445422">
      </trkpt>
      <trkpt lat="52.45767921" lon="-125.50454003">
      </trkpt>
      <trkpt lat="52.45765663" lon="-125.50463748">
      </trkpt>
      <trkpt lat="52.45765259" lon="-125.50464752">
      </trkpt>
      <trkpt lat="52.45761559" lon="-125.50471065">
      </trkpt>
      <trkpt lat="52.45758713" lon="-125.50476185">
      </trkpt>
      <trkpt lat="52.45753811" lon="-125.50482328">
      </trkpt>
      <trkpt lat="52.45748696" lon="-125.50477604">
      </trkpt>
      <trkpt lat="52.45745404" lon="-125.50482277">
      </trkpt>
      <trkpt lat="52.45744121" lon="-125.50489557">
      </trkpt>
      <trkpt lat="52.45743591" lon="-125.50498464">
      </trkpt>
      <trkpt lat="52.45743468" lon="-125.50499444">
      </trkpt>
      <trkpt lat="52.4574023" lon="-125.50507766">
      </trkpt>
      <trkpt lat="52.45732947" lon="-125.505227">
      </trkpt>
      <trkpt lat="52.45730788" lon="-125.50528307">
      </trkpt>
      <trkpt lat="52.45721626" lon="-125.50545995">
      </trkpt>
      <trkpt lat="52.45717232" lon="-125.5055955">
      </trkpt>
      <trkpt lat="52.45716362" lon="-125.50561788">
      </trkpt>
      <trkpt lat="52.45712837" lon="-125.50574071">
      </trkpt>
      <trkpt lat="52.45712027" lon="-125.5057581">
      </trkpt>
      <trkpt lat="52.45708595" lon="-125.50585586">
      </trkpt>
      <trkpt lat="52.45708244" lon="-125.50585986">
      </trkpt>
      <trkpt lat="52.45705252" lon="-125.50594073">
      </trkpt>
      <trkpt lat="52.45702175" lon="-125.50603024">
      </trkpt>
      <trkpt lat="52.45702128" lon="-125.50603506">
      </trkpt>
      <trkpt lat="52.45698459" lon="-125.50609275">
      </trkpt>
      <trkpt lat="52.45694975" lon="-125.50616804">
      </trkpt>
      <trkpt lat="52.45691208" lon="-125.50624309">
      </trkpt>
      <trkpt lat="52.45682088" lon="-125.50636722">
      </trkpt>
      <trkpt lat="52.45677691" lon="-125.50647926">
      </trkpt>
      <trkpt lat="52.45673893" lon="-125.50653917">
      </trkpt>
      <trkpt lat="52.45667366" lon="-125.50663778">
      </trkpt>
      <trkpt lat="52.45663034" lon="-125.50671268">
      </trkpt>
      <trkpt lat="52.45659605" lon="-125.50680092">
      </trkpt>
      <trkpt lat="52.4565484" lon="-125.50687897">
      </trkpt>
      <trkpt lat="52.45649824" lon="-125.50695">
      </trkpt>
      <trkpt lat="52.45641384" lon="-125.50702676">
      </trkpt>
      <trkpt lat="52.45636169" lon="-125.50706837">
      </trkpt>
      <trkpt lat="52.45629134" lon="-125.50707242">
      </trkpt>
      <trkpt lat="52.45626826" lon="-125.50708234">
      </trkpt>
      <trkpt lat="52.45618118" lon="-125.50709915">
      </trkpt>
      <trkpt lat="52.45613246" lon="-125.50712682">
      </trkpt>
      <trkpt lat="52.45612465" lon="-125.5071297">
      </trkpt>
      <trkpt lat="52.45608776" lon="-125.50716402">
      </trkpt>
      <trkpt lat="52.45603305" lon="-125.50717636">
      </trkpt>
      <trkpt lat="52.45600244" lon="-125.50718134">
      </trkpt>
      <trkpt lat="52.45590427" lon="-125.50713917">
      </trkpt>
      <trkpt lat="52.45581706" lon="-125.50712667">
      </trkpt>
      <trkpt lat="52.45579134" lon="-125.50712737">
      </trkpt>
      <trkpt lat="52.45572759" lon="-125.50711928">
      </trkpt>
      <trkpt lat="52.45570748" lon="-125.50711232">
      </trkpt>
      <trkpt lat="52.45560769" lon="-125.50712934">
      </trkpt>
      <trkpt lat="52.45553276" lon="-125.50709111">
      </trkpt>
      <trkpt lat="52.45549083" lon="-125.50704537">
      </trkpt>
      <trkpt lat="52.45545087" lon="-125.50696497">
      </trkpt>
      <trkpt lat="52.45544812" lon="-125.50695854">
      </trkpt>
      <trkpt lat="52.45540282" lon="-125.50693594">
      </trkpt>
      <trkpt lat="52.45536089" lon="-125.50692096">
      </trkpt>
      <trkpt lat="52.4552985" lon="-125.50690776">
      </trkpt>
      <trkpt lat="52.45528541" lon="-125.50690195">
      </trkpt>
      <trkpt lat="52.45524459" lon="-125.50687472">
      </trkpt>
      <trkpt lat="52.45519688" lon="-125.50683196">
      </trkpt>
      <trkpt lat="52.45514808" lon="-125.50675272">
      </trkpt>
      <trkpt lat="52.45514545" lon="-125.50668955">
      </trkpt>
      <trkpt lat="52.45512495" lon="-125.50660415">
      </trkpt>
      <trkpt lat="52.45509275" lon="-125.50655097">
      </trkpt>
      <trkpt lat="52.45504877" lon="-125.50651844">
      </trkpt>
      <trkpt lat="52.45503296" lon="-125.50651097">
      </trkpt>
      <trkpt lat="52.45500202" lon="-125.50646067">
      </trkpt>
      <trkpt lat="52.45498142" lon="-125.50638177">
      </trkpt>
      <trkpt lat="52.45494293" lon="-125.50631262">
      </trkpt>
      <trkpt lat="52.45493256" lon="-125.50628734">
      </trkpt>
      <trkpt lat="52.45490003" lon="-125.50623386">
      </trkpt>
      <trkpt lat="52.45483585" lon="-125.50613057">
      </trkpt>
      <trkpt lat="52.45480431" lon="-125.50602501">
      </trkpt>
      <trkpt lat="52.45470979" lon="-125.50598259">
      </trkpt>
      <trkpt lat="52.45462648" lon="-125.50605317">
      </trkpt>
      <trkpt lat="52.45458708" lon="-125.50605009">
      </trkpt>
      <trkpt lat="52.4545411" lon="-125.50604229">
      </trkpt>
    </trkseg>
  </trk>
</gpx>