<?xml version="1.0" encoding="UTF-8"?>
<gpx xmlns="http://www.topografix.com/GPX/1/1" xmlns:xsi="http://www.w3.org/2001/XMLSchema-instance" xsi:schemaLocation="http://www.topografix.com/GPX/1/1 http://www.topografix.com/GPX/1/1/gpx.xsd" version="1.1" creator="gpx.py -- https://github.com/tkrajina/gpxpy">
  <trk>
    <name>Ski tour near Ursus Minor Mountain</name>
    <trkseg>
      <trkpt lat="51.296792" lon="-117.5669879">
      </trkpt>
      <trkpt lat="51.2972019" lon="-117.5669611">
      </trkpt>
      <trkpt lat="51.2981142" lon="-117.5666607">
      </trkpt>
      <trkpt lat="51.2989595" lon="-117.5656951">
      </trkpt>
      <trkpt lat="51.2994022" lon="-117.5646973">
      </trkpt>
      <trkpt lat="51.2998886" lon="-117.5643486">
      </trkpt>
      <trkpt lat="51.3001603" lon="-117.5644022">
      </trkpt>
      <trkpt lat="51.3004487" lon="-117.5649601">
      </trkpt>
      <trkpt lat="51.3017501" lon="-117.5687528">
      </trkpt>
      <trkpt lat="51.3031989" lon="-117.5717139">
      </trkpt>
      <trkpt lat="51.3043392" lon="-117.5731945">
      </trkpt>
      <trkpt lat="51.3051978" lon="-117.5741708">
      </trkpt>
      <trkpt lat="51.3058014" lon="-117.5745034">
      </trkpt>
      <trkpt lat="51.3061368" lon="-117.5748575">
      </trkpt>
      <trkpt lat="51.3066465" lon="-117.5752866">
      </trkpt>
      <trkpt lat="51.3073508" lon="-117.5755656">
      </trkpt>
      <trkpt lat="51.3081355" lon="-117.576102">
      </trkpt>
      <trkpt lat="51.30888" lon="-117.5770784">
      </trkpt>
      <trkpt lat="51.3093427" lon="-117.577486">
      </trkpt>
    </trkseg>
  </trk>
</gpx>