<?xml version="1.0" encoding="UTF-8"?>
<gpx xmlns="http://www.topografix.com/GPX/1/1" xmlns:xsi="http://www.w3.org/2001/XMLSchema-instance" xsi:schemaLocation="http://www.topografix.com/GPX/1/1 http://www.topografix.com/GPX/1/1/gpx.xsd" version="1.1" creator="gpx.py -- https://github.com/tkrajina/gpxpy">
  <trk>
    <name>Ski tour near Ross Peak</name>
    <trkseg>
      <trkpt lat="51.2594514" lon="-117.5383956">
      </trkpt>
      <trkpt lat="51.2592662" lon="-117.5392646">
      </trkpt>
      <trkpt lat="51.2591823" lon="-117.5399566">
      </trkpt>
      <trkpt lat="51.2591622" lon="-117.5406379">
      </trkpt>
      <trkpt lat="51.2592259" lon="-117.5413513">
      </trkpt>
      <trkpt lat="51.2593166" lon="-117.5420648">
      </trkpt>
      <trkpt lat="51.2594408" lon="-117.5426656">
      </trkpt>
      <trkpt lat="51.2595986" lon="-117.5432611">
      </trkpt>
      <trkpt lat="51.2596624" lon="-117.5436419">
      </trkpt>
      <trkpt lat="51.259565" lon="-117.5438994">
      </trkpt>
      <trkpt lat="51.2595751" lon="-117.5441998">
      </trkpt>
      <trkpt lat="51.2594979" lon="-117.5449455">
      </trkpt>
      <trkpt lat="51.259283" lon="-117.545895">
      </trkpt>
      <trkpt lat="51.2592394" lon="-117.5469571">
      </trkpt>
      <trkpt lat="51.2591689" lon="-117.54722">
      </trkpt>
      <trkpt lat="51.2592427" lon="-117.5477725">
      </trkpt>
      <trkpt lat="51.2591857" lon="-117.5480676">
      </trkpt>
      <trkpt lat="51.2592058" lon="-117.5485718">
      </trkpt>
      <trkpt lat="51.2593434" lon="-117.5490868">
      </trkpt>
      <trkpt lat="51.2595415" lon="-117.5494999">
      </trkpt>
      <trkpt lat="51.259518" lon="-117.5498968">
      </trkpt>
      <trkpt lat="51.2595449" lon="-117.5504977">
      </trkpt>
      <trkpt lat="51.2596691" lon="-117.5509429">
      </trkpt>
      <trkpt lat="51.259659" lon="-117.5513828">
      </trkpt>
      <trkpt lat="51.2595583" lon="-117.5514633">
      </trkpt>
      <trkpt lat="51.2595214" lon="-117.5521874">
      </trkpt>
      <trkpt lat="51.2596355" lon="-117.5527722">
      </trkpt>
      <trkpt lat="51.2597261" lon="-117.5539738">
      </trkpt>
      <trkpt lat="51.2598403" lon="-117.5544995">
      </trkpt>
      <trkpt lat="51.2598504" lon="-117.5550574">
      </trkpt>
      <trkpt lat="51.2598436" lon="-117.5555295">
      </trkpt>
      <trkpt lat="51.2596489" lon="-117.5564897">
      </trkpt>
      <trkpt lat="51.2596926" lon="-117.5569993">
      </trkpt>
      <trkpt lat="51.2597698" lon="-117.5572139">
      </trkpt>
      <trkpt lat="51.2596624" lon="-117.5576538">
      </trkpt>
      <trkpt lat="51.2598235" lon="-117.5584424">
      </trkpt>
      <trkpt lat="51.2598738" lon="-117.5591773">
      </trkpt>
      <trkpt lat="51.2598336" lon="-117.5597674">
      </trkpt>
      <trkpt lat="51.259612" lon="-117.5602984">
      </trkpt>
      <trkpt lat="51.2596389" lon="-117.5605881">
      </trkpt>
      <trkpt lat="51.2593741" lon="-117.5616174">
      </trkpt>
      <trkpt lat="51.2593267" lon="-117.5622511">
      </trkpt>
      <trkpt lat="51.2594374" lon="-117.5637424">
      </trkpt>
      <trkpt lat="51.2592226" lon="-117.5651372">
      </trkpt>
      <trkpt lat="51.2592494" lon="-117.5659418">
      </trkpt>
      <trkpt lat="51.2593099" lon="-117.5661993">
      </trkpt>
      <trkpt lat="51.2592293" lon="-117.5664461">
      </trkpt>
      <trkpt lat="51.258719" lon="-117.5668538">
      </trkpt>
      <trkpt lat="51.2586049" lon="-117.5671756">
      </trkpt>
      <trkpt lat="51.2587257" lon="-117.5676906">
      </trkpt>
      <trkpt lat="51.2586452" lon="-117.5684095">
      </trkpt>
      <trkpt lat="51.2588063" lon="-117.5696111">
      </trkpt>
      <trkpt lat="51.2585579" lon="-117.5700295">
      </trkpt>
      <trkpt lat="51.2583699" lon="-117.5709415">
      </trkpt>
      <trkpt lat="51.2581148" lon="-117.5712633">
      </trkpt>
      <trkpt lat="51.2578663" lon="-117.572068">
      </trkpt>
      <trkpt lat="51.2577723" lon="-117.5727117">
      </trkpt>
      <trkpt lat="51.2575978" lon="-117.5732052">
      </trkpt>
      <trkpt lat="51.257074" lon="-117.5741923">
      </trkpt>
      <trkpt lat="51.2567719" lon="-117.5745785">
      </trkpt>
      <trkpt lat="51.2567652" lon="-117.5755656">
      </trkpt>
      <trkpt lat="51.2567585" lon="-117.5761664">
      </trkpt>
      <trkpt lat="51.2566242" lon="-117.576381">
      </trkpt>
      <trkpt lat="51.2565637" lon="-117.5768745">
      </trkpt>
      <trkpt lat="51.2565436" lon="-117.5774217">
      </trkpt>
      <trkpt lat="51.2564294" lon="-117.577647">
      </trkpt>
      <trkpt lat="51.2563153" lon="-117.5784087">
      </trkpt>
      <trkpt lat="51.2561609" lon="-117.5791061">
      </trkpt>
      <trkpt lat="51.2560937" lon="-117.5795889">
      </trkpt>
      <trkpt lat="51.2560333" lon="-117.580179">
      </trkpt>
    </trkseg>
  </trk>
</gpx>