<?xml version="1.0" encoding="UTF-8"?>
<gpx xmlns="http://www.topografix.com/GPX/1/1" xmlns:xsi="http://www.w3.org/2001/XMLSchema-instance" xsi:schemaLocation="http://www.topografix.com/GPX/1/1 http://www.topografix.com/GPX/1/1/gpx.xsd" version="1.1" creator="gpx.py -- https://github.com/tkrajina/gpxpy">
  <trk>
    <name>Hermit Trail</name>
    <trkseg>
      <trkpt lat="51.3141314" lon="-117.5127261">
      </trkpt>
      <trkpt lat="51.3139162" lon="-117.5130429">
      </trkpt>
      <trkpt lat="51.314" lon="-117.5138529">
      </trkpt>
      <trkpt lat="51.3140101" lon="-117.5142821">
      </trkpt>
      <trkpt lat="51.3137955" lon="-117.5147005">
      </trkpt>
      <trkpt lat="51.3140402" lon="-117.5146844">
      </trkpt>
      <trkpt lat="51.3144225" lon="-117.5146737">
      </trkpt>
      <trkpt lat="51.315016" lon="-117.5149902">
      </trkpt>
      <trkpt lat="51.3151031" lon="-117.5150921">
      </trkpt>
      <trkpt lat="51.31514" lon="-117.5155696">
      </trkpt>
      <trkpt lat="51.3151065" lon="-117.5159504">
      </trkpt>
      <trkpt lat="51.3151635" lon="-117.5162133">
      </trkpt>
      <trkpt lat="51.3153747" lon="-117.5164386">
      </trkpt>
      <trkpt lat="51.3155223" lon="-117.5166317">
      </trkpt>
      <trkpt lat="51.3157637" lon="-117.516621">
      </trkpt>
      <trkpt lat="51.3160755" lon="-117.5165566">
      </trkpt>
      <trkpt lat="51.3164007" lon="-117.516401">
      </trkpt>
      <trkpt lat="51.3168936" lon="-117.5162723">
      </trkpt>
      <trkpt lat="51.3170176" lon="-117.5163742">
      </trkpt>
      <trkpt lat="51.3169808" lon="-117.5168302">
      </trkpt>
      <trkpt lat="51.3172222" lon="-117.5166854">
      </trkpt>
      <trkpt lat="51.3172959" lon="-117.5169697">
      </trkpt>
      <trkpt lat="51.3172926" lon="-117.5171521">
      </trkpt>
      <trkpt lat="51.3175004" lon="-117.5173881">
      </trkpt>
      <trkpt lat="51.3177385" lon="-117.5174203">
      </trkpt>
      <trkpt lat="51.3181408" lon="-117.5173774">
      </trkpt>
      <trkpt lat="51.3185633" lon="-117.5173505">
      </trkpt>
      <trkpt lat="51.319207" lon="-117.5174632">
      </trkpt>
      <trkpt lat="51.3193243" lon="-117.5174793">
      </trkpt>
      <trkpt lat="51.3192237" lon="-117.5182088">
      </trkpt>
      <trkpt lat="51.3193377" lon="-117.5182035">
      </trkpt>
      <trkpt lat="51.3192439" lon="-117.5188365">
      </trkpt>
      <trkpt lat="51.3192237" lon="-117.5191262">
      </trkpt>
      <trkpt lat="51.3190226" lon="-117.5195768">
      </trkpt>
      <trkpt lat="51.3191802" lon="-117.5199201">
      </trkpt>
      <trkpt lat="51.3193578" lon="-117.5198557">
      </trkpt>
      <trkpt lat="51.3194551" lon="-117.5204297">
      </trkpt>
      <trkpt lat="51.3194886" lon="-117.5208481">
      </trkpt>
      <trkpt lat="51.3196898" lon="-117.5213899">
      </trkpt>
      <trkpt lat="51.3197501" lon="-117.5216206">
      </trkpt>
      <trkpt lat="51.3199144" lon="-117.5214758">
      </trkpt>
      <trkpt lat="51.3200418" lon="-117.5218406">
      </trkpt>
      <trkpt lat="51.3202932" lon="-117.5218674">
      </trkpt>
      <trkpt lat="51.3205748" lon="-117.5220605">
      </trkpt>
      <trkpt lat="51.3207726" lon="-117.5222912">
      </trkpt>
      <trkpt lat="51.3209369" lon="-117.5224199">
      </trkpt>
      <trkpt lat="51.3210643" lon="-117.5226184">
      </trkpt>
      <trkpt lat="51.3211049" lon="-117.5228098">
      </trkpt>
      <trkpt lat="51.321062" lon="-117.5230722">
      </trkpt>
      <trkpt lat="51.3210317" lon="-117.5233831">
      </trkpt>
      <trkpt lat="51.3209712" lon="-117.5235284">
      </trkpt>
      <trkpt lat="51.3208374" lon="-117.5236778">
      </trkpt>
      <trkpt lat="51.3208147" lon="-117.5237384">
      </trkpt>
      <trkpt lat="51.3208475" lon="-117.5238635">
      </trkpt>
      <trkpt lat="51.3209737" lon="-117.5241058">
      </trkpt>
      <trkpt lat="51.3213396" lon="-117.524671">
      </trkpt>
      <trkpt lat="51.3214909" lon="-117.5247921">
      </trkpt>
      <trkpt lat="51.3217786" lon="-117.524885">
      </trkpt>
      <trkpt lat="51.3218291" lon="-117.5249496">
      </trkpt>
      <trkpt lat="51.3220309" lon="-117.5251232">
      </trkpt>
      <trkpt lat="51.3220612" lon="-117.5252564">
      </trkpt>
      <trkpt lat="51.3222782" lon="-117.5254139">
      </trkpt>
      <trkpt lat="51.3228963" lon="-117.5258499">
      </trkpt>
      <trkpt lat="51.3230149" lon="-117.5260437">
      </trkpt>
      <trkpt lat="51.3232874" lon="-117.5262416">
      </trkpt>
      <trkpt lat="51.3234565" lon="-117.5263748">
      </trkpt>
      <trkpt lat="51.3234716" lon="-117.5264111">
      </trkpt>
      <trkpt lat="51.3234766" lon="-117.5264959">
      </trkpt>
      <trkpt lat="51.3234539" lon="-117.5268068">
      </trkpt>
      <trkpt lat="51.3234572" lon="-117.5268588">
      </trkpt>
      <trkpt lat="51.3234691" lon="-117.5268956">
      </trkpt>
      <trkpt lat="51.3236179" lon="-117.5270208">
      </trkpt>
      <trkpt lat="51.3238273" lon="-117.5272025">
      </trkpt>
      <trkpt lat="51.3240674" lon="-117.5273985">
      </trkpt>
      <trkpt lat="51.3241759" lon="-117.5275964">
      </trkpt>
      <trkpt lat="51.3243551" lon="-117.5278063">
      </trkpt>
      <trkpt lat="51.3246805" lon="-117.5281212">
      </trkpt>
      <trkpt lat="51.3247083" lon="-117.528202">
      </trkpt>
      <trkpt lat="51.3247461" lon="-117.5283271">
      </trkpt>
      <trkpt lat="51.3248193" lon="-117.5284039">
      </trkpt>
      <trkpt lat="51.3249278" lon="-117.5284442">
      </trkpt>
      <trkpt lat="51.3249833" lon="-117.5284846">
      </trkpt>
      <trkpt lat="51.3250085" lon="-117.5285452">
      </trkpt>
      <trkpt lat="51.3250136" lon="-117.5286663">
      </trkpt>
      <trkpt lat="51.3249858" lon="-117.5288359">
      </trkpt>
      <trkpt lat="51.3249505" lon="-117.5289691">
      </trkpt>
      <trkpt lat="51.3249505" lon="-117.52907">
      </trkpt>
      <trkpt lat="51.3250009" lon="-117.5291265">
      </trkpt>
      <trkpt lat="51.3250842" lon="-117.5291427">
      </trkpt>
      <trkpt lat="51.3251649" lon="-117.5291104">
      </trkpt>
      <trkpt lat="51.3252078" lon="-117.5290942">
      </trkpt>
      <trkpt lat="51.3252583" lon="-117.5291387">
      </trkpt>
      <trkpt lat="51.3252911" lon="-117.5292194">
      </trkpt>
      <trkpt lat="51.3253138" lon="-117.5292517">
      </trkpt>
      <trkpt lat="51.3253668" lon="-117.5292557">
      </trkpt>
      <trkpt lat="51.3254349" lon="-117.5292194">
      </trkpt>
      <trkpt lat="51.3254778" lon="-117.5292315">
      </trkpt>
      <trkpt lat="51.3255156" lon="-117.5292759">
      </trkpt>
      <trkpt lat="51.3255535" lon="-117.5293405">
      </trkpt>
      <trkpt lat="51.3256039" lon="-117.5293769">
      </trkpt>
      <trkpt lat="51.3256519" lon="-117.5294536">
      </trkpt>
      <trkpt lat="51.3257982" lon="-117.5296554">
      </trkpt>
      <trkpt lat="51.3259344" lon="-117.5297645">
      </trkpt>
      <trkpt lat="51.3260555" lon="-117.5298129">
      </trkpt>
      <trkpt lat="51.3261691" lon="-117.529821">
      </trkpt>
      <trkpt lat="51.3262246" lon="-117.5298573">
      </trkpt>
      <trkpt lat="51.3262876" lon="-117.5299542">
      </trkpt>
      <trkpt lat="51.3263734" lon="-117.5301117">
      </trkpt>
      <trkpt lat="51.3264668" lon="-117.5301843">
      </trkpt>
      <trkpt lat="51.3265197" lon="-117.5302005">
      </trkpt>
      <trkpt lat="51.3265803" lon="-117.5301561">
      </trkpt>
      <trkpt lat="51.326656" lon="-117.5301238">
      </trkpt>
      <trkpt lat="51.3267418" lon="-117.5301197">
      </trkpt>
      <trkpt lat="51.327047" lon="-117.5301924">
      </trkpt>
      <trkpt lat="51.3271984" lon="-117.5301642">
      </trkpt>
      <trkpt lat="51.3274103" lon="-117.5300713">
      </trkpt>
      <trkpt lat="51.3275844" lon="-117.5299663">
      </trkpt>
      <trkpt lat="51.3276727" lon="-117.5299058">
      </trkpt>
      <trkpt lat="51.3277257" lon="-117.5297766">
      </trkpt>
      <trkpt lat="51.3277761" lon="-117.5296514">
      </trkpt>
      <trkpt lat="51.3278266" lon="-117.5295626">
      </trkpt>
      <trkpt lat="51.327925" lon="-117.5295424">
      </trkpt>
      <trkpt lat="51.3280738" lon="-117.5295828">
      </trkpt>
      <trkpt lat="51.3282025" lon="-117.5296635">
      </trkpt>
      <trkpt lat="51.3284775" lon="-117.5298613">
      </trkpt>
      <trkpt lat="51.3287348" lon="-117.5300592">
      </trkpt>
      <trkpt lat="51.3288912" lon="-117.5301117">
      </trkpt>
      <trkpt lat="51.3290299" lon="-117.5302772">
      </trkpt>
      <trkpt lat="51.329368" lon="-117.5304387">
      </trkpt>
      <trkpt lat="51.3295421" lon="-117.5304387">
      </trkpt>
      <trkpt lat="51.3296455" lon="-117.5304225">
      </trkpt>
      <trkpt lat="51.3298297" lon="-117.5305194">
      </trkpt>
      <trkpt lat="51.3300491" lon="-117.5306244">
      </trkpt>
      <trkpt lat="51.3301753" lon="-117.5306527">
      </trkpt>
      <trkpt lat="51.3303266" lon="-117.5306608">
      </trkpt>
      <trkpt lat="51.3307044" lon="-117.5305756">
      </trkpt>
      <trkpt lat="51.3308918" lon="-117.5304725">
      </trkpt>
      <trkpt lat="51.3310719" lon="-117.5304573">
      </trkpt>
      <trkpt lat="51.3312094" lon="-117.5303208">
      </trkpt>
      <trkpt lat="51.33138" lon="-117.5302145">
      </trkpt>
      <trkpt lat="51.331508" lon="-117.5301539">
      </trkpt>
      <trkpt lat="51.3315601" lon="-117.5299566">
      </trkpt>
      <trkpt lat="51.3316217" lon="-117.5297821">
      </trkpt>
      <trkpt lat="51.3317924" lon="-117.5296456">
      </trkpt>
      <trkpt lat="51.3320152" lon="-117.5291221">
      </trkpt>
      <trkpt lat="51.3321763" lon="-117.5286973">
      </trkpt>
      <trkpt lat="51.3322569" lon="-117.5284697">
      </trkpt>
    </trkseg>
  </trk>
</gpx>