<?xml version="1.0" encoding="UTF-8"?>
<gpx xmlns="http://www.topografix.com/GPX/1/1" xmlns:xsi="http://www.w3.org/2001/XMLSchema-instance" xsi:schemaLocation="http://www.topografix.com/GPX/1/1 http://www.topografix.com/GPX/1/1/gpx.xsd" version="1.1" creator="gpx.py -- https://github.com/tkrajina/gpxpy">
  <trk>
    <name>Ski tour near Christiana Ridge</name>
    <trkseg>
      <trkpt lat="51.2575373" lon="-117.6950312">
      </trkpt>
      <trkpt lat="51.2574433" lon="-117.6934648">
      </trkpt>
      <trkpt lat="51.2567987" lon="-117.6922417">
      </trkpt>
      <trkpt lat="51.255928" lon="-117.6914196">
      </trkpt>
      <trkpt lat="51.2547709" lon="-117.6905036">
      </trkpt>
      <trkpt lat="51.2531687" lon="-117.689047">
      </trkpt>
      <trkpt lat="51.2526893" lon="-117.6881647">
      </trkpt>
      <trkpt lat="51.2514403" lon="-117.6865983">
      </trkpt>
      <trkpt lat="51.2496406" lon="-117.6843882">
      </trkpt>
      <trkpt lat="51.2492646" lon="-117.6829884">
      </trkpt>
    </trkseg>
    <trkseg>
      <trkpt lat="51.2492646" lon="-117.6829884">
      </trkpt>
      <trkpt lat="51.2488717" lon="-117.6846188">
      </trkpt>
      <trkpt lat="51.2489724" lon="-117.685461">
      </trkpt>
      <trkpt lat="51.2495533" lon="-117.6868933">
      </trkpt>
      <trkpt lat="51.2490228" lon="-117.6883793">
      </trkpt>
      <trkpt lat="51.2487273" lon="-117.6892376">
      </trkpt>
      <trkpt lat="51.2491839" lon="-117.6899886">
      </trkpt>
      <trkpt lat="51.2490362" lon="-117.6907397">
      </trkpt>
      <trkpt lat="51.2494929" lon="-117.6911473">
      </trkpt>
      <trkpt lat="51.2499092" lon="-117.6924348">
      </trkpt>
      <trkpt lat="51.2501375" lon="-117.6933146">
      </trkpt>
      <trkpt lat="51.2499495" lon="-117.6940227">
      </trkpt>
      <trkpt lat="51.2497749" lon="-117.6943016">
      </trkpt>
      <trkpt lat="51.2492645" lon="-117.6946449">
      </trkpt>
      <trkpt lat="51.2494391" lon="-117.6951599">
      </trkpt>
      <trkpt lat="51.2493048" lon="-117.6955247">
      </trkpt>
      <trkpt lat="51.2497615" lon="-117.696147">
      </trkpt>
      <trkpt lat="51.2497481" lon="-117.6965547">
      </trkpt>
      <trkpt lat="51.2493048" lon="-117.6969409">
      </trkpt>
      <trkpt lat="51.2491034" lon="-117.6980567">
      </trkpt>
      <trkpt lat="51.2493317" lon="-117.6987648">
      </trkpt>
      <trkpt lat="51.2487273" lon="-117.6992369">
      </trkpt>
      <trkpt lat="51.2493317" lon="-117.7001167">
      </trkpt>
      <trkpt lat="51.2492242" lon="-117.7008033">
      </trkpt>
      <trkpt lat="51.2483512" lon="-117.701211">
      </trkpt>
      <trkpt lat="51.2489288" lon="-117.7018762">
      </trkpt>
      <trkpt lat="51.2494929" lon="-117.702992">
      </trkpt>
      <trkpt lat="51.2483646" lon="-117.7035713">
      </trkpt>
      <trkpt lat="51.2478945" lon="-117.7042794">
      </trkpt>
      <trkpt lat="51.2477871" lon="-117.7048803">
      </trkpt>
      <trkpt lat="51.2471961" lon="-117.7052665">
      </trkpt>
      <trkpt lat="51.2469543" lon="-117.7056313">
      </trkpt>
    </trkseg>
  </trk>
</gpx>