<?xml version="1.0" encoding="UTF-8"?>
<gpx xmlns="http://www.topografix.com/GPX/1/1" xmlns:xsi="http://www.w3.org/2001/XMLSchema-instance" xsi:schemaLocation="http://www.topografix.com/GPX/1/1 http://www.topografix.com/GPX/1/1/gpx.xsd" version="1.1" creator="gpx.py -- https://github.com/tkrajina/gpxpy">
  <trk>
    <name>Balu Pass Trail</name>
    <trkseg>
      <trkpt lat="51.3018961" lon="-117.5284817">
      </trkpt>
      <trkpt lat="51.3022281" lon="-117.5277634">
      </trkpt>
      <trkpt lat="51.3024757" lon="-117.5268528">
      </trkpt>
      <trkpt lat="51.3025289" lon="-117.5263072">
      </trkpt>
      <trkpt lat="51.3028074" lon="-117.5254825">
      </trkpt>
      <trkpt lat="51.3034674" lon="-117.5239594">
      </trkpt>
      <trkpt lat="51.3033898" lon="-117.5232998">
      </trkpt>
      <trkpt lat="51.303314" lon="-117.5230979">
      </trkpt>
      <trkpt lat="51.3034666" lon="-117.5225101">
      </trkpt>
      <trkpt lat="51.3026985" lon="-117.5225984">
      </trkpt>
      <trkpt lat="51.3016313" lon="-117.5220467">
      </trkpt>
      <trkpt lat="51.3016687" lon="-117.5219623">
      </trkpt>
    </trkseg>
    <trkseg>
      <trkpt lat="51.3018961" lon="-117.5284817">
      </trkpt>
      <trkpt lat="51.3017106" lon="-117.5299766">
      </trkpt>
      <trkpt lat="51.3016435" lon="-117.5311564">
      </trkpt>
      <trkpt lat="51.3014834" lon="-117.5324427">
      </trkpt>
      <trkpt lat="51.3011874" lon="-117.5338178">
      </trkpt>
      <trkpt lat="51.3007983" lon="-117.5351697">
      </trkpt>
      <trkpt lat="51.3004453" lon="-117.5367511">
      </trkpt>
      <trkpt lat="51.3001409" lon="-117.5382378">
      </trkpt>
      <trkpt lat="51.299886" lon="-117.5397185">
      </trkpt>
      <trkpt lat="51.2999263" lon="-117.5401041">
      </trkpt>
      <trkpt lat="51.2998998" lon="-117.5408974">
      </trkpt>
      <trkpt lat="51.2993292" lon="-117.5410653">
      </trkpt>
      <trkpt lat="51.2993762" lon="-117.5417573">
      </trkpt>
      <trkpt lat="51.2997511" lon="-117.5421882">
      </trkpt>
      <trkpt lat="51.2999933" lon="-117.5423796">
      </trkpt>
      <trkpt lat="51.2997518" lon="-117.5433452">
      </trkpt>
      <trkpt lat="51.2997518" lon="-117.5446541">
      </trkpt>
      <trkpt lat="51.2994164" lon="-117.5453407">
      </trkpt>
      <trkpt lat="51.2991331" lon="-117.5464089">
      </trkpt>
      <trkpt lat="51.2990408" lon="-117.5467569">
      </trkpt>
      <trkpt lat="51.2988529" lon="-117.5473792">
      </trkpt>
      <trkpt lat="51.2989066" lon="-117.548023">
      </trkpt>
      <trkpt lat="51.2980882" lon="-117.5491602">
      </trkpt>
      <trkpt lat="51.2975381" lon="-117.5503833">
      </trkpt>
      <trkpt lat="51.2970644" lon="-117.5520372">
      </trkpt>
      <trkpt lat="51.2965854" lon="-117.5531353">
      </trkpt>
      <trkpt lat="51.2964379" lon="-117.5546534">
      </trkpt>
      <trkpt lat="51.2964379" lon="-117.5551684">
      </trkpt>
      <trkpt lat="51.2962232" lon="-117.55534">
      </trkpt>
      <trkpt lat="51.2963171" lon="-117.5555546">
      </trkpt>
      <trkpt lat="51.2962098" lon="-117.5557906">
      </trkpt>
      <trkpt lat="51.2960488" lon="-117.5558765">
      </trkpt>
      <trkpt lat="51.2961259" lon="-117.5560481">
      </trkpt>
      <trkpt lat="51.2954618" lon="-117.5574751">
      </trkpt>
      <trkpt lat="51.2948714" lon="-117.5582368">
      </trkpt>
      <trkpt lat="51.2937174" lon="-117.5607366">
      </trkpt>
      <trkpt lat="51.2937644" lon="-117.5610156">
      </trkpt>
      <trkpt lat="51.2936302" lon="-117.5615198">
      </trkpt>
      <trkpt lat="51.2938449" lon="-117.5614125">
      </trkpt>
      <trkpt lat="51.2937845" lon="-117.5617559">
      </trkpt>
      <trkpt lat="51.293543" lon="-117.5620563">
      </trkpt>
      <trkpt lat="51.2932411" lon="-117.5620992">
      </trkpt>
      <trkpt lat="51.2929794" lon="-117.5625069">
      </trkpt>
      <trkpt lat="51.2931002" lon="-117.5628717">
      </trkpt>
      <trkpt lat="51.2930197" lon="-117.563333">
      </trkpt>
      <trkpt lat="51.2930667" lon="-117.5637085">
      </trkpt>
      <trkpt lat="51.2919731" lon="-117.5662191">
      </trkpt>
      <trkpt lat="51.2919596" lon="-117.5665946">
      </trkpt>
      <trkpt lat="51.2917315" lon="-117.5670023">
      </trkpt>
      <trkpt lat="51.2915973" lon="-117.5676031">
      </trkpt>
      <trkpt lat="51.2910539" lon="-117.5686223">
      </trkpt>
      <trkpt lat="51.2909935" lon="-117.5689656">
      </trkpt>
      <trkpt lat="51.2909801" lon="-117.5691588">
      </trkpt>
      <trkpt lat="51.2910002" lon="-117.5693304">
      </trkpt>
      <trkpt lat="51.2906647" lon="-117.5701565">
      </trkpt>
      <trkpt lat="51.2903762" lon="-117.5703389">
      </trkpt>
      <trkpt lat="51.2900273" lon="-117.5706715">
      </trkpt>
      <trkpt lat="51.2900005" lon="-117.5710148">
      </trkpt>
      <trkpt lat="51.2897992" lon="-117.5712402">
      </trkpt>
      <trkpt lat="51.2896315" lon="-117.5715084">
      </trkpt>
      <trkpt lat="51.2894302" lon="-117.5716264">
      </trkpt>
      <trkpt lat="51.289265" lon="-117.5715476">
      </trkpt>
      <trkpt lat="51.2891819" lon="-117.5715298">
      </trkpt>
      <trkpt lat="51.2889269" lon="-117.571959">
      </trkpt>
      <trkpt lat="51.2887726" lon="-117.5725705">
      </trkpt>
      <trkpt lat="51.2885713" lon="-117.5728709">
      </trkpt>
      <trkpt lat="51.2884505" lon="-117.5731177">
      </trkpt>
      <trkpt lat="51.2882895" lon="-117.5732035">
      </trkpt>
      <trkpt lat="51.2879674" lon="-117.5731606">
      </trkpt>
      <trkpt lat="51.2878399" lon="-117.5728602">
      </trkpt>
      <trkpt lat="51.2875514" lon="-117.5734717">
      </trkpt>
      <trkpt lat="51.287491" lon="-117.5732786">
      </trkpt>
      <trkpt lat="51.2875044" lon="-117.5727529">
      </trkpt>
      <trkpt lat="51.2874441" lon="-117.5725491">
      </trkpt>
      <trkpt lat="51.2872562" lon="-117.5725705">
      </trkpt>
      <trkpt lat="51.2867529" lon="-117.5737722">
      </trkpt>
      <trkpt lat="51.2863436" lon="-117.575124">
      </trkpt>
      <trkpt lat="51.2862623" lon="-117.57552">
      </trkpt>
      <trkpt lat="51.286259" lon="-117.5756434">
      </trkpt>
      <trkpt lat="51.2862128" lon="-117.5764115">
      </trkpt>
      <trkpt lat="51.2863738" lon="-117.5768191">
      </trkpt>
      <trkpt lat="51.2864006" lon="-117.5772698">
      </trkpt>
      <trkpt lat="51.2864946" lon="-117.5776345">
      </trkpt>
      <trkpt lat="51.2863201" lon="-117.5774843">
      </trkpt>
      <trkpt lat="51.286347" lon="-117.5778062">
      </trkpt>
      <trkpt lat="51.2858773" lon="-117.5781924">
      </trkpt>
      <trkpt lat="51.2864006" lon="-117.5789649">
      </trkpt>
      <trkpt lat="51.2863654" lon="-117.5791393">
      </trkpt>
      <trkpt lat="51.286508" lon="-117.5793082">
      </trkpt>
      <trkpt lat="51.2863201" lon="-117.5792439">
      </trkpt>
      <trkpt lat="51.2864677" lon="-117.579437">
      </trkpt>
      <trkpt lat="51.2861457" lon="-117.5795014">
      </trkpt>
      <trkpt lat="51.2862799" lon="-117.5796945">
      </trkpt>
      <trkpt lat="51.2857967" lon="-117.5800593">
      </trkpt>
      <trkpt lat="51.2858437" lon="-117.5801451">
      </trkpt>
      <trkpt lat="51.2856088" lon="-117.5802309">
      </trkpt>
      <trkpt lat="51.2855015" lon="-117.5803597">
      </trkpt>
      <trkpt lat="51.2854948" lon="-117.5804777">
      </trkpt>
      <trkpt lat="51.2855149" lon="-117.5806172">
      </trkpt>
      <trkpt lat="51.2857028" lon="-117.5807137">
      </trkpt>
      <trkpt lat="51.2855619" lon="-117.5807674">
      </trkpt>
      <trkpt lat="51.2854679" lon="-117.5809927">
      </trkpt>
      <trkpt lat="51.2856156" lon="-117.5809819">
      </trkpt>
      <trkpt lat="51.2855451" lon="-117.581116">
      </trkpt>
      <trkpt lat="51.2856323" lon="-117.5811482">
      </trkpt>
      <trkpt lat="51.2856072" lon="-117.581218">
      </trkpt>
      <trkpt lat="51.2856961" lon="-117.581218">
      </trkpt>
      <trkpt lat="51.2846426" lon="-117.5823552">
      </trkpt>
      <trkpt lat="51.2837299" lon="-117.5811321">
      </trkpt>
    </trkseg>
  </trk>
</gpx>