<?xml version="1.0" encoding="UTF-8"?>
<gpx xmlns="http://www.topografix.com/GPX/1/1" xmlns:xsi="http://www.w3.org/2001/XMLSchema-instance" xsi:schemaLocation="http://www.topografix.com/GPX/1/1 http://www.topografix.com/GPX/1/1/gpx.xsd" version="1.1" creator="gpx.py -- https://github.com/tkrajina/gpxpy">
  <trk>
    <name>Young's Peak Traverse</name>
    <trkseg>
      <trkpt lat="51.2055161" lon="-117.447964">
      </trkpt>
      <trkpt lat="51.2065252" lon="-117.4478387">
      </trkpt>
      <trkpt lat="51.206755" lon="-117.447794">
      </trkpt>
      <trkpt lat="51.2073157" lon="-117.447973">
      </trkpt>
      <trkpt lat="51.2079267" lon="-117.4481251">
      </trkpt>
      <trkpt lat="51.2083584" lon="-117.4481519">
      </trkpt>
      <trkpt lat="51.2088573" lon="-117.4480087">
      </trkpt>
      <trkpt lat="51.2095412" lon="-117.447624">
      </trkpt>
      <trkpt lat="51.2101971" lon="-117.4471766">
      </trkpt>
      <trkpt lat="51.2105559" lon="-117.4470334">
      </trkpt>
      <trkpt lat="51.2112398" lon="-117.4472392">
      </trkpt>
      <trkpt lat="51.2116714" lon="-117.4474987">
      </trkpt>
      <trkpt lat="51.2121591" lon="-117.4474987">
      </trkpt>
      <trkpt lat="51.2126019" lon="-117.4471676">
      </trkpt>
      <trkpt lat="51.2128485" lon="-117.4466576">
      </trkpt>
      <trkpt lat="51.2131512" lon="-117.4465323">
      </trkpt>
      <trkpt lat="51.2137902" lon="-117.4458254">
      </trkpt>
      <trkpt lat="51.2141882" lon="-117.4452348">
      </trkpt>
      <trkpt lat="51.2145638" lon="-117.4444921">
      </trkpt>
      <trkpt lat="51.2146254" lon="-117.4440268">
      </trkpt>
      <trkpt lat="51.2143788" lon="-117.4435704">
      </trkpt>
      <trkpt lat="51.2146871" lon="-117.4433288">
      </trkpt>
      <trkpt lat="51.2153093" lon="-117.4428635">
      </trkpt>
      <trkpt lat="51.2158754" lon="-117.4422908">
      </trkpt>
      <trkpt lat="51.2162621" lon="-117.4419508">
      </trkpt>
      <trkpt lat="51.2169515" lon="-117.4415392">
      </trkpt>
      <trkpt lat="51.2175849" lon="-117.4412707">
      </trkpt>
      <trkpt lat="51.2181902" lon="-117.4411186">
      </trkpt>
      <trkpt lat="51.2190982" lon="-117.4411544">
      </trkpt>
      <trkpt lat="51.2196866" lon="-117.4413423">
      </trkpt>
      <trkpt lat="51.2200397" lon="-117.4416555">
      </trkpt>
      <trkpt lat="51.2205666" lon="-117.4419687">
      </trkpt>
      <trkpt lat="51.2211046" lon="-117.4423356">
      </trkpt>
      <trkpt lat="51.2215025" lon="-117.4428456">
      </trkpt>
    </trkseg>
    <trkseg>
      <trkpt lat="51.2421331" lon="-117.4594177">
      </trkpt>
      <trkpt lat="51.2425421" lon="-117.4598114">
      </trkpt>
      <trkpt lat="51.2429454" lon="-117.4601425">
      </trkpt>
      <trkpt lat="51.2432871" lon="-117.4604557">
      </trkpt>
      <trkpt lat="51.2432199" lon="-117.4608942">
      </trkpt>
      <trkpt lat="51.2433823" lon="-117.4614132">
      </trkpt>
      <trkpt lat="51.2435952" lon="-117.4616279">
      </trkpt>
      <trkpt lat="51.2441218" lon="-117.4618606">
      </trkpt>
      <trkpt lat="51.2440433" lon="-117.4626033">
      </trkpt>
      <trkpt lat="51.2442394" lon="-117.4631402">
      </trkpt>
      <trkpt lat="51.2445307" lon="-117.463337">
      </trkpt>
      <trkpt lat="51.2450516" lon="-117.4632833">
      </trkpt>
      <trkpt lat="51.2454381" lon="-117.4637576">
      </trkpt>
      <trkpt lat="51.2456678" lon="-117.4641782">
      </trkpt>
      <trkpt lat="51.2461103" lon="-117.4644645">
      </trkpt>
      <trkpt lat="51.2464576" lon="-117.4649209">
      </trkpt>
      <trkpt lat="51.2468441" lon="-117.4655562">
      </trkpt>
      <trkpt lat="51.2469953" lon="-117.4661289">
      </trkpt>
      <trkpt lat="51.247421" lon="-117.46663">
      </trkpt>
      <trkpt lat="51.2478187" lon="-117.4671758">
      </trkpt>
      <trkpt lat="51.2479811" lon="-117.4677306">
      </trkpt>
    </trkseg>
  </trk>
</gpx>