<?xml version="1.0" encoding="UTF-8"?>
<gpx xmlns="http://www.topografix.com/GPX/1/1" xmlns:xsi="http://www.w3.org/2001/XMLSchema-instance" xsi:schemaLocation="http://www.topografix.com/GPX/1/1 http://www.topografix.com/GPX/1/1/gpx.xsd" version="1.1" creator="gpx.py -- https://github.com/tkrajina/gpxpy">
  <trk>
    <name>Ski tour near The Overlook</name>
    <trkseg>
      <trkpt lat="51.2762967" lon="-117.4817902">
      </trkpt>
      <trkpt lat="51.2761373" lon="-117.4817795">
      </trkpt>
      <trkpt lat="51.2760383" lon="-117.4817526">
      </trkpt>
      <trkpt lat="51.2759376" lon="-117.4816936">
      </trkpt>
      <trkpt lat="51.2758269" lon="-117.4816695">
      </trkpt>
      <trkpt lat="51.2757262" lon="-117.4816266">
      </trkpt>
      <trkpt lat="51.2756037" lon="-117.4815863">
      </trkpt>
      <trkpt lat="51.2754997" lon="-117.4814898">
      </trkpt>
      <trkpt lat="51.2753503" lon="-117.4813557">
      </trkpt>
      <trkpt lat="51.2751163" lon="-117.4812309">
      </trkpt>
      <trkpt lat="51.275024" lon="-117.4811639">
      </trkpt>
      <trkpt lat="51.274878" lon="-117.4810888">
      </trkpt>
      <trkpt lat="51.2747169" lon="-117.4809614">
      </trkpt>
      <trkpt lat="51.2746431" lon="-117.4809507">
      </trkpt>
      <trkpt lat="51.2745961" lon="-117.4809292">
      </trkpt>
      <trkpt lat="51.2745432" lon="-117.4808756">
      </trkpt>
      <trkpt lat="51.2745097" lon="-117.4808259">
      </trkpt>
      <trkpt lat="51.2745072" lon="-117.4807951">
      </trkpt>
      <trkpt lat="51.274513" lon="-117.4807709">
      </trkpt>
      <trkpt lat="51.2745508" lon="-117.4807428">
      </trkpt>
      <trkpt lat="51.2746288" lon="-117.4807535">
      </trkpt>
      <trkpt lat="51.2746817" lon="-117.4807535">
      </trkpt>
      <trkpt lat="51.2746985" lon="-117.4807481">
      </trkpt>
      <trkpt lat="51.2746817" lon="-117.4806851">
      </trkpt>
      <trkpt lat="51.2746657" lon="-117.4805993">
      </trkpt>
      <trkpt lat="51.2746884" lon="-117.4805537">
      </trkpt>
      <trkpt lat="51.2747144" lon="-117.4805161">
      </trkpt>
      <trkpt lat="51.2747656" lon="-117.4804424">
      </trkpt>
      <trkpt lat="51.2747899" lon="-117.4804021">
      </trkpt>
      <trkpt lat="51.2747991" lon="-117.4803284">
      </trkpt>
      <trkpt lat="51.2747681" lon="-117.4802694">
      </trkpt>
      <trkpt lat="51.2747488" lon="-117.4802198">
      </trkpt>
      <trkpt lat="51.2747505" lon="-117.4801782">
      </trkpt>
      <trkpt lat="51.2747882" lon="-117.4801366">
      </trkpt>
      <trkpt lat="51.274831" lon="-117.4800763">
      </trkpt>
      <trkpt lat="51.274873" lon="-117.4799931">
      </trkpt>
      <trkpt lat="51.2749074" lon="-117.4798872">
      </trkpt>
      <trkpt lat="51.2749323" lon="-117.4798008">
      </trkpt>
    </trkseg>
    <trkseg>
      <trkpt lat="51.2674223" lon="-117.4802251">
      </trkpt>
      <trkpt lat="51.2675876" lon="-117.4796069">
      </trkpt>
      <trkpt lat="51.2676816" lon="-117.4789417">
      </trkpt>
      <trkpt lat="51.2679232" lon="-117.4786949">
      </trkpt>
      <trkpt lat="51.2684535" lon="-117.4786413">
      </trkpt>
      <trkpt lat="51.26891" lon="-117.4787057">
      </trkpt>
      <trkpt lat="51.2691785" lon="-117.4790919">
      </trkpt>
      <trkpt lat="51.2695276" lon="-117.4793816">
      </trkpt>
      <trkpt lat="51.2699572" lon="-117.4792314">
      </trkpt>
      <trkpt lat="51.2702726" lon="-117.4787593">
      </trkpt>
      <trkpt lat="51.2706083" lon="-117.4784696">
      </trkpt>
      <trkpt lat="51.2710244" lon="-117.478652">
      </trkpt>
      <trkpt lat="51.271454" lon="-117.4785555">
      </trkpt>
      <trkpt lat="51.2727763" lon="-117.4774826">
      </trkpt>
      <trkpt lat="51.2734207" lon="-117.4773216">
      </trkpt>
      <trkpt lat="51.27381" lon="-117.4770427">
      </trkpt>
      <trkpt lat="51.2743134" lon="-117.4768281">
      </trkpt>
      <trkpt lat="51.2747295" lon="-117.4770749">
      </trkpt>
      <trkpt lat="51.2747094" lon="-117.4776113">
      </trkpt>
      <trkpt lat="51.2748637" lon="-117.478255">
      </trkpt>
      <trkpt lat="51.2751188" lon="-117.478888">
      </trkpt>
      <trkpt lat="51.2751389" lon="-117.4796605">
      </trkpt>
      <trkpt lat="51.2749323" lon="-117.4798008">
      </trkpt>
    </trkseg>
  </trk>
</gpx>