<?xml version="1.0" encoding="UTF-8"?>
<gpx xmlns="http://www.topografix.com/GPX/1/1" xmlns:xsi="http://www.w3.org/2001/XMLSchema-instance" xsi:schemaLocation="http://www.topografix.com/GPX/1/1 http://www.topografix.com/GPX/1/1/gpx.xsd" version="1.1" creator="gpx.py -- https://github.com/tkrajina/gpxpy">
  <trk>
    <name>Young's Peak Traverse</name>
    <trkseg>
      <trkpt lat="51.2142124" lon="-117.4697327">
      </trkpt>
      <trkpt lat="51.214135" lon="-117.4694934">
      </trkpt>
      <trkpt lat="51.214006" lon="-117.4692115">
      </trkpt>
      <trkpt lat="51.2131568" lon="-117.4681288">
      </trkpt>
      <trkpt lat="51.212529" lon="-117.4671579">
      </trkpt>
      <trkpt lat="51.2123188" lon="-117.4669834">
      </trkpt>
      <trkpt lat="51.2118704" lon="-117.4669029">
      </trkpt>
      <trkpt lat="51.2115284" lon="-117.4668984">
      </trkpt>
      <trkpt lat="51.211279" lon="-117.4666255">
      </trkpt>
      <trkpt lat="51.2108137" lon="-117.4665584">
      </trkpt>
      <trkpt lat="51.2105138" lon="-117.4664689">
      </trkpt>
      <trkpt lat="51.2101298" lon="-117.4660752">
      </trkpt>
      <trkpt lat="51.2097879" lon="-117.4658291">
      </trkpt>
      <trkpt lat="51.209359" lon="-117.465243">
      </trkpt>
      <trkpt lat="51.2091152" lon="-117.4650372">
      </trkpt>
      <trkpt lat="51.2087031" lon="-117.4650954">
      </trkpt>
      <trkpt lat="51.2085826" lon="-117.4647151">
      </trkpt>
      <trkpt lat="51.208776" lon="-117.464375">
      </trkpt>
      <trkpt lat="51.2090311" lon="-117.4642184">
      </trkpt>
      <trkpt lat="51.2088181" lon="-117.4640126">
      </trkpt>
      <trkpt lat="51.2085266" lon="-117.4640305">
      </trkpt>
      <trkpt lat="51.2082266" lon="-117.4639768">
      </trkpt>
      <trkpt lat="51.2079576" lon="-117.4635742">
      </trkpt>
      <trkpt lat="51.2075203" lon="-117.4629433">
      </trkpt>
      <trkpt lat="51.2072904" lon="-117.4622543">
      </trkpt>
      <trkpt lat="51.2069485" lon="-117.4617979">
      </trkpt>
      <trkpt lat="51.2069961" lon="-117.4613505">
      </trkpt>
      <trkpt lat="51.207111" lon="-117.4605094">
      </trkpt>
      <trkpt lat="51.2072764" lon="-117.4596727">
      </trkpt>
      <trkpt lat="51.2074866" lon="-117.4592477">
      </trkpt>
      <trkpt lat="51.2071166" lon="-117.4591045">
      </trkpt>
      <trkpt lat="51.2071363" lon="-117.4588361">
      </trkpt>
      <trkpt lat="51.2075119" lon="-117.4583126">
      </trkpt>
      <trkpt lat="51.2079295" lon="-117.4578026">
      </trkpt>
      <trkpt lat="51.2082042" lon="-117.4571762">
      </trkpt>
      <trkpt lat="51.2080388" lon="-117.4567646">
      </trkpt>
      <trkpt lat="51.2076632" lon="-117.4565185">
      </trkpt>
      <trkpt lat="51.2070802" lon="-117.4562858">
      </trkpt>
      <trkpt lat="51.2066149" lon="-117.4559995">
      </trkpt>
      <trkpt lat="51.2058468" lon="-117.4560442">
      </trkpt>
      <trkpt lat="51.2053871" lon="-117.4556237">
      </trkpt>
      <trkpt lat="51.2052526" lon="-117.4548004">
      </trkpt>
      <trkpt lat="51.2050844" lon="-117.4539683">
      </trkpt>
      <trkpt lat="51.2046303" lon="-117.4531003">
      </trkpt>
      <trkpt lat="51.2042546" lon="-117.4520265">
      </trkpt>
      <trkpt lat="51.2045181" lon="-117.451078">
      </trkpt>
      <trkpt lat="51.2049218" lon="-117.4502637">
      </trkpt>
      <trkpt lat="51.2053311" lon="-117.4494494">
      </trkpt>
      <trkpt lat="51.2051461" lon="-117.4483846">
      </trkpt>
      <trkpt lat="51.2055161" lon="-117.447964">
      </trkpt>
    </trkseg>
    <trkseg>
      <trkpt lat="51.2055161" lon="-117.447964">
      </trkpt>
      <trkpt lat="51.2065252" lon="-117.4478387">
      </trkpt>
      <trkpt lat="51.206755" lon="-117.447794">
      </trkpt>
      <trkpt lat="51.2073157" lon="-117.447973">
      </trkpt>
      <trkpt lat="51.2079267" lon="-117.4481251">
      </trkpt>
      <trkpt lat="51.2083584" lon="-117.4481519">
      </trkpt>
      <trkpt lat="51.2088573" lon="-117.4480087">
      </trkpt>
      <trkpt lat="51.2095412" lon="-117.447624">
      </trkpt>
      <trkpt lat="51.2101971" lon="-117.4471766">
      </trkpt>
      <trkpt lat="51.2105559" lon="-117.4470334">
      </trkpt>
      <trkpt lat="51.2112398" lon="-117.4472392">
      </trkpt>
      <trkpt lat="51.2116714" lon="-117.4474987">
      </trkpt>
      <trkpt lat="51.2121591" lon="-117.4474987">
      </trkpt>
      <trkpt lat="51.2126019" lon="-117.4471676">
      </trkpt>
      <trkpt lat="51.2128485" lon="-117.4466576">
      </trkpt>
      <trkpt lat="51.2131512" lon="-117.4465323">
      </trkpt>
      <trkpt lat="51.2137902" lon="-117.4458254">
      </trkpt>
      <trkpt lat="51.2141882" lon="-117.4452348">
      </trkpt>
      <trkpt lat="51.2145638" lon="-117.4444921">
      </trkpt>
      <trkpt lat="51.2146254" lon="-117.4440268">
      </trkpt>
      <trkpt lat="51.2143788" lon="-117.4435704">
      </trkpt>
      <trkpt lat="51.2146871" lon="-117.4433288">
      </trkpt>
      <trkpt lat="51.2153093" lon="-117.4428635">
      </trkpt>
      <trkpt lat="51.2158754" lon="-117.4422908">
      </trkpt>
      <trkpt lat="51.2162621" lon="-117.4419508">
      </trkpt>
      <trkpt lat="51.2169515" lon="-117.4415392">
      </trkpt>
      <trkpt lat="51.2175849" lon="-117.4412707">
      </trkpt>
      <trkpt lat="51.2181902" lon="-117.4411186">
      </trkpt>
      <trkpt lat="51.2190982" lon="-117.4411544">
      </trkpt>
      <trkpt lat="51.2196866" lon="-117.4413423">
      </trkpt>
      <trkpt lat="51.2200397" lon="-117.4416555">
      </trkpt>
      <trkpt lat="51.2205666" lon="-117.4419687">
      </trkpt>
      <trkpt lat="51.2211046" lon="-117.4423356">
      </trkpt>
      <trkpt lat="51.2215025" lon="-117.4428456">
      </trkpt>
    </trkseg>
    <trkseg>
      <trkpt lat="51.2215025" lon="-117.4428456">
      </trkpt>
      <trkpt lat="51.2219284" lon="-117.4430783">
      </trkpt>
      <trkpt lat="51.2222871" lon="-117.4430872">
      </trkpt>
      <trkpt lat="51.2228251" lon="-117.4430872">
      </trkpt>
      <trkpt lat="51.2232846" lon="-117.443302">
      </trkpt>
      <trkpt lat="51.2236545" lon="-117.443651">
      </trkpt>
      <trkpt lat="51.2240356" lon="-117.4444563">
      </trkpt>
      <trkpt lat="51.2242598" lon="-117.4452616">
      </trkpt>
      <trkpt lat="51.2244839" lon="-117.4460938">
      </trkpt>
      <trkpt lat="51.2245792" lon="-117.4468992">
      </trkpt>
      <trkpt lat="51.2246576" lon="-117.447275">
      </trkpt>
      <trkpt lat="51.224809" lon="-117.4474271">
      </trkpt>
      <trkpt lat="51.2251116" lon="-117.4475255">
      </trkpt>
      <trkpt lat="51.225403" lon="-117.447624">
      </trkpt>
      <trkpt lat="51.2259521" lon="-117.4478924">
      </trkpt>
      <trkpt lat="51.2264677" lon="-117.4481072">
      </trkpt>
      <trkpt lat="51.2268656" lon="-117.4485367">
      </trkpt>
      <trkpt lat="51.2272802" lon="-117.4485546">
      </trkpt>
      <trkpt lat="51.2275772" lon="-117.4485367">
      </trkpt>
      <trkpt lat="51.2278742" lon="-117.4482772">
      </trkpt>
      <trkpt lat="51.2282385" lon="-117.4479103">
      </trkpt>
      <trkpt lat="51.228457" lon="-117.4480714">
      </trkpt>
      <trkpt lat="51.2286643" lon="-117.4483488">
      </trkpt>
      <trkpt lat="51.2290005" lon="-117.4485635">
      </trkpt>
      <trkpt lat="51.2291798" lon="-117.448662">
      </trkpt>
      <trkpt lat="51.2296225" lon="-117.4485546">
      </trkpt>
      <trkpt lat="51.2300147" lon="-117.4488946">
      </trkpt>
      <trkpt lat="51.230519" lon="-117.4492078">
      </trkpt>
      <trkpt lat="51.2308664" lon="-117.4495747">
      </trkpt>
      <trkpt lat="51.2314099" lon="-117.4500131">
      </trkpt>
      <trkpt lat="51.2319086" lon="-117.45038">
      </trkpt>
      <trkpt lat="51.2323737" lon="-117.4507558">
      </trkpt>
      <trkpt lat="51.2326818" lon="-117.451078">
      </trkpt>
      <trkpt lat="51.2328275" lon="-117.4513106">
      </trkpt>
      <trkpt lat="51.2330797" lon="-117.4513017">
      </trkpt>
      <trkpt lat="51.2333262" lon="-117.4514717">
      </trkpt>
    </trkseg>
    <trkseg>
      <trkpt lat="51.2296225" lon="-117.4485546">
      </trkpt>
      <trkpt lat="51.2297346" lon="-117.4479372">
      </trkpt>
      <trkpt lat="51.2299363" lon="-117.4475524">
      </trkpt>
      <trkpt lat="51.2302669" lon="-117.4470334">
      </trkpt>
      <trkpt lat="51.2305302" lon="-117.4467202">
      </trkpt>
      <trkpt lat="51.2311242" lon="-117.4465323">
      </trkpt>
      <trkpt lat="51.2314043" lon="-117.4465949">
      </trkpt>
      <trkpt lat="51.2314828" lon="-117.4470334">
      </trkpt>
      <trkpt lat="51.2313259" lon="-117.4476329">
      </trkpt>
      <trkpt lat="51.2312306" lon="-117.4482235">
      </trkpt>
      <trkpt lat="51.2315724" lon="-117.4483219">
      </trkpt>
      <trkpt lat="51.2320095" lon="-117.4482235">
      </trkpt>
      <trkpt lat="51.2323625" lon="-117.4484293">
      </trkpt>
      <trkpt lat="51.2326594" lon="-117.4482682">
      </trkpt>
      <trkpt lat="51.2331077" lon="-117.447973">
      </trkpt>
      <trkpt lat="51.2335727" lon="-117.4474987">
      </trkpt>
      <trkpt lat="51.2342395" lon="-117.4477224">
      </trkpt>
      <trkpt lat="51.2353936" lon="-117.4476508">
      </trkpt>
      <trkpt lat="51.2357858" lon="-117.4479461">
      </trkpt>
      <trkpt lat="51.2360491" lon="-117.4480177">
      </trkpt>
      <trkpt lat="51.2366262" lon="-117.4483846">
      </trkpt>
      <trkpt lat="51.2369623" lon="-117.4486799">
      </trkpt>
      <trkpt lat="51.2374778" lon="-117.4487336">
      </trkpt>
      <trkpt lat="51.2378419" lon="-117.4487872">
      </trkpt>
      <trkpt lat="51.2384414" lon="-117.4491183">
      </trkpt>
      <trkpt lat="51.2387719" lon="-117.4492794">
      </trkpt>
      <trkpt lat="51.2393826" lon="-117.4494494">
      </trkpt>
      <trkpt lat="51.2399428" lon="-117.4497715">
      </trkpt>
      <trkpt lat="51.2401556" lon="-117.4499774">
      </trkpt>
      <trkpt lat="51.2401164" lon="-117.4503174">
      </trkpt>
      <trkpt lat="51.240587" lon="-117.4506574">
      </trkpt>
      <trkpt lat="51.2415225" lon="-117.4512569">
      </trkpt>
      <trkpt lat="51.2420043" lon="-117.4516775">
      </trkpt>
      <trkpt lat="51.2423908" lon="-117.4521339">
      </trkpt>
      <trkpt lat="51.242811" lon="-117.4526708">
      </trkpt>
      <trkpt lat="51.2431471" lon="-117.4529303">
      </trkpt>
      <trkpt lat="51.2433431" lon="-117.4533956">
      </trkpt>
      <trkpt lat="51.2436792" lon="-117.4540577">
      </trkpt>
      <trkpt lat="51.2439649" lon="-117.4549168">
      </trkpt>
      <trkpt lat="51.2442674" lon="-117.4555879">
      </trkpt>
      <trkpt lat="51.244217" lon="-117.4558384">
      </trkpt>
      <trkpt lat="51.2439033" lon="-117.455919">
      </trkpt>
      <trkpt lat="51.2435168" lon="-117.4562769">
      </trkpt>
      <trkpt lat="51.2429062" lon="-117.4567511">
      </trkpt>
      <trkpt lat="51.24229" lon="-117.4571449">
      </trkpt>
      <trkpt lat="51.2420883" lon="-117.457637">
      </trkpt>
      <trkpt lat="51.2418699" lon="-117.4582097">
      </trkpt>
      <trkpt lat="51.2419987" lon="-117.4588361">
      </trkpt>
      <trkpt lat="51.2421331" lon="-117.4594177">
      </trkpt>
    </trkseg>
    <trkseg>
      <trkpt lat="51.2421331" lon="-117.4594177">
      </trkpt>
      <trkpt lat="51.2425421" lon="-117.4598114">
      </trkpt>
      <trkpt lat="51.2429454" lon="-117.4601425">
      </trkpt>
      <trkpt lat="51.2432871" lon="-117.4604557">
      </trkpt>
      <trkpt lat="51.2432199" lon="-117.4608942">
      </trkpt>
      <trkpt lat="51.2433823" lon="-117.4614132">
      </trkpt>
      <trkpt lat="51.2435952" lon="-117.4616279">
      </trkpt>
      <trkpt lat="51.2441218" lon="-117.4618606">
      </trkpt>
      <trkpt lat="51.2440433" lon="-117.4626033">
      </trkpt>
      <trkpt lat="51.2442394" lon="-117.4631402">
      </trkpt>
      <trkpt lat="51.2445307" lon="-117.463337">
      </trkpt>
      <trkpt lat="51.2450516" lon="-117.4632833">
      </trkpt>
      <trkpt lat="51.2454381" lon="-117.4637576">
      </trkpt>
      <trkpt lat="51.2456678" lon="-117.4641782">
      </trkpt>
      <trkpt lat="51.2461103" lon="-117.4644645">
      </trkpt>
      <trkpt lat="51.2464576" lon="-117.4649209">
      </trkpt>
      <trkpt lat="51.2468441" lon="-117.4655562">
      </trkpt>
      <trkpt lat="51.2469953" lon="-117.4661289">
      </trkpt>
      <trkpt lat="51.247421" lon="-117.46663">
      </trkpt>
      <trkpt lat="51.2478187" lon="-117.4671758">
      </trkpt>
      <trkpt lat="51.2479811" lon="-117.4677306">
      </trkpt>
    </trkseg>
    <trkseg>
      <trkpt lat="51.2479811" lon="-117.4677306">
      </trkpt>
      <trkpt lat="51.2483172" lon="-117.468187">
      </trkpt>
      <trkpt lat="51.2486252" lon="-117.4686433">
      </trkpt>
      <trkpt lat="51.2487709" lon="-117.4690102">
      </trkpt>
      <trkpt lat="51.2493814" lon="-117.4692697">
      </trkpt>
      <trkpt lat="51.2498186" lon="-117.4695098">
      </trkpt>
    </trkseg>
  </trk>
</gpx>