<?xml version="1.0" encoding="UTF-8"?>
<gpx xmlns="http://www.topografix.com/GPX/1/1" xmlns:xsi="http://www.w3.org/2001/XMLSchema-instance" xsi:schemaLocation="http://www.topografix.com/GPX/1/1 http://www.topografix.com/GPX/1/1/gpx.xsd" version="1.1" creator="gpx.py -- https://github.com/tkrajina/gpxpy">
  <trk>
    <name>Jutland Ridge Route</name>
    <trkseg>
      <trkpt lat="49.689501" lon="-125.397681">
      </trkpt>
      <trkpt lat="49.6903292" lon="-125.3976917">
      </trkpt>
      <trkpt lat="49.6912037" lon="-125.3979063">
      </trkpt>
      <trkpt lat="49.6923142" lon="-125.3979278">
      </trkpt>
      <trkpt lat="49.6932025" lon="-125.3983569">
      </trkpt>
      <trkpt lat="49.6934871" lon="-125.3988612">
      </trkpt>
      <trkpt lat="49.6940562" lon="-125.3994835">
      </trkpt>
      <trkpt lat="49.6947016" lon="-125.3999555">
      </trkpt>
      <trkpt lat="49.695236" lon="-125.4004812">
      </trkpt>
      <trkpt lat="49.6959994" lon="-125.4005349">
      </trkpt>
      <trkpt lat="49.6968252" lon="-125.4011786">
      </trkpt>
      <trkpt lat="49.6976996" lon="-125.4026485">
      </trkpt>
      <trkpt lat="49.6983172" lon="-125.4032922">
      </trkpt>
      <trkpt lat="49.699032" lon="-125.4039359">
      </trkpt>
      <trkpt lat="49.6994067" lon="-125.4048372">
      </trkpt>
      <trkpt lat="49.7001978" lon="-125.4053307">
      </trkpt>
      <trkpt lat="49.7004407" lon="-125.4059744">
      </trkpt>
      <trkpt lat="49.7012317" lon="-125.4073048">
      </trkpt>
      <trkpt lat="49.7017036" lon="-125.4075623">
      </trkpt>
      <trkpt lat="49.7018077" lon="-125.4081202">
      </trkpt>
      <trkpt lat="49.7017105" lon="-125.409354">
      </trkpt>
      <trkpt lat="49.7014052" lon="-125.4096866">
      </trkpt>
      <trkpt lat="49.7013845" lon="-125.4107702">
      </trkpt>
      <trkpt lat="49.7016967" lon="-125.411253">
      </trkpt>
      <trkpt lat="49.7020714" lon="-125.4120898">
      </trkpt>
      <trkpt lat="49.7021546" lon="-125.412755">
      </trkpt>
      <trkpt lat="49.7020677" lon="-125.4133342">
      </trkpt>
    </trkseg>
  </trk>
</gpx>