<?xml version="1.0" encoding="UTF-8"?>
<gpx xmlns="http://www.topografix.com/GPX/1/1" xmlns:xsi="http://www.w3.org/2001/XMLSchema-instance" xsi:schemaLocation="http://www.topografix.com/GPX/1/1 http://www.topografix.com/GPX/1/1/gpx.xsd" version="1.1" creator="gpx.py -- https://github.com/tkrajina/gpxpy">
  <trk>
    <name>Karst Creek Trail</name>
    <trkseg>
      <trkpt lat="49.6596555" lon="-125.527263">
      </trkpt>
      <trkpt lat="49.6597219" lon="-125.527135">
      </trkpt>
      <trkpt lat="49.6598002" lon="-125.5272559">
      </trkpt>
      <trkpt lat="49.660064" lon="-125.5270013">
      </trkpt>
      <trkpt lat="49.6600764" lon="-125.5267593">
      </trkpt>
      <trkpt lat="49.6602" lon="-125.5266702">
      </trkpt>
      <trkpt lat="49.6603566" lon="-125.5264792">
      </trkpt>
      <trkpt lat="49.6604019" lon="-125.52625">
      </trkpt>
      <trkpt lat="49.6604061" lon="-125.525989">
      </trkpt>
      <trkpt lat="49.6603813" lon="-125.5258362">
      </trkpt>
      <trkpt lat="49.6604926" lon="-125.5254032">
      </trkpt>
      <trkpt lat="49.660608" lon="-125.5251804">
      </trkpt>
      <trkpt lat="49.6606121" lon="-125.5248812">
      </trkpt>
      <trkpt lat="49.660744" lon="-125.5246074">
      </trkpt>
      <trkpt lat="49.6604349" lon="-125.5249639">
      </trkpt>
      <trkpt lat="49.6603649" lon="-125.5251677">
      </trkpt>
      <trkpt lat="49.660303" lon="-125.5252504">
      </trkpt>
      <trkpt lat="49.6601423" lon="-125.5251613">
      </trkpt>
      <trkpt lat="49.6599198" lon="-125.5251104">
      </trkpt>
      <trkpt lat="49.6598662" lon="-125.5250467">
      </trkpt>
      <trkpt lat="49.6597096" lon="-125.5250849">
      </trkpt>
      <trkpt lat="49.659553" lon="-125.524913">
      </trkpt>
      <trkpt lat="49.6592356" lon="-125.5241745">
      </trkpt>
      <trkpt lat="49.6592191" lon="-125.5239962">
      </trkpt>
      <trkpt lat="49.6591079" lon="-125.5239071">
      </trkpt>
      <trkpt lat="49.6588771" lon="-125.523888">
      </trkpt>
      <trkpt lat="49.6587782" lon="-125.5237288">
      </trkpt>
      <trkpt lat="49.6587205" lon="-125.5234041">
      </trkpt>
      <trkpt lat="49.6589595" lon="-125.5235505">
      </trkpt>
      <trkpt lat="49.6587122" lon="-125.5230476">
      </trkpt>
      <trkpt lat="49.6586092" lon="-125.5227293">
      </trkpt>
      <trkpt lat="49.65823" lon="-125.5229585">
      </trkpt>
      <trkpt lat="49.6580157" lon="-125.5229712">
      </trkpt>
      <trkpt lat="49.6579498" lon="-125.5231431">
      </trkpt>
      <trkpt lat="49.6580693" lon="-125.5232577">
      </trkpt>
      <trkpt lat="49.6582341" lon="-125.5232768">
      </trkpt>
      <trkpt lat="49.6583207" lon="-125.5233404">
      </trkpt>
      <trkpt lat="49.6581393" lon="-125.5234614">
      </trkpt>
      <trkpt lat="49.6580198" lon="-125.5237797">
      </trkpt>
      <trkpt lat="49.6580775" lon="-125.5239007">
      </trkpt>
      <trkpt lat="49.6581682" lon="-125.5236397">
      </trkpt>
      <trkpt lat="49.6581229" lon="-125.5239198">
      </trkpt>
      <trkpt lat="49.6583866" lon="-125.5241745">
      </trkpt>
      <trkpt lat="49.6584155" lon="-125.524531">
      </trkpt>
      <trkpt lat="49.6586916" lon="-125.5247538">
      </trkpt>
      <trkpt lat="49.6587369" lon="-125.5250085">
      </trkpt>
      <trkpt lat="49.6590625" lon="-125.5251295">
      </trkpt>
      <trkpt lat="49.6591408" lon="-125.525416">
      </trkpt>
      <trkpt lat="49.6591491" lon="-125.5254924">
      </trkpt>
      <trkpt lat="49.6590625" lon="-125.5255751">
      </trkpt>
      <trkpt lat="49.6589513" lon="-125.5256643">
      </trkpt>
      <trkpt lat="49.6590543" lon="-125.5259444">
      </trkpt>
      <trkpt lat="49.6591573" lon="-125.5260654">
      </trkpt>
      <trkpt lat="49.6591614" lon="-125.5263391">
      </trkpt>
      <trkpt lat="49.6594499" lon="-125.526562">
      </trkpt>
      <trkpt lat="49.6598208" lon="-125.5266193">
      </trkpt>
      <trkpt lat="49.6598621" lon="-125.5268039">
      </trkpt>
      <trkpt lat="49.6597219" lon="-125.527135">
      </trkpt>
    </trkseg>
  </trk>
</gpx>