<?xml version="1.0" encoding="UTF-8"?>
<gpx xmlns="http://www.topografix.com/GPX/1/1" xmlns:xsi="http://www.w3.org/2001/XMLSchema-instance" xsi:schemaLocation="http://www.topografix.com/GPX/1/1 http://www.topografix.com/GPX/1/1/gpx.xsd" version="1.1" creator="gpx.py -- https://github.com/tkrajina/gpxpy">
  <trk>
    <name>Ski tour near The Hermit</name>
    <trkseg>
      <trkpt lat="51.3379784" lon="-117.5186706">
      </trkpt>
      <trkpt lat="51.3384408" lon="-117.5174368">
      </trkpt>
      <trkpt lat="51.3388028" lon="-117.5168359">
      </trkpt>
      <trkpt lat="51.3393457" lon="-117.5166857">
      </trkpt>
      <trkpt lat="51.3392384" lon="-117.5158489">
      </trkpt>
      <trkpt lat="51.3397612" lon="-117.5158489">
      </trkpt>
      <trkpt lat="51.3395534" lon="-117.5150013">
      </trkpt>
      <trkpt lat="51.3397545" lon="-117.5147116">
      </trkpt>
      <trkpt lat="51.3400896" lon="-117.5149584">
      </trkpt>
      <trkpt lat="51.3405521" lon="-117.5152266">
      </trkpt>
      <trkpt lat="51.3410413" lon="-117.5147009">
      </trkpt>
      <trkpt lat="51.3412424" lon="-117.5137031">
      </trkpt>
      <trkpt lat="51.3411754" lon="-117.5131023">
      </trkpt>
      <trkpt lat="51.3409341" lon="-117.5129736">
      </trkpt>
      <trkpt lat="51.3400896" lon="-117.5129628">
      </trkpt>
      <trkpt lat="51.33954" lon="-117.5126732">
      </trkpt>
      <trkpt lat="51.3388162" lon="-117.5126517">
      </trkpt>
      <trkpt lat="51.3380521" lon="-117.5124586">
      </trkpt>
      <trkpt lat="51.3374556" lon="-117.5118256">
      </trkpt>
      <trkpt lat="51.3368322" lon="-117.5112355">
      </trkpt>
      <trkpt lat="51.3363623" lon="-117.5102859">
      </trkpt>
    </trkseg>
  </trk>
</gpx>