<?xml version="1.0" encoding="UTF-8"?>
<gpx xmlns="http://www.topografix.com/GPX/1/1" xmlns:xsi="http://www.w3.org/2001/XMLSchema-instance" xsi:schemaLocation="http://www.topografix.com/GPX/1/1 http://www.topografix.com/GPX/1/1/gpx.xsd" version="1.1" creator="gpx.py -- https://github.com/tkrajina/gpxpy">
  <trk>
    <name>Ski tour near Nordic Mountain</name>
    <trkseg>
      <trkpt lat="51.4469313" lon="-117.6971474">
      </trkpt>
      <trkpt lat="51.4469564" lon="-117.696678">
      </trkpt>
      <trkpt lat="51.4468427" lon="-117.6963294">
      </trkpt>
      <trkpt lat="51.4467592" lon="-117.6956803">
      </trkpt>
      <trkpt lat="51.4466589" lon="-117.6950097">
      </trkpt>
      <trkpt lat="51.4466689" lon="-117.694146">
      </trkpt>
      <trkpt lat="51.4466288" lon="-117.6934004">
      </trkpt>
      <trkpt lat="51.4465151" lon="-117.6930463">
      </trkpt>
      <trkpt lat="51.4464683" lon="-117.6925957">
      </trkpt>
      <trkpt lat="51.4465184" lon="-117.6917374">
      </trkpt>
      <trkpt lat="51.4465251" lon="-117.6913619">
      </trkpt>
      <trkpt lat="51.4465953" lon="-117.6909918">
      </trkpt>
      <trkpt lat="51.4466154" lon="-117.6905787">
      </trkpt>
      <trkpt lat="51.4467424" lon="-117.6899725">
      </trkpt>
      <trkpt lat="51.4467491" lon="-117.689774">
      </trkpt>
      <trkpt lat="51.4467357" lon="-117.6896399">
      </trkpt>
      <trkpt lat="51.4466455" lon="-117.68942">
      </trkpt>
      <trkpt lat="51.4465117" lon="-117.6892644">
      </trkpt>
      <trkpt lat="51.4463814" lon="-117.6890123">
      </trkpt>
      <trkpt lat="51.4461239" lon="-117.6886582">
      </trkpt>
      <trkpt lat="51.4459066" lon="-117.688449">
      </trkpt>
      <trkpt lat="51.4458431" lon="-117.6882237">
      </trkpt>
      <trkpt lat="51.4456859" lon="-117.6879233">
      </trkpt>
      <trkpt lat="51.4454185" lon="-117.6876551">
      </trkpt>
      <trkpt lat="51.4450607" lon="-117.6872528">
      </trkpt>
      <trkpt lat="51.4447832" lon="-117.6868933">
      </trkpt>
      <trkpt lat="51.4445659" lon="-117.6866949">
      </trkpt>
      <trkpt lat="51.444275" lon="-117.6862711">
      </trkpt>
      <trkpt lat="51.444061" lon="-117.6860458">
      </trkpt>
      <trkpt lat="51.4440175" lon="-117.6859063">
      </trkpt>
      <trkpt lat="51.4438671" lon="-117.6857936">
      </trkpt>
      <trkpt lat="51.4437567" lon="-117.6856273">
      </trkpt>
      <trkpt lat="51.4435762" lon="-117.685402">
      </trkpt>
      <trkpt lat="51.4435361" lon="-117.685402">
      </trkpt>
      <trkpt lat="51.4435327" lon="-117.6855308">
      </trkpt>
      <trkpt lat="51.4434993" lon="-117.685563">
      </trkpt>
      <trkpt lat="51.4432987" lon="-117.6854396">
      </trkpt>
      <trkpt lat="51.4427035" lon="-117.684871">
      </trkpt>
      <trkpt lat="51.4424327" lon="-117.6845706">
      </trkpt>
      <trkpt lat="51.442319" lon="-117.6845437">
      </trkpt>
      <trkpt lat="51.4422889" lon="-117.6844686">
      </trkpt>
      <trkpt lat="51.4422454" lon="-117.6843238">
      </trkpt>
      <trkpt lat="51.4421585" lon="-117.6843238">
      </trkpt>
      <trkpt lat="51.4420448" lon="-117.6841307">
      </trkpt>
      <trkpt lat="51.4418893" lon="-117.6839879">
      </trkpt>
      <trkpt lat="51.4416302" lon="-117.6837498">
      </trkpt>
      <trkpt lat="51.4415399" lon="-117.6835835">
      </trkpt>
      <trkpt lat="51.441463" lon="-117.683562">
      </trkpt>
      <trkpt lat="51.4413828" lon="-117.6836103">
      </trkpt>
      <trkpt lat="51.4413794" lon="-117.6837766">
      </trkpt>
      <trkpt lat="51.4414229" lon="-117.684077">
      </trkpt>
      <trkpt lat="51.4415199" lon="-117.6843131">
      </trkpt>
      <trkpt lat="51.4415399" lon="-117.6844955">
      </trkpt>
      <trkpt lat="51.4416904" lon="-117.684812">
      </trkpt>
      <trkpt lat="51.4415867" lon="-117.6848441">
      </trkpt>
      <trkpt lat="51.4416202" lon="-117.6851285">
      </trkpt>
      <trkpt lat="51.4417305" lon="-117.6853591">
      </trkpt>
      <trkpt lat="51.4417138" lon="-117.6854289">
      </trkpt>
      <trkpt lat="51.4416503" lon="-117.6854879">
      </trkpt>
      <trkpt lat="51.4416603" lon="-117.6857132">
      </trkpt>
      <trkpt lat="51.4417472" lon="-117.6859975">
      </trkpt>
      <trkpt lat="51.4417472" lon="-117.6862925">
      </trkpt>
      <trkpt lat="51.4417038" lon="-117.6863033">
      </trkpt>
      <trkpt lat="51.44157" lon="-117.6861692">
      </trkpt>
      <trkpt lat="51.4413594" lon="-117.6861584">
      </trkpt>
      <trkpt lat="51.4411253" lon="-117.6860565">
      </trkpt>
      <trkpt lat="51.4410567" lon="-117.6861396">
      </trkpt>
      <trkpt lat="51.4410467" lon="-117.6862952">
      </trkpt>
      <trkpt lat="51.4409631" lon="-117.6862764">
      </trkpt>
      <trkpt lat="51.4406722" lon="-117.6860458">
      </trkpt>
      <trkpt lat="51.4405401" lon="-117.6858929">
      </trkpt>
      <trkpt lat="51.4403713" lon="-117.6858473">
      </trkpt>
      <trkpt lat="51.4402241" lon="-117.6858795">
      </trkpt>
      <trkpt lat="51.4401523" lon="-117.685909">
      </trkpt>
      <trkpt lat="51.4399165" lon="-117.6857454">
      </trkpt>
      <trkpt lat="51.439649" lon="-117.6853699">
      </trkpt>
      <trkpt lat="51.4392494" lon="-117.6847851">
      </trkpt>
      <trkpt lat="51.439119" lon="-117.684533">
      </trkpt>
      <trkpt lat="51.4390923" lon="-117.684297">
      </trkpt>
      <trkpt lat="51.439114" lon="-117.684136">
      </trkpt>
      <trkpt lat="51.4390739" lon="-117.6839751">
      </trkpt>
      <trkpt lat="51.4389083" lon="-117.6838651">
      </trkpt>
      <trkpt lat="51.4387595" lon="-117.683723">
      </trkpt>
      <trkpt lat="51.4387395" lon="-117.6836318">
      </trkpt>
      <trkpt lat="51.4387244" lon="-117.6834977">
      </trkpt>
      <trkpt lat="51.4386726" lon="-117.6834011">
      </trkpt>
      <trkpt lat="51.4385154" lon="-117.6832187">
      </trkpt>
      <trkpt lat="51.4383666" lon="-117.6831758">
      </trkpt>
      <trkpt lat="51.4382663" lon="-117.6832214">
      </trkpt>
      <trkpt lat="51.4382078" lon="-117.6832375">
      </trkpt>
      <trkpt lat="51.4378015" lon="-117.6831061">
      </trkpt>
      <trkpt lat="51.4376376" lon="-117.6831007">
      </trkpt>
      <trkpt lat="51.4374872" lon="-117.6829451">
      </trkpt>
      <trkpt lat="51.4373166" lon="-117.682929">
      </trkpt>
      <trkpt lat="51.4372263" lon="-117.6827735">
      </trkpt>
      <trkpt lat="51.4371895" lon="-117.6826233">
      </trkpt>
      <trkpt lat="51.4370792" lon="-117.6825053">
      </trkpt>
      <trkpt lat="51.4369655" lon="-117.6825213">
      </trkpt>
      <trkpt lat="51.4368451" lon="-117.6824194">
      </trkpt>
      <trkpt lat="51.4366946" lon="-117.6823282">
      </trkpt>
      <trkpt lat="51.4364505" lon="-117.6823926">
      </trkpt>
      <trkpt lat="51.4363435" lon="-117.6823229">
      </trkpt>
      <trkpt lat="51.436193" lon="-117.6823121">
      </trkpt>
      <trkpt lat="51.435785" lon="-117.6820332">
      </trkpt>
      <trkpt lat="51.4357014" lon="-117.6818883">
      </trkpt>
      <trkpt lat="51.4356881" lon="-117.6817006">
      </trkpt>
      <trkpt lat="51.4356847" lon="-117.6814699">
      </trkpt>
      <trkpt lat="51.4356446" lon="-117.6813197">
      </trkpt>
      <trkpt lat="51.4355443" lon="-117.6811481">
      </trkpt>
      <trkpt lat="51.4354807" lon="-117.6811481">
      </trkpt>
      <trkpt lat="51.4354272" lon="-117.6812875">
      </trkpt>
      <trkpt lat="51.4352868" lon="-117.6812983">
      </trkpt>
      <trkpt lat="51.4351697" lon="-117.6812553">
      </trkpt>
      <trkpt lat="51.4348721" lon="-117.6811749">
      </trkpt>
      <trkpt lat="51.4346547" lon="-117.68103">
      </trkpt>
      <trkpt lat="51.4344775" lon="-117.6810193">
      </trkpt>
      <trkpt lat="51.4343169" lon="-117.6811105">
      </trkpt>
      <trkpt lat="51.43423" lon="-117.6812446">
      </trkpt>
      <trkpt lat="51.4341899" lon="-117.6813841">
      </trkpt>
      <trkpt lat="51.4340761" lon="-117.6814538">
      </trkpt>
      <trkpt lat="51.4337852" lon="-117.681132">
      </trkpt>
      <trkpt lat="51.4332735" lon="-117.6806974">
      </trkpt>
      <trkpt lat="51.4331999" lon="-117.6808584">
      </trkpt>
      <trkpt lat="51.4330996" lon="-117.6814538">
      </trkpt>
      <trkpt lat="51.4329959" lon="-117.6816952">
      </trkpt>
      <trkpt lat="51.4329357" lon="-117.6817221">
      </trkpt>
      <trkpt lat="51.4327919" lon="-117.6815611">
      </trkpt>
      <trkpt lat="51.4325043" lon="-117.6810783">
      </trkpt>
      <trkpt lat="51.4324542" lon="-117.6809335">
      </trkpt>
      <trkpt lat="51.4324107" lon="-117.6809067">
      </trkpt>
      <trkpt lat="51.4323538" lon="-117.6810676">
      </trkpt>
      <trkpt lat="51.4321665" lon="-117.6814377">
      </trkpt>
      <trkpt lat="51.4320194" lon="-117.681765">
      </trkpt>
      <trkpt lat="51.4319759" lon="-117.6817274">
      </trkpt>
      <trkpt lat="51.4318622" lon="-117.6814163">
      </trkpt>
      <trkpt lat="51.4316783" lon="-117.6809818">
      </trkpt>
      <trkpt lat="51.4314542" lon="-117.6815933">
      </trkpt>
      <trkpt lat="51.4314207" lon="-117.6815397">
      </trkpt>
      <trkpt lat="51.4313037" lon="-117.681132">
      </trkpt>
      <trkpt lat="51.4312234" lon="-117.6811105">
      </trkpt>
      <trkpt lat="51.4310094" lon="-117.6816201">
      </trkpt>
      <trkpt lat="51.4307017" lon="-117.6821673">
      </trkpt>
      <trkpt lat="51.4304809" lon="-117.6824892">
      </trkpt>
      <trkpt lat="51.430404" lon="-117.6827145">
      </trkpt>
      <trkpt lat="51.4303471" lon="-117.6830041">
      </trkpt>
      <trkpt lat="51.4303538" lon="-117.6832724">
      </trkpt>
      <trkpt lat="51.4304441" lon="-117.683562">
      </trkpt>
      <trkpt lat="51.430511" lon="-117.6838785">
      </trkpt>
    </trkseg>
  </trk>
</gpx>