<?xml version="1.0" encoding="UTF-8"?>
<gpx xmlns="http://www.topografix.com/GPX/1/1" xmlns:xsi="http://www.w3.org/2001/XMLSchema-instance" xsi:schemaLocation="http://www.topografix.com/GPX/1/1 http://www.topografix.com/GPX/1/1/gpx.xsd" version="1.1" creator="gpx.py -- https://github.com/tkrajina/gpxpy">
  <trk>
    <name>Ski tour near Nordic Mountain</name>
    <trkseg>
      <trkpt lat="51.4497313" lon="-117.6955193">
      </trkpt>
      <trkpt lat="51.4494906" lon="-117.6951116">
      </trkpt>
      <trkpt lat="51.4492365" lon="-117.6948971">
      </trkpt>
      <trkpt lat="51.4490092" lon="-117.6946181">
      </trkpt>
      <trkpt lat="51.4489456" lon="-117.6942426">
      </trkpt>
      <trkpt lat="51.4490593" lon="-117.694248">
      </trkpt>
      <trkpt lat="51.4491663" lon="-117.6941943">
      </trkpt>
      <trkpt lat="51.4492766" lon="-117.6943713">
      </trkpt>
      <trkpt lat="51.4494237" lon="-117.6943606">
      </trkpt>
      <trkpt lat="51.4496444" lon="-117.694425">
      </trkpt>
      <trkpt lat="51.4497246" lon="-117.6943499">
      </trkpt>
      <trkpt lat="51.4496744" lon="-117.6942694">
      </trkpt>
      <trkpt lat="51.4496611" lon="-117.6941192">
      </trkpt>
      <trkpt lat="51.4496845" lon="-117.6937974">
      </trkpt>
      <trkpt lat="51.449768" lon="-117.6935828">
      </trkpt>
      <trkpt lat="51.4497079" lon="-117.6932287">
      </trkpt>
      <trkpt lat="51.449621" lon="-117.6929176">
      </trkpt>
      <trkpt lat="51.4497146" lon="-117.6929498">
      </trkpt>
      <trkpt lat="51.4498015" lon="-117.6930142">
      </trkpt>
      <trkpt lat="51.4499218" lon="-117.6930356">
      </trkpt>
      <trkpt lat="51.4501157" lon="-117.6932395">
      </trkpt>
      <trkpt lat="51.4501024" lon="-117.6930624">
      </trkpt>
      <trkpt lat="51.4502762" lon="-117.6930946">
      </trkpt>
      <trkpt lat="51.4502227" lon="-117.6929176">
      </trkpt>
      <trkpt lat="51.4503163" lon="-117.6927191">
      </trkpt>
      <trkpt lat="51.4504634" lon="-117.6926601">
      </trkpt>
      <trkpt lat="51.4507309" lon="-117.6924402">
      </trkpt>
      <trkpt lat="51.4508579" lon="-117.6922363">
      </trkpt>
      <trkpt lat="51.4509314" lon="-117.6920003">
      </trkpt>
      <trkpt lat="51.451112" lon="-117.6918072">
      </trkpt>
      <trkpt lat="51.4513326" lon="-117.6916784">
      </trkpt>
      <trkpt lat="51.451356" lon="-117.6915389">
      </trkpt>
      <trkpt lat="51.4511955" lon="-117.69126">
      </trkpt>
      <trkpt lat="51.4510718" lon="-117.6910025">
      </trkpt>
      <trkpt lat="51.4510083" lon="-117.690686">
      </trkpt>
      <trkpt lat="51.4510016" lon="-117.6904017">
      </trkpt>
      <trkpt lat="51.450888" lon="-117.6900852">
      </trkpt>
      <trkpt lat="51.4506205" lon="-117.6897526">
      </trkpt>
      <trkpt lat="51.4505403" lon="-117.6894897">
      </trkpt>
      <trkpt lat="51.4504333" lon="-117.6890981">
      </trkpt>
      <trkpt lat="51.4503531" lon="-117.6884329">
      </trkpt>
      <trkpt lat="51.4502294" lon="-117.6882613">
      </trkpt>
      <trkpt lat="51.4499954" lon="-117.6883525">
      </trkpt>
      <trkpt lat="51.4495641" lon="-117.6882881">
      </trkpt>
      <trkpt lat="51.4492298" lon="-117.6883954">
      </trkpt>
      <trkpt lat="51.4488721" lon="-117.6882184">
      </trkpt>
      <trkpt lat="51.4483171" lon="-117.6879716">
      </trkpt>
      <trkpt lat="51.4482068" lon="-117.6877087">
      </trkpt>
      <trkpt lat="51.4480229" lon="-117.6876605">
      </trkpt>
      <trkpt lat="51.4478491" lon="-117.6874888">
      </trkpt>
      <trkpt lat="51.447605" lon="-117.6874244">
      </trkpt>
      <trkpt lat="51.4474546" lon="-117.687462">
      </trkpt>
      <trkpt lat="51.4472005" lon="-117.6873922">
      </trkpt>
      <trkpt lat="51.4470132" lon="-117.6871991">
      </trkpt>
      <trkpt lat="51.446943" lon="-117.6870918">
      </trkpt>
      <trkpt lat="51.4467993" lon="-117.6870114">
      </trkpt>
      <trkpt lat="51.4466823" lon="-117.6869845">
      </trkpt>
      <trkpt lat="51.4465418" lon="-117.6868451">
      </trkpt>
      <trkpt lat="51.4464382" lon="-117.6866466">
      </trkpt>
      <trkpt lat="51.446037" lon="-117.686137">
      </trkpt>
      <trkpt lat="51.445599" lon="-117.6855308">
      </trkpt>
      <trkpt lat="51.4451175" lon="-117.6850641">
      </trkpt>
      <trkpt lat="51.4450239" lon="-117.6849246">
      </trkpt>
      <trkpt lat="51.4447999" lon="-117.68471">
      </trkpt>
      <trkpt lat="51.4446762" lon="-117.6844686">
      </trkpt>
      <trkpt lat="51.4444622" lon="-117.6841521">
      </trkpt>
      <trkpt lat="51.4442884" lon="-117.6838625">
      </trkpt>
      <trkpt lat="51.4440878" lon="-117.6837605">
      </trkpt>
      <trkpt lat="51.4440309" lon="-117.6837337">
      </trkpt>
      <trkpt lat="51.4440175" lon="-117.6835299">
      </trkpt>
      <trkpt lat="51.4439406" lon="-117.6834601">
      </trkpt>
      <trkpt lat="51.4438303" lon="-117.6834869">
      </trkpt>
      <trkpt lat="51.44374" lon="-117.6835138">
      </trkpt>
      <trkpt lat="51.4436832" lon="-117.6834065">
      </trkpt>
      <trkpt lat="51.4436431" lon="-117.6832187">
      </trkpt>
      <trkpt lat="51.4435327" lon="-117.6831061">
      </trkpt>
      <trkpt lat="51.4434257" lon="-117.6831114">
      </trkpt>
      <trkpt lat="51.4433254" lon="-117.6831865">
      </trkpt>
      <trkpt lat="51.4432385" lon="-117.6831436">
      </trkpt>
      <trkpt lat="51.4431649" lon="-117.6829451">
      </trkpt>
      <trkpt lat="51.4431248" lon="-117.6826286">
      </trkpt>
      <trkpt lat="51.4432285" lon="-117.6826072">
      </trkpt>
      <trkpt lat="51.4433589" lon="-117.6825589">
      </trkpt>
      <trkpt lat="51.4433856" lon="-117.6824302">
      </trkpt>
      <trkpt lat="51.4432619" lon="-117.6822102">
      </trkpt>
      <trkpt lat="51.4430646" lon="-117.6819634">
      </trkpt>
      <trkpt lat="51.4428072" lon="-117.6817703">
      </trkpt>
      <trkpt lat="51.4423391" lon="-117.6813841">
      </trkpt>
      <trkpt lat="51.4420983" lon="-117.6812017">
      </trkpt>
      <trkpt lat="51.4417706" lon="-117.6811373">
      </trkpt>
      <trkpt lat="51.4416302" lon="-117.6813305">
      </trkpt>
      <trkpt lat="51.4415968" lon="-117.6815558">
      </trkpt>
      <trkpt lat="51.4416837" lon="-117.6819205">
      </trkpt>
      <trkpt lat="51.4417974" lon="-117.6825535">
      </trkpt>
      <trkpt lat="51.441891" lon="-117.6828647">
      </trkpt>
      <trkpt lat="51.4419044" lon="-117.6833153">
      </trkpt>
      <trkpt lat="51.4420047" lon="-117.6835406">
      </trkpt>
      <trkpt lat="51.4420047" lon="-117.6836801">
      </trkpt>
      <trkpt lat="51.4418308" lon="-117.6835942">
      </trkpt>
      <trkpt lat="51.4418893" lon="-117.6839879">
      </trkpt>
    </trkseg>
  </trk>
</gpx>