<?xml version="1.0" encoding="UTF-8"?>
<gpx xmlns="http://www.topografix.com/GPX/1/1" xmlns:xsi="http://www.w3.org/2001/XMLSchema-instance" xsi:schemaLocation="http://www.topografix.com/GPX/1/1 http://www.topografix.com/GPX/1/1/gpx.xsd" version="1.1" creator="gpx.py -- https://github.com/tkrajina/gpxpy">
  <trk>
    <name>Ski tour near Mount Cain</name>
    <trkseg>
      <trkpt lat="50.2258046" lon="-126.3465232">
      </trkpt>
      <trkpt lat="50.2258526" lon="-126.346035">
      </trkpt>
      <trkpt lat="50.2258561" lon="-126.3456917">
      </trkpt>
      <trkpt lat="50.2258766" lon="-126.3454449">
      </trkpt>
      <trkpt lat="50.2257977" lon="-126.3453591">
      </trkpt>
      <trkpt lat="50.2258458" lon="-126.3451123">
      </trkpt>
      <trkpt lat="50.2257806" lon="-126.3446832">
      </trkpt>
      <trkpt lat="50.2257085" lon="-126.3442165">
      </trkpt>
      <trkpt lat="50.2255918" lon="-126.3437766">
      </trkpt>
      <trkpt lat="50.2255987" lon="-126.3430899">
      </trkpt>
      <trkpt lat="50.2255403" lon="-126.3424087">
      </trkpt>
      <trkpt lat="50.2255129" lon="-126.3418615">
      </trkpt>
      <trkpt lat="50.22553" lon="-126.3412178">
      </trkpt>
      <trkpt lat="50.2256227" lon="-126.3407189">
      </trkpt>
      <trkpt lat="50.2258423" lon="-126.3402253">
      </trkpt>
      <trkpt lat="50.2259736" lon="-126.3400336">
      </trkpt>
      <trkpt lat="50.2259985" lon="-126.3397707">
      </trkpt>
      <trkpt lat="50.2260242" lon="-126.3393188">
      </trkpt>
      <trkpt lat="50.2262095" lon="-126.3387984">
      </trkpt>
      <trkpt lat="50.226261" lon="-126.3384819">
      </trkpt>
      <trkpt lat="50.2262782" lon="-126.338144">
      </trkpt>
      <trkpt lat="50.226213" lon="-126.3378489">
      </trkpt>
      <trkpt lat="50.2262473" lon="-126.3374949">
      </trkpt>
      <trkpt lat="50.2262713" lon="-126.3370979">
      </trkpt>
      <trkpt lat="50.2261581" lon="-126.336599">
      </trkpt>
    </trkseg>
    <trkseg>
      <trkpt lat="50.2210043" lon="-126.3547766">
      </trkpt>
      <trkpt lat="50.2213394" lon="-126.3547951">
      </trkpt>
      <trkpt lat="50.2214767" lon="-126.3547415">
      </trkpt>
      <trkpt lat="50.2221872" lon="-126.3546342">
      </trkpt>
      <trkpt lat="50.2227535" lon="-126.3544411">
      </trkpt>
      <trkpt lat="50.2233266" lon="-126.3543928">
      </trkpt>
      <trkpt lat="50.2239238" lon="-126.3545752">
      </trkpt>
      <trkpt lat="50.2244215" lon="-126.3547897">
      </trkpt>
      <trkpt lat="50.2249878" lon="-126.3548487">
      </trkpt>
      <trkpt lat="50.2255266" lon="-126.3548756">
      </trkpt>
      <trkpt lat="50.2258698" lon="-126.354897">
      </trkpt>
      <trkpt lat="50.2261615" lon="-126.3547146">
      </trkpt>
      <trkpt lat="50.2264738" lon="-126.3542211">
      </trkpt>
      <trkpt lat="50.2267037" lon="-126.3537008">
      </trkpt>
      <trkpt lat="50.2268479" lon="-126.3531268">
      </trkpt>
      <trkpt lat="50.2268376" lon="-126.3529176">
      </trkpt>
      <trkpt lat="50.2266866" lon="-126.3524616">
      </trkpt>
      <trkpt lat="50.2265116" lon="-126.3521987">
      </trkpt>
      <trkpt lat="50.2263571" lon="-126.3519305">
      </trkpt>
      <trkpt lat="50.2262267" lon="-126.3516247">
      </trkpt>
      <trkpt lat="50.2261306" lon="-126.3509917">
      </trkpt>
      <trkpt lat="50.2260002" lon="-126.3504607">
      </trkpt>
      <trkpt lat="50.2258355" lon="-126.3497633">
      </trkpt>
      <trkpt lat="50.225911" lon="-126.3491786">
      </trkpt>
      <trkpt lat="50.2260071" lon="-126.348567">
      </trkpt>
      <trkpt lat="50.2260139" lon="-126.348111">
      </trkpt>
      <trkpt lat="50.2258492" lon="-126.3476068">
      </trkpt>
      <trkpt lat="50.2257634" lon="-126.3471079">
      </trkpt>
      <trkpt lat="50.2258046" lon="-126.3465232">
      </trkpt>
    </trkseg>
  </trk>
</gpx>