<?xml version="1.0" encoding="UTF-8"?>
<gpx xmlns="http://www.topografix.com/GPX/1/1" xmlns:xsi="http://www.w3.org/2001/XMLSchema-instance" xsi:schemaLocation="http://www.topografix.com/GPX/1/1 http://www.topografix.com/GPX/1/1/gpx.xsd" version="1.1" creator="gpx.py -- https://github.com/tkrajina/gpxpy">
  <trk>
    <name>Lawson Creek Forestry Heritage Walk</name>
    <trkseg>
      <trkpt lat="49.3533911" lon="-123.1582428">
      </trkpt>
      <trkpt lat="49.35343" lon="-123.1583349">
      </trkpt>
      <trkpt lat="49.3534762" lon="-123.1583933">
      </trkpt>
      <trkpt lat="49.3535127" lon="-123.1584627">
      </trkpt>
      <trkpt lat="49.3535516" lon="-123.1585557">
      </trkpt>
      <trkpt lat="49.3536007" lon="-123.1586325">
      </trkpt>
      <trkpt lat="49.3536667" lon="-123.1586896">
      </trkpt>
      <trkpt lat="49.3537436" lon="-123.1587219">
      </trkpt>
      <trkpt lat="49.3538113" lon="-123.1587287">
      </trkpt>
      <trkpt lat="49.3538815" lon="-123.1587261">
      </trkpt>
      <trkpt lat="49.3539713" lon="-123.1586871">
      </trkpt>
      <trkpt lat="49.3540461" lon="-123.1586167">
      </trkpt>
      <trkpt lat="49.3541283" lon="-123.1584601">
      </trkpt>
      <trkpt lat="49.3541902" lon="-123.1582395">
      </trkpt>
      <trkpt lat="49.3542357" lon="-123.1581012">
      </trkpt>
      <trkpt lat="49.3543032" lon="-123.1579871">
      </trkpt>
      <trkpt lat="49.3544315" lon="-123.1577952">
      </trkpt>
      <trkpt lat="49.3546" lon="-123.1576408">
      </trkpt>
    </trkseg>
    <trkseg>
      <trkpt lat="49.3546" lon="-123.1576408">
      </trkpt>
      <trkpt lat="49.3547831" lon="-123.1574102">
      </trkpt>
      <trkpt lat="49.3560715" lon="-123.1558832">
      </trkpt>
      <trkpt lat="49.3568506" lon="-123.1550392">
      </trkpt>
      <trkpt lat="49.3579211" lon="-123.1538827">
      </trkpt>
      <trkpt lat="49.3581942" lon="-123.1535773">
      </trkpt>
    </trkseg>
    <trkseg>
      <trkpt lat="49.3581942" lon="-123.1535773">
      </trkpt>
      <trkpt lat="49.3583106" lon="-123.1536434">
      </trkpt>
      <trkpt lat="49.3584346" lon="-123.1538387">
      </trkpt>
      <trkpt lat="49.3585431" lon="-123.1541258">
      </trkpt>
      <trkpt lat="49.3586033" lon="-123.1541377">
      </trkpt>
      <trkpt lat="49.3586778" lon="-123.1541114">
      </trkpt>
      <trkpt lat="49.3587332" lon="-123.1541355">
      </trkpt>
      <trkpt lat="49.3587986" lon="-123.1541895">
      </trkpt>
      <trkpt lat="49.3588682" lon="-123.1541918">
      </trkpt>
      <trkpt lat="49.3589852" lon="-123.1541806">
      </trkpt>
      <trkpt lat="49.3591299" lon="-123.1541539">
      </trkpt>
      <trkpt lat="49.3591702" lon="-123.1541666">
      </trkpt>
      <trkpt lat="49.3592565" lon="-123.1542729">
      </trkpt>
      <trkpt lat="49.3593261" lon="-123.1544178">
      </trkpt>
      <trkpt lat="49.3594498" lon="-123.1545096">
      </trkpt>
      <trkpt lat="49.3595531" lon="-123.1546636">
      </trkpt>
      <trkpt lat="49.3596121" lon="-123.154793">
      </trkpt>
      <trkpt lat="49.3596135" lon="-123.1548764">
      </trkpt>
      <trkpt lat="49.359636" lon="-123.1549534">
      </trkpt>
      <trkpt lat="49.3596957" lon="-123.1550521">
      </trkpt>
      <trkpt lat="49.3597439" lon="-123.1550551">
      </trkpt>
      <trkpt lat="49.359802" lon="-123.1550589">
      </trkpt>
    </trkseg>
    <trkseg>
      <trkpt lat="49.359802" lon="-123.1550589">
      </trkpt>
      <trkpt lat="49.3598548" lon="-123.1552232">
      </trkpt>
      <trkpt lat="49.3598719" lon="-123.1552991">
      </trkpt>
      <trkpt lat="49.359909" lon="-123.1553701">
      </trkpt>
      <trkpt lat="49.3599378" lon="-123.1553916">
      </trkpt>
      <trkpt lat="49.3600022" lon="-123.1554422">
      </trkpt>
      <trkpt lat="49.3600895" lon="-123.155586">
      </trkpt>
    </trkseg>
    <trkseg>
      <trkpt lat="49.3600895" lon="-123.155586">
      </trkpt>
      <trkpt lat="49.3601503" lon="-123.1555137">
      </trkpt>
      <trkpt lat="49.3601988" lon="-123.1554724">
      </trkpt>
      <trkpt lat="49.3602621" lon="-123.1554025">
      </trkpt>
      <trkpt lat="49.3603104" lon="-123.1553963">
      </trkpt>
      <trkpt lat="49.3603592" lon="-123.1553318">
      </trkpt>
      <trkpt lat="49.3604001" lon="-123.1552476">
      </trkpt>
      <trkpt lat="49.3604377" lon="-123.1551453">
      </trkpt>
      <trkpt lat="49.3604683" lon="-123.1551099">
      </trkpt>
      <trkpt lat="49.3606086" lon="-123.1550819">
      </trkpt>
      <trkpt lat="49.360721" lon="-123.155062">
      </trkpt>
      <trkpt lat="49.3608292" lon="-123.1550299">
      </trkpt>
      <trkpt lat="49.3609425" lon="-123.155025">
      </trkpt>
      <trkpt lat="49.3610939" lon="-123.1549795">
      </trkpt>
      <trkpt lat="49.3611944" lon="-123.1549691">
      </trkpt>
      <trkpt lat="49.3612697" lon="-123.1549787">
      </trkpt>
      <trkpt lat="49.3613112" lon="-123.1550273">
      </trkpt>
      <trkpt lat="49.3613528" lon="-123.1551078">
      </trkpt>
      <trkpt lat="49.3613638" lon="-123.1552241">
      </trkpt>
      <trkpt lat="49.3613673" lon="-123.1554076">
      </trkpt>
      <trkpt lat="49.3613941" lon="-123.1555716">
      </trkpt>
      <trkpt lat="49.3614608" lon="-123.1557172">
      </trkpt>
      <trkpt lat="49.3615473" lon="-123.155837">
      </trkpt>
      <trkpt lat="49.3616199" lon="-123.155886">
      </trkpt>
      <trkpt lat="49.3616799" lon="-123.1559686">
      </trkpt>
      <trkpt lat="49.3617408" lon="-123.1559988">
      </trkpt>
      <trkpt lat="49.3618367" lon="-123.1560003">
      </trkpt>
      <trkpt lat="49.3620522" lon="-123.1559894">
      </trkpt>
      <trkpt lat="49.362193" lon="-123.1559374">
      </trkpt>
      <trkpt lat="49.3623351" lon="-123.1558218">
      </trkpt>
      <trkpt lat="49.3624486" lon="-123.155716">
      </trkpt>
      <trkpt lat="49.3625143" lon="-123.1556926">
      </trkpt>
      <trkpt lat="49.3626145" lon="-123.1556723">
      </trkpt>
      <trkpt lat="49.3627217" lon="-123.1556707">
      </trkpt>
      <trkpt lat="49.3628465" lon="-123.1556394">
      </trkpt>
      <trkpt lat="49.3629428" lon="-123.1555647">
      </trkpt>
      <trkpt lat="49.3630321" lon="-123.1554821">
      </trkpt>
      <trkpt lat="49.3631235" lon="-123.1554337">
      </trkpt>
      <trkpt lat="49.3631983" lon="-123.1554307">
      </trkpt>
      <trkpt lat="49.3632557" lon="-123.1554132">
      </trkpt>
      <trkpt lat="49.3633169" lon="-123.1553613">
      </trkpt>
      <trkpt lat="49.3633624" lon="-123.1553068">
      </trkpt>
      <trkpt lat="49.3634018" lon="-123.155213">
      </trkpt>
      <trkpt lat="49.3634537" lon="-123.1551492">
      </trkpt>
      <trkpt lat="49.3634834" lon="-123.1551286">
      </trkpt>
      <trkpt lat="49.3635212" lon="-123.1551267">
      </trkpt>
      <trkpt lat="49.3635573" lon="-123.1551391">
      </trkpt>
      <trkpt lat="49.3637775" lon="-123.1552052">
      </trkpt>
      <trkpt lat="49.36389" lon="-123.1552892">
      </trkpt>
      <trkpt lat="49.3640076" lon="-123.1553757">
      </trkpt>
      <trkpt lat="49.364179" lon="-123.1554844">
      </trkpt>
    </trkseg>
    <trkseg>
      <trkpt lat="49.3626826" lon="-123.1662083">
      </trkpt>
      <trkpt lat="49.362719" lon="-123.1658947">
      </trkpt>
      <trkpt lat="49.3627489" lon="-123.1653506">
      </trkpt>
      <trkpt lat="49.3626775" lon="-123.1650198">
      </trkpt>
      <trkpt lat="49.3627082" lon="-123.1648532">
      </trkpt>
      <trkpt lat="49.362677" lon="-123.1647137">
      </trkpt>
      <trkpt lat="49.3626858" lon="-123.1645895">
      </trkpt>
      <trkpt lat="49.3628215" lon="-123.1643999">
      </trkpt>
      <trkpt lat="49.3629325" lon="-123.1642336">
      </trkpt>
      <trkpt lat="49.3629498" lon="-123.1639897">
      </trkpt>
      <trkpt lat="49.3630286" lon="-123.1637637">
      </trkpt>
      <trkpt lat="49.363002" lon="-123.1634697">
      </trkpt>
      <trkpt lat="49.3629039" lon="-123.1632921">
      </trkpt>
      <trkpt lat="49.3629064" lon="-123.1631804">
      </trkpt>
      <trkpt lat="49.3629654" lon="-123.1630329">
      </trkpt>
      <trkpt lat="49.3629649" lon="-123.1628609">
      </trkpt>
      <trkpt lat="49.3630178" lon="-123.1627035">
      </trkpt>
      <trkpt lat="49.3630858" lon="-123.1625303">
      </trkpt>
      <trkpt lat="49.3631073" lon="-123.1623477">
      </trkpt>
      <trkpt lat="49.3631699" lon="-123.1621634">
      </trkpt>
      <trkpt lat="49.3631693" lon="-123.1619442">
      </trkpt>
      <trkpt lat="49.3632337" lon="-123.1614683">
      </trkpt>
      <trkpt lat="49.3634289" lon="-123.161213">
      </trkpt>
      <trkpt lat="49.3636961" lon="-123.1608739">
      </trkpt>
      <trkpt lat="49.363878" lon="-123.1607412">
      </trkpt>
      <trkpt lat="49.3639614" lon="-123.1606118">
      </trkpt>
      <trkpt lat="49.3640373" lon="-123.1605388">
      </trkpt>
      <trkpt lat="49.3640836" lon="-123.1604598">
      </trkpt>
      <trkpt lat="49.3641236" lon="-123.1603273">
      </trkpt>
      <trkpt lat="49.3642798" lon="-123.1602177">
      </trkpt>
      <trkpt lat="49.3643496" lon="-123.1600736">
      </trkpt>
      <trkpt lat="49.3643779" lon="-123.1599352">
      </trkpt>
      <trkpt lat="49.3644394" lon="-123.1598478">
      </trkpt>
      <trkpt lat="49.3644695" lon="-123.159573">
      </trkpt>
      <trkpt lat="49.3644647" lon="-123.1592727">
      </trkpt>
      <trkpt lat="49.3645084" lon="-123.1590345">
      </trkpt>
      <trkpt lat="49.3645325" lon="-123.1585325">
      </trkpt>
      <trkpt lat="49.3645044" lon="-123.1583859">
      </trkpt>
      <trkpt lat="49.3644349" lon="-123.1583023">
      </trkpt>
      <trkpt lat="49.3642676" lon="-123.1581057">
      </trkpt>
      <trkpt lat="49.3641601" lon="-123.1578686">
      </trkpt>
      <trkpt lat="49.3640549" lon="-123.1577056">
      </trkpt>
      <trkpt lat="49.3640016" lon="-123.1575726">
      </trkpt>
      <trkpt lat="49.3639799" lon="-123.1574397">
      </trkpt>
      <trkpt lat="49.3639749" lon="-123.1573068">
      </trkpt>
      <trkpt lat="49.3639969" lon="-123.1571734">
      </trkpt>
      <trkpt lat="49.3641651" lon="-123.1569226">
      </trkpt>
      <trkpt lat="49.3641904" lon="-123.1567802">
      </trkpt>
      <trkpt lat="49.3641499" lon="-123.1565993">
      </trkpt>
      <trkpt lat="49.3641412" lon="-123.1564374">
      </trkpt>
      <trkpt lat="49.3642034" lon="-123.1562646">
      </trkpt>
      <trkpt lat="49.3642311" lon="-123.1561297">
      </trkpt>
      <trkpt lat="49.3642041" lon="-123.1559846">
      </trkpt>
      <trkpt lat="49.3641982" lon="-123.1558851">
      </trkpt>
      <trkpt lat="49.3642235" lon="-123.1556949">
      </trkpt>
      <trkpt lat="49.364179" lon="-123.1554844">
      </trkpt>
    </trkseg>
    <trkseg>
      <trkpt lat="49.3541004" lon="-123.1611569">
      </trkpt>
      <trkpt lat="49.3542632" lon="-123.1612131">
      </trkpt>
      <trkpt lat="49.3543291" lon="-123.1612069">
      </trkpt>
      <trkpt lat="49.3544251" lon="-123.1610922">
      </trkpt>
      <trkpt lat="49.354557" lon="-123.161005">
      </trkpt>
      <trkpt lat="49.3546171" lon="-123.1609515">
      </trkpt>
      <trkpt lat="49.3546521" lon="-123.1609392">
      </trkpt>
      <trkpt lat="49.3546735" lon="-123.1609479">
      </trkpt>
      <trkpt lat="49.3547003" lon="-123.1610037">
      </trkpt>
      <trkpt lat="49.3547395" lon="-123.1611125">
      </trkpt>
      <trkpt lat="49.3547785" lon="-123.1611814">
      </trkpt>
      <trkpt lat="49.3548349" lon="-123.1612119">
      </trkpt>
      <trkpt lat="49.3548958" lon="-123.161215">
      </trkpt>
      <trkpt lat="49.3549971" lon="-123.1612017">
      </trkpt>
      <trkpt lat="49.3551514" lon="-123.1612748">
      </trkpt>
      <trkpt lat="49.3554829" lon="-123.1613876">
      </trkpt>
      <trkpt lat="49.3557473" lon="-123.1614947">
      </trkpt>
      <trkpt lat="49.3558901" lon="-123.1616017">
      </trkpt>
      <trkpt lat="49.355968" lon="-123.1616044">
      </trkpt>
      <trkpt lat="49.3560164" lon="-123.1615961">
      </trkpt>
      <trkpt lat="49.3560451" lon="-123.1616084">
      </trkpt>
      <trkpt lat="49.3560772" lon="-123.1616614">
      </trkpt>
      <trkpt lat="49.3561119" lon="-123.1617344">
      </trkpt>
      <trkpt lat="49.3561392" lon="-123.1617477">
      </trkpt>
      <trkpt lat="49.3561751" lon="-123.1617336">
      </trkpt>
      <trkpt lat="49.356222" lon="-123.1617017">
      </trkpt>
      <trkpt lat="49.3562717" lon="-123.1616869">
      </trkpt>
      <trkpt lat="49.3563117" lon="-123.1617332">
      </trkpt>
      <trkpt lat="49.3563815" lon="-123.1617546">
      </trkpt>
      <trkpt lat="49.3564394" lon="-123.1618715">
      </trkpt>
      <trkpt lat="49.3565564" lon="-123.1618945">
      </trkpt>
      <trkpt lat="49.3566681" lon="-123.1618995">
      </trkpt>
      <trkpt lat="49.3567645" lon="-123.1619681">
      </trkpt>
      <trkpt lat="49.356859" lon="-123.162163">
      </trkpt>
      <trkpt lat="49.35696" lon="-123.1622146">
      </trkpt>
      <trkpt lat="49.3570527" lon="-123.1623334">
      </trkpt>
      <trkpt lat="49.3571459" lon="-123.1624087">
      </trkpt>
      <trkpt lat="49.3572225" lon="-123.1624752">
      </trkpt>
      <trkpt lat="49.3572935" lon="-123.1625646">
      </trkpt>
      <trkpt lat="49.3573686" lon="-123.1627457">
      </trkpt>
      <trkpt lat="49.3574573" lon="-123.1630251">
      </trkpt>
      <trkpt lat="49.3575324" lon="-123.1633661">
      </trkpt>
      <trkpt lat="49.3576372" lon="-123.1636835">
      </trkpt>
      <trkpt lat="49.357709" lon="-123.1637904">
      </trkpt>
      <trkpt lat="49.3577832" lon="-123.1638375">
      </trkpt>
      <trkpt lat="49.358052" lon="-123.1638518">
      </trkpt>
      <trkpt lat="49.3581432" lon="-123.163878">
      </trkpt>
      <trkpt lat="49.3582158" lon="-123.1638725">
      </trkpt>
      <trkpt lat="49.3583806" lon="-123.1638046">
      </trkpt>
      <trkpt lat="49.3584485" lon="-123.1638005">
      </trkpt>
      <trkpt lat="49.3585293" lon="-123.1638603">
      </trkpt>
      <trkpt lat="49.3587371" lon="-123.1640315">
      </trkpt>
      <trkpt lat="49.3588832" lon="-123.1641088">
      </trkpt>
      <trkpt lat="49.3589764" lon="-123.1641146">
      </trkpt>
      <trkpt lat="49.3590372" lon="-123.1640934">
      </trkpt>
      <trkpt lat="49.3590845" lon="-123.1640614">
      </trkpt>
      <trkpt lat="49.3591426" lon="-123.1640436">
      </trkpt>
      <trkpt lat="49.3592228" lon="-123.1640327">
      </trkpt>
      <trkpt lat="49.3593062" lon="-123.164059">
      </trkpt>
      <trkpt lat="49.3593433" lon="-123.1640674">
      </trkpt>
      <trkpt lat="49.3593896" lon="-123.1640464">
      </trkpt>
      <trkpt lat="49.3594415" lon="-123.1639885">
      </trkpt>
      <trkpt lat="49.3595149" lon="-123.163899">
      </trkpt>
      <trkpt lat="49.3595973" lon="-123.1636994">
      </trkpt>
      <trkpt lat="49.359708" lon="-123.1635982">
      </trkpt>
      <trkpt lat="49.3597906" lon="-123.1636223">
      </trkpt>
    </trkseg>
    <trkseg>
      <trkpt lat="49.3533911" lon="-123.1582428">
      </trkpt>
      <trkpt lat="49.3533687" lon="-123.1583566">
      </trkpt>
      <trkpt lat="49.3533756" lon="-123.1584498">
      </trkpt>
      <trkpt lat="49.3533992" lon="-123.1585763">
      </trkpt>
      <trkpt lat="49.3534561" lon="-123.1587169">
      </trkpt>
      <trkpt lat="49.3535123" lon="-123.1588507">
      </trkpt>
      <trkpt lat="49.3535923" lon="-123.1589627">
      </trkpt>
      <trkpt lat="49.3537048" lon="-123.1590341">
      </trkpt>
      <trkpt lat="49.3538494" lon="-123.1590823">
      </trkpt>
      <trkpt lat="49.3539859" lon="-123.1591209">
      </trkpt>
      <trkpt lat="49.3540809" lon="-123.1591449">
      </trkpt>
      <trkpt lat="49.3541052" lon="-123.1591857">
      </trkpt>
      <trkpt lat="49.3541136" lon="-123.1592601">
      </trkpt>
      <trkpt lat="49.3541091" lon="-123.1593251">
      </trkpt>
      <trkpt lat="49.3540978" lon="-123.1594735">
      </trkpt>
      <trkpt lat="49.3540897" lon="-123.1597295">
      </trkpt>
      <trkpt lat="49.3540818" lon="-123.1599092">
      </trkpt>
      <trkpt lat="49.3540663" lon="-123.1600775">
      </trkpt>
      <trkpt lat="49.3540798" lon="-123.160662">
      </trkpt>
      <trkpt lat="49.3541004" lon="-123.1611569">
      </trkpt>
    </trkseg>
    <trkseg>
      <trkpt lat="49.3540663" lon="-123.1600775">
      </trkpt>
      <trkpt lat="49.3540036" lon="-123.1600729">
      </trkpt>
      <trkpt lat="49.3539273" lon="-123.1600009">
      </trkpt>
      <trkpt lat="49.3538666" lon="-123.1598269">
      </trkpt>
      <trkpt lat="49.3537807" lon="-123.1598919">
      </trkpt>
      <trkpt lat="49.3536795" lon="-123.1599006">
      </trkpt>
      <trkpt lat="49.3535948" lon="-123.1598735">
      </trkpt>
      <trkpt lat="49.3534588" lon="-123.1598923">
      </trkpt>
      <trkpt lat="49.3533383" lon="-123.1599181">
      </trkpt>
      <trkpt lat="49.3531853" lon="-123.1600737">
      </trkpt>
      <trkpt lat="49.3528894" lon="-123.1602659">
      </trkpt>
      <trkpt lat="49.3528154" lon="-123.1603796">
      </trkpt>
    </trkseg>
    <trkseg>
      <trkpt lat="49.3528154" lon="-123.1603796">
      </trkpt>
      <trkpt lat="49.3528011" lon="-123.1604472">
      </trkpt>
    </trkseg>
    <trkseg>
      <trkpt lat="49.3528011" lon="-123.1604472">
      </trkpt>
      <trkpt lat="49.3527925" lon="-123.1604948">
      </trkpt>
      <trkpt lat="49.3527811" lon="-123.1605578">
      </trkpt>
      <trkpt lat="49.3527388" lon="-123.1607072">
      </trkpt>
      <trkpt lat="49.3526407" lon="-123.1607421">
      </trkpt>
    </trkseg>
    <trkseg>
      <trkpt lat="49.3626826" lon="-123.1662083">
      </trkpt>
      <trkpt lat="49.3626159" lon="-123.166231">
      </trkpt>
      <trkpt lat="49.3625509" lon="-123.1662255">
      </trkpt>
      <trkpt lat="49.3624773" lon="-123.1661621">
      </trkpt>
      <trkpt lat="49.3624062" lon="-123.1661525">
      </trkpt>
      <trkpt lat="49.3622992" lon="-123.1662362">
      </trkpt>
      <trkpt lat="49.3621998" lon="-123.1662978">
      </trkpt>
      <trkpt lat="49.3621046" lon="-123.1663356">
      </trkpt>
      <trkpt lat="49.3620339" lon="-123.1663441">
      </trkpt>
      <trkpt lat="49.3619777" lon="-123.1663131">
      </trkpt>
      <trkpt lat="49.361861" lon="-123.1661128">
      </trkpt>
      <trkpt lat="49.3617795" lon="-123.1659252">
      </trkpt>
      <trkpt lat="49.3616872" lon="-123.1658089">
      </trkpt>
      <trkpt lat="49.3615963" lon="-123.165729">
      </trkpt>
      <trkpt lat="49.3614968" lon="-123.1656584">
      </trkpt>
      <trkpt lat="49.3613797" lon="-123.1656227">
      </trkpt>
      <trkpt lat="49.3612845" lon="-123.1656129">
      </trkpt>
      <trkpt lat="49.3611832" lon="-123.1656075">
      </trkpt>
      <trkpt lat="49.3611121" lon="-123.1656152">
      </trkpt>
      <trkpt lat="49.3610513" lon="-123.1656378">
      </trkpt>
      <trkpt lat="49.3609815" lon="-123.165621">
      </trkpt>
      <trkpt lat="49.3609488" lon="-123.1655643">
      </trkpt>
      <trkpt lat="49.3609255" lon="-123.1655145">
      </trkpt>
      <trkpt lat="49.3609027" lon="-123.1654665">
      </trkpt>
      <trkpt lat="49.3608704" lon="-123.1654207">
      </trkpt>
      <trkpt lat="49.360826" lon="-123.1653893">
      </trkpt>
      <trkpt lat="49.3607632" lon="-123.1653603">
      </trkpt>
      <trkpt lat="49.3607194" lon="-123.1653643">
      </trkpt>
      <trkpt lat="49.3606458" lon="-123.1654096">
      </trkpt>
      <trkpt lat="49.3605854" lon="-123.1654146">
      </trkpt>
      <trkpt lat="49.3605433" lon="-123.1653869">
      </trkpt>
      <trkpt lat="49.3604924" lon="-123.1653278">
      </trkpt>
      <trkpt lat="49.3604549" lon="-123.1652953">
      </trkpt>
      <trkpt lat="49.3603782" lon="-123.1652788">
      </trkpt>
      <trkpt lat="49.3603053" lon="-123.1652882">
      </trkpt>
      <trkpt lat="49.3602385" lon="-123.1653278">
      </trkpt>
      <trkpt lat="49.3601747" lon="-123.1654096">
      </trkpt>
      <trkpt lat="49.3600875" lon="-123.1655188">
      </trkpt>
      <trkpt lat="49.3600236" lon="-123.1655822">
      </trkpt>
      <trkpt lat="49.3599696" lon="-123.1655948">
      </trkpt>
      <trkpt lat="49.3598906" lon="-123.1655705">
      </trkpt>
      <trkpt lat="49.3597928" lon="-123.1655347">
      </trkpt>
    </trkseg>
  </trk>
</gpx>