<?xml version="1.0" encoding="UTF-8"?>
<gpx xmlns="http://www.topografix.com/GPX/1/1" xmlns:xsi="http://www.w3.org/2001/XMLSchema-instance" xsi:schemaLocation="http://www.topografix.com/GPX/1/1 http://www.topografix.com/GPX/1/1/gpx.xsd" version="1.1" creator="gpx.py -- https://github.com/tkrajina/gpxpy">
  <trk>
    <name>Vancouver Pedway Network</name>
    <trkseg>
      <trkpt lat="49.2817012" lon="-123.1200189">
      </trkpt>
      <trkpt lat="49.2817991" lon="-123.1201691">
      </trkpt>
      <trkpt lat="49.2824615" lon="-123.1190195">
      </trkpt>
    </trkseg>
    <trkseg>
      <trkpt lat="49.2824615" lon="-123.1190195">
      </trkpt>
      <trkpt lat="49.2823235" lon="-123.1187976">
      </trkpt>
    </trkseg>
    <trkseg>
      <trkpt lat="49.2823235" lon="-123.1187976">
      </trkpt>
      <trkpt lat="49.2821372" lon="-123.118731">
      </trkpt>
    </trkseg>
    <trkseg>
      <trkpt lat="49.2823235" lon="-123.1187976">
      </trkpt>
      <trkpt lat="49.2823001" lon="-123.118759">
      </trkpt>
      <trkpt lat="49.2821208" lon="-123.1184667">
      </trkpt>
      <trkpt lat="49.2820197" lon="-123.118333">
      </trkpt>
      <trkpt lat="49.2820505" lon="-123.1177537">
      </trkpt>
    </trkseg>
    <trkseg>
      <trkpt lat="49.2820505" lon="-123.1177537">
      </trkpt>
      <trkpt lat="49.2822464" lon="-123.117415">
      </trkpt>
    </trkseg>
    <trkseg>
      <trkpt lat="49.2822464" lon="-123.117415">
      </trkpt>
      <trkpt lat="49.2824793" lon="-123.1170314">
      </trkpt>
      <trkpt lat="49.2826209" lon="-123.1172719">
      </trkpt>
      <trkpt lat="49.2827511" lon="-123.1170639">
      </trkpt>
      <trkpt lat="49.2828317" lon="-123.1169451">
      </trkpt>
    </trkseg>
    <trkseg>
      <trkpt lat="49.2828317" lon="-123.1169451">
      </trkpt>
      <trkpt lat="49.2828686" lon="-123.1168907">
      </trkpt>
    </trkseg>
    <trkseg>
      <trkpt lat="49.2830013" lon="-123.1166815">
      </trkpt>
      <trkpt lat="49.2828686" lon="-123.1168907">
      </trkpt>
    </trkseg>
    <trkseg>
      <trkpt lat="49.2831839" lon="-123.1162289">
      </trkpt>
      <trkpt lat="49.2831645" lon="-123.1162771">
      </trkpt>
      <trkpt lat="49.2830013" lon="-123.1166815">
      </trkpt>
    </trkseg>
    <trkseg>
      <trkpt lat="49.283284" lon="-123.116088">
      </trkpt>
      <trkpt lat="49.2831839" lon="-123.1162289">
      </trkpt>
    </trkseg>
    <trkseg>
      <trkpt lat="49.2823001" lon="-123.118759">
      </trkpt>
      <trkpt lat="49.2823456" lon="-123.1186848">
      </trkpt>
    </trkseg>
    <trkseg>
      <trkpt lat="49.2831623" lon="-123.1181033">
      </trkpt>
      <trkpt lat="49.2824615" lon="-123.1190195">
      </trkpt>
    </trkseg>
    <trkseg>
      <trkpt lat="49.2836153" lon="-123.1173981">
      </trkpt>
      <trkpt lat="49.283292" lon="-123.1179005">
      </trkpt>
      <trkpt lat="49.2831623" lon="-123.1181033">
      </trkpt>
    </trkseg>
    <trkseg>
      <trkpt lat="49.2838427" lon="-123.1170466">
      </trkpt>
      <trkpt lat="49.2836153" lon="-123.1173981">
      </trkpt>
    </trkseg>
    <trkseg>
      <trkpt lat="49.282965" lon="-123.1184416">
      </trkpt>
      <trkpt lat="49.2831096" lon="-123.1182192">
      </trkpt>
      <trkpt lat="49.2831736" lon="-123.1181209">
      </trkpt>
      <trkpt lat="49.2836624" lon="-123.1173608">
      </trkpt>
    </trkseg>
    <trkseg>
      <trkpt lat="49.2836153" lon="-123.1173981">
      </trkpt>
      <trkpt lat="49.2836206" lon="-123.117408">
      </trkpt>
      <trkpt lat="49.2836563" lon="-123.117352">
      </trkpt>
      <trkpt lat="49.2836624" lon="-123.1173608">
      </trkpt>
    </trkseg>
    <trkseg>
      <trkpt lat="49.2836624" lon="-123.1173608">
      </trkpt>
      <trkpt lat="49.2838527" lon="-123.1170638">
      </trkpt>
    </trkseg>
    <trkseg>
      <trkpt lat="49.2838527" lon="-123.1170638">
      </trkpt>
      <trkpt lat="49.2840183" lon="-123.116816">
      </trkpt>
    </trkseg>
    <trkseg>
      <trkpt lat="49.2840183" lon="-123.116816">
      </trkpt>
      <trkpt lat="49.2842055" lon="-123.1165317">
      </trkpt>
      <trkpt lat="49.2843885" lon="-123.1163906">
      </trkpt>
      <trkpt lat="49.2846795" lon="-123.1159547">
      </trkpt>
    </trkseg>
    <trkseg>
      <trkpt lat="49.2846795" lon="-123.1159547">
      </trkpt>
      <trkpt lat="49.2846949" lon="-123.1157929">
      </trkpt>
    </trkseg>
    <trkseg>
      <trkpt lat="49.2846949" lon="-123.1157929">
      </trkpt>
      <trkpt lat="49.284844" lon="-123.115566">
      </trkpt>
      <trkpt lat="49.2848448" lon="-123.1154968">
      </trkpt>
      <trkpt lat="49.2849006" lon="-123.1154166">
      </trkpt>
    </trkseg>
    <trkseg>
      <trkpt lat="49.2838856" lon="-123.1171163">
      </trkpt>
      <trkpt lat="49.2839233" lon="-123.1170597">
      </trkpt>
      <trkpt lat="49.2839733" lon="-123.1169873">
      </trkpt>
      <trkpt lat="49.2840109" lon="-123.1169283">
      </trkpt>
      <trkpt lat="49.2840414" lon="-123.1168826">
      </trkpt>
      <trkpt lat="49.2840513" lon="-123.1168677">
      </trkpt>
      <trkpt lat="49.2840183" lon="-123.116816">
      </trkpt>
      <trkpt lat="49.2840015" lon="-123.1167895">
      </trkpt>
      <trkpt lat="49.2839914" lon="-123.1168044">
      </trkpt>
      <trkpt lat="49.2839602" lon="-123.1168505">
      </trkpt>
      <trkpt lat="49.2839237" lon="-123.1169075">
      </trkpt>
      <trkpt lat="49.2838528" lon="-123.1170092">
      </trkpt>
      <trkpt lat="49.2838357" lon="-123.1170345">
      </trkpt>
      <trkpt lat="49.2838427" lon="-123.1170466">
      </trkpt>
      <trkpt lat="49.2838527" lon="-123.1170638">
      </trkpt>
      <trkpt lat="49.2838856" lon="-123.1171163">
      </trkpt>
    </trkseg>
    <trkseg>
      <trkpt lat="49.283292" lon="-123.1179005">
      </trkpt>
      <trkpt lat="49.2827511" lon="-123.1170639">
      </trkpt>
    </trkseg>
    <trkseg>
      <trkpt lat="49.2828686" lon="-123.1168907">
      </trkpt>
      <trkpt lat="49.283014" lon="-123.117129">
      </trkpt>
    </trkseg>
    <trkseg>
      <trkpt lat="49.2831645" lon="-123.1162771">
      </trkpt>
      <trkpt lat="49.2832509" lon="-123.1163852">
      </trkpt>
      <trkpt lat="49.2833092" lon="-123.1162855">
      </trkpt>
    </trkseg>
  </trk>
</gpx>