<?xml version="1.0" encoding="UTF-8"?>
<gpx xmlns="http://www.topografix.com/GPX/1/1" xmlns:xsi="http://www.w3.org/2001/XMLSchema-instance" xsi:schemaLocation="http://www.topografix.com/GPX/1/1 http://www.topografix.com/GPX/1/1/gpx.xsd" version="1.1" creator="gpx.py -- https://github.com/tkrajina/gpxpy">
  <trk>
    <name>Perkins Peak Trail</name>
    <trkseg>
      <trkpt lat="51.8255159" lon="-125.03192239">
      </trkpt>
      <trkpt lat="51.8254411" lon="-125.03179028">
      </trkpt>
      <trkpt lat="51.825384" lon="-125.03170002">
      </trkpt>
      <trkpt lat="51.82534485" lon="-125.03158306">
      </trkpt>
      <trkpt lat="51.82525711" lon="-125.03142345">
      </trkpt>
      <trkpt lat="51.8251725" lon="-125.03128177">
      </trkpt>
      <trkpt lat="51.82507184" lon="-125.03117611">
      </trkpt>
      <trkpt lat="51.82494035" lon="-125.03112873">
      </trkpt>
      <trkpt lat="51.82478998" lon="-125.03108528">
      </trkpt>
      <trkpt lat="51.82469768" lon="-125.03109034">
      </trkpt>
      <trkpt lat="51.82464518" lon="-125.03109473">
      </trkpt>
      <trkpt lat="51.8245647" lon="-125.03115027">
      </trkpt>
      <trkpt lat="51.82447956" lon="-125.0312218">
      </trkpt>
      <trkpt lat="51.82439974" lon="-125.03130849">
      </trkpt>
      <trkpt lat="51.82432335" lon="-125.03142545">
      </trkpt>
      <trkpt lat="51.82422327" lon="-125.03155972">
      </trkpt>
      <trkpt lat="51.82414559" lon="-125.03165384">
      </trkpt>
      <trkpt lat="51.82411028" lon="-125.03168641">
      </trkpt>
      <trkpt lat="51.82392101" lon="-125.03177684">
      </trkpt>
      <trkpt lat="51.82374698" lon="-125.0318922">
      </trkpt>
      <trkpt lat="51.82346867" lon="-125.03206872">
      </trkpt>
      <trkpt lat="51.82329239" lon="-125.03233144">
      </trkpt>
      <trkpt lat="51.82318413" lon="-125.03251087">
      </trkpt>
      <trkpt lat="51.82307629" lon="-125.03267154">
      </trkpt>
      <trkpt lat="51.82290134" lon="-125.03291588">
      </trkpt>
      <trkpt lat="51.82276999" lon="-125.03310232">
      </trkpt>
      <trkpt lat="51.8226604" lon="-125.03326703">
      </trkpt>
      <trkpt lat="51.82257968" lon="-125.03335579">
      </trkpt>
      <trkpt lat="51.8224688" lon="-125.03348272">
      </trkpt>
      <trkpt lat="51.82234172" lon="-125.03365445">
      </trkpt>
      <trkpt lat="51.82217604" lon="-125.03387979">
      </trkpt>
      <trkpt lat="51.82208367" lon="-125.03404386">
      </trkpt>
      <trkpt lat="51.82196423" lon="-125.03427563">
      </trkpt>
      <trkpt lat="51.82187009" lon="-125.0344587">
      </trkpt>
      <trkpt lat="51.8218082" lon="-125.03461125">
      </trkpt>
      <trkpt lat="51.82175174" lon="-125.03473418">
      </trkpt>
      <trkpt lat="51.82169852" lon="-125.03483159">
      </trkpt>
      <trkpt lat="51.82161098" lon="-125.03496474">
      </trkpt>
      <trkpt lat="51.8215101" lon="-125.03512413">
      </trkpt>
      <trkpt lat="51.82145679" lon="-125.03522923">
      </trkpt>
      <trkpt lat="51.82130354" lon="-125.03552467">
      </trkpt>
      <trkpt lat="51.82119225" lon="-125.035751">
      </trkpt>
      <trkpt lat="51.8211041" lon="-125.03597871">
      </trkpt>
      <trkpt lat="51.82104762" lon="-125.03618238">
      </trkpt>
      <trkpt lat="51.82098974" lon="-125.03635042">
      </trkpt>
      <trkpt lat="51.82092418" lon="-125.03656652">
      </trkpt>
      <trkpt lat="51.8208925" lon="-125.03676357">
      </trkpt>
      <trkpt lat="51.82086682" lon="-125.03708144">
      </trkpt>
      <trkpt lat="51.82082505" lon="-125.03734994">
      </trkpt>
      <trkpt lat="51.82077722" lon="-125.03764067">
      </trkpt>
      <trkpt lat="51.82072888" lon="-125.03789636">
      </trkpt>
      <trkpt lat="51.82071105" lon="-125.03805204">
      </trkpt>
      <trkpt lat="51.82071828" lon="-125.03826724">
      </trkpt>
      <trkpt lat="51.82069209" lon="-125.03869649">
      </trkpt>
      <trkpt lat="51.82069936" lon="-125.03895458">
      </trkpt>
      <trkpt lat="51.8206834" lon="-125.03931725">
      </trkpt>
      <trkpt lat="51.82064537" lon="-125.03980425">
      </trkpt>
      <trkpt lat="51.82061646" lon="-125.04016143">
      </trkpt>
      <trkpt lat="51.82059959" lon="-125.04023611">
      </trkpt>
      <trkpt lat="51.82053568" lon="-125.0403879">
      </trkpt>
      <trkpt lat="51.82048825" lon="-125.04051114">
      </trkpt>
      <trkpt lat="51.82042034" lon="-125.04071744">
      </trkpt>
      <trkpt lat="51.82032144" lon="-125.04106696">
      </trkpt>
      <trkpt lat="51.82023632" lon="-125.04141163">
      </trkpt>
      <trkpt lat="51.82012169" lon="-125.04190414">
      </trkpt>
      <trkpt lat="51.82001573" lon="-125.04246099">
      </trkpt>
      <trkpt lat="51.81992534" lon="-125.04289983">
      </trkpt>
      <trkpt lat="51.81988549" lon="-125.04323236">
      </trkpt>
      <trkpt lat="51.81988562" lon="-125.04364053">
      </trkpt>
      <trkpt lat="51.81989403" lon="-125.04378987">
      </trkpt>
      <trkpt lat="51.81992395" lon="-125.04394135">
      </trkpt>
      <trkpt lat="51.81996881" lon="-125.0440582">
      </trkpt>
      <trkpt lat="51.820006" lon="-125.04420946">
      </trkpt>
      <trkpt lat="51.82009868" lon="-125.04459538">
      </trkpt>
      <trkpt lat="51.82014744" lon="-125.0449122">
      </trkpt>
      <trkpt lat="51.82023099" lon="-125.04554053">
      </trkpt>
      <trkpt lat="51.82030823" lon="-125.0460857">
      </trkpt>
      <trkpt lat="51.82032713" lon="-125.0464592">
      </trkpt>
      <trkpt lat="51.82035959" lon="-125.04684471">
      </trkpt>
      <trkpt lat="51.82040092" lon="-125.04711645">
      </trkpt>
      <trkpt lat="51.82040803" lon="-125.0472392">
      </trkpt>
      <trkpt lat="51.82040743" lon="-125.04741864">
      </trkpt>
      <trkpt lat="51.82036658" lon="-125.04780779">
      </trkpt>
      <trkpt lat="51.82035371" lon="-125.04801227">
      </trkpt>
      <trkpt lat="51.82034468" lon="-125.04822589">
      </trkpt>
      <trkpt lat="51.82032229" lon="-125.04844196">
      </trkpt>
      <trkpt lat="51.8202959" lon="-125.04864667">
      </trkpt>
      <trkpt lat="51.82027881" lon="-125.04882102">
      </trkpt>
      <trkpt lat="51.82026836" lon="-125.04896246">
      </trkpt>
      <trkpt lat="51.82027467" lon="-125.04912946">
      </trkpt>
      <trkpt lat="51.8202743" lon="-125.04930114">
      </trkpt>
      <trkpt lat="51.8202734" lon="-125.04949108">
      </trkpt>
      <trkpt lat="51.82027485" lon="-125.04963037">
      </trkpt>
      <trkpt lat="51.82029382" lon="-125.04985396">
      </trkpt>
      <trkpt lat="51.82030609" lon="-125.05005601">
      </trkpt>
      <trkpt lat="51.82032132" lon="-125.05024015">
      </trkpt>
      <trkpt lat="51.8202871" lon="-125.05054114">
      </trkpt>
      <trkpt lat="51.82024949" lon="-125.05077902">
      </trkpt>
      <trkpt lat="51.82018532" lon="-125.0511538">
      </trkpt>
      <trkpt lat="51.8200955" lon="-125.05154613">
      </trkpt>
      <trkpt lat="51.82004521" lon="-125.05177253">
      </trkpt>
      <trkpt lat="51.82002871" lon="-125.05192257">
      </trkpt>
      <trkpt lat="51.8200235" lon="-125.05210595">
      </trkpt>
      <trkpt lat="51.82003231" lon="-125.05234994">
      </trkpt>
      <trkpt lat="51.82003767" lon="-125.0525487">
      </trkpt>
      <trkpt lat="51.82005943" lon="-125.05278412">
      </trkpt>
      <trkpt lat="51.82010896" lon="-125.05303811">
      </trkpt>
      <trkpt lat="51.82016552" lon="-125.05328532">
      </trkpt>
      <trkpt lat="51.82019643" lon="-125.05346409">
      </trkpt>
      <trkpt lat="51.82023954" lon="-125.05365042">
      </trkpt>
      <trkpt lat="51.8202625" lon="-125.05385632">
      </trkpt>
      <trkpt lat="51.82029285" lon="-125.05411858">
      </trkpt>
      <trkpt lat="51.82034113" lon="-125.05445366">
      </trkpt>
      <trkpt lat="51.82037645" lon="-125.05480273">
      </trkpt>
      <trkpt lat="51.82043945" lon="-125.05524271">
      </trkpt>
      <trkpt lat="51.82045233" lon="-125.05551511">
      </trkpt>
      <trkpt lat="51.82045335" lon="-125.05586327">
      </trkpt>
      <trkpt lat="51.820451" lon="-125.05614465">
      </trkpt>
      <trkpt lat="51.82044021" lon="-125.0563596">
      </trkpt>
      <trkpt lat="51.82042275" lon="-125.05656529">
      </trkpt>
      <trkpt lat="51.82039148" lon="-125.05671929">
      </trkpt>
      <trkpt lat="51.82019796" lon="-125.05741483">
      </trkpt>
      <trkpt lat="51.82011987" lon="-125.05771805">
      </trkpt>
      <trkpt lat="51.82007842" lon="-125.05784846">
      </trkpt>
      <trkpt lat="51.81991709" lon="-125.05804856">
      </trkpt>
      <trkpt lat="51.81984708" lon="-125.05817534">
      </trkpt>
      <trkpt lat="51.81980797" lon="-125.05827941">
      </trkpt>
      <trkpt lat="51.81976924" lon="-125.05842043">
      </trkpt>
      <trkpt lat="51.81971796" lon="-125.05861247">
      </trkpt>
      <trkpt lat="51.81965403" lon="-125.05881347">
      </trkpt>
      <trkpt lat="51.81958747" lon="-125.05896471">
      </trkpt>
      <trkpt lat="51.81952458" lon="-125.05909568">
      </trkpt>
      <trkpt lat="51.81945747" lon="-125.059257">
      </trkpt>
      <trkpt lat="51.81939259" lon="-125.05936712">
      </trkpt>
      <trkpt lat="51.81934423" lon="-125.05949078">
      </trkpt>
      <trkpt lat="51.81930311" lon="-125.05961797">
      </trkpt>
      <trkpt lat="51.81927682" lon="-125.05972739">
      </trkpt>
      <trkpt lat="51.81923957" lon="-125.05994279">
      </trkpt>
      <trkpt lat="51.81923838" lon="-125.06006784">
      </trkpt>
      <trkpt lat="51.81927207" lon="-125.06021485">
      </trkpt>
      <trkpt lat="51.81929827" lon="-125.0603764">
      </trkpt>
      <trkpt lat="51.81930604" lon="-125.06051071">
      </trkpt>
      <trkpt lat="51.81928734" lon="-125.06066329">
      </trkpt>
      <trkpt lat="51.81925676" lon="-125.06084255">
      </trkpt>
      <trkpt lat="51.81922079" lon="-125.06101583">
      </trkpt>
      <trkpt lat="51.81916647" lon="-125.06120953">
      </trkpt>
      <trkpt lat="51.81911858" lon="-125.06135134">
      </trkpt>
      <trkpt lat="51.81907583" lon="-125.06151597">
      </trkpt>
      <trkpt lat="51.81908366" lon="-125.06153237">
      </trkpt>
      <trkpt lat="51.81910728" lon="-125.06155856">
      </trkpt>
      <trkpt lat="51.81916065" lon="-125.06149275">
      </trkpt>
      <trkpt lat="51.81932317" lon="-125.06102972">
      </trkpt>
      <trkpt lat="51.81938582" lon="-125.06089497">
      </trkpt>
      <trkpt lat="51.81943328" lon="-125.06073729">
      </trkpt>
      <trkpt lat="51.81951281" lon="-125.06051144">
      </trkpt>
      <trkpt lat="51.81957856" lon="-125.06029652">
      </trkpt>
      <trkpt lat="51.81961639" lon="-125.06014199">
      </trkpt>
      <trkpt lat="51.81964036" lon="-125.05994454">
      </trkpt>
      <trkpt lat="51.81968662" lon="-125.05972322">
      </trkpt>
      <trkpt lat="51.81975705" lon="-125.05951557">
      </trkpt>
      <trkpt lat="51.81983423" lon="-125.05932969">
      </trkpt>
      <trkpt lat="51.82000318" lon="-125.0591571">
      </trkpt>
      <trkpt lat="51.8201814" lon="-125.05900166">
      </trkpt>
      <trkpt lat="51.82037068" lon="-125.05884044">
      </trkpt>
      <trkpt lat="51.82053448" lon="-125.05866169">
      </trkpt>
      <trkpt lat="51.82068583" lon="-125.05851703">
      </trkpt>
      <trkpt lat="51.82083948" lon="-125.05836902">
      </trkpt>
      <trkpt lat="51.82101525" lon="-125.05822077">
      </trkpt>
      <trkpt lat="51.82115896" lon="-125.05812074">
      </trkpt>
      <trkpt lat="51.82132391" lon="-125.05806048">
      </trkpt>
      <trkpt lat="51.82144875" lon="-125.05807072">
      </trkpt>
      <trkpt lat="51.82156473" lon="-125.05810002">
      </trkpt>
      <trkpt lat="51.82148267" lon="-125.05812227">
      </trkpt>
      <trkpt lat="51.82142564" lon="-125.05819747">
      </trkpt>
      <trkpt lat="51.82135429" lon="-125.05832403">
      </trkpt>
      <trkpt lat="51.82128786" lon="-125.05845822">
      </trkpt>
      <trkpt lat="51.8212089" lon="-125.05867826">
      </trkpt>
      <trkpt lat="51.82117802" lon="-125.05882485">
      </trkpt>
      <trkpt lat="51.82111867" lon="-125.05892582">
      </trkpt>
      <trkpt lat="51.82105036" lon="-125.05906225">
      </trkpt>
      <trkpt lat="51.8209982" lon="-125.05918035">
      </trkpt>
      <trkpt lat="51.820973" lon="-125.05931001">
      </trkpt>
      <trkpt lat="51.82092689" lon="-125.05950462">
      </trkpt>
      <trkpt lat="51.82087203" lon="-125.05973273">
      </trkpt>
      <trkpt lat="51.82084796" lon="-125.05990886">
      </trkpt>
      <trkpt lat="51.82091892" lon="-125.05989392">
      </trkpt>
      <trkpt lat="51.820962" lon="-125.05979972">
      </trkpt>
      <trkpt lat="51.82111813" lon="-125.05963957">
      </trkpt>
      <trkpt lat="51.82127209" lon="-125.05951951">
      </trkpt>
      <trkpt lat="51.82140773" lon="-125.05945732">
      </trkpt>
      <trkpt lat="51.82152531" lon="-125.05943338">
      </trkpt>
      <trkpt lat="51.82167415" lon="-125.05947331">
      </trkpt>
      <trkpt lat="51.82185033" lon="-125.05946739">
      </trkpt>
      <trkpt lat="51.82198614" lon="-125.05948358">
      </trkpt>
      <trkpt lat="51.82208423" lon="-125.05953248">
      </trkpt>
      <trkpt lat="51.82215888" lon="-125.05955003">
      </trkpt>
      <trkpt lat="51.82212273" lon="-125.05961227">
      </trkpt>
      <trkpt lat="51.82207395" lon="-125.05968562">
      </trkpt>
      <trkpt lat="51.82192584" lon="-125.0598453">
      </trkpt>
      <trkpt lat="51.821793" lon="-125.06000584">
      </trkpt>
      <trkpt lat="51.82172902" lon="-125.06013047">
      </trkpt>
      <trkpt lat="51.8216692" lon="-125.0603443">
      </trkpt>
      <trkpt lat="51.82163958" lon="-125.06058736">
      </trkpt>
      <trkpt lat="51.82157574" lon="-125.06109538">
      </trkpt>
      <trkpt lat="51.82155216" lon="-125.06154274">
      </trkpt>
      <trkpt lat="51.82152168" lon="-125.0621343">
      </trkpt>
      <trkpt lat="51.82147814" lon="-125.06237909">
      </trkpt>
      <trkpt lat="51.82134804" lon="-125.06300376">
      </trkpt>
      <trkpt lat="51.82127952" lon="-125.06325431">
      </trkpt>
      <trkpt lat="51.82117916" lon="-125.06358875">
      </trkpt>
      <trkpt lat="51.82111382" lon="-125.06393784">
      </trkpt>
      <trkpt lat="51.82110417" lon="-125.06432406">
      </trkpt>
      <trkpt lat="51.82110067" lon="-125.0645936">
      </trkpt>
      <trkpt lat="51.82111861" lon="-125.06478891">
      </trkpt>
      <trkpt lat="51.82117742" lon="-125.06478905">
      </trkpt>
      <trkpt lat="51.8213902" lon="-125.06468983">
      </trkpt>
      <trkpt lat="51.82150246" lon="-125.06460984">
      </trkpt>
      <trkpt lat="51.82165655" lon="-125.06457909">
      </trkpt>
      <trkpt lat="51.82175847" lon="-125.06458911">
      </trkpt>
      <trkpt lat="51.82183671" lon="-125.06470136">
      </trkpt>
      <trkpt lat="51.82193969" lon="-125.06489568">
      </trkpt>
      <trkpt lat="51.82195708" lon="-125.06496046">
      </trkpt>
      <trkpt lat="51.82192204" lon="-125.06506774">
      </trkpt>
      <trkpt lat="51.82188225" lon="-125.06522615">
      </trkpt>
      <trkpt lat="51.8218586" lon="-125.06539487">
      </trkpt>
      <trkpt lat="51.8218466" lon="-125.06551938">
      </trkpt>
      <trkpt lat="51.82182911" lon="-125.06591888">
      </trkpt>
      <trkpt lat="51.82182479" lon="-125.0661411">
      </trkpt>
      <trkpt lat="51.82182165" lon="-125.06627792">
      </trkpt>
      <trkpt lat="51.82179671" lon="-125.06640225">
      </trkpt>
      <trkpt lat="51.82174689" lon="-125.0665464">
      </trkpt>
      <trkpt lat="51.82174255" lon="-125.06660397">
      </trkpt>
      <trkpt lat="51.82174271" lon="-125.06673543">
      </trkpt>
      <trkpt lat="51.82175981" lon="-125.06682601">
      </trkpt>
      <trkpt lat="51.8218023" lon="-125.06695108">
      </trkpt>
      <trkpt lat="51.82177448" lon="-125.06714262">
      </trkpt>
      <trkpt lat="51.82171455" lon="-125.06739031">
      </trkpt>
      <trkpt lat="51.82168266" lon="-125.0675743">
      </trkpt>
      <trkpt lat="51.82165533" lon="-125.06775984">
      </trkpt>
      <trkpt lat="51.8216063" lon="-125.06797689">
      </trkpt>
      <trkpt lat="51.82158791" lon="-125.06815515">
      </trkpt>
      <trkpt lat="51.82153722" lon="-125.06845059">
      </trkpt>
      <trkpt lat="51.82153731" lon="-125.06862137">
      </trkpt>
      <trkpt lat="51.82156038" lon="-125.06883714">
      </trkpt>
      <trkpt lat="51.82156828" lon="-125.06912341">
      </trkpt>
      <trkpt lat="51.82159232" lon="-125.0692676">
      </trkpt>
      <trkpt lat="51.82160059" lon="-125.06955727">
      </trkpt>
      <trkpt lat="51.82163167" lon="-125.0697346">
      </trkpt>
      <trkpt lat="51.82166334" lon="-125.06991651">
      </trkpt>
      <trkpt lat="51.82170111" lon="-125.07013082">
      </trkpt>
      <trkpt lat="51.82171429" lon="-125.07028673">
      </trkpt>
      <trkpt lat="51.82169809" lon="-125.07040204">
      </trkpt>
      <trkpt lat="51.82166066" lon="-125.07062556">
      </trkpt>
      <trkpt lat="51.8215224" lon="-125.07093615">
      </trkpt>
      <trkpt lat="51.82141148" lon="-125.07131946">
      </trkpt>
      <trkpt lat="51.82129329" lon="-125.07170311">
      </trkpt>
      <trkpt lat="51.8211984" lon="-125.07190758">
      </trkpt>
      <trkpt lat="51.82115022" lon="-125.07208178">
      </trkpt>
      <trkpt lat="51.82105543" lon="-125.07235727">
      </trkpt>
      <trkpt lat="51.82095014" lon="-125.07262972">
      </trkpt>
      <trkpt lat="51.82069691" lon="-125.07318156">
      </trkpt>
      <trkpt lat="51.82059631" lon="-125.07334247">
      </trkpt>
      <trkpt lat="51.82027938" lon="-125.07387767">
      </trkpt>
      <trkpt lat="51.81991968" lon="-125.07450285">
      </trkpt>
      <trkpt lat="51.81972303" lon="-125.07491707">
      </trkpt>
      <trkpt lat="51.81948817" lon="-125.075472">
      </trkpt>
      <trkpt lat="51.81937711" lon="-125.0758825">
      </trkpt>
      <trkpt lat="51.81923382" lon="-125.07634412">
      </trkpt>
      <trkpt lat="51.81916122" lon="-125.07668994">
      </trkpt>
      <trkpt lat="51.81882699" lon="-125.07725829">
      </trkpt>
      <trkpt lat="51.81860195" lon="-125.07762469">
      </trkpt>
      <trkpt lat="51.818339" lon="-125.07810027">
      </trkpt>
      <trkpt lat="51.8181755" lon="-125.07843379">
      </trkpt>
      <trkpt lat="51.81803957" lon="-125.07874094">
      </trkpt>
      <trkpt lat="51.81791516" lon="-125.07902149">
      </trkpt>
      <trkpt lat="51.81771701" lon="-125.07961058">
      </trkpt>
      <trkpt lat="51.8175153" lon="-125.08006687">
      </trkpt>
      <trkpt lat="51.81734481" lon="-125.08044859">
      </trkpt>
      <trkpt lat="51.8172747" lon="-125.08055877">
      </trkpt>
      <trkpt lat="51.81718993" lon="-125.08074707">
      </trkpt>
      <trkpt lat="51.81709014" lon="-125.08075356">
      </trkpt>
      <trkpt lat="51.81692993" lon="-125.08072703">
      </trkpt>
      <trkpt lat="51.81663936" lon="-125.08073951">
      </trkpt>
      <trkpt lat="51.81638391" lon="-125.08074458">
      </trkpt>
      <trkpt lat="51.81582429" lon="-125.08076455">
      </trkpt>
      <trkpt lat="51.81537182" lon="-125.08064679">
      </trkpt>
      <trkpt lat="51.81490945" lon="-125.08059701">
      </trkpt>
      <trkpt lat="51.81480245" lon="-125.08050915">
      </trkpt>
      <trkpt lat="51.81457876" lon="-125.08043729">
      </trkpt>
      <trkpt lat="51.81432609" lon="-125.08035171">
      </trkpt>
      <trkpt lat="51.81413703" lon="-125.08031618">
      </trkpt>
      <trkpt lat="51.81398443" lon="-125.08027541">
      </trkpt>
      <trkpt lat="51.81386396" lon="-125.08023063">
      </trkpt>
      <trkpt lat="51.81370769" lon="-125.08031827">
      </trkpt>
      <trkpt lat="51.81356229" lon="-125.08046266">
      </trkpt>
      <trkpt lat="51.81341027" lon="-125.08065242">
      </trkpt>
      <trkpt lat="51.81326461" lon="-125.08086923">
      </trkpt>
      <trkpt lat="51.81311137" lon="-125.08102302">
      </trkpt>
      <trkpt lat="51.81293607" lon="-125.08113817">
      </trkpt>
      <trkpt lat="51.81273389" lon="-125.08126008">
      </trkpt>
      <trkpt lat="51.81249807" lon="-125.08146757">
      </trkpt>
      <trkpt lat="51.81226883" lon="-125.08165132">
      </trkpt>
      <trkpt lat="51.81214945" lon="-125.08171242">
      </trkpt>
      <trkpt lat="51.81190388" lon="-125.08210963">
      </trkpt>
      <trkpt lat="51.81153162" lon="-125.08280393">
      </trkpt>
      <trkpt lat="51.81131" lon="-125.08316939">
      </trkpt>
      <trkpt lat="51.81085697" lon="-125.08366172">
      </trkpt>
      <trkpt lat="51.81049619" lon="-125.08395964">
      </trkpt>
      <trkpt lat="51.81005772" lon="-125.08424584">
      </trkpt>
      <trkpt lat="51.80989471" lon="-125.08431524">
      </trkpt>
      <trkpt lat="51.80972092" lon="-125.08438046">
      </trkpt>
      <trkpt lat="51.80952745" lon="-125.08439459">
      </trkpt>
      <trkpt lat="51.80924443" lon="-125.08442817">
      </trkpt>
      <trkpt lat="51.8090056" lon="-125.08463692">
      </trkpt>
      <trkpt lat="51.80886664" lon="-125.08475785">
      </trkpt>
      <trkpt lat="51.8087368" lon="-125.08499746">
      </trkpt>
      <trkpt lat="51.80868516" lon="-125.08520968">
      </trkpt>
      <trkpt lat="51.80867022" lon="-125.08556274">
      </trkpt>
      <trkpt lat="51.80858868" lon="-125.08585902">
      </trkpt>
      <trkpt lat="51.80842305" lon="-125.08599308">
      </trkpt>
      <trkpt lat="51.80823353" lon="-125.08596947">
      </trkpt>
      <trkpt lat="51.80802706" lon="-125.08602127">
      </trkpt>
      <trkpt lat="51.80789099" lon="-125.08579492">
      </trkpt>
      <trkpt lat="51.80784245" lon="-125.0856127">
      </trkpt>
      <trkpt lat="51.80781507" lon="-125.08542794">
      </trkpt>
      <trkpt lat="51.80778699" lon="-125.08529914">
      </trkpt>
      <trkpt lat="51.80764539" lon="-125.08534011">
      </trkpt>
      <trkpt lat="51.80752338" lon="-125.08546701">
      </trkpt>
      <trkpt lat="51.80735183" lon="-125.08574184">
      </trkpt>
      <trkpt lat="51.80735111" lon="-125.08585808">
      </trkpt>
      <trkpt lat="51.80723564" lon="-125.08607184">
      </trkpt>
      <trkpt lat="51.80717878" lon="-125.0862535">
      </trkpt>
      <trkpt lat="51.80686848" lon="-125.08662999">
      </trkpt>
      <trkpt lat="51.80676995" lon="-125.0866405">
      </trkpt>
      <trkpt lat="51.80668347" lon="-125.08677841">
      </trkpt>
      <trkpt lat="51.80665848" lon="-125.08682008">
      </trkpt>
      <trkpt lat="51.8066354" lon="-125.08688092">
      </trkpt>
    </trkseg>
  </trk>
</gpx>