<?xml version="1.0" encoding="UTF-8"?>
<gpx xmlns="http://www.topografix.com/GPX/1/1" xmlns:xsi="http://www.w3.org/2001/XMLSchema-instance" xsi:schemaLocation="http://www.topografix.com/GPX/1/1 http://www.topografix.com/GPX/1/1/gpx.xsd" version="1.1" creator="gpx.py -- https://github.com/tkrajina/gpxpy">
  <trk>
    <name>Teapot Mtn.</name>
    <trkseg>
      <trkpt lat="54.3271257" lon="-122.67106216">
      </trkpt>
      <trkpt lat="54.32722798" lon="-122.67144329">
      </trkpt>
      <trkpt lat="54.32722721" lon="-122.6717631">
      </trkpt>
      <trkpt lat="54.32719039" lon="-122.67207343">
      </trkpt>
      <trkpt lat="54.3271349" lon="-122.67235272">
      </trkpt>
      <trkpt lat="54.32713547" lon="-122.6725382">
      </trkpt>
      <trkpt lat="54.32727298" lon="-122.67263194">
      </trkpt>
      <trkpt lat="54.32742974" lon="-122.67282046">
      </trkpt>
      <trkpt lat="54.32740764" lon="-122.67308983">
      </trkpt>
      <trkpt lat="54.32732421" lon="-122.6733009">
      </trkpt>
      <trkpt lat="54.32720447" lon="-122.67370637">
      </trkpt>
      <trkpt lat="54.32714005" lon="-122.67389745">
      </trkpt>
      <trkpt lat="54.32710375" lon="-122.67399916">
      </trkpt>
      <trkpt lat="54.32704324" lon="-122.67400765">
      </trkpt>
      <trkpt lat="54.32701024" lon="-122.67414237">
      </trkpt>
      <trkpt lat="54.32699535" lon="-122.67423678">
      </trkpt>
      <trkpt lat="54.32694418" lon="-122.67441938">
      </trkpt>
      <trkpt lat="54.32685439" lon="-122.67453458">
      </trkpt>
      <trkpt lat="54.32674768" lon="-122.67455803">
      </trkpt>
      <trkpt lat="54.32665186" lon="-122.67464331">
      </trkpt>
      <trkpt lat="54.32656876" lon="-122.67471128">
      </trkpt>
      <trkpt lat="54.3264373" lon="-122.67479759">
      </trkpt>
      <trkpt lat="54.32632675" lon="-122.67485003">
      </trkpt>
      <trkpt lat="54.32628102" lon="-122.67492564">
      </trkpt>
      <trkpt lat="54.32618876" lon="-122.67494666">
      </trkpt>
      <trkpt lat="54.32607136" lon="-122.67507097">
      </trkpt>
      <trkpt lat="54.3259815" lon="-122.67516269">
      </trkpt>
      <trkpt lat="54.3258666" lon="-122.67533108">
      </trkpt>
      <trkpt lat="54.32577081" lon="-122.67541925">
      </trkpt>
      <trkpt lat="54.32573227" lon="-122.67549531">
      </trkpt>
      <trkpt lat="54.32568298" lon="-122.67549488">
      </trkpt>
      <trkpt lat="54.32565887" lon="-122.67566522">
      </trkpt>
      <trkpt lat="54.3256558" lon="-122.67580319">
      </trkpt>
      <trkpt lat="54.32566396" lon="-122.67603765">
      </trkpt>
      <trkpt lat="54.3256273" lon="-122.67624687">
      </trkpt>
      <trkpt lat="54.32561752" lon="-122.67643245">
      </trkpt>
      <trkpt lat="54.32558778" lon="-122.67652661">
      </trkpt>
      <trkpt lat="54.32556591" lon="-122.67659167">
      </trkpt>
      <trkpt lat="54.32561623" lon="-122.67666982">
      </trkpt>
      <trkpt lat="54.32559331" lon="-122.67672605">
      </trkpt>
      <trkpt lat="54.32559763" lon="-122.67681651">
      </trkpt>
      <trkpt lat="54.3256198" lon="-122.67696806">
      </trkpt>
      <trkpt lat="54.32565139" lon="-122.67707442">
      </trkpt>
      <trkpt lat="54.325656" lon="-122.67715474">
      </trkpt>
      <trkpt lat="54.32567871" lon="-122.67723424">
      </trkpt>
      <trkpt lat="54.32572851" lon="-122.67724167">
      </trkpt>
      <trkpt lat="54.32575698" lon="-122.67735643">
      </trkpt>
      <trkpt lat="54.32577391" lon="-122.6774264">
      </trkpt>
      <trkpt lat="54.32576459" lon="-122.67753223">
      </trkpt>
      <trkpt lat="54.32580882" lon="-122.6776278">
      </trkpt>
      <trkpt lat="54.32582888" lon="-122.67767116">
      </trkpt>
      <trkpt lat="54.32583765" lon="-122.67775824">
      </trkpt>
      <trkpt lat="54.32585435" lon="-122.67786222">
      </trkpt>
      <trkpt lat="54.32585" lon="-122.67794017">
      </trkpt>
      <trkpt lat="54.32589071" lon="-122.67794793">
      </trkpt>
      <trkpt lat="54.32595211" lon="-122.67786044">
      </trkpt>
      <trkpt lat="54.32603522" lon="-122.67789324">
      </trkpt>
      <trkpt lat="54.32608269" lon="-122.67780577">
      </trkpt>
      <trkpt lat="54.32614889" lon="-122.67787344">
      </trkpt>
      <trkpt lat="54.32624882" lon="-122.67781125">
      </trkpt>
      <trkpt lat="54.32635989" lon="-122.67768574">
      </trkpt>
      <trkpt lat="54.32644192" lon="-122.67749594">
      </trkpt>
      <trkpt lat="54.32650122" lon="-122.67730371">
      </trkpt>
      <trkpt lat="54.32657082" lon="-122.67721869">
      </trkpt>
      <trkpt lat="54.32661112" lon="-122.67724628">
      </trkpt>
      <trkpt lat="54.32671304" lon="-122.67727995">
      </trkpt>
      <trkpt lat="54.32676002" lon="-122.67732749">
      </trkpt>
      <trkpt lat="54.32676734" lon="-122.67740748">
      </trkpt>
      <trkpt lat="54.3268431" lon="-122.67740292">
      </trkpt>
      <trkpt lat="54.32684134" lon="-122.67750315">
      </trkpt>
      <trkpt lat="54.32681963" lon="-122.67758383">
      </trkpt>
      <trkpt lat="54.32679812" lon="-122.67766384">
      </trkpt>
      <trkpt lat="54.32685039" lon="-122.67773008">
      </trkpt>
      <trkpt lat="54.32689684" lon="-122.6777867">
      </trkpt>
      <trkpt lat="54.32696783" lon="-122.67776387">
      </trkpt>
      <trkpt lat="54.32700968" lon="-122.6776238">
      </trkpt>
      <trkpt lat="54.32705932" lon="-122.67756128">
      </trkpt>
      <trkpt lat="54.32709388" lon="-122.67763982">
      </trkpt>
      <trkpt lat="54.32717583" lon="-122.67769633">
      </trkpt>
      <trkpt lat="54.32733274" lon="-122.67770058">
      </trkpt>
      <trkpt lat="54.3273781" lon="-122.67784092">
      </trkpt>
      <trkpt lat="54.32738672" lon="-122.67807024">
      </trkpt>
      <trkpt lat="54.32752081" lon="-122.67824138">
      </trkpt>
      <trkpt lat="54.32757071" lon="-122.67835408">
      </trkpt>
      <trkpt lat="54.32767138" lon="-122.67837847">
      </trkpt>
      <trkpt lat="54.32783318" lon="-122.6784076">
      </trkpt>
      <trkpt lat="54.32778696" lon="-122.67861096">
      </trkpt>
      <trkpt lat="54.32784752" lon="-122.6787642">
      </trkpt>
      <trkpt lat="54.32782261" lon="-122.6789673">
      </trkpt>
      <trkpt lat="54.32774498" lon="-122.67932165">
      </trkpt>
      <trkpt lat="54.32780305" lon="-122.67949205">
      </trkpt>
      <trkpt lat="54.3277008" lon="-122.67956886">
      </trkpt>
      <trkpt lat="54.32770433" lon="-122.67966177">
      </trkpt>
      <trkpt lat="54.32771932" lon="-122.67984065">
      </trkpt>
      <trkpt lat="54.32775883" lon="-122.68008192">
      </trkpt>
      <trkpt lat="54.32771337" lon="-122.68033721">
      </trkpt>
      <trkpt lat="54.3276579" lon="-122.6804303">
      </trkpt>
      <trkpt lat="54.32762021" lon="-122.68065958">
      </trkpt>
      <trkpt lat="54.32751149" lon="-122.68098406">
      </trkpt>
      <trkpt lat="54.32738944" lon="-122.68128439">
      </trkpt>
      <trkpt lat="54.32729732" lon="-122.68144007">
      </trkpt>
      <trkpt lat="54.32710767" lon="-122.68160513">
      </trkpt>
      <trkpt lat="54.32700486" lon="-122.68169436">
      </trkpt>
      <trkpt lat="54.3265849" lon="-122.6814614">
      </trkpt>
      <trkpt lat="54.32644664" lon="-122.68154827">
      </trkpt>
      <trkpt lat="54.32642848" lon="-122.68161166">
      </trkpt>
      <trkpt lat="54.32632005" lon="-122.68167522">
      </trkpt>
      <trkpt lat="54.32629173" lon="-122.68178534">
      </trkpt>
      <trkpt lat="54.32625311" lon="-122.68171782">
      </trkpt>
      <trkpt lat="54.32632547" lon="-122.68150341">
      </trkpt>
      <trkpt lat="54.32638951" lon="-122.68132168">
      </trkpt>
      <trkpt lat="54.32641262" lon="-122.68123986">
      </trkpt>
      <trkpt lat="54.32636421" lon="-122.68115277">
      </trkpt>
      <trkpt lat="54.32639253" lon="-122.68104038">
      </trkpt>
      <trkpt lat="54.32639577" lon="-122.6809032">
      </trkpt>
      <trkpt lat="54.32641389" lon="-122.68073014">
      </trkpt>
      <trkpt lat="54.32640272" lon="-122.68059251">
      </trkpt>
      <trkpt lat="54.32643447" lon="-122.68035172">
      </trkpt>
      <trkpt lat="54.32644226" lon="-122.68022552">
      </trkpt>
      <trkpt lat="54.32640931" lon="-122.6801069">
      </trkpt>
      <trkpt lat="54.32639706" lon="-122.68003485">
      </trkpt>
      <trkpt lat="54.3264446" lon="-122.67997536">
      </trkpt>
      <trkpt lat="54.32648445" lon="-122.67977088">
      </trkpt>
      <trkpt lat="54.32654942" lon="-122.6797108">
      </trkpt>
      <trkpt lat="54.32659921" lon="-122.67963125">
      </trkpt>
      <trkpt lat="54.32664995" lon="-122.67954197">
      </trkpt>
      <trkpt lat="54.32668074" lon="-122.67959841">
      </trkpt>
      <trkpt lat="54.32673795" lon="-122.67945226">
      </trkpt>
      <trkpt lat="54.32677393" lon="-122.67937845">
      </trkpt>
      <trkpt lat="54.32677848" lon="-122.67926815">
      </trkpt>
      <trkpt lat="54.32680772" lon="-122.67911222">
      </trkpt>
      <trkpt lat="54.32683737" lon="-122.67889838">
      </trkpt>
      <trkpt lat="54.32683179" lon="-122.67876487">
      </trkpt>
      <trkpt lat="54.32690664" lon="-122.67861106">
      </trkpt>
      <trkpt lat="54.32697859" lon="-122.67854183">
      </trkpt>
      <trkpt lat="54.32697773" lon="-122.67844348">
      </trkpt>
      <trkpt lat="54.32695991" lon="-122.67834568">
      </trkpt>
      <trkpt lat="54.32690928" lon="-122.67826926">
      </trkpt>
      <trkpt lat="54.32685277" lon="-122.67816415">
      </trkpt>
      <trkpt lat="54.32682398" lon="-122.67805034">
      </trkpt>
      <trkpt lat="54.32680043" lon="-122.6779264">
      </trkpt>
      <trkpt lat="54.32674776" lon="-122.67795707">
      </trkpt>
      <trkpt lat="54.32672166" lon="-122.67788118">
      </trkpt>
      <trkpt lat="54.32674117" lon="-122.67772533">
      </trkpt>
      <trkpt lat="54.32672269" lon="-122.67755932">
      </trkpt>
      <trkpt lat="54.32676707" lon="-122.67740794">
      </trkpt>
    </trkseg>
  </trk>
</gpx>