<?xml version="1.0" encoding="UTF-8"?>
<gpx xmlns="http://www.topografix.com/GPX/1/1" xmlns:xsi="http://www.w3.org/2001/XMLSchema-instance" xsi:schemaLocation="http://www.topografix.com/GPX/1/1 http://www.topografix.com/GPX/1/1/gpx.xsd" version="1.1" creator="gpx.py -- https://github.com/tkrajina/gpxpy">
  <trk>
    <name>Kane Valley Cross Country Ski Trail</name>
    <trkseg>
      <trkpt lat="50.01354953" lon="-120.65327587">
      </trkpt>
      <trkpt lat="50.01360194" lon="-120.6530773">
      </trkpt>
      <trkpt lat="50.01363069" lon="-120.65293581">
      </trkpt>
      <trkpt lat="50.01365025" lon="-120.65279476">
      </trkpt>
      <trkpt lat="50.01367578" lon="-120.65249985">
      </trkpt>
      <trkpt lat="50.01370335" lon="-120.65230223">
      </trkpt>
      <trkpt lat="50.01374884" lon="-120.65210444">
      </trkpt>
      <trkpt lat="50.01376573" lon="-120.65203321">
      </trkpt>
      <trkpt lat="50.01385033" lon="-120.65177022">
      </trkpt>
      <trkpt lat="50.01390647" lon="-120.65164159">
      </trkpt>
      <trkpt lat="50.01394172" lon="-120.65159078">
      </trkpt>
      <trkpt lat="50.01398127" lon="-120.65152554">
      </trkpt>
      <trkpt lat="50.01406585" lon="-120.65145878">
      </trkpt>
      <trkpt lat="50.01415129" lon="-120.65143322">
      </trkpt>
      <trkpt lat="50.01426472" lon="-120.65144895">
      </trkpt>
      <trkpt lat="50.01437369" lon="-120.65147129">
      </trkpt>
      <trkpt lat="50.01444581" lon="-120.65146772">
      </trkpt>
      <trkpt lat="50.01500352" lon="-120.65129295">
      </trkpt>
      <trkpt lat="50.01556078" lon="-120.6511189">
      </trkpt>
      <trkpt lat="50.0157185" lon="-120.65107626">
      </trkpt>
      <trkpt lat="50.01587561" lon="-120.65102583">
      </trkpt>
      <trkpt lat="50.01592064" lon="-120.65100297">
      </trkpt>
      <trkpt lat="50.01596477" lon="-120.65095883">
      </trkpt>
      <trkpt lat="50.01604416" lon="-120.65086389">
      </trkpt>
      <trkpt lat="50.01610206" lon="-120.65081908">
      </trkpt>
      <trkpt lat="50.01621417" lon="-120.65077157">
      </trkpt>
      <trkpt lat="50.0163313" lon="-120.65074444">
      </trkpt>
      <trkpt lat="50.01656113" lon="-120.65069823">
      </trkpt>
      <trkpt lat="50.01670909" lon="-120.65062834">
      </trkpt>
      <trkpt lat="50.01690487" lon="-120.65047145">
      </trkpt>
      <trkpt lat="50.01710765" lon="-120.65049104">
      </trkpt>
      <trkpt lat="50.01736942" lon="-120.65035599">
      </trkpt>
      <trkpt lat="50.01763242" lon="-120.65028202">
      </trkpt>
      <trkpt lat="50.01797018" lon="-120.65025759">
      </trkpt>
      <trkpt lat="50.01775051" lon="-120.64971805">
      </trkpt>
      <trkpt lat="50.01776125" lon="-120.64918467">
      </trkpt>
      <trkpt lat="50.01802466" lon="-120.64829841">
      </trkpt>
      <trkpt lat="50.01836204" lon="-120.6474522">
      </trkpt>
      <trkpt lat="50.01863182" lon="-120.64688004">
      </trkpt>
      <trkpt lat="50.01891549" lon="-120.64643819">
      </trkpt>
      <trkpt lat="50.01914542" lon="-120.64612126">
      </trkpt>
      <trkpt lat="50.0193151" lon="-120.64588587">
      </trkpt>
      <trkpt lat="50.01937269" lon="-120.64567343">
      </trkpt>
      <trkpt lat="50.01938862" lon="-120.64534949">
      </trkpt>
      <trkpt lat="50.01940509" lon="-120.64505171">
      </trkpt>
      <trkpt lat="50.01945458" lon="-120.64471739">
      </trkpt>
      <trkpt lat="50.01942221" lon="-120.64450935">
      </trkpt>
      <trkpt lat="50.01937843" lon="-120.64429314">
      </trkpt>
      <trkpt lat="50.01923132" lon="-120.64397717">
      </trkpt>
      <trkpt lat="50.01910373" lon="-120.64379126">
      </trkpt>
      <trkpt lat="50.01905889" lon="-120.64352268">
      </trkpt>
      <trkpt lat="50.01921306" lon="-120.64307843">
      </trkpt>
      <trkpt lat="50.01923532" lon="-120.64278911">
      </trkpt>
      <trkpt lat="50.01900879" lon="-120.64244209">
      </trkpt>
      <trkpt lat="50.01886487" lon="-120.6422832">
      </trkpt>
      <trkpt lat="50.01832794" lon="-120.64216974">
      </trkpt>
      <trkpt lat="50.01789255" lon="-120.64206878">
      </trkpt>
      <trkpt lat="50.01753801" lon="-120.64206867">
      </trkpt>
      <trkpt lat="50.01727585" lon="-120.64190684">
      </trkpt>
      <trkpt lat="50.01704132" lon="-120.64199692">
      </trkpt>
      <trkpt lat="50.01692787" lon="-120.64222956">
      </trkpt>
      <trkpt lat="50.01680631" lon="-120.6425067">
      </trkpt>
      <trkpt lat="50.01657795" lon="-120.64284015">
      </trkpt>
      <trkpt lat="50.01631436" lon="-120.64298622">
      </trkpt>
      <trkpt lat="50.01611089" lon="-120.64299632">
      </trkpt>
      <trkpt lat="50.01549158" lon="-120.64275614">
      </trkpt>
    </trkseg>
    <trkseg>
      <trkpt lat="49.97520721" lon="-120.70069792">
      </trkpt>
      <trkpt lat="49.975398" lon="-120.7010763">
      </trkpt>
      <trkpt lat="49.97587624" lon="-120.70167344">
      </trkpt>
      <trkpt lat="49.97642729" lon="-120.70131145">
      </trkpt>
      <trkpt lat="49.97699061" lon="-120.70115543">
      </trkpt>
      <trkpt lat="49.97744418" lon="-120.70090295">
      </trkpt>
      <trkpt lat="49.97778358" lon="-120.70082053">
      </trkpt>
      <trkpt lat="49.97819123" lon="-120.70037482">
      </trkpt>
      <trkpt lat="49.97876163" lon="-120.70015391">
      </trkpt>
      <trkpt lat="49.97933824" lon="-120.69982931">
      </trkpt>
      <trkpt lat="49.98020809" lon="-120.69916771">
      </trkpt>
      <trkpt lat="49.98087956" lon="-120.69816691">
      </trkpt>
      <trkpt lat="49.9814888" lon="-120.69738863">
      </trkpt>
      <trkpt lat="49.98178588" lon="-120.69724527">
      </trkpt>
      <trkpt lat="49.98244066" lon="-120.69708481">
      </trkpt>
      <trkpt lat="49.98308836" lon="-120.69656292">
      </trkpt>
      <trkpt lat="49.98348567" lon="-120.69601431">
      </trkpt>
      <trkpt lat="49.98413701" lon="-120.69525973">
      </trkpt>
      <trkpt lat="49.98427986" lon="-120.69490411">
      </trkpt>
      <trkpt lat="49.98433386" lon="-120.6942686">
      </trkpt>
      <trkpt lat="49.9844861" lon="-120.69396417">
      </trkpt>
      <trkpt lat="49.98457591" lon="-120.69345601">
      </trkpt>
      <trkpt lat="49.98490341" lon="-120.69316909">
      </trkpt>
      <trkpt lat="49.98548221" lon="-120.69316991">
      </trkpt>
      <trkpt lat="49.9858833" lon="-120.69313422">
      </trkpt>
      <trkpt lat="49.98622175" lon="-120.69327508">
      </trkpt>
      <trkpt lat="49.98721488" lon="-120.69251156">
      </trkpt>
      <trkpt lat="49.98798602" lon="-120.692192">
      </trkpt>
      <trkpt lat="49.98883298" lon="-120.69201956">
      </trkpt>
      <trkpt lat="49.98964652" lon="-120.69199945">
      </trkpt>
      <trkpt lat="49.99047446" lon="-120.69209171">
      </trkpt>
      <trkpt lat="49.99107515" lon="-120.69236445">
      </trkpt>
      <trkpt lat="49.99138024" lon="-120.69222016">
      </trkpt>
      <trkpt lat="49.99168637" lon="-120.69211083">
      </trkpt>
      <trkpt lat="49.99212495" lon="-120.6921845">
      </trkpt>
      <trkpt lat="49.99248915" lon="-120.69204962">
      </trkpt>
      <trkpt lat="49.9929077" lon="-120.69201151">
      </trkpt>
      <trkpt lat="49.9932441" lon="-120.69188638">
      </trkpt>
      <trkpt lat="49.99356205" lon="-120.69176811">
      </trkpt>
      <trkpt lat="49.99457162" lon="-120.6922301">
      </trkpt>
      <trkpt lat="49.99558449" lon="-120.69285257">
      </trkpt>
      <trkpt lat="49.99618068" lon="-120.69344626">
      </trkpt>
      <trkpt lat="49.99659721" lon="-120.69421982">
      </trkpt>
      <trkpt lat="49.99707782" lon="-120.69525383">
      </trkpt>
      <trkpt lat="49.9973759" lon="-120.69560094">
      </trkpt>
      <trkpt lat="49.99773967" lon="-120.69573713">
      </trkpt>
      <trkpt lat="49.99807507" lon="-120.69591082">
      </trkpt>
      <trkpt lat="49.99844581" lon="-120.69581178">
      </trkpt>
      <trkpt lat="49.9990347" lon="-120.69584686">
      </trkpt>
      <trkpt lat="49.99960523" lon="-120.69583765">
      </trkpt>
      <trkpt lat="50.00002118" lon="-120.69596231">
      </trkpt>
      <trkpt lat="50.00056388" lon="-120.69601768">
      </trkpt>
      <trkpt lat="50.00096027" lon="-120.69568364">
      </trkpt>
      <trkpt lat="50.00144709" lon="-120.69573714">
      </trkpt>
      <trkpt lat="50.00161215" lon="-120.69607817">
      </trkpt>
      <trkpt lat="50.00204215" lon="-120.69634185">
      </trkpt>
      <trkpt lat="50.00278047" lon="-120.69619032">
      </trkpt>
      <trkpt lat="50.0034602" lon="-120.69599571">
      </trkpt>
      <trkpt lat="50.00386598" lon="-120.69570332">
      </trkpt>
      <trkpt lat="50.00434151" lon="-120.69570869">
      </trkpt>
      <trkpt lat="50.00458876" lon="-120.69496646">
      </trkpt>
      <trkpt lat="50.00505435" lon="-120.69450479">
      </trkpt>
      <trkpt lat="50.0055686" lon="-120.6939761">
      </trkpt>
      <trkpt lat="50.00592907" lon="-120.69365129">
      </trkpt>
      <trkpt lat="50.00644167" lon="-120.69348201">
      </trkpt>
      <trkpt lat="50.00684426" lon="-120.69328943">
      </trkpt>
      <trkpt lat="50.00730094" lon="-120.69329647">
      </trkpt>
      <trkpt lat="50.00779742" lon="-120.69343173">
      </trkpt>
      <trkpt lat="50.00825436" lon="-120.69367103">
      </trkpt>
      <trkpt lat="50.00882015" lon="-120.69346155">
      </trkpt>
      <trkpt lat="50.0093333" lon="-120.69310814">
      </trkpt>
      <trkpt lat="50.00964114" lon="-120.69310908">
      </trkpt>
      <trkpt lat="50.01008415" lon="-120.69276467">
      </trkpt>
      <trkpt lat="50.01046473" lon="-120.69221653">
      </trkpt>
      <trkpt lat="50.01071368" lon="-120.69175225">
      </trkpt>
      <trkpt lat="50.01120038" lon="-120.69109553">
      </trkpt>
      <trkpt lat="50.01127638" lon="-120.69073002">
      </trkpt>
      <trkpt lat="50.01142783" lon="-120.69038666">
      </trkpt>
      <trkpt lat="50.0114401" lon="-120.69015749">
      </trkpt>
      <trkpt lat="50.01140739" lon="-120.68978014">
      </trkpt>
      <trkpt lat="50.01134597" lon="-120.68930355">
      </trkpt>
      <trkpt lat="50.01123858" lon="-120.68890114">
      </trkpt>
      <trkpt lat="50.01100986" lon="-120.68822222">
      </trkpt>
      <trkpt lat="50.0109457" lon="-120.68748686">
      </trkpt>
      <trkpt lat="50.01093981" lon="-120.68742458">
      </trkpt>
      <trkpt lat="50.01097627" lon="-120.68700971">
      </trkpt>
      <trkpt lat="50.01104488" lon="-120.68659328">
      </trkpt>
      <trkpt lat="50.01111521" lon="-120.686282">
      </trkpt>
      <trkpt lat="50.01116178" lon="-120.68613325">
      </trkpt>
      <trkpt lat="50.01121767" lon="-120.68599046">
      </trkpt>
      <trkpt lat="50.01131773" lon="-120.68578225">
      </trkpt>
      <trkpt lat="50.01141288" lon="-120.68558207">
      </trkpt>
      <trkpt lat="50.01151634" lon="-120.68533884">
      </trkpt>
      <trkpt lat="50.01161109" lon="-120.68509675">
      </trkpt>
      <trkpt lat="50.01165837" lon="-120.6849821">
      </trkpt>
      <trkpt lat="50.01169205" lon="-120.68485462">
      </trkpt>
      <trkpt lat="50.01171209" lon="-120.68473489">
      </trkpt>
      <trkpt lat="50.01171779" lon="-120.68456612">
      </trkpt>
      <trkpt lat="50.01170957" lon="-120.6843916">
      </trkpt>
      <trkpt lat="50.01164851" lon="-120.68384212">
      </trkpt>
      <trkpt lat="50.01158284" lon="-120.68329217">
      </trkpt>
      <trkpt lat="50.01158008" lon="-120.68315934">
      </trkpt>
      <trkpt lat="50.01159364" lon="-120.68294893">
      </trkpt>
      <trkpt lat="50.01159147" lon="-120.68284381">
      </trkpt>
      <trkpt lat="50.0115761" lon="-120.68274643">
      </trkpt>
      <trkpt lat="50.01151383" lon="-120.68258167">
      </trkpt>
      <trkpt lat="50.01145671" lon="-120.68246573">
      </trkpt>
      <trkpt lat="50.01125174" lon="-120.6821821">
      </trkpt>
      <trkpt lat="50.01084308" lon="-120.68167661">
      </trkpt>
      <trkpt lat="50.01064327" lon="-120.68142045">
      </trkpt>
      <trkpt lat="50.01044333" lon="-120.6811572">
      </trkpt>
      <trkpt lat="50.01024708" lon="-120.68087315">
      </trkpt>
      <trkpt lat="50.01005084" lon="-120.68056776">
      </trkpt>
      <trkpt lat="50.00985272" lon="-120.68032878">
      </trkpt>
      <trkpt lat="50.00940949" lon="-120.68008492">
      </trkpt>
      <trkpt lat="50.00882159" lon="-120.67999459">
      </trkpt>
      <trkpt lat="50.00797383" lon="-120.6800871">
      </trkpt>
      <trkpt lat="50.00784083" lon="-120.68026918">
      </trkpt>
      <trkpt lat="50.00745655" lon="-120.68090365">
      </trkpt>
      <trkpt lat="50.00724043" lon="-120.68133363">
      </trkpt>
      <trkpt lat="50.00707907" lon="-120.68148947">
      </trkpt>
      <trkpt lat="50.00691624" lon="-120.68152146">
      </trkpt>
      <trkpt lat="50.00676181" lon="-120.68148413">
      </trkpt>
      <trkpt lat="50.0067053" lon="-120.68137526">
      </trkpt>
      <trkpt lat="50.00669021" lon="-120.68131273">
      </trkpt>
      <trkpt lat="50.00668876" lon="-120.68124314">
      </trkpt>
      <trkpt lat="50.00671962" lon="-120.6807589">
      </trkpt>
      <trkpt lat="50.00677296" lon="-120.68027286">
      </trkpt>
      <trkpt lat="50.00679914" lon="-120.68000568">
      </trkpt>
      <trkpt lat="50.00683004" lon="-120.67974539">
      </trkpt>
      <trkpt lat="50.00686195" lon="-120.67955473">
      </trkpt>
      <trkpt lat="50.00694575" lon="-120.67922929">
      </trkpt>
      <trkpt lat="50.00709462" lon="-120.6787599">
      </trkpt>
      <trkpt lat="50.00716178" lon="-120.67851845">
      </trkpt>
      <trkpt lat="50.00722482" lon="-120.67827792">
      </trkpt>
      <trkpt lat="50.00727407" lon="-120.67803734">
      </trkpt>
      <trkpt lat="50.00731385" lon="-120.67778371">
      </trkpt>
      <trkpt lat="50.00737383" lon="-120.67739616">
      </trkpt>
      <trkpt lat="50.00741273" lon="-120.67709993">
      </trkpt>
      <trkpt lat="50.00743103" lon="-120.67687509">
      </trkpt>
      <trkpt lat="50.00744101" lon="-120.67671392">
      </trkpt>
      <trkpt lat="50.00742672" lon="-120.67646935">
      </trkpt>
      <trkpt lat="50.0073901" lon="-120.67623368">
      </trkpt>
      <trkpt lat="50.0073756" lon="-120.67617823">
      </trkpt>
      <trkpt lat="50.00736525" lon="-120.67612257">
      </trkpt>
      <trkpt lat="50.00735664" lon="-120.6752977">
      </trkpt>
      <trkpt lat="50.00738888" lon="-120.67465189">
      </trkpt>
      <trkpt lat="50.0078012" lon="-120.67489049">
      </trkpt>
      <trkpt lat="50.00794203" lon="-120.67491913">
      </trkpt>
      <trkpt lat="50.00817835" lon="-120.67496301">
      </trkpt>
      <trkpt lat="50.00845606" lon="-120.67483069">
      </trkpt>
      <trkpt lat="50.00875658" lon="-120.67469013">
      </trkpt>
      <trkpt lat="50.00906421" lon="-120.67447174">
      </trkpt>
      <trkpt lat="50.00928874" lon="-120.67439107">
      </trkpt>
      <trkpt lat="50.00945855" lon="-120.67450859">
      </trkpt>
      <trkpt lat="50.00982294" lon="-120.67464143">
      </trkpt>
      <trkpt lat="50.0100907" lon="-120.67473747">
      </trkpt>
      <trkpt lat="50.01056243" lon="-120.67499912">
      </trkpt>
      <trkpt lat="50.01083908" lon="-120.67508911">
      </trkpt>
      <trkpt lat="50.01107989" lon="-120.67505159">
      </trkpt>
      <trkpt lat="50.01120996" lon="-120.67530383">
      </trkpt>
      <trkpt lat="50.01150944" lon="-120.67570306">
      </trkpt>
      <trkpt lat="50.01197385" lon="-120.67601674">
      </trkpt>
      <trkpt lat="50.01222456" lon="-120.67564264">
      </trkpt>
      <trkpt lat="50.0122813" lon="-120.67514877">
      </trkpt>
      <trkpt lat="50.01202573" lon="-120.67445022">
      </trkpt>
      <trkpt lat="50.012102" lon="-120.67368387">
      </trkpt>
      <trkpt lat="50.0119826" lon="-120.67310523">
      </trkpt>
      <trkpt lat="50.01182073" lon="-120.67253411">
      </trkpt>
      <trkpt lat="50.01154666" lon="-120.67215958">
      </trkpt>
      <trkpt lat="50.01168813" lon="-120.67173918">
      </trkpt>
      <trkpt lat="50.0117623" lon="-120.6712964">
      </trkpt>
      <trkpt lat="50.0114974" lon="-120.67095104">
      </trkpt>
      <trkpt lat="50.01119498" lon="-120.67076552">
      </trkpt>
      <trkpt lat="50.01096439" lon="-120.67077667">
      </trkpt>
      <trkpt lat="50.01069948" lon="-120.67076841">
      </trkpt>
      <trkpt lat="50.01043965" lon="-120.67067565">
      </trkpt>
      <trkpt lat="50.01021183" lon="-120.6704865">
      </trkpt>
      <trkpt lat="50.00999164" lon="-120.67033914">
      </trkpt>
      <trkpt lat="50.00971749" lon="-120.67021367">
      </trkpt>
      <trkpt lat="50.00943249" lon="-120.66991249">
      </trkpt>
      <trkpt lat="50.00938823" lon="-120.6693907">
      </trkpt>
      <trkpt lat="50.00941144" lon="-120.66886563">
      </trkpt>
      <trkpt lat="50.00967606" lon="-120.66819155">
      </trkpt>
      <trkpt lat="50.00964074" lon="-120.66783401">
      </trkpt>
      <trkpt lat="50.00947902" lon="-120.667511">
      </trkpt>
      <trkpt lat="50.00945505" lon="-120.66714243">
      </trkpt>
      <trkpt lat="50.00956114" lon="-120.66662449">
      </trkpt>
      <trkpt lat="50.00984013" lon="-120.6661138">
      </trkpt>
      <trkpt lat="50.01009762" lon="-120.66565323">
      </trkpt>
      <trkpt lat="50.01029391" lon="-120.6653215">
      </trkpt>
      <trkpt lat="50.01042298" lon="-120.66498596">
      </trkpt>
      <trkpt lat="50.01045325" lon="-120.66471856">
      </trkpt>
      <trkpt lat="50.01040479" lon="-120.66433629">
      </trkpt>
      <trkpt lat="50.01031189" lon="-120.66400528">
      </trkpt>
      <trkpt lat="50.01030652" lon="-120.66352918">
      </trkpt>
      <trkpt lat="50.01058448" lon="-120.66297018">
      </trkpt>
      <trkpt lat="50.01071914" lon="-120.66270403">
      </trkpt>
      <trkpt lat="50.01075562" lon="-120.66251383">
      </trkpt>
      <trkpt lat="50.01074899" lon="-120.6623947">
      </trkpt>
      <trkpt lat="50.01074176" lon="-120.66226921">
      </trkpt>
      <trkpt lat="50.01054952" lon="-120.66173974">
      </trkpt>
      <trkpt lat="50.01046897" lon="-120.66135562">
      </trkpt>
      <trkpt lat="50.01061049" lon="-120.66046173">
      </trkpt>
      <trkpt lat="50.01054621" lon="-120.66010983">
      </trkpt>
      <trkpt lat="50.01073805" lon="-120.65970156">
      </trkpt>
      <trkpt lat="50.0108261" lon="-120.65917855">
      </trkpt>
      <trkpt lat="50.01128972" lon="-120.65824073">
      </trkpt>
      <trkpt lat="50.01163797" lon="-120.65755852">
      </trkpt>
      <trkpt lat="50.01202757" lon="-120.65703692">
      </trkpt>
      <trkpt lat="50.01211428" lon="-120.65693317">
      </trkpt>
    </trkseg>
    <trkseg>
      <trkpt lat="50.01434009" lon="-120.66201109">
      </trkpt>
      <trkpt lat="50.01415522" lon="-120.66228708">
      </trkpt>
      <trkpt lat="50.01401325" lon="-120.66263664">
      </trkpt>
      <trkpt lat="50.01380674" lon="-120.66276937">
      </trkpt>
      <trkpt lat="50.01370116" lon="-120.66290376">
      </trkpt>
      <trkpt lat="50.01368818" lon="-120.66308534">
      </trkpt>
      <trkpt lat="50.01373368" lon="-120.66327697">
      </trkpt>
      <trkpt lat="50.01348064" lon="-120.66394858">
      </trkpt>
      <trkpt lat="50.01340654" lon="-120.66440454">
      </trkpt>
      <trkpt lat="50.01295169" lon="-120.66498244">
      </trkpt>
      <trkpt lat="50.01287334" lon="-120.66478054">
      </trkpt>
      <trkpt lat="50.01251297" lon="-120.66511996">
      </trkpt>
      <trkpt lat="50.01211023" lon="-120.6657988">
      </trkpt>
      <trkpt lat="50.01173805" lon="-120.66634676">
      </trkpt>
      <trkpt lat="50.01127616" lon="-120.66657598">
      </trkpt>
      <trkpt lat="50.01087627" lon="-120.66656946">
      </trkpt>
      <trkpt lat="50.01061633" lon="-120.66652335">
      </trkpt>
      <trkpt lat="50.00993722" lon="-120.66667952">
      </trkpt>
      <trkpt lat="50.00977603" lon="-120.66694584">
      </trkpt>
      <trkpt lat="50.00947902" lon="-120.667511">
      </trkpt>
      <trkpt lat="50.00903485" lon="-120.66736949">
      </trkpt>
      <trkpt lat="50.00866478" lon="-120.66760714">
      </trkpt>
      <trkpt lat="50.00828172" lon="-120.66802644">
      </trkpt>
      <trkpt lat="50.00785997" lon="-120.6681761">
      </trkpt>
      <trkpt lat="50.00748258" lon="-120.66846575">
      </trkpt>
      <trkpt lat="50.00696946" lon="-120.66987352">
      </trkpt>
      <trkpt lat="50.00681422" lon="-120.67043669">
      </trkpt>
      <trkpt lat="50.00677953" lon="-120.67078743">
      </trkpt>
      <trkpt lat="50.0070518" lon="-120.67107143">
      </trkpt>
      <trkpt lat="50.00708248" lon="-120.67135434">
      </trkpt>
      <trkpt lat="50.00687708" lon="-120.67149352">
      </trkpt>
      <trkpt lat="50.00659337" lon="-120.67146844">
      </trkpt>
      <trkpt lat="50.00637935" lon="-120.67159514">
      </trkpt>
      <trkpt lat="50.0061226" lon="-120.67167212">
      </trkpt>
      <trkpt lat="50.00589358" lon="-120.67146348">
      </trkpt>
      <trkpt lat="50.00567774" lon="-120.67149981">
      </trkpt>
      <trkpt lat="50.00551702" lon="-120.67137834">
      </trkpt>
      <trkpt lat="50.00535713" lon="-120.67088198">
      </trkpt>
      <trkpt lat="50.00508356" lon="-120.67053338">
      </trkpt>
      <trkpt lat="50.00511513" lon="-120.66974479">
      </trkpt>
    </trkseg>
    <trkseg>
      <trkpt lat="50.0061226" lon="-120.67167212">
      </trkpt>
      <trkpt lat="50.00628718" lon="-120.67306386">
      </trkpt>
      <trkpt lat="50.00641279" lon="-120.67385274">
      </trkpt>
      <trkpt lat="50.00650131" lon="-120.67416076">
      </trkpt>
      <trkpt lat="50.00664267" lon="-120.67436687">
      </trkpt>
      <trkpt lat="50.00703569" lon="-120.67434789">
      </trkpt>
      <trkpt lat="50.00738888" lon="-120.67465189">
      </trkpt>
    </trkseg>
    <trkseg>
      <trkpt lat="50.01675108" lon="-120.66669851">
      </trkpt>
      <trkpt lat="50.01631748" lon="-120.66708145">
      </trkpt>
      <trkpt lat="50.01569179" lon="-120.66744788">
      </trkpt>
      <trkpt lat="50.01475404" lon="-120.66844985">
      </trkpt>
      <trkpt lat="50.01400885" lon="-120.66793516">
      </trkpt>
      <trkpt lat="50.01372105" lon="-120.66777512">
      </trkpt>
      <trkpt lat="50.01340874" lon="-120.66768319">
      </trkpt>
      <trkpt lat="50.01322081" lon="-120.66777258">
      </trkpt>
      <trkpt lat="50.012989" lon="-120.66782396">
      </trkpt>
      <trkpt lat="50.01265112" lon="-120.66774665">
      </trkpt>
      <trkpt lat="50.0123318" lon="-120.66773534">
      </trkpt>
      <trkpt lat="50.01202919" lon="-120.66769646">
      </trkpt>
      <trkpt lat="50.01165711" lon="-120.66763419">
      </trkpt>
      <trkpt lat="50.01133753" lon="-120.66760951">
      </trkpt>
      <trkpt lat="50.01100018" lon="-120.66755894">
      </trkpt>
      <trkpt lat="50.01067118" lon="-120.66749459">
      </trkpt>
      <trkpt lat="50.01029129" lon="-120.66747283">
      </trkpt>
      <trkpt lat="50.01000725" lon="-120.66749997">
      </trkpt>
      <trkpt lat="50.00958604" lon="-120.66759588">
      </trkpt>
      <trkpt lat="50.00947902" lon="-120.667511">
      </trkpt>
    </trkseg>
    <trkseg>
      <trkpt lat="50.01475404" lon="-120.66844985">
      </trkpt>
      <trkpt lat="50.01478313" lon="-120.66921566">
      </trkpt>
      <trkpt lat="50.01465137" lon="-120.66962103">
      </trkpt>
      <trkpt lat="50.01469855" lon="-120.67024928">
      </trkpt>
      <trkpt lat="50.01464495" lon="-120.67089821">
      </trkpt>
      <trkpt lat="50.01451827" lon="-120.67122745">
      </trkpt>
      <trkpt lat="50.01435633" lon="-120.67205773">
      </trkpt>
      <trkpt lat="50.01410029" lon="-120.67239817">
      </trkpt>
      <trkpt lat="50.01379966" lon="-120.67318828">
      </trkpt>
      <trkpt lat="50.0134418" lon="-120.67320558">
      </trkpt>
      <trkpt lat="50.01301223" lon="-120.67255411">
      </trkpt>
      <trkpt lat="50.01274575" lon="-120.67176515">
      </trkpt>
      <trkpt lat="50.0117623" lon="-120.6712964">
      </trkpt>
    </trkseg>
    <trkseg>
      <trkpt lat="50.01090221" lon="-120.63827924">
      </trkpt>
      <trkpt lat="50.0108991" lon="-120.63813221">
      </trkpt>
      <trkpt lat="50.01120772" lon="-120.63796328">
      </trkpt>
      <trkpt lat="50.01171402" lon="-120.63729392">
      </trkpt>
      <trkpt lat="50.01238246" lon="-120.63702959">
      </trkpt>
      <trkpt lat="50.01252405" lon="-120.63687607">
      </trkpt>
      <trkpt lat="50.01296875" lon="-120.63585992">
      </trkpt>
      <trkpt lat="50.01327929" lon="-120.63534744">
      </trkpt>
      <trkpt lat="50.01344322" lon="-120.63496883">
      </trkpt>
      <trkpt lat="50.01392344" lon="-120.63415352">
      </trkpt>
      <trkpt lat="50.0139378" lon="-120.63374679">
      </trkpt>
      <trkpt lat="50.01405835" lon="-120.63346846">
      </trkpt>
      <trkpt lat="50.01428046" lon="-120.63327535">
      </trkpt>
      <trkpt lat="50.01466475" lon="-120.63281536">
      </trkpt>
      <trkpt lat="50.01510246" lon="-120.63212158">
      </trkpt>
      <trkpt lat="50.01518582" lon="-120.63178109">
      </trkpt>
      <trkpt lat="50.01510362" lon="-120.63154769">
      </trkpt>
      <trkpt lat="50.01499123" lon="-120.63158102">
      </trkpt>
      <trkpt lat="50.01475802" lon="-120.63187993">
      </trkpt>
      <trkpt lat="50.01431362" lon="-120.63184591">
      </trkpt>
      <trkpt lat="50.01389278" lon="-120.63205604">
      </trkpt>
      <trkpt lat="50.01317739" lon="-120.63268613">
      </trkpt>
      <trkpt lat="50.01295913" lon="-120.63306106">
      </trkpt>
      <trkpt lat="50.01266325" lon="-120.63320166">
      </trkpt>
      <trkpt lat="50.01216156" lon="-120.63365399">
      </trkpt>
      <trkpt lat="50.01196358" lon="-120.63392265">
      </trkpt>
      <trkpt lat="50.0117884" lon="-120.63439994">
      </trkpt>
      <trkpt lat="50.01130549" lon="-120.63532698">
      </trkpt>
      <trkpt lat="50.0108996" lon="-120.63602619">
      </trkpt>
      <trkpt lat="50.01075876" lon="-120.63643208">
      </trkpt>
      <trkpt lat="50.01069255" lon="-120.63693166">
      </trkpt>
      <trkpt lat="50.01040142" lon="-120.63729666">
      </trkpt>
      <trkpt lat="50.01032396" lon="-120.63748182">
      </trkpt>
      <trkpt lat="50.00995536" lon="-120.63803197">
      </trkpt>
      <trkpt lat="50.00987037" lon="-120.6382957">
      </trkpt>
      <trkpt lat="50.00984488" lon="-120.63878684">
      </trkpt>
      <trkpt lat="50.00925652" lon="-120.63901161">
      </trkpt>
      <trkpt lat="50.00857045" lon="-120.63950784">
      </trkpt>
      <trkpt lat="50.00839972" lon="-120.63956539">
      </trkpt>
      <trkpt lat="50.00805364" lon="-120.6396807">
      </trkpt>
      <trkpt lat="50.00766328" lon="-120.64004988">
      </trkpt>
      <trkpt lat="50.00747754" lon="-120.64048569">
      </trkpt>
      <trkpt lat="50.00708389" lon="-120.64133064">
      </trkpt>
      <trkpt lat="50.00629929" lon="-120.64232155">
      </trkpt>
      <trkpt lat="50.00596831" lon="-120.64251997">
      </trkpt>
      <trkpt lat="50.00574481" lon="-120.64286662">
      </trkpt>
      <trkpt lat="50.00510003" lon="-120.64340265">
      </trkpt>
      <trkpt lat="50.00459056" lon="-120.64433788">
      </trkpt>
      <trkpt lat="50.00377127" lon="-120.64518966">
      </trkpt>
      <trkpt lat="50.0033584" lon="-120.64536438">
      </trkpt>
      <trkpt lat="50.00320927" lon="-120.64557438">
      </trkpt>
      <trkpt lat="50.00305401" lon="-120.64616997">
      </trkpt>
      <trkpt lat="50.00247244" lon="-120.64669569">
      </trkpt>
      <trkpt lat="50.00165891" lon="-120.64760325">
      </trkpt>
      <trkpt lat="50.00102608" lon="-120.6480753">
      </trkpt>
      <trkpt lat="50.00058966" lon="-120.64839832">
      </trkpt>
      <trkpt lat="50.00009192" lon="-120.64862554">
      </trkpt>
      <trkpt lat="49.99891202" lon="-120.64953764">
      </trkpt>
      <trkpt lat="49.99873415" lon="-120.64969358">
      </trkpt>
      <trkpt lat="49.99846387" lon="-120.64995857">
      </trkpt>
      <trkpt lat="49.99818065" lon="-120.65048294">
      </trkpt>
      <trkpt lat="49.99789435" lon="-120.65086104">
      </trkpt>
      <trkpt lat="49.99756924" lon="-120.65131781">
      </trkpt>
      <trkpt lat="49.99730978" lon="-120.65146356">
      </trkpt>
      <trkpt lat="49.99706526" lon="-120.65166472">
      </trkpt>
      <trkpt lat="49.99690693" lon="-120.65187511">
      </trkpt>
      <trkpt lat="49.99640203" lon="-120.65241824">
      </trkpt>
      <trkpt lat="49.99542524" lon="-120.6535227">
      </trkpt>
      <trkpt lat="49.99492003" lon="-120.65403025">
      </trkpt>
      <trkpt lat="49.99468604" lon="-120.65429412">
      </trkpt>
      <trkpt lat="49.99479998" lon="-120.65542857">
      </trkpt>
      <trkpt lat="49.99450521" lon="-120.65582053">
      </trkpt>
      <trkpt lat="49.99352093" lon="-120.65656917">
      </trkpt>
      <trkpt lat="49.99219757" lon="-120.65691374">
      </trkpt>
      <trkpt lat="49.99161884" lon="-120.65694228">
      </trkpt>
      <trkpt lat="49.99086716" lon="-120.65711935">
      </trkpt>
      <trkpt lat="49.98999782" lon="-120.65754029">
      </trkpt>
      <trkpt lat="49.98942763" lon="-120.65775673">
      </trkpt>
      <trkpt lat="49.98881167" lon="-120.65881543">
      </trkpt>
      <trkpt lat="49.98788263" lon="-120.66068688">
      </trkpt>
      <trkpt lat="49.98760249" lon="-120.66177802">
      </trkpt>
      <trkpt lat="49.98709798" lon="-120.6623202">
      </trkpt>
      <trkpt lat="49.98683037" lon="-120.66295588">
      </trkpt>
      <trkpt lat="49.98653319" lon="-120.66345302">
      </trkpt>
      <trkpt lat="49.98613558" lon="-120.66347968">
      </trkpt>
      <trkpt lat="49.98582649" lon="-120.66362776">
      </trkpt>
      <trkpt lat="49.98511355" lon="-120.66330607">
      </trkpt>
      <trkpt lat="49.98326325" lon="-120.6626836">
      </trkpt>
      <trkpt lat="49.98271941" lon="-120.66242398">
      </trkpt>
      <trkpt lat="49.98245687" lon="-120.66176538">
      </trkpt>
      <trkpt lat="49.98188168" lon="-120.66003145">
      </trkpt>
      <trkpt lat="49.98161196" lon="-120.65968803">
      </trkpt>
      <trkpt lat="49.98134765" lon="-120.65958166">
      </trkpt>
      <trkpt lat="49.98074173" lon="-120.65875172">
      </trkpt>
      <trkpt lat="49.98039279" lon="-120.65829284">
      </trkpt>
      <trkpt lat="49.98044475" lon="-120.65774528">
      </trkpt>
      <trkpt lat="49.98064041" lon="-120.65672809">
      </trkpt>
      <trkpt lat="49.98042794" lon="-120.65672505">
      </trkpt>
      <trkpt lat="49.9802602" lon="-120.65714544">
      </trkpt>
      <trkpt lat="49.9799377" lon="-120.65774896">
      </trkpt>
      <trkpt lat="49.97969317" lon="-120.65860726">
      </trkpt>
      <trkpt lat="49.97974152" lon="-120.65896157">
      </trkpt>
      <trkpt lat="49.97986824" lon="-120.65917204">
      </trkpt>
      <trkpt lat="49.98010584" lon="-120.65949642">
      </trkpt>
      <trkpt lat="49.9810708" lon="-120.65997331">
      </trkpt>
      <trkpt lat="49.98133301" lon="-120.66017713">
      </trkpt>
      <trkpt lat="49.98185132" lon="-120.66073216">
      </trkpt>
      <trkpt lat="49.98160245" lon="-120.66160419">
      </trkpt>
      <trkpt lat="49.98145173" lon="-120.66217864">
      </trkpt>
      <trkpt lat="49.98140838" lon="-120.66313861">
      </trkpt>
      <trkpt lat="49.98165571" lon="-120.66414753">
      </trkpt>
      <trkpt lat="49.98155851" lon="-120.66490764">
      </trkpt>
      <trkpt lat="49.98160081" lon="-120.66563319">
      </trkpt>
      <trkpt lat="49.9814663" lon="-120.6663461">
      </trkpt>
      <trkpt lat="49.98162623" lon="-120.66684843">
      </trkpt>
      <trkpt lat="49.98160638" lon="-120.66741644">
      </trkpt>
      <trkpt lat="49.98132266" lon="-120.66789862">
      </trkpt>
      <trkpt lat="49.98125944" lon="-120.66878992">
      </trkpt>
      <trkpt lat="49.98095516" lon="-120.66916865">
      </trkpt>
      <trkpt lat="49.98068395" lon="-120.66939156">
      </trkpt>
      <trkpt lat="49.98023578" lon="-120.66946211">
      </trkpt>
      <trkpt lat="49.9799542" lon="-120.66988122">
      </trkpt>
      <trkpt lat="49.97976746" lon="-120.67028836">
      </trkpt>
      <trkpt lat="49.97963652" lon="-120.67063383">
      </trkpt>
      <trkpt lat="49.97946156" lon="-120.67109496">
      </trkpt>
      <trkpt lat="49.97939329" lon="-120.67152463">
      </trkpt>
      <trkpt lat="49.9794773" lon="-120.67229002">
      </trkpt>
      <trkpt lat="49.97945449" lon="-120.6731587">
      </trkpt>
      <trkpt lat="49.97952144" lon="-120.67396614">
      </trkpt>
      <trkpt lat="49.97937084" lon="-120.67479205">
      </trkpt>
      <trkpt lat="49.97925717" lon="-120.67584636">
      </trkpt>
      <trkpt lat="49.97918822" lon="-120.67688497">
      </trkpt>
      <trkpt lat="49.97884668" lon="-120.67741892">
      </trkpt>
      <trkpt lat="49.97830736" lon="-120.67739624">
      </trkpt>
      <trkpt lat="49.97802323" lon="-120.67808156">
      </trkpt>
      <trkpt lat="49.97828248" lon="-120.67858686">
      </trkpt>
      <trkpt lat="49.9780631" lon="-120.67913616">
      </trkpt>
      <trkpt lat="49.97731391" lon="-120.68031947">
      </trkpt>
      <trkpt lat="49.97724948" lon="-120.68069279">
      </trkpt>
      <trkpt lat="49.97699278" lon="-120.68119485">
      </trkpt>
      <trkpt lat="49.97672001" lon="-120.68156483">
      </trkpt>
      <trkpt lat="49.97639232" lon="-120.68256697">
      </trkpt>
      <trkpt lat="49.975915" lon="-120.68333836">
      </trkpt>
      <trkpt lat="49.97573994" lon="-120.68341014">
      </trkpt>
      <trkpt lat="49.97531137" lon="-120.68411591">
      </trkpt>
      <trkpt lat="49.9747477" lon="-120.68553517">
      </trkpt>
      <trkpt lat="49.9745454" lon="-120.68624411">
      </trkpt>
      <trkpt lat="49.97447319" lon="-120.68801738">
      </trkpt>
      <trkpt lat="49.97375266" lon="-120.68883533">
      </trkpt>
      <trkpt lat="49.97344848" lon="-120.68944405">
      </trkpt>
      <trkpt lat="49.97336383" lon="-120.68995187">
      </trkpt>
      <trkpt lat="49.97322513" lon="-120.6904481">
      </trkpt>
      <trkpt lat="49.97308634" lon="-120.69140613">
      </trkpt>
      <trkpt lat="49.97285546" lon="-120.69204679">
      </trkpt>
      <trkpt lat="49.97263482" lon="-120.69231609">
      </trkpt>
      <trkpt lat="49.97258441" lon="-120.69272419">
      </trkpt>
      <trkpt lat="49.97241448" lon="-120.69371141">
      </trkpt>
      <trkpt lat="49.97233791" lon="-120.69458896">
      </trkpt>
      <trkpt lat="49.97215848" lon="-120.69556241">
      </trkpt>
      <trkpt lat="49.97235518" lon="-120.69631517">
      </trkpt>
      <trkpt lat="49.97223142" lon="-120.69755873">
      </trkpt>
      <trkpt lat="49.97232443" lon="-120.69809984">
      </trkpt>
      <trkpt lat="49.9723344" lon="-120.69880552">
      </trkpt>
      <trkpt lat="49.97246222" lon="-120.69929592">
      </trkpt>
      <trkpt lat="49.97270513" lon="-120.69968272">
      </trkpt>
      <trkpt lat="49.97297488" lon="-120.69980962">
      </trkpt>
      <trkpt lat="49.97338628" lon="-120.69978261">
      </trkpt>
      <trkpt lat="49.97351863" lon="-120.70006963">
      </trkpt>
    </trkseg>
    <trkseg>
      <trkpt lat="50.00988469" lon="-120.63897327">
      </trkpt>
      <trkpt lat="50.00941569" lon="-120.6396898">
      </trkpt>
      <trkpt lat="50.00912839" lon="-120.64021455">
      </trkpt>
      <trkpt lat="50.00889706" lon="-120.6406249">
      </trkpt>
      <trkpt lat="50.00868085" lon="-120.64088093">
      </trkpt>
      <trkpt lat="50.00824784" lon="-120.64116833">
      </trkpt>
      <trkpt lat="50.00806996" lon="-120.64154117">
      </trkpt>
      <trkpt lat="50.00756231" lon="-120.64212591">
      </trkpt>
      <trkpt lat="50.00720449" lon="-120.64275224">
      </trkpt>
      <trkpt lat="50.00695227" lon="-120.64304486">
      </trkpt>
      <trkpt lat="50.0065674" lon="-120.64323885">
      </trkpt>
      <trkpt lat="50.00643619" lon="-120.64344869">
      </trkpt>
      <trkpt lat="50.00627947" lon="-120.6439527">
      </trkpt>
      <trkpt lat="50.00597318" lon="-120.64466816">
      </trkpt>
      <trkpt lat="50.00550952" lon="-120.64525376">
      </trkpt>
      <trkpt lat="50.00508977" lon="-120.64619983">
      </trkpt>
      <trkpt lat="50.00498831" lon="-120.64674615">
      </trkpt>
      <trkpt lat="50.00482397" lon="-120.64752256">
      </trkpt>
      <trkpt lat="50.00430725" lon="-120.64868289">
      </trkpt>
      <trkpt lat="50.00398272" lon="-120.64988622">
      </trkpt>
      <trkpt lat="50.00397972" lon="-120.65058854">
      </trkpt>
      <trkpt lat="50.00369751" lon="-120.65080819">
      </trkpt>
      <trkpt lat="50.00341612" lon="-120.65136326">
      </trkpt>
      <trkpt lat="50.00280763" lon="-120.65244068">
      </trkpt>
      <trkpt lat="50.00269166" lon="-120.65280693">
      </trkpt>
      <trkpt lat="50.00246377" lon="-120.65272719">
      </trkpt>
      <trkpt lat="50.00222266" lon="-120.65289337">
      </trkpt>
      <trkpt lat="50.00185915" lon="-120.65331167">
      </trkpt>
      <trkpt lat="50.00152045" lon="-120.65371855">
      </trkpt>
      <trkpt lat="50.00112556" lon="-120.65382265">
      </trkpt>
      <trkpt lat="50.00065101" lon="-120.65343841">
      </trkpt>
      <trkpt lat="50.00018011" lon="-120.65323504">
      </trkpt>
      <trkpt lat="49.99991453" lon="-120.6523654">
      </trkpt>
      <trkpt lat="49.99989714" lon="-120.6515063">
      </trkpt>
      <trkpt lat="49.99951496" lon="-120.65064237">
      </trkpt>
      <trkpt lat="49.99917202" lon="-120.65027438">
      </trkpt>
      <trkpt lat="49.99900101" lon="-120.64968038">
      </trkpt>
      <trkpt lat="49.9988778" lon="-120.64963742">
      </trkpt>
      <trkpt lat="49.99873415" lon="-120.64969358">
      </trkpt>
      <trkpt lat="49.99846387" lon="-120.64995857">
      </trkpt>
      <trkpt lat="49.99818065" lon="-120.65048294">
      </trkpt>
      <trkpt lat="49.99794256" lon="-120.6503554">
      </trkpt>
      <trkpt lat="49.99791356" lon="-120.65004835">
      </trkpt>
      <trkpt lat="49.99791202" lon="-120.64953805">
      </trkpt>
      <trkpt lat="49.99798914" lon="-120.64868056">
      </trkpt>
      <trkpt lat="49.99795468" lon="-120.64835387">
      </trkpt>
      <trkpt lat="49.99796094" lon="-120.64799674">
      </trkpt>
      <trkpt lat="49.99785399" lon="-120.64700122">
      </trkpt>
      <trkpt lat="49.99788306" lon="-120.64665716">
      </trkpt>
      <trkpt lat="49.99788537" lon="-120.64569816">
      </trkpt>
      <trkpt lat="49.99797472" lon="-120.6454215">
      </trkpt>
      <trkpt lat="49.9980907" lon="-120.644926">
      </trkpt>
      <trkpt lat="49.99830182" lon="-120.64377468">
      </trkpt>
      <trkpt lat="49.99837751" lon="-120.64350508">
      </trkpt>
      <trkpt lat="49.99850532" lon="-120.6431348">
      </trkpt>
      <trkpt lat="49.99854327" lon="-120.64277609">
      </trkpt>
      <trkpt lat="49.99851799" lon="-120.64242762">
      </trkpt>
      <trkpt lat="49.99858554" lon="-120.64199066">
      </trkpt>
      <trkpt lat="49.99853787" lon="-120.64167103">
      </trkpt>
      <trkpt lat="49.99847524" lon="-120.64149216">
      </trkpt>
      <trkpt lat="49.99832955" lon="-120.64123355">
      </trkpt>
      <trkpt lat="49.99815867" lon="-120.64106718">
      </trkpt>
      <trkpt lat="49.99798293" lon="-120.64088753">
      </trkpt>
      <trkpt lat="49.99762768" lon="-120.64056897">
      </trkpt>
      <trkpt lat="49.99738648" lon="-120.64029449">
      </trkpt>
      <trkpt lat="49.99723471" lon="-120.640162">
      </trkpt>
      <trkpt lat="49.99711624" lon="-120.64012594">
      </trkpt>
      <trkpt lat="49.99688152" lon="-120.64015822">
      </trkpt>
      <trkpt lat="49.99672248" lon="-120.64013838">
      </trkpt>
      <trkpt lat="49.99647609" lon="-120.64003193">
      </trkpt>
      <trkpt lat="49.99611181" lon="-120.63972092">
      </trkpt>
      <trkpt lat="49.99580232" lon="-120.6396311">
      </trkpt>
      <trkpt lat="49.99553044" lon="-120.63962399">
      </trkpt>
      <trkpt lat="49.99529914" lon="-120.63938316">
      </trkpt>
      <trkpt lat="49.99513672" lon="-120.63918155">
      </trkpt>
      <trkpt lat="49.99502389" lon="-120.63878131">
      </trkpt>
      <trkpt lat="49.99483541" lon="-120.63841325">
      </trkpt>
      <trkpt lat="49.994666" lon="-120.63831647">
      </trkpt>
      <trkpt lat="49.99452249" lon="-120.63818359">
      </trkpt>
      <trkpt lat="49.9943189" lon="-120.63796982">
      </trkpt>
      <trkpt lat="49.99400217" lon="-120.63775528">
      </trkpt>
      <trkpt lat="49.99390592" lon="-120.63748714">
      </trkpt>
      <trkpt lat="49.99376333" lon="-120.63715804">
      </trkpt>
      <trkpt lat="49.99364546" lon="-120.63693291">
      </trkpt>
      <trkpt lat="49.99351116" lon="-120.63658351">
      </trkpt>
      <trkpt lat="49.99335451" lon="-120.63600351">
      </trkpt>
      <trkpt lat="49.99331528" lon="-120.63564866">
      </trkpt>
      <trkpt lat="49.99334193" lon="-120.63521378">
      </trkpt>
      <trkpt lat="49.99339599" lon="-120.63498722">
      </trkpt>
      <trkpt lat="49.99342796" lon="-120.63478235">
      </trkpt>
      <trkpt lat="49.99341464" lon="-120.63458755">
      </trkpt>
      <trkpt lat="49.99338932" lon="-120.63423843">
      </trkpt>
      <trkpt lat="49.99321651" lon="-120.6339812">
      </trkpt>
      <trkpt lat="49.99311731" lon="-120.63357392">
      </trkpt>
      <trkpt lat="49.99295396" lon="-120.63313428">
      </trkpt>
      <trkpt lat="49.99282321" lon="-120.63271364">
      </trkpt>
      <trkpt lat="49.99285444" lon="-120.63227854">
      </trkpt>
      <trkpt lat="49.99294122" lon="-120.6318826">
      </trkpt>
      <trkpt lat="49.99305035" lon="-120.63147844">
      </trkpt>
      <trkpt lat="49.99301806" lon="-120.63123483">
      </trkpt>
      <trkpt lat="49.99292433" lon="-120.631086">
      </trkpt>
      <trkpt lat="49.9925162" lon="-120.63083342">
      </trkpt>
      <trkpt lat="49.99205832" lon="-120.63057621">
      </trkpt>
      <trkpt lat="49.9915455" lon="-120.63030825">
      </trkpt>
      <trkpt lat="49.99147265" lon="-120.63027706">
      </trkpt>
      <trkpt lat="49.99134041" lon="-120.63024172">
      </trkpt>
      <trkpt lat="49.99121439" lon="-120.63026151">
      </trkpt>
      <trkpt lat="49.99097629" lon="-120.63035085">
      </trkpt>
      <trkpt lat="49.99076778" lon="-120.63033992">
      </trkpt>
      <trkpt lat="49.99042422" lon="-120.63035705">
      </trkpt>
      <trkpt lat="49.99006795" lon="-120.63040324">
      </trkpt>
      <trkpt lat="49.98990032" lon="-120.63039027">
      </trkpt>
      <trkpt lat="49.98967744" lon="-120.63035235">
      </trkpt>
      <trkpt lat="49.98940187" lon="-120.62993257">
      </trkpt>
      <trkpt lat="49.98896695" lon="-120.62991232">
      </trkpt>
      <trkpt lat="49.98819038" lon="-120.62958718">
      </trkpt>
      <trkpt lat="49.98787304" lon="-120.62956107">
      </trkpt>
      <trkpt lat="49.9874057" lon="-120.62948631">
      </trkpt>
      <trkpt lat="49.98727434" lon="-120.62949286">
      </trkpt>
      <trkpt lat="49.98703565" lon="-120.62953319">
      </trkpt>
      <trkpt lat="49.98680418" lon="-120.62950209">
      </trkpt>
      <trkpt lat="49.98654296" lon="-120.6293474">
      </trkpt>
      <trkpt lat="49.98619969" lon="-120.6291826">
      </trkpt>
      <trkpt lat="49.98593893" lon="-120.62946138">
      </trkpt>
      <trkpt lat="49.9857223" lon="-120.62971736">
      </trkpt>
      <trkpt lat="49.98543193" lon="-120.62987894">
      </trkpt>
      <trkpt lat="49.98515054" lon="-120.62985743">
      </trkpt>
      <trkpt lat="49.98499107" lon="-120.63001248">
      </trkpt>
      <trkpt lat="49.98474719" lon="-120.63045811">
      </trkpt>
      <trkpt lat="49.984632" lon="-120.63079287">
      </trkpt>
      <trkpt lat="49.98435909" lon="-120.63093224">
      </trkpt>
      <trkpt lat="49.98374203" lon="-120.63149453">
      </trkpt>
      <trkpt lat="49.98353146" lon="-120.63203655">
      </trkpt>
      <trkpt lat="49.98290938" lon="-120.63277386">
      </trkpt>
      <trkpt lat="49.9827216" lon="-120.63311221">
      </trkpt>
      <trkpt lat="49.9825442" lon="-120.63326742">
      </trkpt>
      <trkpt lat="49.9807798" lon="-120.63436283">
      </trkpt>
      <trkpt lat="49.98005018" lon="-120.63495121">
      </trkpt>
      <trkpt lat="49.97893808" lon="-120.63543357">
      </trkpt>
      <trkpt lat="49.97818032" lon="-120.63597429">
      </trkpt>
      <trkpt lat="49.97669026" lon="-120.63762922">
      </trkpt>
      <trkpt lat="49.97611374" lon="-120.63819643">
      </trkpt>
      <trkpt lat="49.97591395" lon="-120.63901062">
      </trkpt>
      <trkpt lat="49.97579543" lon="-120.64003746">
      </trkpt>
      <trkpt lat="49.97541978" lon="-120.64153816">
      </trkpt>
      <trkpt lat="49.9754484" lon="-120.64289376">
      </trkpt>
      <trkpt lat="49.97549791" lon="-120.64395418">
      </trkpt>
      <trkpt lat="49.97540782" lon="-120.64441264">
      </trkpt>
      <trkpt lat="49.97523462" lon="-120.64542156">
      </trkpt>
      <trkpt lat="49.97511478" lon="-120.64575645">
      </trkpt>
      <trkpt lat="49.97504764" lon="-120.64621377">
      </trkpt>
      <trkpt lat="49.97489547" lon="-120.64693461">
      </trkpt>
      <trkpt lat="49.97478187" lon="-120.64712922">
      </trkpt>
      <trkpt lat="49.97466879" lon="-120.64778489">
      </trkpt>
      <trkpt lat="49.97463097" lon="-120.64834661">
      </trkpt>
      <trkpt lat="49.97455317" lon="-120.64873482">
      </trkpt>
      <trkpt lat="49.97448692" lon="-120.6492347">
      </trkpt>
      <trkpt lat="49.97444761" lon="-120.64972616">
      </trkpt>
      <trkpt lat="49.9746224" lon="-120.65029797">
      </trkpt>
      <trkpt lat="49.97485382" lon="-120.65054515">
      </trkpt>
      <trkpt lat="49.97509016" lon="-120.65058959">
      </trkpt>
      <trkpt lat="49.97522947" lon="-120.6507646">
      </trkpt>
      <trkpt lat="49.97546027" lon="-120.6512008">
      </trkpt>
      <trkpt lat="49.97565468" lon="-120.65139368">
      </trkpt>
      <trkpt lat="49.97594337" lon="-120.65178511">
      </trkpt>
      <trkpt lat="49.97678507" lon="-120.65265227">
      </trkpt>
      <trkpt lat="49.97698022" lon="-120.65288064">
      </trkpt>
      <trkpt lat="49.97700966" lon="-120.65299074">
      </trkpt>
      <trkpt lat="49.9771081" lon="-120.65316777">
      </trkpt>
      <trkpt lat="49.97766564" lon="-120.65405681">
      </trkpt>
      <trkpt lat="49.97779646" lon="-120.65448378">
      </trkpt>
      <trkpt lat="49.97799337" lon="-120.65479591">
      </trkpt>
      <trkpt lat="49.97804024" lon="-120.65510127">
      </trkpt>
      <trkpt lat="49.97819283" lon="-120.65547102">
      </trkpt>
      <trkpt lat="49.97839495" lon="-120.65561524">
      </trkpt>
      <trkpt lat="49.97907563" lon="-120.65590993">
      </trkpt>
      <trkpt lat="49.97931613" lon="-120.65593361">
      </trkpt>
      <trkpt lat="49.98020142" lon="-120.65563772">
      </trkpt>
      <trkpt lat="49.98055148" lon="-120.65571141">
      </trkpt>
      <trkpt lat="49.98042433" lon="-120.65548035">
      </trkpt>
      <trkpt lat="49.98034265" lon="-120.65505023">
      </trkpt>
      <trkpt lat="49.98034165" lon="-120.65412727">
      </trkpt>
      <trkpt lat="49.98062001" lon="-120.65339304">
      </trkpt>
      <trkpt lat="49.98067136" lon="-120.65281709">
      </trkpt>
      <trkpt lat="49.98062214" lon="-120.65220417">
      </trkpt>
      <trkpt lat="49.98057931" lon="-120.65165419">
      </trkpt>
      <trkpt lat="49.98053485" lon="-120.65083072">
      </trkpt>
      <trkpt lat="49.98059888" lon="-120.65044315">
      </trkpt>
      <trkpt lat="49.98075478" lon="-120.64968012">
      </trkpt>
    </trkseg>
    <trkseg>
      <trkpt lat="50.01140739" lon="-120.68978014">
      </trkpt>
      <trkpt lat="50.01175069" lon="-120.68986703">
      </trkpt>
      <trkpt lat="50.01237504" lon="-120.68985009">
      </trkpt>
      <trkpt lat="50.01259628" lon="-120.690085">
      </trkpt>
      <trkpt lat="50.01338057" lon="-120.69015085">
      </trkpt>
      <trkpt lat="50.01384635" lon="-120.69011552">
      </trkpt>
      <trkpt lat="50.01435027" lon="-120.69032409">
      </trkpt>
      <trkpt lat="50.01469773" lon="-120.69020394">
      </trkpt>
      <trkpt lat="50.01494193" lon="-120.68992081">
      </trkpt>
      <trkpt lat="50.01523064" lon="-120.68977769">
      </trkpt>
      <trkpt lat="50.01546709" lon="-120.6895207">
      </trkpt>
      <trkpt lat="50.01566046" lon="-120.68921432">
      </trkpt>
      <trkpt lat="50.01558481" lon="-120.68873954">
      </trkpt>
      <trkpt lat="50.01531836" lon="-120.68832574">
      </trkpt>
      <trkpt lat="50.01457692" lon="-120.68750825">
      </trkpt>
      <trkpt lat="50.01433262" lon="-120.68695124">
      </trkpt>
      <trkpt lat="50.01398141" lon="-120.68646393">
      </trkpt>
      <trkpt lat="50.01343496" lon="-120.68647661">
      </trkpt>
      <trkpt lat="50.01319025" lon="-120.68645014">
      </trkpt>
      <trkpt lat="50.01300379" lon="-120.68629105">
      </trkpt>
      <trkpt lat="50.01260574" lon="-120.68554749">
      </trkpt>
      <trkpt lat="50.01216747" lon="-120.68487056">
      </trkpt>
      <trkpt lat="50.01192511" lon="-120.68483053">
      </trkpt>
      <trkpt lat="50.0117135" lon="-120.68465977">
      </trkpt>
      <trkpt lat="50.01145018" lon="-120.68484059">
      </trkpt>
      <trkpt lat="50.01100369" lon="-120.68500431">
      </trkpt>
      <trkpt lat="50.01079852" lon="-120.68515633">
      </trkpt>
      <trkpt lat="50.0104006" lon="-120.68525303">
      </trkpt>
      <trkpt lat="50.01014885" lon="-120.68516164">
      </trkpt>
      <trkpt lat="50.00968341" lon="-120.68520991">
      </trkpt>
      <trkpt lat="50.00924002" lon="-120.68511485">
      </trkpt>
      <trkpt lat="50.00882479" lon="-120.6851736">
      </trkpt>
      <trkpt lat="50.00848742" lon="-120.68538374">
      </trkpt>
      <trkpt lat="50.00822635" lon="-120.68565468">
      </trkpt>
      <trkpt lat="50.00798734" lon="-120.68578251">
      </trkpt>
      <trkpt lat="50.00743051" lon="-120.68584806">
      </trkpt>
      <trkpt lat="50.00716661" lon="-120.68597709">
      </trkpt>
      <trkpt lat="50.00671692" lon="-120.68598568">
      </trkpt>
      <trkpt lat="50.00632398" lon="-120.68632772">
      </trkpt>
      <trkpt lat="50.00580281" lon="-120.68650778">
      </trkpt>
      <trkpt lat="50.00524673" lon="-120.68702567">
      </trkpt>
      <trkpt lat="50.00500951" lon="-120.68724375">
      </trkpt>
      <trkpt lat="50.00480228" lon="-120.68729249">
      </trkpt>
      <trkpt lat="50.00428897" lon="-120.68703287">
      </trkpt>
      <trkpt lat="50.00373931" lon="-120.68703337">
      </trkpt>
      <trkpt lat="50.00322433" lon="-120.68710976">
      </trkpt>
      <trkpt lat="50.00278181" lon="-120.68705356">
      </trkpt>
      <trkpt lat="50.00241928" lon="-120.68725186">
      </trkpt>
      <trkpt lat="50.00208985" lon="-120.6870221">
      </trkpt>
      <trkpt lat="50.00187853" lon="-120.68645076">
      </trkpt>
      <trkpt lat="50.00195308" lon="-120.68559421">
      </trkpt>
      <trkpt lat="50.00193055" lon="-120.68488457">
      </trkpt>
      <trkpt lat="50.00207935" lon="-120.68468835">
      </trkpt>
      <trkpt lat="50.00232283" lon="-120.68409031">
      </trkpt>
      <trkpt lat="50.00298501" lon="-120.68346398">
      </trkpt>
      <trkpt lat="50.00311533" lon="-120.68331559">
      </trkpt>
      <trkpt lat="50.00319182" lon="-120.68297586">
      </trkpt>
      <trkpt lat="50.00310553" lon="-120.682825">
      </trkpt>
      <trkpt lat="50.00315885" lon="-120.68257685">
      </trkpt>
      <trkpt lat="50.00342681" lon="-120.68222804">
      </trkpt>
      <trkpt lat="50.0034604" lon="-120.68182571">
      </trkpt>
      <trkpt lat="50.00365874" lon="-120.68101749">
      </trkpt>
      <trkpt lat="50.00374267" lon="-120.68053275">
      </trkpt>
      <trkpt lat="50.00379763" lon="-120.67994859">
      </trkpt>
      <trkpt lat="50.00381589" lon="-120.67961167">
      </trkpt>
      <trkpt lat="50.00386895" lon="-120.67935063">
      </trkpt>
      <trkpt lat="50.0040599" lon="-120.67931566">
      </trkpt>
      <trkpt lat="50.00454609" lon="-120.67947315">
      </trkpt>
      <trkpt lat="50.00486777" lon="-120.67972902">
      </trkpt>
      <trkpt lat="50.00510902" lon="-120.68013091">
      </trkpt>
      <trkpt lat="50.00536155" lon="-120.680261">
      </trkpt>
      <trkpt lat="50.00544785" lon="-120.68041188">
      </trkpt>
      <trkpt lat="50.00571742" lon="-120.68056692">
      </trkpt>
      <trkpt lat="50.0058001" lon="-120.68072118">
      </trkpt>
      <trkpt lat="50.00593662" lon="-120.68069849">
      </trkpt>
      <trkpt lat="50.00592362" lon="-120.68088004">
      </trkpt>
      <trkpt lat="50.00605487" lon="-120.68119689">
      </trkpt>
      <trkpt lat="50.00629077" lon="-120.68132767">
      </trkpt>
      <trkpt lat="50.006498" lon="-120.68127892">
      </trkpt>
      <trkpt lat="50.00671667" lon="-120.68138475">
      </trkpt>
    </trkseg>
    <trkseg>
      <trkpt lat="49.97565468" lon="-120.65139368">
      </trkpt>
      <trkpt lat="49.97562405" lon="-120.65122751">
      </trkpt>
      <trkpt lat="49.97577823" lon="-120.65103802">
      </trkpt>
      <trkpt lat="49.97594098" lon="-120.65101577">
      </trkpt>
      <trkpt lat="49.97612236" lon="-120.65104872">
      </trkpt>
      <trkpt lat="49.97645261" lon="-120.65103241">
      </trkpt>
      <trkpt lat="49.97664957" lon="-120.65093174">
      </trkpt>
      <trkpt lat="49.97676407" lon="-120.65077972">
      </trkpt>
      <trkpt lat="49.97694651" lon="-120.65064424">
      </trkpt>
      <trkpt lat="49.97714055" lon="-120.65040445">
      </trkpt>
      <trkpt lat="49.97732389" lon="-120.65029023">
      </trkpt>
      <trkpt lat="49.97757697" lon="-120.65027772">
      </trkpt>
      <trkpt lat="49.97776934" lon="-120.65017728">
      </trkpt>
      <trkpt lat="49.97787214" lon="-120.65010256">
      </trkpt>
      <trkpt lat="49.97825702" lon="-120.64990875">
      </trkpt>
      <trkpt lat="49.97849839" lon="-120.64997355">
      </trkpt>
      <trkpt lat="49.97875852" lon="-120.65029606">
      </trkpt>
      <trkpt lat="49.97930948" lon="-120.65067456">
      </trkpt>
      <trkpt lat="49.97972916" lon="-120.6506261">
      </trkpt>
      <trkpt lat="49.9802161" lon="-120.65032209">
      </trkpt>
      <trkpt lat="49.98049131" lon="-120.64985373">
      </trkpt>
      <trkpt lat="49.98068562" lon="-120.64962741">
      </trkpt>
      <trkpt lat="49.98075478" lon="-120.64968012">
      </trkpt>
      <trkpt lat="49.98079335" lon="-120.64915383">
      </trkpt>
      <trkpt lat="49.98087933" lon="-120.6484987">
      </trkpt>
      <trkpt lat="49.9809275" lon="-120.64820997">
      </trkpt>
      <trkpt lat="49.98101216" lon="-120.64729626">
      </trkpt>
      <trkpt lat="49.98106848" lon="-120.64695809">
      </trkpt>
      <trkpt lat="49.98110778" lon="-120.64646656">
      </trkpt>
      <trkpt lat="49.98131179" lon="-120.64561018">
      </trkpt>
      <trkpt lat="49.98134025" lon="-120.64525917">
      </trkpt>
      <trkpt lat="49.98135588" lon="-120.64449597">
      </trkpt>
      <trkpt lat="49.9812493" lon="-120.64415164">
      </trkpt>
      <trkpt lat="49.98108744" lon="-120.64399837">
      </trkpt>
      <trkpt lat="49.98081113" lon="-120.64397724">
      </trkpt>
      <trkpt lat="49.98056605" lon="-120.64415069">
      </trkpt>
      <trkpt lat="49.98032703" lon="-120.64419734">
      </trkpt>
      <trkpt lat="49.98019346" lon="-120.64409881">
      </trkpt>
      <trkpt lat="49.98006482" lon="-120.6437769">
      </trkpt>
      <trkpt lat="49.97983796" lon="-120.64355012">
      </trkpt>
      <trkpt lat="49.97937108" lon="-120.64349653">
      </trkpt>
      <trkpt lat="49.9790146" lon="-120.64377282">
      </trkpt>
      <trkpt lat="49.97881966" lon="-120.6444049">
      </trkpt>
      <trkpt lat="49.97870762" lon="-120.64530571">
      </trkpt>
      <trkpt lat="49.97851402" lon="-120.64578354">
      </trkpt>
      <trkpt lat="49.97822347" lon="-120.64595921">
      </trkpt>
      <trkpt lat="49.97786408" lon="-120.64585764">
      </trkpt>
      <trkpt lat="49.97765663" lon="-120.64567891">
      </trkpt>
      <trkpt lat="49.97752354" lon="-120.64538496">
      </trkpt>
      <trkpt lat="49.97746079" lon="-120.64498237">
      </trkpt>
      <trkpt lat="49.97737111" lon="-120.64437151">
      </trkpt>
      <trkpt lat="49.97707437" lon="-120.64425334">
      </trkpt>
      <trkpt lat="49.9768413" lon="-120.64414624">
      </trkpt>
      <trkpt lat="49.97657816" lon="-120.64411736">
      </trkpt>
      <trkpt lat="49.97610388" lon="-120.64393127">
      </trkpt>
      <trkpt lat="49.97578847" lon="-120.6437785">
      </trkpt>
      <trkpt lat="49.97560379" lon="-120.64382958">
      </trkpt>
      <trkpt lat="49.97549791" lon="-120.64395418">
      </trkpt>
    </trkseg>
    <trkseg>
      <trkpt lat="49.97258441" lon="-120.69272419">
      </trkpt>
      <trkpt lat="49.9724333" lon="-120.69222073">
      </trkpt>
      <trkpt lat="49.97197752" lon="-120.69161341">
      </trkpt>
      <trkpt lat="49.97202215" lon="-120.69092641">
      </trkpt>
      <trkpt lat="49.97271065" lon="-120.69051501">
      </trkpt>
      <trkpt lat="49.97330116" lon="-120.68974534">
      </trkpt>
      <trkpt lat="49.97344848" lon="-120.68944405">
      </trkpt>
    </trkseg>
    <trkseg>
      <trkpt lat="49.98064041" lon="-120.65672809">
      </trkpt>
      <trkpt lat="49.98076301" lon="-120.65610669">
      </trkpt>
      <trkpt lat="49.98055148" lon="-120.65571141">
      </trkpt>
    </trkseg>
    <trkseg>
      <trkpt lat="49.9858833" lon="-120.69313422">
      </trkpt>
      <trkpt lat="49.98548106" lon="-120.69292314">
      </trkpt>
      <trkpt lat="49.98503967" lon="-120.69281168">
      </trkpt>
      <trkpt lat="49.98447266" lon="-120.69251729">
      </trkpt>
      <trkpt lat="49.98378944" lon="-120.69209569">
      </trkpt>
      <trkpt lat="49.98327849" lon="-120.69166643">
      </trkpt>
      <trkpt lat="49.98309561" lon="-120.69136053">
      </trkpt>
      <trkpt lat="49.98248059" lon="-120.6913904">
      </trkpt>
      <trkpt lat="49.98179741" lon="-120.69157653">
      </trkpt>
    </trkseg>
    <trkseg>
      <trkpt lat="50.01619463" lon="-120.64168213">
      </trkpt>
      <trkpt lat="50.01551555" lon="-120.641787">
      </trkpt>
      <trkpt lat="50.01532757" lon="-120.64143806">
      </trkpt>
      <trkpt lat="50.01489881" lon="-120.64059758">
      </trkpt>
      <trkpt lat="50.01436694" lon="-120.64020741">
      </trkpt>
      <trkpt lat="50.01385973" lon="-120.63949664">
      </trkpt>
      <trkpt lat="50.01317444" lon="-120.63923017">
      </trkpt>
      <trkpt lat="50.01222589" lon="-120.63882204">
      </trkpt>
      <trkpt lat="50.01141867" lon="-120.63917716">
      </trkpt>
      <trkpt lat="50.01117388" lon="-120.63930887">
      </trkpt>
      <trkpt lat="50.01095428" lon="-120.63863245">
      </trkpt>
      <trkpt lat="50.01090221" lon="-120.63827924">
      </trkpt>
      <trkpt lat="50.01008343" lon="-120.63893566">
      </trkpt>
      <trkpt lat="50.00988469" lon="-120.63897327">
      </trkpt>
      <trkpt lat="50.00984488" lon="-120.63878684">
      </trkpt>
    </trkseg>
    <trkseg>
      <trkpt lat="49.98155851" lon="-120.66490764">
      </trkpt>
      <trkpt lat="49.98197568" lon="-120.6642995">
      </trkpt>
      <trkpt lat="49.98209386" lon="-120.66432213">
      </trkpt>
      <trkpt lat="49.98241248" lon="-120.6650476">
      </trkpt>
      <trkpt lat="49.98281341" lon="-120.66539884">
      </trkpt>
      <trkpt lat="49.98369159" lon="-120.66627877">
      </trkpt>
      <trkpt lat="49.98397038" lon="-120.66641858">
      </trkpt>
      <trkpt lat="49.984331" lon="-120.66633833">
      </trkpt>
      <trkpt lat="49.98498942" lon="-120.66622925">
      </trkpt>
      <trkpt lat="49.98544354" lon="-120.66587084">
      </trkpt>
      <trkpt lat="49.98566644" lon="-120.66571278">
      </trkpt>
      <trkpt lat="49.98617668" lon="-120.66480655">
      </trkpt>
      <trkpt lat="49.98637444" lon="-120.66516068">
      </trkpt>
      <trkpt lat="49.98661428" lon="-120.66537274">
      </trkpt>
      <trkpt lat="49.98695085" lon="-120.66546138">
      </trkpt>
      <trkpt lat="49.98721735" lon="-120.66565083">
      </trkpt>
      <trkpt lat="49.98738893" lon="-120.66629265">
      </trkpt>
      <trkpt lat="49.98768364" lon="-120.66675431">
      </trkpt>
      <trkpt lat="49.98780375" lon="-120.6672871">
      </trkpt>
      <trkpt lat="49.98790062" lon="-120.66761067">
      </trkpt>
      <trkpt lat="49.9879088" lon="-120.66800185">
      </trkpt>
      <trkpt lat="49.98812005" lon="-120.66878244">
      </trkpt>
      <trkpt lat="49.98778379" lon="-120.66958919">
      </trkpt>
      <trkpt lat="49.98775997" lon="-120.66996772">
      </trkpt>
      <trkpt lat="49.98783706" lon="-120.67018069">
      </trkpt>
      <trkpt lat="49.98815273" lon="-120.67034714">
      </trkpt>
      <trkpt lat="49.98834411" lon="-120.67063908">
      </trkpt>
      <trkpt lat="49.98848326" lon="-120.67122639">
      </trkpt>
      <trkpt lat="49.98855387" lon="-120.67223065">
      </trkpt>
      <trkpt lat="49.98847875" lon="-120.67275171">
      </trkpt>
      <trkpt lat="49.98836248" lon="-120.67326125">
      </trkpt>
      <trkpt lat="49.98797775" lon="-120.67368517">
      </trkpt>
      <trkpt lat="49.98766099" lon="-120.67412778">
      </trkpt>
      <trkpt lat="49.9872894" lon="-120.67429947">
      </trkpt>
      <trkpt lat="49.98672071" lon="-120.67480982">
      </trkpt>
      <trkpt lat="49.98660124" lon="-120.67516601">
      </trkpt>
      <trkpt lat="49.98655423" lon="-120.67573469">
      </trkpt>
      <trkpt lat="49.98619859" lon="-120.67603208">
      </trkpt>
      <trkpt lat="49.9853573" lon="-120.676059">
      </trkpt>
      <trkpt lat="49.98500498" lon="-120.67609683">
      </trkpt>
      <trkpt lat="49.984036" lon="-120.67628421">
      </trkpt>
      <trkpt lat="49.98341553" lon="-120.67669257">
      </trkpt>
      <trkpt lat="49.98317076" lon="-120.67666261">
      </trkpt>
      <trkpt lat="49.98283769" lon="-120.67632218">
      </trkpt>
      <trkpt lat="49.98289453" lon="-120.67514409">
      </trkpt>
      <trkpt lat="49.98274485" lon="-120.67469024">
      </trkpt>
      <trkpt lat="49.98230271" lon="-120.67454346">
      </trkpt>
      <trkpt lat="49.98182475" lon="-120.67439916">
      </trkpt>
      <trkpt lat="49.98163736" lon="-120.67454119">
      </trkpt>
      <trkpt lat="49.98104398" lon="-120.67580802">
      </trkpt>
      <trkpt lat="49.97985348" lon="-120.67752391">
      </trkpt>
      <trkpt lat="49.97895622" lon="-120.67791024">
      </trkpt>
      <trkpt lat="49.97828248" lon="-120.67858686">
      </trkpt>
    </trkseg>
    <trkseg>
      <trkpt lat="49.98230271" lon="-120.67454346">
      </trkpt>
      <trkpt lat="49.98242417" lon="-120.67406215">
      </trkpt>
      <trkpt lat="49.98233536" lon="-120.67350727">
      </trkpt>
      <trkpt lat="49.9820251" lon="-120.67315864">
      </trkpt>
      <trkpt lat="49.98153444" lon="-120.6732871">
      </trkpt>
      <trkpt lat="49.98130977" lon="-120.6738019">
      </trkpt>
      <trkpt lat="49.9809501" lon="-120.67498765">
      </trkpt>
      <trkpt lat="49.98043521" lon="-120.67613834">
      </trkpt>
      <trkpt lat="49.97973227" lon="-120.67735504">
      </trkpt>
      <trkpt lat="49.97895622" lon="-120.67791024">
      </trkpt>
    </trkseg>
    <trkseg>
      <trkpt lat="50.01046897" lon="-120.66135562">
      </trkpt>
      <trkpt lat="50.00975725" lon="-120.66105294">
      </trkpt>
      <trkpt lat="50.0096756" lon="-120.66086182">
      </trkpt>
      <trkpt lat="50.00978974" lon="-120.66059892">
      </trkpt>
      <trkpt lat="50.0098425" lon="-120.65991141">
      </trkpt>
      <trkpt lat="50.00965393" lon="-120.65947089">
      </trkpt>
      <trkpt lat="50.00941581" lon="-120.65919633">
      </trkpt>
      <trkpt lat="50.00927343" lon="-120.65889214">
      </trkpt>
      <trkpt lat="50.00923191" lon="-120.65825684">
      </trkpt>
      <trkpt lat="50.00912444" lon="-120.65808725">
      </trkpt>
      <trkpt lat="50.00886449" lon="-120.65785601">
      </trkpt>
      <trkpt lat="50.00839484" lon="-120.65771624">
      </trkpt>
      <trkpt lat="50.00770509" lon="-120.65752804">
      </trkpt>
      <trkpt lat="50.00721435" lon="-120.65775885">
      </trkpt>
      <trkpt lat="50.00673401" lon="-120.65803351">
      </trkpt>
      <trkpt lat="50.00585104" lon="-120.65822802">
      </trkpt>
      <trkpt lat="50.00536375" lon="-120.6581149">
      </trkpt>
      <trkpt lat="50.00475406" lon="-120.65807732">
      </trkpt>
      <trkpt lat="50.00447592" lon="-120.65802503">
      </trkpt>
      <trkpt lat="50.00413207" lon="-120.6575096">
      </trkpt>
    </trkseg>
    <trkseg>
      <trkpt lat="50.00269166" lon="-120.65280693">
      </trkpt>
      <trkpt lat="50.00287648" lon="-120.65312633">
      </trkpt>
      <trkpt lat="50.00331205" lon="-120.65325187">
      </trkpt>
      <trkpt lat="50.00399908" lon="-120.6538185">
      </trkpt>
      <trkpt lat="50.00425542" lon="-120.65438884">
      </trkpt>
      <trkpt lat="50.00448552" lon="-120.65472823">
      </trkpt>
      <trkpt lat="50.00477403" lon="-120.65486201">
      </trkpt>
      <trkpt lat="50.00523775" lon="-120.65517942">
      </trkpt>
      <trkpt lat="50.00550071" lon="-120.65546227">
      </trkpt>
      <trkpt lat="50.00586805" lon="-120.65572524">
      </trkpt>
      <trkpt lat="50.00633057" lon="-120.6559836">
      </trkpt>
    </trkseg>
    <trkseg>
      <trkpt lat="50.01798758" lon="-120.65030031">
      </trkpt>
      <trkpt lat="50.01811812" lon="-120.65035508">
      </trkpt>
      <trkpt lat="50.01818647" lon="-120.65039542">
      </trkpt>
      <trkpt lat="50.01828961" lon="-120.65048646">
      </trkpt>
      <trkpt lat="50.0183534" lon="-120.65057942">
      </trkpt>
      <trkpt lat="50.01845145" lon="-120.65069692">
      </trkpt>
      <trkpt lat="50.01855459" lon="-120.65078796">
      </trkpt>
      <trkpt lat="50.01862997" lon="-120.65089782">
      </trkpt>
      <trkpt lat="50.01868919" lon="-120.65104342">
      </trkpt>
      <trkpt lat="50.01874403" lon="-120.65125037">
      </trkpt>
      <trkpt lat="50.01881645" lon="-120.65149139">
      </trkpt>
      <trkpt lat="50.01892118" lon="-120.65166096">
      </trkpt>
      <trkpt lat="50.01906244" lon="-120.651689">
      </trkpt>
      <trkpt lat="50.01923269" lon="-120.65175932">
      </trkpt>
      <trkpt lat="50.01940715" lon="-120.65175954">
      </trkpt>
      <trkpt lat="50.01953664" lon="-120.65176196">
      </trkpt>
      <trkpt lat="50.01967772" lon="-120.65178128">
      </trkpt>
      <trkpt lat="50.01983762" lon="-120.65189576">
      </trkpt>
      <trkpt lat="50.01994566" lon="-120.65195164">
      </trkpt>
      <trkpt lat="50.02002703" lon="-120.65207869">
      </trkpt>
      <trkpt lat="50.02009152" lon="-120.65220656">
      </trkpt>
      <trkpt lat="50.02009487" lon="-120.65237234">
      </trkpt>
      <trkpt lat="50.0200942" lon="-120.65261695">
      </trkpt>
      <trkpt lat="50.02011459" lon="-120.65279064">
      </trkpt>
      <trkpt lat="50.02008492" lon="-120.65299298">
      </trkpt>
      <trkpt lat="50.02004224" lon="-120.6531086">
      </trkpt>
      <trkpt lat="50.01997725" lon="-120.65323404">
      </trkpt>
      <trkpt lat="50.01991226" lon="-120.65335951">
      </trkpt>
      <trkpt lat="50.0197921" lon="-120.65354005">
      </trkpt>
      <trkpt lat="50.01962697" lon="-120.65372277">
      </trkpt>
      <trkpt lat="50.01948539" lon="-120.65395677">
      </trkpt>
      <trkpt lat="50.01933676" lon="-120.65412122">
      </trkpt>
      <trkpt lat="50.01919394" lon="-120.65429413">
      </trkpt>
      <trkpt lat="50.01904656" lon="-120.65451966">
      </trkpt>
      <trkpt lat="50.01895101" lon="-120.65480381">
      </trkpt>
      <trkpt lat="50.01887302" lon="-120.65512204">
      </trkpt>
      <trkpt lat="50.01881771" lon="-120.65544791">
      </trkpt>
      <trkpt lat="50.01877329" lon="-120.65575576">
      </trkpt>
      <trkpt lat="50.01879017" lon="-120.65603443">
      </trkpt>
      <trkpt lat="50.0188241" lon="-120.65632101">
      </trkpt>
      <trkpt lat="50.01893076" lon="-120.65658658">
      </trkpt>
      <trkpt lat="50.01919941" lon="-120.65679186">
      </trkpt>
      <trkpt lat="50.01937563" lon="-120.65687936">
      </trkpt>
      <trkpt lat="50.01956416" lon="-120.65701866">
      </trkpt>
      <trkpt lat="50.01969593" lon="-120.65713454">
      </trkpt>
      <trkpt lat="50.01977676" lon="-120.65723541">
      </trkpt>
      <trkpt lat="50.01983545" lon="-120.65735484">
      </trkpt>
      <trkpt lat="50.01988254" lon="-120.65745736">
      </trkpt>
      <trkpt lat="50.01990873" lon="-120.65763951">
      </trkpt>
      <trkpt lat="50.01990646" lon="-120.65780558">
      </trkpt>
      <trkpt lat="50.01989206" lon="-120.65792856">
      </trkpt>
      <trkpt lat="50.01986747" lon="-120.65810444">
      </trkpt>
      <trkpt lat="50.01985395" lon="-120.65827105">
      </trkpt>
      <trkpt lat="50.01982268" lon="-120.65839486">
      </trkpt>
      <trkpt lat="50.01976577" lon="-120.65864219">
      </trkpt>
      <trkpt lat="50.01971835" lon="-120.65880171">
      </trkpt>
      <trkpt lat="50.01972222" lon="-120.65899367">
      </trkpt>
      <trkpt lat="50.01973681" lon="-120.65915891">
      </trkpt>
      <trkpt lat="50.01984188" lon="-120.65934597">
      </trkpt>
      <trkpt lat="50.02003532" lon="-120.6594501">
      </trkpt>
      <trkpt lat="50.02024475" lon="-120.6595098">
      </trkpt>
      <trkpt lat="50.02041517" lon="-120.65958886">
      </trkpt>
      <trkpt lat="50.02058507" lon="-120.65964175">
      </trkpt>
      <trkpt lat="50.02072721" lon="-120.65971345">
      </trkpt>
      <trkpt lat="50.02083087" lon="-120.65983069">
      </trkpt>
      <trkpt lat="50.02091837" lon="-120.65998366">
      </trkpt>
      <trkpt lat="50.02102397" lon="-120.66019689">
      </trkpt>
      <trkpt lat="50.02115944" lon="-120.66049602">
      </trkpt>
      <trkpt lat="50.02131581" lon="-120.66071552">
      </trkpt>
      <trkpt lat="50.02141561" lon="-120.66092031">
      </trkpt>
      <trkpt lat="50.02147149" lon="-120.66117963">
      </trkpt>
      <trkpt lat="50.02151014" lon="-120.66142231">
      </trkpt>
      <trkpt lat="50.0215156" lon="-120.66169283">
      </trkpt>
      <trkpt lat="50.02149277" lon="-120.66195598">
      </trkpt>
      <trkpt lat="50.02146677" lon="-120.66206205">
      </trkpt>
      <trkpt lat="50.0214427" lon="-120.66226412">
      </trkpt>
      <trkpt lat="50.0214016" lon="-120.66245828">
      </trkpt>
      <trkpt lat="50.02128652" lon="-120.66261236">
      </trkpt>
      <trkpt lat="50.02120641" lon="-120.66282587">
      </trkpt>
      <trkpt lat="50.02111347" lon="-120.6629614">
      </trkpt>
      <trkpt lat="50.02083078" lon="-120.66317601">
      </trkpt>
      <trkpt lat="50.02062488" lon="-120.66329082">
      </trkpt>
      <trkpt lat="50.02048538" lon="-120.66335001">
      </trkpt>
      <trkpt lat="50.0202995" lon="-120.66334156">
      </trkpt>
      <trkpt lat="50.02014805" lon="-120.66336638">
      </trkpt>
      <trkpt lat="50.02000346" lon="-120.663452">
      </trkpt>
      <trkpt lat="50.01994584" lon="-120.66366442">
      </trkpt>
      <trkpt lat="50.01985581" lon="-120.66404102">
      </trkpt>
      <trkpt lat="50.01969857" lon="-120.66432692">
      </trkpt>
      <trkpt lat="50.01964294" lon="-120.66453199">
      </trkpt>
      <trkpt lat="50.01948044" lon="-120.66482659">
      </trkpt>
      <trkpt lat="50.01935865" lon="-120.66498428">
      </trkpt>
      <trkpt lat="50.01922821" lon="-120.66525201">
      </trkpt>
      <trkpt lat="50.01907572" lon="-120.66550394">
      </trkpt>
      <trkpt lat="50.01902462" lon="-120.6658088">
      </trkpt>
      <trkpt lat="50.01883054" lon="-120.66612916">
      </trkpt>
      <trkpt lat="50.0186299" lon="-120.66663319">
      </trkpt>
      <trkpt lat="50.01814401" lon="-120.66723473">
      </trkpt>
      <trkpt lat="50.0179505" lon="-120.66736366">
      </trkpt>
      <trkpt lat="50.01764222" lon="-120.66735686">
      </trkpt>
      <trkpt lat="50.01748699" lon="-120.66729916">
      </trkpt>
      <trkpt lat="50.01721872" lon="-120.6671926">
      </trkpt>
      <trkpt lat="50.0169557" lon="-120.66706533">
      </trkpt>
      <trkpt lat="50.01675108" lon="-120.66669851">
      </trkpt>
      <trkpt lat="50.01676512" lon="-120.66650976">
      </trkpt>
      <trkpt lat="50.01665623" lon="-120.66622835">
      </trkpt>
      <trkpt lat="50.01666522" lon="-120.66586533">
      </trkpt>
      <trkpt lat="50.01670072" lon="-120.66543413">
      </trkpt>
      <trkpt lat="50.01674071" lon="-120.66494088">
      </trkpt>
      <trkpt lat="50.01694308" lon="-120.66464673">
      </trkpt>
      <trkpt lat="50.01721243" lon="-120.66416925">
      </trkpt>
      <trkpt lat="50.01727672" lon="-120.66385414">
      </trkpt>
      <trkpt lat="50.0172606" lon="-120.66359352">
      </trkpt>
      <trkpt lat="50.0173449" lon="-120.66319313">
      </trkpt>
      <trkpt lat="50.01738051" lon="-120.66307335">
      </trkpt>
      <trkpt lat="50.01737067" lon="-120.66285459">
      </trkpt>
      <trkpt lat="50.0173571" lon="-120.66272034">
      </trkpt>
      <trkpt lat="50.01726425" lon="-120.66256745">
      </trkpt>
      <trkpt lat="50.0170531" lon="-120.66249893">
      </trkpt>
      <trkpt lat="50.0166585" lon="-120.66239207">
      </trkpt>
      <trkpt lat="50.01627931" lon="-120.66237897">
      </trkpt>
      <trkpt lat="50.01608845" lon="-120.66230949">
      </trkpt>
      <trkpt lat="50.01588756" lon="-120.66224573">
      </trkpt>
      <trkpt lat="50.01566343" lon="-120.6622041">
      </trkpt>
      <trkpt lat="50.01546961" lon="-120.66215576">
      </trkpt>
      <trkpt lat="50.01520905" lon="-120.66215266">
      </trkpt>
      <trkpt lat="50.01476723" lon="-120.66222136">
      </trkpt>
      <trkpt lat="50.01453052" lon="-120.6622276">
      </trkpt>
      <trkpt lat="50.01434009" lon="-120.66201109">
      </trkpt>
      <trkpt lat="50.01419844" lon="-120.66186569">
      </trkpt>
      <trkpt lat="50.01411205" lon="-120.66177539">
      </trkpt>
      <trkpt lat="50.01389519" lon="-120.66159165">
      </trkpt>
      <trkpt lat="50.01373591" lon="-120.66141039">
      </trkpt>
      <trkpt lat="50.01332516" lon="-120.66161871">
      </trkpt>
      <trkpt lat="50.01301454" lon="-120.66156393">
      </trkpt>
      <trkpt lat="50.01272149" lon="-120.66154322">
      </trkpt>
      <trkpt lat="50.01246955" lon="-120.66160785">
      </trkpt>
      <trkpt lat="50.01209831" lon="-120.66161714">
      </trkpt>
      <trkpt lat="50.01179908" lon="-120.66164585">
      </trkpt>
      <trkpt lat="50.01146447" lon="-120.66158817">
      </trkpt>
      <trkpt lat="50.011206" lon="-120.66152681">
      </trkpt>
      <trkpt lat="50.01046897" lon="-120.66135562">
      </trkpt>
      <trkpt lat="50.01010343" lon="-120.66165424">
      </trkpt>
      <trkpt lat="50.00986073" lon="-120.66190256">
      </trkpt>
      <trkpt lat="50.00951245" lon="-120.66211165">
      </trkpt>
      <trkpt lat="50.00913799" lon="-120.66244027">
      </trkpt>
      <trkpt lat="50.00879714" lon="-120.66254552">
      </trkpt>
      <trkpt lat="50.00843666" lon="-120.66262214">
      </trkpt>
      <trkpt lat="50.00811146" lon="-120.66282705">
      </trkpt>
      <trkpt lat="50.00763798" lon="-120.66297035">
      </trkpt>
      <trkpt lat="50.00740936" lon="-120.6637206">
      </trkpt>
      <trkpt lat="50.00734262" lon="-120.66425671">
      </trkpt>
      <trkpt lat="50.00713302" lon="-120.66485133">
      </trkpt>
      <trkpt lat="50.00691305" lon="-120.66548081">
      </trkpt>
      <trkpt lat="50.00670414" lon="-120.66610976">
      </trkpt>
      <trkpt lat="50.00643955" lon="-120.66672419">
      </trkpt>
      <trkpt lat="50.00619466" lon="-120.66721736">
      </trkpt>
      <trkpt lat="50.00600305" lon="-120.6676048">
      </trkpt>
      <trkpt lat="50.00571608" lon="-120.66810312">
      </trkpt>
      <trkpt lat="50.00547765" lon="-120.6684725">
      </trkpt>
      <trkpt lat="50.00536523" lon="-120.66894205">
      </trkpt>
      <trkpt lat="50.0054127" lon="-120.66948373">
      </trkpt>
      <trkpt lat="50.00511513" lon="-120.66974479">
      </trkpt>
      <trkpt lat="50.00483482" lon="-120.6701107">
      </trkpt>
      <trkpt lat="50.00462589" lon="-120.67026176">
      </trkpt>
      <trkpt lat="50.00391903" lon="-120.67015018">
      </trkpt>
      <trkpt lat="50.00356122" lon="-120.67030432">
      </trkpt>
      <trkpt lat="50.0031102" lon="-120.67020173">
      </trkpt>
      <trkpt lat="50.00255072" lon="-120.66989298">
      </trkpt>
      <trkpt lat="50.00191382" lon="-120.67012276">
      </trkpt>
      <trkpt lat="50.0011087" lon="-120.67040835">
      </trkpt>
      <trkpt lat="50.00093604" lon="-120.67054322">
      </trkpt>
      <trkpt lat="50.00057054" lon="-120.67109134">
      </trkpt>
      <trkpt lat="50.00053081" lon="-120.67150774">
      </trkpt>
      <trkpt lat="50.00053369" lon="-120.67185336">
      </trkpt>
      <trkpt lat="50.0006984" lon="-120.67240322">
      </trkpt>
      <trkpt lat="50.00073006" lon="-120.67291564">
      </trkpt>
      <trkpt lat="50.00052752" lon="-120.67320728">
      </trkpt>
      <trkpt lat="50.00015719" lon="-120.67312568">
      </trkpt>
      <trkpt lat="49.99982091" lon="-120.67287667">
      </trkpt>
      <trkpt lat="49.99958356" lon="-120.67249852">
      </trkpt>
      <trkpt lat="49.99928377" lon="-120.67211594">
      </trkpt>
      <trkpt lat="49.99918139" lon="-120.67180985">
      </trkpt>
      <trkpt lat="49.99898089" lon="-120.67140907">
      </trkpt>
      <trkpt lat="49.9982687" lon="-120.67108275">
      </trkpt>
      <trkpt lat="49.99802836" lon="-120.67109424">
      </trkpt>
      <trkpt lat="49.99779601" lon="-120.67110547">
      </trkpt>
      <trkpt lat="49.99722428" lon="-120.67098385">
      </trkpt>
      <trkpt lat="49.99683123" lon="-120.67097801">
      </trkpt>
      <trkpt lat="49.99654857" lon="-120.6708797">
      </trkpt>
      <trkpt lat="49.9960425" lon="-120.67043148">
      </trkpt>
      <trkpt lat="49.99523618" lon="-120.66981126">
      </trkpt>
      <trkpt lat="49.99420999" lon="-120.67022159">
      </trkpt>
      <trkpt lat="49.99397863" lon="-120.67068047">
      </trkpt>
      <trkpt lat="49.99343807" lon="-120.67121527">
      </trkpt>
      <trkpt lat="49.99308013" lon="-120.67185584">
      </trkpt>
      <trkpt lat="49.99234133" lon="-120.67260049">
      </trkpt>
      <trkpt lat="49.99199906" lon="-120.67352493">
      </trkpt>
      <trkpt lat="49.99186659" lon="-120.67371793">
      </trkpt>
      <trkpt lat="49.99168388" lon="-120.67419939">
      </trkpt>
      <trkpt lat="49.99134137" lon="-120.67471341">
      </trkpt>
      <trkpt lat="49.99104942" lon="-120.67534936">
      </trkpt>
      <trkpt lat="49.99040564" lon="-120.67603965">
      </trkpt>
      <trkpt lat="49.99001006" lon="-120.67670542">
      </trkpt>
      <trkpt lat="49.98984232" lon="-120.67713631">
      </trkpt>
      <trkpt lat="49.98958405" lon="-120.67825576">
      </trkpt>
      <trkpt lat="49.98940798" lon="-120.67867462">
      </trkpt>
      <trkpt lat="49.98903048" lon="-120.67904105">
      </trkpt>
      <trkpt lat="49.98845409" lon="-120.67920396">
      </trkpt>
      <trkpt lat="49.98842945" lon="-120.67841955">
      </trkpt>
      <trkpt lat="49.98835604" lon="-120.6779406">
      </trkpt>
      <trkpt lat="49.98808971" lon="-120.67775818">
      </trkpt>
      <trkpt lat="49.98806291" lon="-120.67733239">
      </trkpt>
      <trkpt lat="49.9883435" lon="-120.67667551">
      </trkpt>
      <trkpt lat="49.98832018" lon="-120.67643858">
      </trkpt>
      <trkpt lat="49.98815679" lon="-120.67618788">
      </trkpt>
      <trkpt lat="49.98802054" lon="-120.67618034">
      </trkpt>
      <trkpt lat="49.98763935" lon="-120.67589127">
      </trkpt>
      <trkpt lat="49.98722423" lon="-120.6759606">
      </trkpt>
      <trkpt lat="49.98655423" lon="-120.67573469">
      </trkpt>
    </trkseg>
    <trkseg>
      <trkpt lat="49.99495935" lon="-120.66629948">
      </trkpt>
      <trkpt lat="49.99501591" lon="-120.66644644">
      </trkpt>
      <trkpt lat="49.9951219" lon="-120.66691859">
      </trkpt>
      <trkpt lat="49.9951484" lon="-120.66823581">
      </trkpt>
      <trkpt lat="49.99519263" lon="-120.66844505">
      </trkpt>
      <trkpt lat="49.99548103" lon="-120.66882921">
      </trkpt>
      <trkpt lat="49.99570529" lon="-120.66921636">
      </trkpt>
      <trkpt lat="49.99608518" lon="-120.66935965">
      </trkpt>
      <trkpt lat="49.99632759" lon="-120.66985802">
      </trkpt>
      <trkpt lat="49.99658226" lon="-120.6697586">
      </trkpt>
      <trkpt lat="49.99697496" lon="-120.67015006">
      </trkpt>
      <trkpt lat="49.99710817" lon="-120.67039238">
      </trkpt>
      <trkpt lat="49.99755328" lon="-120.67059479">
      </trkpt>
      <trkpt lat="49.99802786" lon="-120.67106941">
      </trkpt>
    </trkseg>
    <trkseg>
      <trkpt lat="49.99523618" lon="-120.66981126">
      </trkpt>
      <trkpt lat="49.99537914" lon="-120.6697421">
      </trkpt>
      <trkpt lat="49.99616913" lon="-120.66995267">
      </trkpt>
      <trkpt lat="49.99632759" lon="-120.66985802">
      </trkpt>
    </trkseg>
    <trkseg>
      <trkpt lat="49.98653319" lon="-120.66345302">
      </trkpt>
      <trkpt lat="49.98646316" lon="-120.66399513">
      </trkpt>
      <trkpt lat="49.98623385" lon="-120.66428639">
      </trkpt>
      <trkpt lat="49.98617668" lon="-120.66480655">
      </trkpt>
    </trkseg>
    <trkseg>
      <trkpt lat="50.00912839" lon="-120.64021455">
      </trkpt>
      <trkpt lat="50.00892686" lon="-120.64009872">
      </trkpt>
      <trkpt lat="50.00863471" lon="-120.63976343">
      </trkpt>
      <trkpt lat="50.00839972" lon="-120.63956539">
      </trkpt>
    </trkseg>
    <trkseg>
      <trkpt lat="50.01904656" lon="-120.65451966">
      </trkpt>
      <trkpt lat="50.01869536" lon="-120.65468526">
      </trkpt>
      <trkpt lat="50.01835892" lon="-120.65474531">
      </trkpt>
      <trkpt lat="50.01814528" lon="-120.65475571">
      </trkpt>
      <trkpt lat="50.01798188" lon="-120.65474621">
      </trkpt>
      <trkpt lat="50.01783009" lon="-120.6547536">
      </trkpt>
      <trkpt lat="50.01762875" lon="-120.65481581">
      </trkpt>
      <trkpt lat="50.01746589" lon="-120.65483247">
      </trkpt>
      <trkpt lat="50.01732184" lon="-120.6549443">
      </trkpt>
      <trkpt lat="50.0173013" lon="-120.65532086">
      </trkpt>
      <trkpt lat="50.01730397" lon="-120.65573122">
      </trkpt>
      <trkpt lat="50.01724145" lon="-120.65597881">
      </trkpt>
      <trkpt lat="50.0171104" lon="-120.65617734">
      </trkpt>
      <trkpt lat="50.01698355" lon="-120.65630578">
      </trkpt>
      <trkpt lat="50.0168286" lon="-120.65643559">
      </trkpt>
      <trkpt lat="50.01667822" lon="-120.65651278">
      </trkpt>
      <trkpt lat="50.01651588" lon="-120.65655562">
      </trkpt>
      <trkpt lat="50.01626359" lon="-120.65660284">
      </trkpt>
      <trkpt lat="50.01610337" lon="-120.65675037">
      </trkpt>
      <trkpt lat="50.01599605" lon="-120.65700888">
      </trkpt>
      <trkpt lat="50.01592244" lon="-120.65726573">
      </trkpt>
      <trkpt lat="50.01588275" lon="-120.65752967">
      </trkpt>
      <trkpt lat="50.01585923" lon="-120.65775789">
      </trkpt>
      <trkpt lat="50.01576279" lon="-120.65799839">
      </trkpt>
      <trkpt lat="50.01557586" lon="-120.65821708">
      </trkpt>
      <trkpt lat="50.01536083" lon="-120.65843714">
      </trkpt>
      <trkpt lat="50.01504792" lon="-120.65854843">
      </trkpt>
      <trkpt lat="50.01473958" lon="-120.65860708">
      </trkpt>
      <trkpt lat="50.01455442" lon="-120.65891302">
      </trkpt>
      <trkpt lat="50.01436587" lon="-120.65926392">
      </trkpt>
      <trkpt lat="50.01400012" lon="-120.65974897">
      </trkpt>
      <trkpt lat="50.013881" lon="-120.66004877">
      </trkpt>
      <trkpt lat="50.01377528" lon="-120.66034267">
      </trkpt>
      <trkpt lat="50.01371994" lon="-120.66061838">
      </trkpt>
      <trkpt lat="50.01369048" lon="-120.66083507">
      </trkpt>
      <trkpt lat="50.01368605" lon="-120.66111879">
      </trkpt>
      <trkpt lat="50.01373591" lon="-120.66141039">
      </trkpt>
    </trkseg>
  </trk>
</gpx>