<?xml version="1.0" encoding="UTF-8"?>
<gpx xmlns="http://www.topografix.com/GPX/1/1" xmlns:xsi="http://www.w3.org/2001/XMLSchema-instance" xsi:schemaLocation="http://www.topografix.com/GPX/1/1 http://www.topografix.com/GPX/1/1/gpx.xsd" version="1.1" creator="gpx.py -- https://github.com/tkrajina/gpxpy">
  <trk>
    <name>Gypsum Mountain Trail</name>
    <trkseg>
      <trkpt lat="50.34999361" lon="-120.87394734">
      </trkpt>
      <trkpt lat="50.3498697" lon="-120.87375533">
      </trkpt>
      <trkpt lat="50.34976861" lon="-120.87357021">
      </trkpt>
      <trkpt lat="50.34962176" lon="-120.8733427">
      </trkpt>
      <trkpt lat="50.34941558" lon="-120.87315833">
      </trkpt>
      <trkpt lat="50.34939431" lon="-120.87313453">
      </trkpt>
      <trkpt lat="50.34925059" lon="-120.87297365">
      </trkpt>
      <trkpt lat="50.34930484" lon="-120.87275908">
      </trkpt>
      <trkpt lat="50.34934095" lon="-120.87254453">
      </trkpt>
      <trkpt lat="50.34955035" lon="-120.87223603">
      </trkpt>
      <trkpt lat="50.34975076" lon="-120.8719347">
      </trkpt>
      <trkpt lat="50.34970831" lon="-120.87143498">
      </trkpt>
      <trkpt lat="50.34982159" lon="-120.87107004">
      </trkpt>
      <trkpt lat="50.34998523" lon="-120.87070468">
      </trkpt>
      <trkpt lat="50.35003879" lon="-120.87019717">
      </trkpt>
      <trkpt lat="50.34993731" lon="-120.8698478">
      </trkpt>
      <trkpt lat="50.34980832" lon="-120.8694629">
      </trkpt>
      <trkpt lat="50.34993577" lon="-120.86926924">
      </trkpt>
      <trkpt lat="50.35016876" lon="-120.86923202">
      </trkpt>
      <trkpt lat="50.35052978" lon="-120.86920106">
      </trkpt>
      <trkpt lat="50.35084065" lon="-120.86919909">
      </trkpt>
      <trkpt lat="50.35155527" lon="-120.86914007">
      </trkpt>
      <trkpt lat="50.35159469" lon="-120.86913686">
      </trkpt>
      <trkpt lat="50.35222556" lon="-120.86918277">
      </trkpt>
      <trkpt lat="50.35266443" lon="-120.86920122">
      </trkpt>
      <trkpt lat="50.35293996" lon="-120.8690716">
      </trkpt>
      <trkpt lat="50.35293176" lon="-120.86881921">
      </trkpt>
      <trkpt lat="50.35296943" lon="-120.86793184">
      </trkpt>
      <trkpt lat="50.35300972" lon="-120.86669282">
      </trkpt>
      <trkpt lat="50.35312466" lon="-120.86266695">
      </trkpt>
      <trkpt lat="50.35314954" lon="-120.86151301">
      </trkpt>
      <trkpt lat="50.35309461" lon="-120.86071242">
      </trkpt>
      <trkpt lat="50.35293372" lon="-120.86038485">
      </trkpt>
      <trkpt lat="50.35253457" lon="-120.85982322">
      </trkpt>
      <trkpt lat="50.35176377" lon="-120.85877847">
      </trkpt>
      <trkpt lat="50.35175918" lon="-120.85877175">
      </trkpt>
      <trkpt lat="50.3512682" lon="-120.85805336">
      </trkpt>
      <trkpt lat="50.35093743" lon="-120.85742706">
      </trkpt>
      <trkpt lat="50.35075283" lon="-120.8567855">
      </trkpt>
      <trkpt lat="50.350706" lon="-120.85637865">
      </trkpt>
      <trkpt lat="50.35090202" lon="-120.85618437">
      </trkpt>
      <trkpt lat="50.35115795" lon="-120.85616119">
      </trkpt>
      <trkpt lat="50.35130869" lon="-120.85614593">
      </trkpt>
    </trkseg>
  </trk>
</gpx>