<?xml version="1.0" encoding="UTF-8"?>
<gpx xmlns="http://www.topografix.com/GPX/1/1" xmlns:xsi="http://www.w3.org/2001/XMLSchema-instance" xsi:schemaLocation="http://www.topografix.com/GPX/1/1 http://www.topografix.com/GPX/1/1/gpx.xsd" version="1.1" creator="gpx.py -- https://github.com/tkrajina/gpxpy">
  <trk>
    <name>Green Timbers Greenway</name>
    <trkseg>
      <trkpt lat="49.184187" lon="-122.8202844">
      </trkpt>
      <trkpt lat="49.1841907" lon="-122.8204207">
      </trkpt>
      <trkpt lat="49.1841868" lon="-122.820601">
      </trkpt>
      <trkpt lat="49.1841874" lon="-122.8207001">
      </trkpt>
      <trkpt lat="49.1841907" lon="-122.8207609">
      </trkpt>
      <trkpt lat="49.184201" lon="-122.8209522">
      </trkpt>
      <trkpt lat="49.1842259" lon="-122.8214849">
      </trkpt>
      <trkpt lat="49.1842026" lon="-122.8227542">
      </trkpt>
      <trkpt lat="49.1841849" lon="-122.8228546">
      </trkpt>
      <trkpt lat="49.1841761" lon="-122.8229154">
      </trkpt>
      <trkpt lat="49.1841788" lon="-122.8229681">
      </trkpt>
      <trkpt lat="49.184181" lon="-122.8230116">
      </trkpt>
    </trkseg>
    <trkseg>
      <trkpt lat="49.184187" lon="-122.8202844">
      </trkpt>
      <trkpt lat="49.1841599" lon="-122.8202871">
      </trkpt>
    </trkseg>
    <trkseg>
      <trkpt lat="49.1769159" lon="-122.7612751">
      </trkpt>
      <trkpt lat="49.1769208" lon="-122.7609689">
      </trkpt>
      <trkpt lat="49.1769199" lon="-122.760717">
      </trkpt>
      <trkpt lat="49.1769185" lon="-122.7602">
      </trkpt>
      <trkpt lat="49.1769209" lon="-122.759873">
      </trkpt>
      <trkpt lat="49.1769204" lon="-122.7598384">
      </trkpt>
      <trkpt lat="49.1769186" lon="-122.7598031">
      </trkpt>
      <trkpt lat="49.1769138" lon="-122.7597685">
      </trkpt>
      <trkpt lat="49.1769076" lon="-122.7597359">
      </trkpt>
      <trkpt lat="49.1768949" lon="-122.7596775">
      </trkpt>
      <trkpt lat="49.1768894" lon="-122.7596449">
      </trkpt>
      <trkpt lat="49.1768852" lon="-122.7595942">
      </trkpt>
      <trkpt lat="49.1768857" lon="-122.7595452">
      </trkpt>
      <trkpt lat="49.1768878" lon="-122.7594839">
      </trkpt>
      <trkpt lat="49.1768928" lon="-122.7594255">
      </trkpt>
      <trkpt lat="49.1769004" lon="-122.7593677">
      </trkpt>
      <trkpt lat="49.1769116" lon="-122.7593082">
      </trkpt>
      <trkpt lat="49.176918" lon="-122.7592704">
      </trkpt>
      <trkpt lat="49.176921" lon="-122.7592312">
      </trkpt>
      <trkpt lat="49.1769222" lon="-122.759131">
      </trkpt>
      <trkpt lat="49.1769234" lon="-122.7588413">
      </trkpt>
      <trkpt lat="49.1769238" lon="-122.7585529">
      </trkpt>
      <trkpt lat="49.1769264" lon="-122.7585128">
      </trkpt>
      <trkpt lat="49.1769365" lon="-122.758407">
      </trkpt>
      <trkpt lat="49.1769383" lon="-122.7583765">
      </trkpt>
      <trkpt lat="49.176939" lon="-122.758032">
      </trkpt>
      <trkpt lat="49.1769429" lon="-122.7568736">
      </trkpt>
      <trkpt lat="49.1769384" lon="-122.7568271">
      </trkpt>
      <trkpt lat="49.176926" lon="-122.756794">
      </trkpt>
    </trkseg>
    <trkseg>
      <trkpt lat="49.1769159" lon="-122.7612751">
      </trkpt>
      <trkpt lat="49.1769157" lon="-122.761561">
      </trkpt>
      <trkpt lat="49.1769159" lon="-122.7617838">
      </trkpt>
      <trkpt lat="49.1769154" lon="-122.7618206">
      </trkpt>
      <trkpt lat="49.1769193" lon="-122.7618574">
      </trkpt>
      <trkpt lat="49.1769266" lon="-122.7618954">
      </trkpt>
      <trkpt lat="49.1769281" lon="-122.7619298">
      </trkpt>
      <trkpt lat="49.1769267" lon="-122.762059">
      </trkpt>
      <trkpt lat="49.1769254" lon="-122.7621877">
      </trkpt>
      <trkpt lat="49.1769215" lon="-122.7627547">
      </trkpt>
      <trkpt lat="49.1769239" lon="-122.7629863">
      </trkpt>
    </trkseg>
    <trkseg>
      <trkpt lat="49.1769239" lon="-122.7629863">
      </trkpt>
      <trkpt lat="49.1769232" lon="-122.7634176">
      </trkpt>
    </trkseg>
    <trkseg>
      <trkpt lat="49.1769232" lon="-122.7634176">
      </trkpt>
      <trkpt lat="49.1769169" lon="-122.763594">
      </trkpt>
      <trkpt lat="49.1769137" lon="-122.7636427">
      </trkpt>
      <trkpt lat="49.1769063" lon="-122.7636861">
      </trkpt>
      <trkpt lat="49.1768977" lon="-122.7637239">
      </trkpt>
      <trkpt lat="49.1768831" lon="-122.7637769">
      </trkpt>
      <trkpt lat="49.1768577" lon="-122.7638539">
      </trkpt>
      <trkpt lat="49.1768424" lon="-122.7638895">
      </trkpt>
      <trkpt lat="49.1768253" lon="-122.7639157">
      </trkpt>
      <trkpt lat="49.1767957" lon="-122.7639288">
      </trkpt>
      <trkpt lat="49.1767582" lon="-122.7639406">
      </trkpt>
      <trkpt lat="49.1766787" lon="-122.7639601">
      </trkpt>
      <trkpt lat="49.1763755" lon="-122.7640027">
      </trkpt>
      <trkpt lat="49.176295" lon="-122.7639996">
      </trkpt>
      <trkpt lat="49.1762117" lon="-122.7639804">
      </trkpt>
      <trkpt lat="49.1761498" lon="-122.7639606">
      </trkpt>
      <trkpt lat="49.1760402" lon="-122.7639022">
      </trkpt>
      <trkpt lat="49.1759487" lon="-122.763867">
      </trkpt>
      <trkpt lat="49.1758716" lon="-122.7638693">
      </trkpt>
      <trkpt lat="49.1757869" lon="-122.7639275">
      </trkpt>
      <trkpt lat="49.1757193" lon="-122.7640088">
      </trkpt>
      <trkpt lat="49.1756702" lon="-122.7640868">
      </trkpt>
      <trkpt lat="49.1756558" lon="-122.7641138">
      </trkpt>
      <trkpt lat="49.1756475" lon="-122.7641466">
      </trkpt>
      <trkpt lat="49.1756434" lon="-122.7641816">
      </trkpt>
      <trkpt lat="49.1756408" lon="-122.7642957">
      </trkpt>
      <trkpt lat="49.1756417" lon="-122.7643943">
      </trkpt>
      <trkpt lat="49.175644" lon="-122.7644886">
      </trkpt>
      <trkpt lat="49.1756485" lon="-122.7646644">
      </trkpt>
      <trkpt lat="49.1756517" lon="-122.7648599">
      </trkpt>
      <trkpt lat="49.1756521" lon="-122.7655381">
      </trkpt>
      <trkpt lat="49.1756553" lon="-122.7662776">
      </trkpt>
      <trkpt lat="49.17565" lon="-122.7666995">
      </trkpt>
      <trkpt lat="49.175627" lon="-122.7668506">
      </trkpt>
      <trkpt lat="49.1756177" lon="-122.7669506">
      </trkpt>
      <trkpt lat="49.1756279" lon="-122.7670528">
      </trkpt>
      <trkpt lat="49.175663" lon="-122.7671916">
      </trkpt>
      <trkpt lat="49.1756659" lon="-122.7672535">
      </trkpt>
      <trkpt lat="49.1756586" lon="-122.7673109">
      </trkpt>
      <trkpt lat="49.1755731" lon="-122.7675258">
      </trkpt>
      <trkpt lat="49.1755655" lon="-122.7675533">
      </trkpt>
      <trkpt lat="49.1755614" lon="-122.7675848">
      </trkpt>
      <trkpt lat="49.1755616" lon="-122.7676326">
      </trkpt>
      <trkpt lat="49.1755618" lon="-122.767675">
      </trkpt>
    </trkseg>
    <trkseg>
      <trkpt lat="49.1755618" lon="-122.767675">
      </trkpt>
      <trkpt lat="49.1755611" lon="-122.767718">
      </trkpt>
      <trkpt lat="49.1755601" lon="-122.767777">
      </trkpt>
    </trkseg>
    <trkseg>
      <trkpt lat="49.1755601" lon="-122.767777">
      </trkpt>
      <trkpt lat="49.1755608" lon="-122.7678211">
      </trkpt>
      <trkpt lat="49.1755614" lon="-122.7678556">
      </trkpt>
      <trkpt lat="49.1755624" lon="-122.7679132">
      </trkpt>
      <trkpt lat="49.1755729" lon="-122.7679814">
      </trkpt>
      <trkpt lat="49.1756649" lon="-122.7681841">
      </trkpt>
      <trkpt lat="49.1756803" lon="-122.7682705">
      </trkpt>
      <trkpt lat="49.175675" lon="-122.7683456">
      </trkpt>
      <trkpt lat="49.1756109" lon="-122.7685867">
      </trkpt>
      <trkpt lat="49.1756051" lon="-122.7686641">
      </trkpt>
      <trkpt lat="49.1756159" lon="-122.7687384">
      </trkpt>
      <trkpt lat="49.1756417" lon="-122.7688155">
      </trkpt>
      <trkpt lat="49.1756661" lon="-122.7688769">
      </trkpt>
      <trkpt lat="49.1756772" lon="-122.7689259">
      </trkpt>
      <trkpt lat="49.1756768" lon="-122.7689922">
      </trkpt>
      <trkpt lat="49.1756608" lon="-122.769078">
      </trkpt>
      <trkpt lat="49.1756378" lon="-122.7691893">
      </trkpt>
      <trkpt lat="49.175631" lon="-122.7692877">
      </trkpt>
      <trkpt lat="49.1756263" lon="-122.7696571">
      </trkpt>
      <trkpt lat="49.1756299" lon="-122.7702372">
      </trkpt>
      <trkpt lat="49.1756323" lon="-122.7704336">
      </trkpt>
      <trkpt lat="49.1756464" lon="-122.7706709">
      </trkpt>
      <trkpt lat="49.1756781" lon="-122.7713416">
      </trkpt>
      <trkpt lat="49.1756783" lon="-122.7715115">
      </trkpt>
      <trkpt lat="49.1756693" lon="-122.7719079">
      </trkpt>
      <trkpt lat="49.1756687" lon="-122.771966">
      </trkpt>
    </trkseg>
    <trkseg>
      <trkpt lat="49.1756687" lon="-122.771966">
      </trkpt>
      <trkpt lat="49.1756671" lon="-122.7720411">
      </trkpt>
      <trkpt lat="49.175667" lon="-122.7721313">
      </trkpt>
    </trkseg>
    <trkseg>
      <trkpt lat="49.175667" lon="-122.7721313">
      </trkpt>
      <trkpt lat="49.1756663" lon="-122.7721648">
      </trkpt>
      <trkpt lat="49.1756598" lon="-122.772263">
      </trkpt>
      <trkpt lat="49.1756407" lon="-122.7723734">
      </trkpt>
      <trkpt lat="49.1756314" lon="-122.7724665">
      </trkpt>
      <trkpt lat="49.1756279" lon="-122.7736171">
      </trkpt>
      <trkpt lat="49.1756173" lon="-122.7739043">
      </trkpt>
      <trkpt lat="49.1756173" lon="-122.7741596">
      </trkpt>
      <trkpt lat="49.1756419" lon="-122.7748375">
      </trkpt>
      <trkpt lat="49.1756432" lon="-122.7750025">
      </trkpt>
      <trkpt lat="49.1756403" lon="-122.7751783">
      </trkpt>
      <trkpt lat="49.1756579" lon="-122.7753401">
      </trkpt>
      <trkpt lat="49.1756713" lon="-122.7755061">
      </trkpt>
      <trkpt lat="49.1756839" lon="-122.7759541">
      </trkpt>
      <trkpt lat="49.1756853" lon="-122.7760495">
      </trkpt>
    </trkseg>
    <trkseg>
      <trkpt lat="49.1756853" lon="-122.7760495">
      </trkpt>
      <trkpt lat="49.1756869" lon="-122.776107">
      </trkpt>
      <trkpt lat="49.1756887" lon="-122.7761836">
      </trkpt>
    </trkseg>
    <trkseg>
      <trkpt lat="49.1756887" lon="-122.7761836">
      </trkpt>
      <trkpt lat="49.1756905" lon="-122.776242">
      </trkpt>
      <trkpt lat="49.1756903" lon="-122.7765402">
      </trkpt>
      <trkpt lat="49.1756858" lon="-122.7768405">
      </trkpt>
      <trkpt lat="49.1756938" lon="-122.7771689">
      </trkpt>
      <trkpt lat="49.1756908" lon="-122.7772242">
      </trkpt>
      <trkpt lat="49.1756822" lon="-122.7772773">
      </trkpt>
      <trkpt lat="49.1756218" lon="-122.7775803">
      </trkpt>
      <trkpt lat="49.1756126" lon="-122.777629">
      </trkpt>
      <trkpt lat="49.1756061" lon="-122.7776797">
      </trkpt>
      <trkpt lat="49.1755985" lon="-122.7779347">
      </trkpt>
      <trkpt lat="49.1756007" lon="-122.7781961">
      </trkpt>
      <trkpt lat="49.1756156" lon="-122.7783965">
      </trkpt>
      <trkpt lat="49.1756347" lon="-122.7785926">
      </trkpt>
      <trkpt lat="49.1756397" lon="-122.7787056">
      </trkpt>
      <trkpt lat="49.1756407" lon="-122.7787274">
      </trkpt>
      <trkpt lat="49.1756386" lon="-122.778797">
      </trkpt>
    </trkseg>
    <trkseg>
      <trkpt lat="49.1756386" lon="-122.778797">
      </trkpt>
      <trkpt lat="49.1756397" lon="-122.7788452">
      </trkpt>
      <trkpt lat="49.1756392" lon="-122.7788728">
      </trkpt>
    </trkseg>
    <trkseg>
      <trkpt lat="49.1756392" lon="-122.7788728">
      </trkpt>
      <trkpt lat="49.1756395" lon="-122.7789094">
      </trkpt>
      <trkpt lat="49.1756932" lon="-122.7789084">
      </trkpt>
      <trkpt lat="49.1756933" lon="-122.7789216">
      </trkpt>
    </trkseg>
    <trkseg>
      <trkpt lat="49.1756933" lon="-122.7789216">
      </trkpt>
      <trkpt lat="49.1756953" lon="-122.778952">
      </trkpt>
      <trkpt lat="49.175694" lon="-122.779005">
      </trkpt>
    </trkseg>
    <trkseg>
      <trkpt lat="49.175694" lon="-122.779005">
      </trkpt>
      <trkpt lat="49.1756942" lon="-122.7790332">
      </trkpt>
    </trkseg>
    <trkseg>
      <trkpt lat="49.1756942" lon="-122.7790332">
      </trkpt>
      <trkpt lat="49.1756946" lon="-122.7790642">
      </trkpt>
      <trkpt lat="49.1756943" lon="-122.779545">
      </trkpt>
    </trkseg>
    <trkseg>
      <trkpt lat="49.1756943" lon="-122.779545">
      </trkpt>
      <trkpt lat="49.175693" lon="-122.779609">
      </trkpt>
      <trkpt lat="49.1756936" lon="-122.7796603">
      </trkpt>
    </trkseg>
    <trkseg>
      <trkpt lat="49.1756936" lon="-122.7796603">
      </trkpt>
      <trkpt lat="49.175692" lon="-122.78015">
      </trkpt>
      <trkpt lat="49.1756921" lon="-122.780224">
      </trkpt>
    </trkseg>
    <trkseg>
      <trkpt lat="49.1756921" lon="-122.780224">
      </trkpt>
      <trkpt lat="49.1756922" lon="-122.780284">
      </trkpt>
      <trkpt lat="49.1756922" lon="-122.780361">
      </trkpt>
    </trkseg>
    <trkseg>
      <trkpt lat="49.1756922" lon="-122.780361">
      </trkpt>
      <trkpt lat="49.1756923" lon="-122.780434">
      </trkpt>
      <trkpt lat="49.1756923" lon="-122.781548">
      </trkpt>
      <trkpt lat="49.1756795" lon="-122.7841337">
      </trkpt>
      <trkpt lat="49.175676" lon="-122.7845344">
      </trkpt>
      <trkpt lat="49.175674" lon="-122.785646">
      </trkpt>
      <trkpt lat="49.1756629" lon="-122.786168">
      </trkpt>
      <trkpt lat="49.1756643" lon="-122.7866857">
      </trkpt>
      <trkpt lat="49.1756686" lon="-122.787345">
      </trkpt>
      <trkpt lat="49.1756531" lon="-122.7875594">
      </trkpt>
      <trkpt lat="49.1756286" lon="-122.7877449">
      </trkpt>
      <trkpt lat="49.175597" lon="-122.7879283">
      </trkpt>
      <trkpt lat="49.175589" lon="-122.7880528">
      </trkpt>
      <trkpt lat="49.1755707" lon="-122.7887512">
      </trkpt>
      <trkpt lat="49.1755521" lon="-122.7890661">
      </trkpt>
      <trkpt lat="49.1755482" lon="-122.7892174">
      </trkpt>
    </trkseg>
    <trkseg>
      <trkpt lat="49.1755482" lon="-122.7892174">
      </trkpt>
      <trkpt lat="49.1755474" lon="-122.789252">
      </trkpt>
      <trkpt lat="49.1755487" lon="-122.7893069">
      </trkpt>
    </trkseg>
    <trkseg>
      <trkpt lat="49.1755487" lon="-122.7893069">
      </trkpt>
      <trkpt lat="49.1755532" lon="-122.7894195">
      </trkpt>
      <trkpt lat="49.175563" lon="-122.7895435">
      </trkpt>
      <trkpt lat="49.1755792" lon="-122.7896692">
      </trkpt>
      <trkpt lat="49.1755957" lon="-122.7898115">
      </trkpt>
      <trkpt lat="49.1755978" lon="-122.789896">
      </trkpt>
    </trkseg>
    <trkseg>
      <trkpt lat="49.1755978" lon="-122.789896">
      </trkpt>
      <trkpt lat="49.1755995" lon="-122.789961">
      </trkpt>
      <trkpt lat="49.1755999" lon="-122.7899944">
      </trkpt>
    </trkseg>
    <trkseg>
      <trkpt lat="49.1755999" lon="-122.7899944">
      </trkpt>
      <trkpt lat="49.1756012" lon="-122.7900172">
      </trkpt>
      <trkpt lat="49.1756594" lon="-122.7900156">
      </trkpt>
      <trkpt lat="49.1756597" lon="-122.7900335">
      </trkpt>
    </trkseg>
    <trkseg>
      <trkpt lat="49.1756597" lon="-122.7900335">
      </trkpt>
      <trkpt lat="49.175662" lon="-122.7900736">
      </trkpt>
      <trkpt lat="49.1756605" lon="-122.7901218">
      </trkpt>
    </trkseg>
    <trkseg>
      <trkpt lat="49.1756605" lon="-122.7901218">
      </trkpt>
      <trkpt lat="49.1756607" lon="-122.7901447">
      </trkpt>
      <trkpt lat="49.1756604" lon="-122.7901703">
      </trkpt>
      <trkpt lat="49.1756613" lon="-122.7902413">
      </trkpt>
      <trkpt lat="49.1756551" lon="-122.7902836">
      </trkpt>
      <trkpt lat="49.1756286" lon="-122.7903527">
      </trkpt>
      <trkpt lat="49.1756129" lon="-122.7903928">
      </trkpt>
      <trkpt lat="49.1755999" lon="-122.790435">
      </trkpt>
      <trkpt lat="49.1755921" lon="-122.790487">
      </trkpt>
      <trkpt lat="49.1755921" lon="-122.7905668">
      </trkpt>
      <trkpt lat="49.1755957" lon="-122.7906645">
      </trkpt>
      <trkpt lat="49.1756545" lon="-122.7913225">
      </trkpt>
      <trkpt lat="49.1756728" lon="-122.7916839">
      </trkpt>
      <trkpt lat="49.175666" lon="-122.7929856">
      </trkpt>
      <trkpt lat="49.1756651" lon="-122.7930206">
      </trkpt>
      <trkpt lat="49.1756541" lon="-122.7951119">
      </trkpt>
      <trkpt lat="49.1756464" lon="-122.7960107">
      </trkpt>
      <trkpt lat="49.1756349" lon="-122.7967449">
      </trkpt>
      <trkpt lat="49.175616" lon="-122.7970579">
      </trkpt>
      <trkpt lat="49.1755674" lon="-122.7977048">
      </trkpt>
      <trkpt lat="49.175567" lon="-122.7982224">
      </trkpt>
      <trkpt lat="49.1755507" lon="-122.7989065">
      </trkpt>
      <trkpt lat="49.1755414" lon="-122.7995906">
      </trkpt>
      <trkpt lat="49.1755808" lon="-122.800291">
      </trkpt>
    </trkseg>
    <trkseg>
      <trkpt lat="49.1755808" lon="-122.800291">
      </trkpt>
      <trkpt lat="49.1755807" lon="-122.8003468">
      </trkpt>
      <trkpt lat="49.1755812" lon="-122.8004065">
      </trkpt>
    </trkseg>
    <trkseg>
      <trkpt lat="49.1755812" lon="-122.8004065">
      </trkpt>
      <trkpt lat="49.175579" lon="-122.8004897">
      </trkpt>
      <trkpt lat="49.1755622" lon="-122.8006238">
      </trkpt>
      <trkpt lat="49.1755282" lon="-122.8007729">
      </trkpt>
      <trkpt lat="49.1755269" lon="-122.8007802">
      </trkpt>
      <trkpt lat="49.1755191" lon="-122.8008312">
      </trkpt>
      <trkpt lat="49.175516" lon="-122.8009045">
      </trkpt>
      <trkpt lat="49.1755158" lon="-122.8009494">
      </trkpt>
      <trkpt lat="49.1755159" lon="-122.8009663">
      </trkpt>
    </trkseg>
    <trkseg>
      <trkpt lat="49.1755159" lon="-122.8009663">
      </trkpt>
      <trkpt lat="49.1755163" lon="-122.801016">
      </trkpt>
      <trkpt lat="49.1755174" lon="-122.801164">
      </trkpt>
      <trkpt lat="49.1755178" lon="-122.8012183">
      </trkpt>
    </trkseg>
    <trkseg>
      <trkpt lat="49.1755178" lon="-122.8012183">
      </trkpt>
      <trkpt lat="49.1755179" lon="-122.8012317">
      </trkpt>
      <trkpt lat="49.1755457" lon="-122.8012307">
      </trkpt>
      <trkpt lat="49.1755448" lon="-122.801271">
      </trkpt>
      <trkpt lat="49.1755453" lon="-122.8023528">
      </trkpt>
      <trkpt lat="49.1755461" lon="-122.802426">
      </trkpt>
    </trkseg>
    <trkseg>
      <trkpt lat="49.1755461" lon="-122.802426">
      </trkpt>
      <trkpt lat="49.1755463" lon="-122.8024415">
      </trkpt>
      <trkpt lat="49.1755467" lon="-122.8024797">
      </trkpt>
    </trkseg>
    <trkseg>
      <trkpt lat="49.1755474" lon="-122.8025348">
      </trkpt>
      <trkpt lat="49.1755467" lon="-122.8024797">
      </trkpt>
    </trkseg>
    <trkseg>
      <trkpt lat="49.1755474" lon="-122.8025348">
      </trkpt>
      <trkpt lat="49.1759022" lon="-122.8025272">
      </trkpt>
      <trkpt lat="49.1759345" lon="-122.8025559">
      </trkpt>
      <trkpt lat="49.1759518" lon="-122.8026019">
      </trkpt>
      <trkpt lat="49.1759471" lon="-122.8034509">
      </trkpt>
      <trkpt lat="49.1759418" lon="-122.8044755">
      </trkpt>
      <trkpt lat="49.1759383" lon="-122.8051219">
      </trkpt>
      <trkpt lat="49.1759375" lon="-122.8060741">
      </trkpt>
      <trkpt lat="49.1759375" lon="-122.8064603">
      </trkpt>
      <trkpt lat="49.1759348" lon="-122.8064912">
      </trkpt>
      <trkpt lat="49.1759269" lon="-122.8065247">
      </trkpt>
      <trkpt lat="49.1759077" lon="-122.8065529">
      </trkpt>
    </trkseg>
    <trkseg>
      <trkpt lat="49.1759077" lon="-122.8065529">
      </trkpt>
      <trkpt lat="49.1759069" lon="-122.8066414">
      </trkpt>
      <trkpt lat="49.1759066" lon="-122.8066684">
      </trkpt>
      <trkpt lat="49.1759058" lon="-122.8067459">
      </trkpt>
    </trkseg>
    <trkseg>
      <trkpt lat="49.1754168" lon="-122.8067129">
      </trkpt>
      <trkpt lat="49.175641" lon="-122.8067109">
      </trkpt>
      <trkpt lat="49.1758018" lon="-122.8067088">
      </trkpt>
      <trkpt lat="49.1758456" lon="-122.8067109">
      </trkpt>
      <trkpt lat="49.1758687" lon="-122.8067176">
      </trkpt>
      <trkpt lat="49.1758842" lon="-122.8067344">
      </trkpt>
      <trkpt lat="49.1759058" lon="-122.8067459">
      </trkpt>
    </trkseg>
    <trkseg>
      <trkpt lat="49.1763253" lon="-122.8283997">
      </trkpt>
      <trkpt lat="49.1763943" lon="-122.8284063">
      </trkpt>
    </trkseg>
    <trkseg>
      <trkpt lat="49.1755463" lon="-122.8253818">
      </trkpt>
      <trkpt lat="49.1755282" lon="-122.8252494">
      </trkpt>
      <trkpt lat="49.1755253" lon="-122.8249935">
      </trkpt>
      <trkpt lat="49.1755239" lon="-122.8247977">
      </trkpt>
    </trkseg>
    <trkseg>
      <trkpt lat="49.1755239" lon="-122.8247977">
      </trkpt>
      <trkpt lat="49.1754765" lon="-122.8248721">
      </trkpt>
      <trkpt lat="49.1754517" lon="-122.8249118">
      </trkpt>
      <trkpt lat="49.1754087" lon="-122.8249756">
      </trkpt>
      <trkpt lat="49.1753962" lon="-122.824989">
      </trkpt>
    </trkseg>
    <trkseg>
      <trkpt lat="49.1753962" lon="-122.824989">
      </trkpt>
      <trkpt lat="49.1753648" lon="-122.8250246">
      </trkpt>
      <trkpt lat="49.1753281" lon="-122.8250656">
      </trkpt>
    </trkseg>
    <trkseg>
      <trkpt lat="49.1751831" lon="-122.8251799">
      </trkpt>
      <trkpt lat="49.1751985" lon="-122.825167">
      </trkpt>
      <trkpt lat="49.1752977" lon="-122.82509">
      </trkpt>
      <trkpt lat="49.1753281" lon="-122.8250656">
      </trkpt>
    </trkseg>
    <trkseg>
      <trkpt lat="49.1754962" lon="-122.8259647">
      </trkpt>
      <trkpt lat="49.1751831" lon="-122.8251799">
      </trkpt>
    </trkseg>
    <trkseg>
      <trkpt lat="49.1755077" lon="-122.8266267">
      </trkpt>
      <trkpt lat="49.175465" lon="-122.8262568">
      </trkpt>
      <trkpt lat="49.1754563" lon="-122.8261765">
      </trkpt>
      <trkpt lat="49.1754601" lon="-122.8260993">
      </trkpt>
      <trkpt lat="49.1754962" lon="-122.8259647">
      </trkpt>
    </trkseg>
    <trkseg>
      <trkpt lat="49.1751915" lon="-122.8288051">
      </trkpt>
      <trkpt lat="49.1755078" lon="-122.8275117">
      </trkpt>
      <trkpt lat="49.1755077" lon="-122.8266267">
      </trkpt>
    </trkseg>
    <trkseg>
      <trkpt lat="49.1736703" lon="-122.8344071">
      </trkpt>
      <trkpt lat="49.1736844" lon="-122.8343673">
      </trkpt>
      <trkpt lat="49.1737888" lon="-122.8342638">
      </trkpt>
      <trkpt lat="49.1738195" lon="-122.834224">
      </trkpt>
      <trkpt lat="49.1738467" lon="-122.8341789">
      </trkpt>
      <trkpt lat="49.1738867" lon="-122.8340913">
      </trkpt>
      <trkpt lat="49.1739182" lon="-122.8339992">
      </trkpt>
      <trkpt lat="49.1739428" lon="-122.8339071">
      </trkpt>
      <trkpt lat="49.1741944" lon="-122.8329027">
      </trkpt>
      <trkpt lat="49.1742009" lon="-122.8328597">
      </trkpt>
      <trkpt lat="49.1741945" lon="-122.8328153">
      </trkpt>
      <trkpt lat="49.1741429" lon="-122.8325097">
      </trkpt>
      <trkpt lat="49.1741404" lon="-122.8324729">
      </trkpt>
      <trkpt lat="49.1741496" lon="-122.8324309">
      </trkpt>
      <trkpt lat="49.1743139" lon="-122.831693">
      </trkpt>
      <trkpt lat="49.1745386" lon="-122.8312335">
      </trkpt>
      <trkpt lat="49.1746795" lon="-122.8308832">
      </trkpt>
      <trkpt lat="49.1751915" lon="-122.8288051">
      </trkpt>
    </trkseg>
    <trkseg>
      <trkpt lat="49.1736705" lon="-122.8345262">
      </trkpt>
      <trkpt lat="49.1736704" lon="-122.8344834">
      </trkpt>
      <trkpt lat="49.1736703" lon="-122.8344071">
      </trkpt>
    </trkseg>
    <trkseg>
      <trkpt lat="49.1737246" lon="-122.8345709">
      </trkpt>
      <trkpt lat="49.1737244" lon="-122.8345559">
      </trkpt>
      <trkpt lat="49.173671" lon="-122.8345578">
      </trkpt>
      <trkpt lat="49.1736705" lon="-122.8345262">
      </trkpt>
    </trkseg>
    <trkseg>
      <trkpt lat="49.1737261" lon="-122.8347156">
      </trkpt>
      <trkpt lat="49.1737259" lon="-122.834699">
      </trkpt>
      <trkpt lat="49.1737259" lon="-122.8346957">
      </trkpt>
      <trkpt lat="49.1737252" lon="-122.8346275">
      </trkpt>
      <trkpt lat="49.1737246" lon="-122.8345709">
      </trkpt>
    </trkseg>
    <trkseg>
      <trkpt lat="49.1725293" lon="-122.8391711">
      </trkpt>
      <trkpt lat="49.1725399" lon="-122.8391449">
      </trkpt>
      <trkpt lat="49.1726067" lon="-122.8389803">
      </trkpt>
      <trkpt lat="49.1726316" lon="-122.8388836">
      </trkpt>
      <trkpt lat="49.1727235" lon="-122.8385284">
      </trkpt>
      <trkpt lat="49.1734019" lon="-122.8359069">
      </trkpt>
      <trkpt lat="49.1736904" lon="-122.8349242">
      </trkpt>
      <trkpt lat="49.1737265" lon="-122.8347688">
      </trkpt>
      <trkpt lat="49.1737261" lon="-122.8347156">
      </trkpt>
    </trkseg>
    <trkseg>
      <trkpt lat="49.1725051" lon="-122.8392833">
      </trkpt>
      <trkpt lat="49.1725163" lon="-122.839234">
      </trkpt>
      <trkpt lat="49.1725293" lon="-122.8391711">
      </trkpt>
    </trkseg>
    <trkseg>
      <trkpt lat="49.1725719" lon="-122.8400374">
      </trkpt>
      <trkpt lat="49.1725637" lon="-122.8400257">
      </trkpt>
      <trkpt lat="49.1725536" lon="-122.8400069">
      </trkpt>
      <trkpt lat="49.1725155" lon="-122.8399284">
      </trkpt>
      <trkpt lat="49.172494" lon="-122.8398822">
      </trkpt>
      <trkpt lat="49.1724768" lon="-122.8398324">
      </trkpt>
      <trkpt lat="49.1724633" lon="-122.8397776">
      </trkpt>
      <trkpt lat="49.1724564" lon="-122.8397199">
      </trkpt>
      <trkpt lat="49.1724598" lon="-122.8396475">
      </trkpt>
      <trkpt lat="49.1724669" lon="-122.8395752">
      </trkpt>
      <trkpt lat="49.1724917" lon="-122.8393851">
      </trkpt>
      <trkpt lat="49.1725051" lon="-122.8392833">
      </trkpt>
    </trkseg>
    <trkseg>
      <trkpt lat="49.1723294" lon="-122.8410031">
      </trkpt>
      <trkpt lat="49.1723449" lon="-122.8409497">
      </trkpt>
      <trkpt lat="49.1724142" lon="-122.8407332">
      </trkpt>
      <trkpt lat="49.1725089" lon="-122.8403939">
      </trkpt>
      <trkpt lat="49.1725282" lon="-122.84031">
      </trkpt>
      <trkpt lat="49.1725418" lon="-122.840245">
      </trkpt>
      <trkpt lat="49.172551" lon="-122.8401853">
      </trkpt>
      <trkpt lat="49.1725719" lon="-122.8400374">
      </trkpt>
    </trkseg>
    <trkseg>
      <trkpt lat="49.1722945" lon="-122.8411191">
      </trkpt>
      <trkpt lat="49.1723126" lon="-122.841059">
      </trkpt>
      <trkpt lat="49.1723294" lon="-122.8410031">
      </trkpt>
    </trkseg>
    <trkseg>
      <trkpt lat="49.1714085" lon="-122.8428749">
      </trkpt>
      <trkpt lat="49.1714181" lon="-122.8428373">
      </trkpt>
      <trkpt lat="49.1714265" lon="-122.8428036">
      </trkpt>
      <trkpt lat="49.1714366" lon="-122.8427601">
      </trkpt>
      <trkpt lat="49.171458" lon="-122.8427186">
      </trkpt>
      <trkpt lat="49.171487" lon="-122.8426869">
      </trkpt>
      <trkpt lat="49.1715233" lon="-122.8426619">
      </trkpt>
      <trkpt lat="49.1715614" lon="-122.8426518">
      </trkpt>
      <trkpt lat="49.1716715" lon="-122.8426621">
      </trkpt>
      <trkpt lat="49.1717014" lon="-122.8426552">
      </trkpt>
      <trkpt lat="49.1717251" lon="-122.842637">
      </trkpt>
      <trkpt lat="49.1717676" lon="-122.8425976">
      </trkpt>
      <trkpt lat="49.171793" lon="-122.8425538">
      </trkpt>
      <trkpt lat="49.171811" lon="-122.8425121">
      </trkpt>
      <trkpt lat="49.1718207" lon="-122.8424533">
      </trkpt>
      <trkpt lat="49.1718255" lon="-122.8424006">
      </trkpt>
      <trkpt lat="49.1718343" lon="-122.8422825">
      </trkpt>
      <trkpt lat="49.1718416" lon="-122.8421916">
      </trkpt>
      <trkpt lat="49.1718636" lon="-122.8420692">
      </trkpt>
      <trkpt lat="49.1719547" lon="-122.8416672">
      </trkpt>
      <trkpt lat="49.1719736" lon="-122.8416089">
      </trkpt>
      <trkpt lat="49.1719868" lon="-122.8415713">
      </trkpt>
      <trkpt lat="49.1720003" lon="-122.8415405">
      </trkpt>
      <trkpt lat="49.1720161" lon="-122.8415103">
      </trkpt>
      <trkpt lat="49.1720481" lon="-122.8414647">
      </trkpt>
      <trkpt lat="49.1722502" lon="-122.8412213">
      </trkpt>
      <trkpt lat="49.1722638" lon="-122.8412012">
      </trkpt>
      <trkpt lat="49.1722739" lon="-122.8411818">
      </trkpt>
      <trkpt lat="49.1722945" lon="-122.8411191">
      </trkpt>
    </trkseg>
    <trkseg>
      <trkpt lat="49.1713116" lon="-122.8432994">
      </trkpt>
      <trkpt lat="49.1714085" lon="-122.8428749">
      </trkpt>
    </trkseg>
    <trkseg>
      <trkpt lat="49.1705899" lon="-122.8456567">
      </trkpt>
      <trkpt lat="49.170592" lon="-122.8456518">
      </trkpt>
      <trkpt lat="49.1706031" lon="-122.8455779">
      </trkpt>
      <trkpt lat="49.1706137" lon="-122.8455068">
      </trkpt>
      <trkpt lat="49.1706312" lon="-122.8454223">
      </trkpt>
      <trkpt lat="49.1706557" lon="-122.8453459">
      </trkpt>
      <trkpt lat="49.1706743" lon="-122.8452837">
      </trkpt>
      <trkpt lat="49.1707179" lon="-122.8452065">
      </trkpt>
      <trkpt lat="49.1708067" lon="-122.8450713">
      </trkpt>
      <trkpt lat="49.1708589" lon="-122.8449847">
      </trkpt>
      <trkpt lat="49.1709137" lon="-122.8448752">
      </trkpt>
      <trkpt lat="49.1709473" lon="-122.8447909">
      </trkpt>
      <trkpt lat="49.1709811" lon="-122.8446953">
      </trkpt>
      <trkpt lat="49.1710045" lon="-122.8446102">
      </trkpt>
      <trkpt lat="49.171031" lon="-122.8444809">
      </trkpt>
      <trkpt lat="49.1711704" lon="-122.8438908">
      </trkpt>
      <trkpt lat="49.1713116" lon="-122.8432994">
      </trkpt>
    </trkseg>
    <trkseg>
      <trkpt lat="49.1701852" lon="-122.8455449">
      </trkpt>
      <trkpt lat="49.1702178" lon="-122.8455766">
      </trkpt>
      <trkpt lat="49.1702463" lon="-122.8456027">
      </trkpt>
      <trkpt lat="49.1702695" lon="-122.8456188">
      </trkpt>
      <trkpt lat="49.1703068" lon="-122.8456356">
      </trkpt>
      <trkpt lat="49.1703291" lon="-122.8456416">
      </trkpt>
      <trkpt lat="49.1703734" lon="-122.845649">
      </trkpt>
      <trkpt lat="49.1704633" lon="-122.8456577">
      </trkpt>
      <trkpt lat="49.1705602" lon="-122.8456597">
      </trkpt>
      <trkpt lat="49.1705847" lon="-122.8456584">
      </trkpt>
      <trkpt lat="49.1705899" lon="-122.8456567">
      </trkpt>
    </trkseg>
    <trkseg>
      <trkpt lat="49.1701852" lon="-122.8455449">
      </trkpt>
      <trkpt lat="49.1701775" lon="-122.845556">
      </trkpt>
      <trkpt lat="49.1701698" lon="-122.845567">
      </trkpt>
      <trkpt lat="49.170143" lon="-122.845609">
      </trkpt>
    </trkseg>
    <trkseg>
      <trkpt lat="49.170143" lon="-122.845609">
      </trkpt>
      <trkpt lat="49.1701366" lon="-122.845647">
      </trkpt>
      <trkpt lat="49.1701227" lon="-122.845646">
      </trkpt>
    </trkseg>
    <trkseg>
      <trkpt lat="49.1701227" lon="-122.845646">
      </trkpt>
      <trkpt lat="49.1700548" lon="-122.845646">
      </trkpt>
      <trkpt lat="49.1700199" lon="-122.845645">
      </trkpt>
      <trkpt lat="49.1699969" lon="-122.845644">
      </trkpt>
    </trkseg>
    <trkseg>
      <trkpt lat="49.1699969" lon="-122.845644">
      </trkpt>
      <trkpt lat="49.1699753" lon="-122.845644">
      </trkpt>
      <trkpt lat="49.1699753" lon="-122.845663">
      </trkpt>
    </trkseg>
    <trkseg>
      <trkpt lat="49.1699767" lon="-122.84599">
      </trkpt>
      <trkpt lat="49.1699762" lon="-122.845918">
      </trkpt>
      <trkpt lat="49.1699763" lon="-122.845738">
      </trkpt>
      <trkpt lat="49.1699753" lon="-122.845663">
      </trkpt>
    </trkseg>
    <trkseg>
      <trkpt lat="49.1699649" lon="-122.846038">
      </trkpt>
      <trkpt lat="49.1699762" lon="-122.8460149">
      </trkpt>
      <trkpt lat="49.1699767" lon="-122.84599">
      </trkpt>
    </trkseg>
    <trkseg>
      <trkpt lat="49.1699245" lon="-122.8461267">
      </trkpt>
      <trkpt lat="49.1699445" lon="-122.846077">
      </trkpt>
      <trkpt lat="49.1699649" lon="-122.846038">
      </trkpt>
    </trkseg>
    <trkseg>
      <trkpt lat="49.1698423" lon="-122.8514441">
      </trkpt>
      <trkpt lat="49.1698849" lon="-122.8514183">
      </trkpt>
      <trkpt lat="49.1699115" lon="-122.8513875">
      </trkpt>
      <trkpt lat="49.1699274" lon="-122.8513584">
      </trkpt>
      <trkpt lat="49.169934" lon="-122.8513212">
      </trkpt>
      <trkpt lat="49.1699359" lon="-122.8510427">
      </trkpt>
      <trkpt lat="49.1699532" lon="-122.8485435">
      </trkpt>
      <trkpt lat="49.1699753" lon="-122.8482493">
      </trkpt>
      <trkpt lat="49.1699799" lon="-122.8475855">
      </trkpt>
      <trkpt lat="49.169987" lon="-122.8465746">
      </trkpt>
      <trkpt lat="49.169989" lon="-122.8464345">
      </trkpt>
      <trkpt lat="49.1699859" lon="-122.8463003">
      </trkpt>
      <trkpt lat="49.169982" lon="-122.8462668">
      </trkpt>
      <trkpt lat="49.1699731" lon="-122.8462283">
      </trkpt>
      <trkpt lat="49.1699613" lon="-122.8461961">
      </trkpt>
      <trkpt lat="49.1699436" lon="-122.8461588">
      </trkpt>
      <trkpt lat="49.1699214" lon="-122.8461368">
      </trkpt>
      <trkpt lat="49.1699245" lon="-122.8461267">
      </trkpt>
    </trkseg>
    <trkseg>
      <trkpt lat="49.1698391" lon="-122.8516358">
      </trkpt>
      <trkpt lat="49.1698405" lon="-122.8515528">
      </trkpt>
      <trkpt lat="49.1698423" lon="-122.8514441">
      </trkpt>
    </trkseg>
    <trkseg>
      <trkpt lat="49.1699015" lon="-122.8516968">
      </trkpt>
      <trkpt lat="49.169875" lon="-122.851658">
      </trkpt>
      <trkpt lat="49.1698391" lon="-122.8516358">
      </trkpt>
    </trkseg>
    <trkseg>
      <trkpt lat="49.1699015" lon="-122.8516968">
      </trkpt>
      <trkpt lat="49.1698576" lon="-122.851747">
      </trkpt>
      <trkpt lat="49.1697697" lon="-122.8518318">
      </trkpt>
      <trkpt lat="49.169679" lon="-122.851936">
      </trkpt>
      <trkpt lat="49.1695365" lon="-122.8521118">
      </trkpt>
      <trkpt lat="49.1694344" lon="-122.8522677">
      </trkpt>
      <trkpt lat="49.1693304" lon="-122.8524739">
      </trkpt>
      <trkpt lat="49.1692754" lon="-122.852593">
      </trkpt>
      <trkpt lat="49.1692296" lon="-122.8527143">
      </trkpt>
      <trkpt lat="49.1691924" lon="-122.8528373">
      </trkpt>
      <trkpt lat="49.1690466" lon="-122.8534429">
      </trkpt>
      <trkpt lat="49.1690239" lon="-122.8535039">
      </trkpt>
      <trkpt lat="49.1689955" lon="-122.8535477">
      </trkpt>
      <trkpt lat="49.1688809" lon="-122.8537164">
      </trkpt>
      <trkpt lat="49.168734" lon="-122.853982">
      </trkpt>
      <trkpt lat="49.1686454" lon="-122.8541959">
      </trkpt>
      <trkpt lat="49.1686108" lon="-122.8542872">
      </trkpt>
      <trkpt lat="49.1685537" lon="-122.85446">
      </trkpt>
      <trkpt lat="49.1684847" lon="-122.8547802">
      </trkpt>
      <trkpt lat="49.1683761" lon="-122.8553215">
      </trkpt>
      <trkpt lat="49.1683049" lon="-122.8556687">
      </trkpt>
      <trkpt lat="49.1682722" lon="-122.8557767">
      </trkpt>
      <trkpt lat="49.1682309" lon="-122.855892">
      </trkpt>
      <trkpt lat="49.1681611" lon="-122.8560519">
      </trkpt>
      <trkpt lat="49.1680781" lon="-122.8562487">
      </trkpt>
      <trkpt lat="49.1680581" lon="-122.8563175">
      </trkpt>
      <trkpt lat="49.1680472" lon="-122.85639">
      </trkpt>
      <trkpt lat="49.1680379" lon="-122.8564724">
      </trkpt>
      <trkpt lat="49.1680323" lon="-122.8565581">
      </trkpt>
      <trkpt lat="49.1680316" lon="-122.8567312">
      </trkpt>
      <trkpt lat="49.1680316" lon="-122.8567671">
      </trkpt>
    </trkseg>
    <trkseg>
      <trkpt lat="49.1680316" lon="-122.8567671">
      </trkpt>
      <trkpt lat="49.1680276" lon="-122.856844">
      </trkpt>
      <trkpt lat="49.1680276" lon="-122.8568659">
      </trkpt>
    </trkseg>
    <trkseg>
      <trkpt lat="49.1680276" lon="-122.8568659">
      </trkpt>
      <trkpt lat="49.1680275" lon="-122.8568878">
      </trkpt>
      <trkpt lat="49.1681064" lon="-122.8568891">
      </trkpt>
      <trkpt lat="49.1681064" lon="-122.8569116">
      </trkpt>
    </trkseg>
    <trkseg>
      <trkpt lat="49.1681064" lon="-122.8569116">
      </trkpt>
      <trkpt lat="49.1681064" lon="-122.8569151">
      </trkpt>
      <trkpt lat="49.1681064" lon="-122.856941">
      </trkpt>
      <trkpt lat="49.1681067" lon="-122.8569956">
      </trkpt>
    </trkseg>
    <trkseg>
      <trkpt lat="49.1681067" lon="-122.8569956">
      </trkpt>
      <trkpt lat="49.1681062" lon="-122.8570121">
      </trkpt>
      <trkpt lat="49.1681057" lon="-122.857027">
      </trkpt>
      <trkpt lat="49.1681054" lon="-122.857282">
      </trkpt>
    </trkseg>
    <trkseg>
      <trkpt lat="49.1681054" lon="-122.857282">
      </trkpt>
      <trkpt lat="49.1680964" lon="-122.857427">
      </trkpt>
    </trkseg>
    <trkseg>
      <trkpt lat="49.1680964" lon="-122.857427">
      </trkpt>
      <trkpt lat="49.1680883" lon="-122.8574645">
      </trkpt>
      <trkpt lat="49.1680789" lon="-122.8574969">
      </trkpt>
      <trkpt lat="49.1680666" lon="-122.8575292">
      </trkpt>
      <trkpt lat="49.1679567" lon="-122.857758">
      </trkpt>
      <trkpt lat="49.1679282" lon="-122.8578556">
      </trkpt>
      <trkpt lat="49.1679165" lon="-122.857907">
      </trkpt>
      <trkpt lat="49.1679099" lon="-122.857961">
      </trkpt>
      <trkpt lat="49.167904" lon="-122.8581713">
      </trkpt>
      <trkpt lat="49.1678985" lon="-122.8582751">
      </trkpt>
      <trkpt lat="49.1678861" lon="-122.8583791">
      </trkpt>
      <trkpt lat="49.1678445" lon="-122.858608">
      </trkpt>
      <trkpt lat="49.1677815" lon="-122.8589009">
      </trkpt>
      <trkpt lat="49.1676952" lon="-122.8591542">
      </trkpt>
      <trkpt lat="49.1675265" lon="-122.8594322">
      </trkpt>
      <trkpt lat="49.1674983" lon="-122.8595005">
      </trkpt>
      <trkpt lat="49.1674747" lon="-122.859571">
      </trkpt>
      <trkpt lat="49.1673903" lon="-122.859834">
      </trkpt>
      <trkpt lat="49.1673683" lon="-122.859998">
      </trkpt>
    </trkseg>
    <trkseg>
      <trkpt lat="49.1673683" lon="-122.859998">
      </trkpt>
      <trkpt lat="49.1673605" lon="-122.8601599">
      </trkpt>
    </trkseg>
    <trkseg>
      <trkpt lat="49.1673605" lon="-122.8601599">
      </trkpt>
      <trkpt lat="49.1673282" lon="-122.8605846">
      </trkpt>
      <trkpt lat="49.1673175" lon="-122.8606832">
      </trkpt>
      <trkpt lat="49.1673023" lon="-122.8607796">
      </trkpt>
      <trkpt lat="49.1672803" lon="-122.8608736">
      </trkpt>
      <trkpt lat="49.1672553" lon="-122.8609585">
      </trkpt>
      <trkpt lat="49.1672026" lon="-122.8610952">
      </trkpt>
      <trkpt lat="49.1671262" lon="-122.8612717">
      </trkpt>
      <trkpt lat="49.1670851" lon="-122.8613978">
      </trkpt>
      <trkpt lat="49.1670469" lon="-122.8615337">
      </trkpt>
      <trkpt lat="49.1669225" lon="-122.8620472">
      </trkpt>
      <trkpt lat="49.1668705" lon="-122.8623358">
      </trkpt>
      <trkpt lat="49.1668349" lon="-122.8625785">
      </trkpt>
      <trkpt lat="49.1667927" lon="-122.8628004">
      </trkpt>
      <trkpt lat="49.166731" lon="-122.8630292">
      </trkpt>
      <trkpt lat="49.1666288" lon="-122.8633554">
      </trkpt>
      <trkpt lat="49.1665603" lon="-122.8636576">
      </trkpt>
      <trkpt lat="49.1665156" lon="-122.8638625">
      </trkpt>
      <trkpt lat="49.1664529" lon="-122.8640812">
      </trkpt>
      <trkpt lat="49.1664234" lon="-122.8641596">
      </trkpt>
      <trkpt lat="49.1663894" lon="-122.8642335">
      </trkpt>
      <trkpt lat="49.1663419" lon="-122.8643245">
      </trkpt>
      <trkpt lat="49.1662944" lon="-122.8643938">
      </trkpt>
      <trkpt lat="49.1660503" lon="-122.8646725">
      </trkpt>
      <trkpt lat="49.1659901" lon="-122.8647569">
      </trkpt>
      <trkpt lat="49.165959" lon="-122.8648156">
      </trkpt>
      <trkpt lat="49.1659339" lon="-122.8648898">
      </trkpt>
      <trkpt lat="49.1654177" lon="-122.8669939">
      </trkpt>
      <trkpt lat="49.1653894" lon="-122.8671108">
      </trkpt>
      <trkpt lat="49.1653733" lon="-122.8672404">
      </trkpt>
      <trkpt lat="49.1653651" lon="-122.8675485">
      </trkpt>
      <trkpt lat="49.1653651" lon="-122.8677852">
      </trkpt>
      <trkpt lat="49.1653667" lon="-122.8678985">
      </trkpt>
      <trkpt lat="49.1653668" lon="-122.8679102">
      </trkpt>
    </trkseg>
    <trkseg>
      <trkpt lat="49.1653668" lon="-122.8679102">
      </trkpt>
      <trkpt lat="49.1653671" lon="-122.86797">
      </trkpt>
      <trkpt lat="49.1653674" lon="-122.8680217">
      </trkpt>
    </trkseg>
    <trkseg>
      <trkpt lat="49.1653674" lon="-122.8680217">
      </trkpt>
      <trkpt lat="49.1653675" lon="-122.8680344">
      </trkpt>
      <trkpt lat="49.1654468" lon="-122.8680346">
      </trkpt>
      <trkpt lat="49.1654468" lon="-122.8680641">
      </trkpt>
    </trkseg>
    <trkseg>
      <trkpt lat="49.1654468" lon="-122.8680641">
      </trkpt>
      <trkpt lat="49.1654468" lon="-122.868077">
      </trkpt>
      <trkpt lat="49.1654469" lon="-122.8681449">
      </trkpt>
    </trkseg>
    <trkseg>
      <trkpt lat="49.1654469" lon="-122.8681449">
      </trkpt>
      <trkpt lat="49.1654465" lon="-122.8681796">
      </trkpt>
      <trkpt lat="49.1654464" lon="-122.8681912">
      </trkpt>
      <trkpt lat="49.1654438" lon="-122.8684308">
      </trkpt>
      <trkpt lat="49.1654332" lon="-122.8685277">
      </trkpt>
      <trkpt lat="49.1654154" lon="-122.8686246">
      </trkpt>
      <trkpt lat="49.1652531" lon="-122.8692934">
      </trkpt>
      <trkpt lat="49.1652171" lon="-122.8694085">
      </trkpt>
      <trkpt lat="49.1651693" lon="-122.86952">
      </trkpt>
      <trkpt lat="49.1650345" lon="-122.8697865">
      </trkpt>
      <trkpt lat="49.1649944" lon="-122.8698864">
      </trkpt>
      <trkpt lat="49.1649592" lon="-122.869997">
      </trkpt>
      <trkpt lat="49.1647832" lon="-122.870675">
      </trkpt>
      <trkpt lat="49.164658" lon="-122.8711427">
      </trkpt>
      <trkpt lat="49.1646397" lon="-122.8712539">
      </trkpt>
      <trkpt lat="49.1646309" lon="-122.8713731">
      </trkpt>
      <trkpt lat="49.1646228" lon="-122.8716078">
      </trkpt>
      <trkpt lat="49.164608" lon="-122.8720122">
      </trkpt>
      <trkpt lat="49.1646018" lon="-122.8721813">
      </trkpt>
    </trkseg>
    <trkseg>
      <trkpt lat="49.1646018" lon="-122.8721813">
      </trkpt>
      <trkpt lat="49.1646416" lon="-122.8734085">
      </trkpt>
      <trkpt lat="49.1646426" lon="-122.8734379">
      </trkpt>
      <trkpt lat="49.1646462" lon="-122.8735504">
      </trkpt>
    </trkseg>
    <trkseg>
      <trkpt lat="49.1646462" lon="-122.8735504">
      </trkpt>
      <trkpt lat="49.1646543" lon="-122.8737232">
      </trkpt>
    </trkseg>
    <trkseg>
      <trkpt lat="49.1646543" lon="-122.8737232">
      </trkpt>
      <trkpt lat="49.164605" lon="-122.8737238">
      </trkpt>
    </trkseg>
    <trkseg>
      <trkpt lat="49.164563" lon="-122.8735485">
      </trkpt>
      <trkpt lat="49.1645636" lon="-122.8736496">
      </trkpt>
    </trkseg>
    <trkseg>
      <trkpt lat="49.1645636" lon="-122.8736496">
      </trkpt>
      <trkpt lat="49.164588" lon="-122.8736598">
      </trkpt>
      <trkpt lat="49.1646054" lon="-122.8736888">
      </trkpt>
    </trkseg>
    <trkseg>
      <trkpt lat="49.1646054" lon="-122.8736888">
      </trkpt>
      <trkpt lat="49.164605" lon="-122.8737238">
      </trkpt>
      <trkpt lat="49.1646044" lon="-122.8737786">
      </trkpt>
      <trkpt lat="49.1645436" lon="-122.8737647">
      </trkpt>
      <trkpt lat="49.1644712" lon="-122.873751">
      </trkpt>
      <trkpt lat="49.1644152" lon="-122.87373">
      </trkpt>
      <trkpt lat="49.1643654" lon="-122.8737131">
      </trkpt>
      <trkpt lat="49.1638262" lon="-122.8736908">
      </trkpt>
    </trkseg>
    <trkseg>
      <trkpt lat="49.1638262" lon="-122.8736908">
      </trkpt>
      <trkpt lat="49.1637629" lon="-122.873689">
      </trkpt>
      <trkpt lat="49.1637073" lon="-122.8736896">
      </trkpt>
    </trkseg>
    <trkseg>
      <trkpt lat="49.1637073" lon="-122.8736896">
      </trkpt>
      <trkpt lat="49.1633609" lon="-122.8736793">
      </trkpt>
      <trkpt lat="49.1632352" lon="-122.8736759">
      </trkpt>
      <trkpt lat="49.1630891" lon="-122.8736789">
      </trkpt>
      <trkpt lat="49.1630633" lon="-122.8736977">
      </trkpt>
      <trkpt lat="49.1630361" lon="-122.8737293">
      </trkpt>
      <trkpt lat="49.1630194" lon="-122.8737557">
      </trkpt>
    </trkseg>
    <trkseg>
      <trkpt lat="49.1630648" lon="-122.8744811">
      </trkpt>
      <trkpt lat="49.1630609" lon="-122.8744218">
      </trkpt>
      <trkpt lat="49.1630366" lon="-122.8740511">
      </trkpt>
      <trkpt lat="49.1630286" lon="-122.8739302">
      </trkpt>
      <trkpt lat="49.163021" lon="-122.8738136">
      </trkpt>
      <trkpt lat="49.1630194" lon="-122.8737557">
      </trkpt>
    </trkseg>
    <trkseg>
      <trkpt lat="49.1631521" lon="-122.8760563">
      </trkpt>
      <trkpt lat="49.1631672" lon="-122.8760276">
      </trkpt>
      <trkpt lat="49.1631242" lon="-122.8753869">
      </trkpt>
      <trkpt lat="49.1630648" lon="-122.8744811">
      </trkpt>
    </trkseg>
    <trkseg>
      <trkpt lat="49.1631801" lon="-122.8763818">
      </trkpt>
      <trkpt lat="49.1631699" lon="-122.876267">
      </trkpt>
      <trkpt lat="49.1631596" lon="-122.876143">
      </trkpt>
      <trkpt lat="49.1631521" lon="-122.8760563">
      </trkpt>
    </trkseg>
    <trkseg>
      <trkpt lat="49.1632538" lon="-122.8773381">
      </trkpt>
      <trkpt lat="49.1632509" lon="-122.8773054">
      </trkpt>
      <trkpt lat="49.1632119" lon="-122.8767256">
      </trkpt>
      <trkpt lat="49.1632027" lon="-122.8765885">
      </trkpt>
      <trkpt lat="49.1631917" lon="-122.876425">
      </trkpt>
      <trkpt lat="49.1631801" lon="-122.8763818">
      </trkpt>
    </trkseg>
    <trkseg>
      <trkpt lat="49.1632675" lon="-122.8775385">
      </trkpt>
      <trkpt lat="49.1632602" lon="-122.877432">
      </trkpt>
      <trkpt lat="49.1632538" lon="-122.8773381">
      </trkpt>
    </trkseg>
    <trkseg>
      <trkpt lat="49.1633585" lon="-122.8787743">
      </trkpt>
      <trkpt lat="49.1633328" lon="-122.8787264">
      </trkpt>
      <trkpt lat="49.1633303" lon="-122.8786454">
      </trkpt>
      <trkpt lat="49.1633118" lon="-122.878321">
      </trkpt>
      <trkpt lat="49.1632993" lon="-122.878102">
      </trkpt>
      <trkpt lat="49.1632755" lon="-122.8776795">
      </trkpt>
      <trkpt lat="49.1632675" lon="-122.8775385">
      </trkpt>
    </trkseg>
    <trkseg>
      <trkpt lat="49.1633316" lon="-122.8788712">
      </trkpt>
      <trkpt lat="49.1633417" lon="-122.8788348">
      </trkpt>
      <trkpt lat="49.1633585" lon="-122.8787743">
      </trkpt>
    </trkseg>
    <trkseg>
      <trkpt lat="49.1633317" lon="-122.8789031">
      </trkpt>
      <trkpt lat="49.1633316" lon="-122.8788712">
      </trkpt>
    </trkseg>
    <trkseg>
      <trkpt lat="49.1633365" lon="-122.8791264">
      </trkpt>
      <trkpt lat="49.1633338" lon="-122.879001">
      </trkpt>
      <trkpt lat="49.1633317" lon="-122.8789031">
      </trkpt>
    </trkseg>
    <trkseg>
      <trkpt lat="49.163347" lon="-122.8804607">
      </trkpt>
      <trkpt lat="49.1633467" lon="-122.8804187">
      </trkpt>
      <trkpt lat="49.1633417" lon="-122.8795708">
      </trkpt>
      <trkpt lat="49.1633366" lon="-122.8791439">
      </trkpt>
      <trkpt lat="49.1633365" lon="-122.8791264">
      </trkpt>
    </trkseg>
    <trkseg>
      <trkpt lat="49.1633461" lon="-122.8805606">
      </trkpt>
      <trkpt lat="49.1633461" lon="-122.8805109">
      </trkpt>
      <trkpt lat="49.163347" lon="-122.8804607">
      </trkpt>
    </trkseg>
    <trkseg>
      <trkpt lat="49.1633432" lon="-122.8822029">
      </trkpt>
      <trkpt lat="49.1633461" lon="-122.8805957">
      </trkpt>
      <trkpt lat="49.1633461" lon="-122.8805606">
      </trkpt>
    </trkseg>
    <trkseg>
      <trkpt lat="49.1633423" lon="-122.8824714">
      </trkpt>
      <trkpt lat="49.1633428" lon="-122.882326">
      </trkpt>
      <trkpt lat="49.1633432" lon="-122.8822029">
      </trkpt>
    </trkseg>
    <trkseg>
      <trkpt lat="49.1629927" lon="-122.8848499">
      </trkpt>
      <trkpt lat="49.1630113" lon="-122.8848467">
      </trkpt>
      <trkpt lat="49.1631173" lon="-122.8846084">
      </trkpt>
      <trkpt lat="49.1632168" lon="-122.8843604">
      </trkpt>
      <trkpt lat="49.1632682" lon="-122.884105">
      </trkpt>
      <trkpt lat="49.1633034" lon="-122.8838203">
      </trkpt>
      <trkpt lat="49.1633336" lon="-122.8834581">
      </trkpt>
      <trkpt lat="49.1633423" lon="-122.8824714">
      </trkpt>
    </trkseg>
    <trkseg>
      <trkpt lat="49.1628604" lon="-122.8850515">
      </trkpt>
      <trkpt lat="49.1629203" lon="-122.8849596">
      </trkpt>
      <trkpt lat="49.1629927" lon="-122.8848499">
      </trkpt>
    </trkseg>
    <trkseg>
      <trkpt lat="49.162089" lon="-122.8870099">
      </trkpt>
      <trkpt lat="49.1620987" lon="-122.8868353">
      </trkpt>
      <trkpt lat="49.1621182" lon="-122.8867003">
      </trkpt>
      <trkpt lat="49.1621978" lon="-122.8863474">
      </trkpt>
      <trkpt lat="49.1623271" lon="-122.8859389">
      </trkpt>
      <trkpt lat="49.1624345" lon="-122.8856756">
      </trkpt>
      <trkpt lat="49.1628188" lon="-122.8851124">
      </trkpt>
      <trkpt lat="49.1628604" lon="-122.8850515">
      </trkpt>
    </trkseg>
    <trkseg>
      <trkpt lat="49.1620908" lon="-122.887234">
      </trkpt>
      <trkpt lat="49.1620898" lon="-122.887117">
      </trkpt>
      <trkpt lat="49.162089" lon="-122.8870099">
      </trkpt>
    </trkseg>
    <trkseg>
      <trkpt lat="49.1621661" lon="-122.8886614">
      </trkpt>
      <trkpt lat="49.1621345" lon="-122.8881364">
      </trkpt>
      <trkpt lat="49.1621169" lon="-122.8877321">
      </trkpt>
      <trkpt lat="49.1620908" lon="-122.887234">
      </trkpt>
    </trkseg>
    <trkseg>
      <trkpt lat="49.1621737" lon="-122.8888098">
      </trkpt>
      <trkpt lat="49.1621695" lon="-122.888728">
      </trkpt>
      <trkpt lat="49.1621661" lon="-122.8886614">
      </trkpt>
    </trkseg>
    <trkseg>
      <trkpt lat="49.162176" lon="-122.8901588">
      </trkpt>
      <trkpt lat="49.1621815" lon="-122.8900138">
      </trkpt>
      <trkpt lat="49.1621853" lon="-122.889768">
      </trkpt>
      <trkpt lat="49.1621739" lon="-122.888825">
      </trkpt>
      <trkpt lat="49.1621737" lon="-122.8888098">
      </trkpt>
    </trkseg>
    <trkseg>
      <trkpt lat="49.164563" lon="-122.8735485">
      </trkpt>
      <trkpt lat="49.1646462" lon="-122.8735504">
      </trkpt>
    </trkseg>
    <trkseg>
      <trkpt lat="49.1753962" lon="-122.824989">
      </trkpt>
      <trkpt lat="49.1753648" lon="-122.8250246">
      </trkpt>
      <trkpt lat="49.1753281" lon="-122.8250656">
      </trkpt>
    </trkseg>
    <trkseg>
      <trkpt lat="49.1755239" lon="-122.8247977">
      </trkpt>
      <trkpt lat="49.1754765" lon="-122.8248721">
      </trkpt>
      <trkpt lat="49.1754517" lon="-122.8249118">
      </trkpt>
      <trkpt lat="49.1754087" lon="-122.8249756">
      </trkpt>
      <trkpt lat="49.1753962" lon="-122.824989">
      </trkpt>
    </trkseg>
    <trkseg>
      <trkpt lat="49.1754869" lon="-122.8238041">
      </trkpt>
      <trkpt lat="49.1754906" lon="-122.8238188">
      </trkpt>
      <trkpt lat="49.1755211" lon="-122.8239994">
      </trkpt>
      <trkpt lat="49.1755323" lon="-122.8241225">
      </trkpt>
      <trkpt lat="49.1755239" lon="-122.8247977">
      </trkpt>
    </trkseg>
    <trkseg>
      <trkpt lat="49.1754712" lon="-122.823741">
      </trkpt>
      <trkpt lat="49.1754824" lon="-122.8237858">
      </trkpt>
      <trkpt lat="49.1754869" lon="-122.8238041">
      </trkpt>
    </trkseg>
    <trkseg>
      <trkpt lat="49.1756555" lon="-122.8123959">
      </trkpt>
      <trkpt lat="49.1756301" lon="-122.8124696">
      </trkpt>
      <trkpt lat="49.1756166" lon="-122.8125508">
      </trkpt>
      <trkpt lat="49.1756305" lon="-122.8126954">
      </trkpt>
      <trkpt lat="49.1756327" lon="-122.8128527">
      </trkpt>
      <trkpt lat="49.1756287" lon="-122.813041">
      </trkpt>
      <trkpt lat="49.1756264" lon="-122.8131232">
      </trkpt>
      <trkpt lat="49.1756177" lon="-122.8131955">
      </trkpt>
      <trkpt lat="49.1755932" lon="-122.813253">
      </trkpt>
      <trkpt lat="49.1754652" lon="-122.8134706">
      </trkpt>
      <trkpt lat="49.1754451" lon="-122.8135336">
      </trkpt>
      <trkpt lat="49.1754247" lon="-122.8136018">
      </trkpt>
      <trkpt lat="49.17542" lon="-122.814239">
      </trkpt>
      <trkpt lat="49.1754245" lon="-122.8143313">
      </trkpt>
      <trkpt lat="49.1754387" lon="-122.8144075">
      </trkpt>
      <trkpt lat="49.1755062" lon="-122.8145845">
      </trkpt>
      <trkpt lat="49.175546" lon="-122.8147154">
      </trkpt>
      <trkpt lat="49.175561" lon="-122.8147852">
      </trkpt>
      <trkpt lat="49.175569" lon="-122.8148549">
      </trkpt>
      <trkpt lat="49.1755743" lon="-122.8149386">
      </trkpt>
      <trkpt lat="49.1755718" lon="-122.8153678">
      </trkpt>
      <trkpt lat="49.1755762" lon="-122.8158184">
      </trkpt>
      <trkpt lat="49.1755662" lon="-122.8159342">
      </trkpt>
      <trkpt lat="49.1755528" lon="-122.8160361">
      </trkpt>
      <trkpt lat="49.1755314" lon="-122.8161139">
      </trkpt>
      <trkpt lat="49.1754989" lon="-122.8161914">
      </trkpt>
      <trkpt lat="49.1754693" lon="-122.8162602">
      </trkpt>
      <trkpt lat="49.1754283" lon="-122.8163402">
      </trkpt>
      <trkpt lat="49.1754026" lon="-122.8164267">
      </trkpt>
      <trkpt lat="49.1753925" lon="-122.8164826">
      </trkpt>
      <trkpt lat="49.1753901" lon="-122.8168637">
      </trkpt>
      <trkpt lat="49.1753729" lon="-122.8171262">
      </trkpt>
      <trkpt lat="49.1753652" lon="-122.8172591">
      </trkpt>
      <trkpt lat="49.1753635" lon="-122.817393">
      </trkpt>
      <trkpt lat="49.1753605" lon="-122.8177358">
      </trkpt>
      <trkpt lat="49.1753607" lon="-122.8178713">
      </trkpt>
      <trkpt lat="49.1753679" lon="-122.8179488">
      </trkpt>
      <trkpt lat="49.1753758" lon="-122.8180303">
      </trkpt>
      <trkpt lat="49.1753855" lon="-122.8181135">
      </trkpt>
      <trkpt lat="49.1753898" lon="-122.8181977">
      </trkpt>
      <trkpt lat="49.175383" lon="-122.818555">
      </trkpt>
      <trkpt lat="49.1753811" lon="-122.8189696">
      </trkpt>
      <trkpt lat="49.1753791" lon="-122.8193843">
      </trkpt>
      <trkpt lat="49.1753786" lon="-122.8197792">
      </trkpt>
      <trkpt lat="49.1753795" lon="-122.8201719">
      </trkpt>
      <trkpt lat="49.1753972" lon="-122.8205988">
      </trkpt>
      <trkpt lat="49.1753981" lon="-122.8210037">
      </trkpt>
      <trkpt lat="49.1754049" lon="-122.8210723">
      </trkpt>
      <trkpt lat="49.1754195" lon="-122.8211449">
      </trkpt>
      <trkpt lat="49.1754531" lon="-122.8212682">
      </trkpt>
      <trkpt lat="49.1754923" lon="-122.8213903">
      </trkpt>
      <trkpt lat="49.1755252" lon="-122.8215273">
      </trkpt>
      <trkpt lat="49.1755511" lon="-122.8216736">
      </trkpt>
      <trkpt lat="49.175557" lon="-122.8217706">
      </trkpt>
      <trkpt lat="49.1755515" lon="-122.8228161">
      </trkpt>
      <trkpt lat="49.1755432" lon="-122.822926">
      </trkpt>
      <trkpt lat="49.175535" lon="-122.8230061">
      </trkpt>
      <trkpt lat="49.1755049" lon="-122.8231685">
      </trkpt>
      <trkpt lat="49.175479" lon="-122.8233341">
      </trkpt>
      <trkpt lat="49.1754607" lon="-122.8234705">
      </trkpt>
      <trkpt lat="49.1754564" lon="-122.8236087">
      </trkpt>
      <trkpt lat="49.1754622" lon="-122.8237047">
      </trkpt>
      <trkpt lat="49.1754712" lon="-122.823741">
      </trkpt>
    </trkseg>
    <trkseg>
      <trkpt lat="49.1756061" lon="-122.8121616">
      </trkpt>
      <trkpt lat="49.175606" lon="-122.812225">
      </trkpt>
      <trkpt lat="49.1756059" lon="-122.8122727">
      </trkpt>
      <trkpt lat="49.1756569" lon="-122.8122732">
      </trkpt>
      <trkpt lat="49.1756562" lon="-122.81233">
      </trkpt>
      <trkpt lat="49.1756555" lon="-122.8123959">
      </trkpt>
    </trkseg>
    <trkseg>
      <trkpt lat="49.1754168" lon="-122.8067129">
      </trkpt>
      <trkpt lat="49.1754175" lon="-122.8067934">
      </trkpt>
      <trkpt lat="49.1754261" lon="-122.8072951">
      </trkpt>
      <trkpt lat="49.1754334" lon="-122.8085843">
      </trkpt>
      <trkpt lat="49.1754249" lon="-122.8089523">
      </trkpt>
      <trkpt lat="49.1754224" lon="-122.809254">
      </trkpt>
      <trkpt lat="49.1754214" lon="-122.8096361">
      </trkpt>
      <trkpt lat="49.1754237" lon="-122.811252">
      </trkpt>
      <trkpt lat="49.1754279" lon="-122.8112894">
      </trkpt>
      <trkpt lat="49.1754355" lon="-122.8113328">
      </trkpt>
      <trkpt lat="49.175445" lon="-122.8113701">
      </trkpt>
      <trkpt lat="49.1754554" lon="-122.8113984">
      </trkpt>
      <trkpt lat="49.1754672" lon="-122.8114198">
      </trkpt>
      <trkpt lat="49.1754827" lon="-122.8114443">
      </trkpt>
      <trkpt lat="49.1755171" lon="-122.8114891">
      </trkpt>
      <trkpt lat="49.1755734" lon="-122.8115701">
      </trkpt>
      <trkpt lat="49.1755845" lon="-122.8115959">
      </trkpt>
      <trkpt lat="49.175592" lon="-122.8116238">
      </trkpt>
      <trkpt lat="49.1755983" lon="-122.8116523">
      </trkpt>
      <trkpt lat="49.1756018" lon="-122.8116818">
      </trkpt>
      <trkpt lat="49.1756044" lon="-122.8117204">
      </trkpt>
      <trkpt lat="49.175605" lon="-122.8120947">
      </trkpt>
      <trkpt lat="49.1756061" lon="-122.8121616">
      </trkpt>
    </trkseg>
    <trkseg>
      <trkpt lat="49.1754182" lon="-122.8066437">
      </trkpt>
      <trkpt lat="49.1754172" lon="-122.806691">
      </trkpt>
      <trkpt lat="49.1754168" lon="-122.8067129">
      </trkpt>
    </trkseg>
  </trk>
</gpx>