<?xml version="1.0" encoding="UTF-8"?>
<gpx xmlns="http://www.topografix.com/GPX/1/1" xmlns:xsi="http://www.w3.org/2001/XMLSchema-instance" xsi:schemaLocation="http://www.topografix.com/GPX/1/1 http://www.topografix.com/GPX/1/1/gpx.xsd" version="1.1" creator="gpx.py -- https://github.com/tkrajina/gpxpy">
  <trk>
    <name>Bose Greenway</name>
    <trkseg>
      <trkpt lat="49.1187983" lon="-122.7698517">
      </trkpt>
      <trkpt lat="49.118798" lon="-122.7697783">
      </trkpt>
      <trkpt lat="49.1187967" lon="-122.7689765">
      </trkpt>
      <trkpt lat="49.118797" lon="-122.7689527">
      </trkpt>
      <trkpt lat="49.1187972" lon="-122.7689133">
      </trkpt>
    </trkseg>
    <trkseg>
      <trkpt lat="49.1187972" lon="-122.7689133">
      </trkpt>
      <trkpt lat="49.1187976" lon="-122.768837">
      </trkpt>
      <trkpt lat="49.1187978" lon="-122.768777">
      </trkpt>
    </trkseg>
    <trkseg>
      <trkpt lat="49.1187978" lon="-122.768777">
      </trkpt>
      <trkpt lat="49.1187979" lon="-122.7687197">
      </trkpt>
      <trkpt lat="49.1187978" lon="-122.7686989">
      </trkpt>
      <trkpt lat="49.118797" lon="-122.7684382">
      </trkpt>
      <trkpt lat="49.1187972" lon="-122.7684236">
      </trkpt>
      <trkpt lat="49.1188001" lon="-122.7684089">
      </trkpt>
      <trkpt lat="49.1188177" lon="-122.7683554">
      </trkpt>
      <trkpt lat="49.1188212" lon="-122.7683387">
      </trkpt>
      <trkpt lat="49.118823" lon="-122.7683219">
      </trkpt>
      <trkpt lat="49.1188229" lon="-122.7679309">
      </trkpt>
      <trkpt lat="49.1188246" lon="-122.7678145">
      </trkpt>
      <trkpt lat="49.1188224" lon="-122.7677285">
      </trkpt>
      <trkpt lat="49.1188132" lon="-122.7675688">
      </trkpt>
      <trkpt lat="49.1188105" lon="-122.7674838">
      </trkpt>
      <trkpt lat="49.1188117" lon="-122.7674064">
      </trkpt>
      <trkpt lat="49.1188167" lon="-122.7672642">
      </trkpt>
      <trkpt lat="49.1188284" lon="-122.7670644">
      </trkpt>
      <trkpt lat="49.1188286" lon="-122.7670241">
      </trkpt>
      <trkpt lat="49.118827" lon="-122.7669829">
      </trkpt>
      <trkpt lat="49.1188134" lon="-122.7667623">
      </trkpt>
      <trkpt lat="49.1188089" lon="-122.766395">
      </trkpt>
      <trkpt lat="49.118809" lon="-122.7663765">
      </trkpt>
      <trkpt lat="49.118809" lon="-122.766362">
      </trkpt>
    </trkseg>
    <trkseg>
      <trkpt lat="49.118809" lon="-122.766362">
      </trkpt>
      <trkpt lat="49.1188095" lon="-122.766281">
      </trkpt>
      <trkpt lat="49.1188098" lon="-122.766226">
      </trkpt>
    </trkseg>
    <trkseg>
      <trkpt lat="49.1188098" lon="-122.766226">
      </trkpt>
      <trkpt lat="49.1188097" lon="-122.7662072">
      </trkpt>
      <trkpt lat="49.1188096" lon="-122.7661861">
      </trkpt>
      <trkpt lat="49.1188307" lon="-122.7658714">
      </trkpt>
      <trkpt lat="49.1188162" lon="-122.765534">
      </trkpt>
      <trkpt lat="49.1188069" lon="-122.7652827">
      </trkpt>
      <trkpt lat="49.1188029" lon="-122.7651752">
      </trkpt>
      <trkpt lat="49.1188022" lon="-122.7651561">
      </trkpt>
      <trkpt lat="49.1188019" lon="-122.7650821">
      </trkpt>
    </trkseg>
    <trkseg>
      <trkpt lat="49.1188519" lon="-122.7650808">
      </trkpt>
      <trkpt lat="49.1188406" lon="-122.7650805">
      </trkpt>
      <trkpt lat="49.1188019" lon="-122.7650821">
      </trkpt>
    </trkseg>
    <trkseg>
      <trkpt lat="49.1189888" lon="-122.7650777">
      </trkpt>
      <trkpt lat="49.1188917" lon="-122.7650793">
      </trkpt>
      <trkpt lat="49.1188519" lon="-122.7650808">
      </trkpt>
    </trkseg>
    <trkseg>
      <trkpt lat="49.1190267" lon="-122.7650778">
      </trkpt>
      <trkpt lat="49.1189888" lon="-122.7650777">
      </trkpt>
    </trkseg>
    <trkseg>
      <trkpt lat="49.1190914" lon="-122.7650751">
      </trkpt>
      <trkpt lat="49.1190267" lon="-122.7650778">
      </trkpt>
    </trkseg>
    <trkseg>
      <trkpt lat="49.1187033" lon="-122.7238139">
      </trkpt>
      <trkpt lat="49.1187039" lon="-122.723935">
      </trkpt>
      <trkpt lat="49.1187077" lon="-122.724639">
      </trkpt>
    </trkseg>
    <trkseg>
      <trkpt lat="49.1187077" lon="-122.724639">
      </trkpt>
      <trkpt lat="49.1186694" lon="-122.7248168">
      </trkpt>
      <trkpt lat="49.1186439" lon="-122.7249478">
      </trkpt>
      <trkpt lat="49.118624" lon="-122.7250638">
      </trkpt>
      <trkpt lat="49.118618" lon="-122.7251509">
      </trkpt>
      <trkpt lat="49.1186148" lon="-122.7252402">
      </trkpt>
      <trkpt lat="49.1186155" lon="-122.7261815">
      </trkpt>
      <trkpt lat="49.1186229" lon="-122.7262931">
      </trkpt>
      <trkpt lat="49.1186596" lon="-122.7266456">
      </trkpt>
      <trkpt lat="49.1186668" lon="-122.7267534">
      </trkpt>
      <trkpt lat="49.118668" lon="-122.7268924">
      </trkpt>
      <trkpt lat="49.1186672" lon="-122.7269973">
      </trkpt>
      <trkpt lat="49.1186453" lon="-122.7277942">
      </trkpt>
      <trkpt lat="49.1186417" lon="-122.7279448">
      </trkpt>
      <trkpt lat="49.1186399" lon="-122.7282926">
      </trkpt>
      <trkpt lat="49.1186366" lon="-122.7283887">
      </trkpt>
      <trkpt lat="49.118646" lon="-122.7284869">
      </trkpt>
      <trkpt lat="49.1186479" lon="-122.7286345">
      </trkpt>
      <trkpt lat="49.1186522" lon="-122.7296611">
      </trkpt>
      <trkpt lat="49.1186528" lon="-122.7302401">
      </trkpt>
      <trkpt lat="49.1186532" lon="-122.7306809">
      </trkpt>
      <trkpt lat="49.1186532" lon="-122.730732">
      </trkpt>
    </trkseg>
    <trkseg>
      <trkpt lat="49.1186532" lon="-122.730732">
      </trkpt>
      <trkpt lat="49.1186522" lon="-122.730828">
      </trkpt>
      <trkpt lat="49.1186522" lon="-122.7309408">
      </trkpt>
    </trkseg>
    <trkseg>
      <trkpt lat="49.1186522" lon="-122.7309408">
      </trkpt>
      <trkpt lat="49.1186522" lon="-122.7310023">
      </trkpt>
      <trkpt lat="49.1186522" lon="-122.7314497">
      </trkpt>
      <trkpt lat="49.1186341" lon="-122.7316161">
      </trkpt>
      <trkpt lat="49.1186268" lon="-122.7316805">
      </trkpt>
      <trkpt lat="49.1186144" lon="-122.7317456">
      </trkpt>
      <trkpt lat="49.1185602" lon="-122.7319409">
      </trkpt>
      <trkpt lat="49.1185574" lon="-122.7319731">
      </trkpt>
      <trkpt lat="49.1185545" lon="-122.7320241">
      </trkpt>
      <trkpt lat="49.1185588" lon="-122.7320982">
      </trkpt>
      <trkpt lat="49.1185706" lon="-122.7321562">
      </trkpt>
      <trkpt lat="49.1185758" lon="-122.7322017">
      </trkpt>
      <trkpt lat="49.1185994" lon="-122.7325097">
      </trkpt>
      <trkpt lat="49.1186072" lon="-122.7325726">
      </trkpt>
      <trkpt lat="49.11861" lon="-122.7326209">
      </trkpt>
      <trkpt lat="49.1186064" lon="-122.7326679">
      </trkpt>
      <trkpt lat="49.1185962" lon="-122.7327123">
      </trkpt>
      <trkpt lat="49.1185486" lon="-122.7328527">
      </trkpt>
      <trkpt lat="49.1185356" lon="-122.7328911">
      </trkpt>
      <trkpt lat="49.1185293" lon="-122.7329333">
      </trkpt>
      <trkpt lat="49.1185226" lon="-122.7331672">
      </trkpt>
      <trkpt lat="49.1185272" lon="-122.7332078">
      </trkpt>
      <trkpt lat="49.1185367" lon="-122.7332433">
      </trkpt>
      <trkpt lat="49.1185773" lon="-122.7333721">
      </trkpt>
      <trkpt lat="49.1185986" lon="-122.7334678">
      </trkpt>
      <trkpt lat="49.1186117" lon="-122.7335635">
      </trkpt>
      <trkpt lat="49.1186149" lon="-122.7336321">
      </trkpt>
      <trkpt lat="49.1186098" lon="-122.7336931">
      </trkpt>
      <trkpt lat="49.1185964" lon="-122.7337617">
      </trkpt>
      <trkpt lat="49.1185755" lon="-122.7338595">
      </trkpt>
      <trkpt lat="49.1185391" lon="-122.7341487">
      </trkpt>
      <trkpt lat="49.1185664" lon="-122.7345896">
      </trkpt>
      <trkpt lat="49.1185724" lon="-122.734657">
      </trkpt>
      <trkpt lat="49.118654" lon="-122.73468">
      </trkpt>
    </trkseg>
    <trkseg>
      <trkpt lat="49.118654" lon="-122.73468">
      </trkpt>
      <trkpt lat="49.1187357" lon="-122.7347014">
      </trkpt>
      <trkpt lat="49.1188189" lon="-122.7347231">
      </trkpt>
      <trkpt lat="49.1188951" lon="-122.734743">
      </trkpt>
    </trkseg>
    <trkseg>
      <trkpt lat="49.1188951" lon="-122.734743">
      </trkpt>
      <trkpt lat="49.1188979" lon="-122.7348832">
      </trkpt>
      <trkpt lat="49.1189014" lon="-122.7350597">
      </trkpt>
      <trkpt lat="49.1189049" lon="-122.7352351">
      </trkpt>
    </trkseg>
    <trkseg>
      <trkpt lat="49.1189049" lon="-122.7352351">
      </trkpt>
      <trkpt lat="49.1189056" lon="-122.7358981">
      </trkpt>
      <trkpt lat="49.1189061" lon="-122.7362994">
      </trkpt>
      <trkpt lat="49.1188952" lon="-122.7363498">
      </trkpt>
    </trkseg>
    <trkseg>
      <trkpt lat="49.1188952" lon="-122.7363498">
      </trkpt>
      <trkpt lat="49.1188953" lon="-122.736429">
      </trkpt>
      <trkpt lat="49.1188954" lon="-122.7364722">
      </trkpt>
      <trkpt lat="49.1188955" lon="-122.7365154">
      </trkpt>
    </trkseg>
    <trkseg>
      <trkpt lat="49.1188955" lon="-122.7365154">
      </trkpt>
      <trkpt lat="49.1189083" lon="-122.7365634">
      </trkpt>
      <trkpt lat="49.1189123" lon="-122.7370506">
      </trkpt>
    </trkseg>
    <trkseg>
      <trkpt lat="49.1189123" lon="-122.7370506">
      </trkpt>
      <trkpt lat="49.1188823" lon="-122.7371309">
      </trkpt>
      <trkpt lat="49.1188858" lon="-122.737921">
      </trkpt>
      <trkpt lat="49.1189188" lon="-122.7379745">
      </trkpt>
    </trkseg>
    <trkseg>
      <trkpt lat="49.1189188" lon="-122.7379745">
      </trkpt>
      <trkpt lat="49.1189248" lon="-122.7391881">
      </trkpt>
      <trkpt lat="49.1189249" lon="-122.7392129">
      </trkpt>
      <trkpt lat="49.1189157" lon="-122.7392363">
      </trkpt>
    </trkseg>
    <trkseg>
      <trkpt lat="49.1189157" lon="-122.7392363">
      </trkpt>
      <trkpt lat="49.118917" lon="-122.739323">
      </trkpt>
      <trkpt lat="49.1189184" lon="-122.7394095">
      </trkpt>
    </trkseg>
    <trkseg>
      <trkpt lat="49.1189184" lon="-122.7394095">
      </trkpt>
      <trkpt lat="49.1189256" lon="-122.7394331">
      </trkpt>
      <trkpt lat="49.1189285" lon="-122.7394627">
      </trkpt>
      <trkpt lat="49.1189308" lon="-122.7397755">
      </trkpt>
      <trkpt lat="49.1189376" lon="-122.7406944">
      </trkpt>
      <trkpt lat="49.1189424" lon="-122.741924">
      </trkpt>
      <trkpt lat="49.1189395" lon="-122.742076">
      </trkpt>
      <trkpt lat="49.1189389" lon="-122.742153">
      </trkpt>
      <trkpt lat="49.1189411" lon="-122.742229">
      </trkpt>
      <trkpt lat="49.1189413" lon="-122.7422554">
      </trkpt>
      <trkpt lat="49.1189373" lon="-122.7422895">
      </trkpt>
    </trkseg>
    <trkseg>
      <trkpt lat="49.1189373" lon="-122.7422895">
      </trkpt>
      <trkpt lat="49.1189385" lon="-122.742373">
      </trkpt>
      <trkpt lat="49.1189397" lon="-122.742451">
      </trkpt>
    </trkseg>
    <trkseg>
      <trkpt lat="49.1189397" lon="-122.742451">
      </trkpt>
      <trkpt lat="49.1189455" lon="-122.7424811">
      </trkpt>
      <trkpt lat="49.1189473" lon="-122.7425063">
      </trkpt>
      <trkpt lat="49.1189493" lon="-122.7427547">
      </trkpt>
      <trkpt lat="49.1189516" lon="-122.7428043">
      </trkpt>
      <trkpt lat="49.1189554" lon="-122.7428604">
      </trkpt>
      <trkpt lat="49.1189562" lon="-122.7431479">
      </trkpt>
      <trkpt lat="49.118955" lon="-122.7431876">
      </trkpt>
      <trkpt lat="49.1189517" lon="-122.7432273">
      </trkpt>
      <trkpt lat="49.118955" lon="-122.7437089">
      </trkpt>
      <trkpt lat="49.118963" lon="-122.7438317">
      </trkpt>
      <trkpt lat="49.1189636" lon="-122.7439231">
      </trkpt>
      <trkpt lat="49.118962" lon="-122.7440102">
      </trkpt>
      <trkpt lat="49.1189585" lon="-122.7441069">
      </trkpt>
      <trkpt lat="49.118957" lon="-122.7442057">
      </trkpt>
      <trkpt lat="49.1189584" lon="-122.7443992">
      </trkpt>
      <trkpt lat="49.1189614" lon="-122.7445056">
      </trkpt>
      <trkpt lat="49.1189672" lon="-122.7446111">
      </trkpt>
      <trkpt lat="49.1189702" lon="-122.744898">
      </trkpt>
      <trkpt lat="49.11897" lon="-122.745025">
      </trkpt>
      <trkpt lat="49.1189634" lon="-122.7451153">
      </trkpt>
      <trkpt lat="49.1189606" lon="-122.745205">
      </trkpt>
      <trkpt lat="49.1189622" lon="-122.745299">
      </trkpt>
      <trkpt lat="49.118969" lon="-122.7453925">
      </trkpt>
      <trkpt lat="49.1189733" lon="-122.7454863">
      </trkpt>
      <trkpt lat="49.1189734" lon="-122.7455811">
      </trkpt>
      <trkpt lat="49.1189714" lon="-122.745669">
      </trkpt>
      <trkpt lat="49.1189638" lon="-122.7457595">
      </trkpt>
      <trkpt lat="49.1189553" lon="-122.745846">
      </trkpt>
      <trkpt lat="49.1189514" lon="-122.7459059">
      </trkpt>
    </trkseg>
    <trkseg>
      <trkpt lat="49.1189514" lon="-122.7459059">
      </trkpt>
      <trkpt lat="49.1189524" lon="-122.746013">
      </trkpt>
      <trkpt lat="49.1189535" lon="-122.7461351">
      </trkpt>
    </trkseg>
    <trkseg>
      <trkpt lat="49.1189535" lon="-122.7461351">
      </trkpt>
      <trkpt lat="49.1189597" lon="-122.7461889">
      </trkpt>
      <trkpt lat="49.118972" lon="-122.7462679">
      </trkpt>
      <trkpt lat="49.1189772" lon="-122.7463219">
      </trkpt>
      <trkpt lat="49.1189781" lon="-122.7463841">
      </trkpt>
      <trkpt lat="49.1189762" lon="-122.7464494">
      </trkpt>
      <trkpt lat="49.1189695" lon="-122.7465801">
      </trkpt>
      <trkpt lat="49.1189691" lon="-122.7467308">
      </trkpt>
      <trkpt lat="49.1189689" lon="-122.7467921">
      </trkpt>
      <trkpt lat="49.1189731" lon="-122.746872">
      </trkpt>
      <trkpt lat="49.1189788" lon="-122.7469498">
      </trkpt>
      <trkpt lat="49.1189829" lon="-122.7470695">
      </trkpt>
      <trkpt lat="49.1189814" lon="-122.7471912">
      </trkpt>
      <trkpt lat="49.1189691" lon="-122.7472573">
      </trkpt>
      <trkpt lat="49.1189631" lon="-122.747405">
      </trkpt>
      <trkpt lat="49.1189627" lon="-122.7475533">
      </trkpt>
      <trkpt lat="49.1189679" lon="-122.7477451">
      </trkpt>
      <trkpt lat="49.1189802" lon="-122.7479358">
      </trkpt>
      <trkpt lat="49.1189798" lon="-122.748216">
      </trkpt>
      <trkpt lat="49.1189788" lon="-122.7482396">
      </trkpt>
    </trkseg>
    <trkseg>
      <trkpt lat="49.1189788" lon="-122.7482396">
      </trkpt>
      <trkpt lat="49.1189752" lon="-122.748299">
      </trkpt>
      <trkpt lat="49.1189716" lon="-122.7483818">
      </trkpt>
    </trkseg>
    <trkseg>
      <trkpt lat="49.1189716" lon="-122.7483818">
      </trkpt>
      <trkpt lat="49.1189705" lon="-122.7484109">
      </trkpt>
      <trkpt lat="49.1189687" lon="-122.7484965">
      </trkpt>
      <trkpt lat="49.1189699" lon="-122.7485861">
      </trkpt>
      <trkpt lat="49.1189814" lon="-122.748808">
      </trkpt>
      <trkpt lat="49.1189867" lon="-122.7489039">
      </trkpt>
      <trkpt lat="49.1189882" lon="-122.7489534">
      </trkpt>
      <trkpt lat="49.118987" lon="-122.7490041">
      </trkpt>
      <trkpt lat="49.1189785" lon="-122.7491748">
      </trkpt>
      <trkpt lat="49.1189741" lon="-122.7493455">
      </trkpt>
      <trkpt lat="49.118974" lon="-122.7494494">
      </trkpt>
      <trkpt lat="49.1189774" lon="-122.7495121">
      </trkpt>
      <trkpt lat="49.1189895" lon="-122.7497343">
      </trkpt>
      <trkpt lat="49.1189929" lon="-122.7498339">
      </trkpt>
      <trkpt lat="49.1189907" lon="-122.7499335">
      </trkpt>
      <trkpt lat="49.1189827" lon="-122.7501317">
      </trkpt>
      <trkpt lat="49.1189796" lon="-122.7502314">
      </trkpt>
      <trkpt lat="49.118979" lon="-122.7503299">
      </trkpt>
      <trkpt lat="49.1189829" lon="-122.750429">
      </trkpt>
      <trkpt lat="49.1189879" lon="-122.7505281">
      </trkpt>
      <trkpt lat="49.118994" lon="-122.7506222">
      </trkpt>
      <trkpt lat="49.1189973" lon="-122.7507131">
      </trkpt>
      <trkpt lat="49.1189976" lon="-122.7507767">
      </trkpt>
      <trkpt lat="49.118995" lon="-122.7508392">
      </trkpt>
      <trkpt lat="49.1189911" lon="-122.7508995">
      </trkpt>
      <trkpt lat="49.1189879" lon="-122.7510306">
      </trkpt>
      <trkpt lat="49.1189861" lon="-122.7511132">
      </trkpt>
      <trkpt lat="49.1189852" lon="-122.7511337">
      </trkpt>
    </trkseg>
    <trkseg>
      <trkpt lat="49.1189852" lon="-122.7511337">
      </trkpt>
      <trkpt lat="49.118985" lon="-122.751196">
      </trkpt>
      <trkpt lat="49.1189849" lon="-122.751259">
      </trkpt>
      <trkpt lat="49.1189847" lon="-122.7513194">
      </trkpt>
    </trkseg>
    <trkseg>
      <trkpt lat="49.1189847" lon="-122.7513194">
      </trkpt>
      <trkpt lat="49.1189849" lon="-122.7513505">
      </trkpt>
      <trkpt lat="49.1189873" lon="-122.7514229">
      </trkpt>
      <trkpt lat="49.1189924" lon="-122.7514974">
      </trkpt>
      <trkpt lat="49.1190018" lon="-122.7516133">
      </trkpt>
      <trkpt lat="49.1190028" lon="-122.7517109">
      </trkpt>
      <trkpt lat="49.1190028" lon="-122.7517888">
      </trkpt>
      <trkpt lat="49.1189986" lon="-122.7518667">
      </trkpt>
      <trkpt lat="49.1189964" lon="-122.751891">
      </trkpt>
      <trkpt lat="49.1189916" lon="-122.7519436">
      </trkpt>
      <trkpt lat="49.1189875" lon="-122.7520183">
      </trkpt>
      <trkpt lat="49.1189868" lon="-122.7520967">
      </trkpt>
      <trkpt lat="49.1189875" lon="-122.7521794">
      </trkpt>
      <trkpt lat="49.118989" lon="-122.75226">
      </trkpt>
      <trkpt lat="49.1189932" lon="-122.7523385">
      </trkpt>
      <trkpt lat="49.1189976" lon="-122.7524007">
      </trkpt>
      <trkpt lat="49.1190019" lon="-122.752463">
      </trkpt>
      <trkpt lat="49.1190069" lon="-122.7525242">
      </trkpt>
      <trkpt lat="49.1190078" lon="-122.7525939">
      </trkpt>
      <trkpt lat="49.1190051" lon="-122.7527215">
      </trkpt>
      <trkpt lat="49.1189981" lon="-122.7528556">
      </trkpt>
      <trkpt lat="49.1189954" lon="-122.7529853">
      </trkpt>
      <trkpt lat="49.1189983" lon="-122.7531172">
      </trkpt>
      <trkpt lat="49.1190019" lon="-122.7532448">
      </trkpt>
      <trkpt lat="49.1190083" lon="-122.7533724">
      </trkpt>
      <trkpt lat="49.1190154" lon="-122.7535021">
      </trkpt>
      <trkpt lat="49.1190155" lon="-122.7535681">
      </trkpt>
      <trkpt lat="49.1190113" lon="-122.7536361">
      </trkpt>
      <trkpt lat="49.1189977" lon="-122.7537283">
      </trkpt>
      <trkpt lat="49.1189912" lon="-122.7538055">
      </trkpt>
      <trkpt lat="49.118988" lon="-122.7538965">
      </trkpt>
      <trkpt lat="49.1189856" lon="-122.7540011">
      </trkpt>
      <trkpt lat="49.1189908" lon="-122.754064">
      </trkpt>
      <trkpt lat="49.1189949" lon="-122.7540991">
      </trkpt>
      <trkpt lat="49.1189955" lon="-122.7541363">
      </trkpt>
      <trkpt lat="49.1189901" lon="-122.7542046">
      </trkpt>
      <trkpt lat="49.1189875" lon="-122.7542665">
      </trkpt>
      <trkpt lat="49.1189891" lon="-122.7542945">
      </trkpt>
      <trkpt lat="49.1189941" lon="-122.7543311">
      </trkpt>
      <trkpt lat="49.1189982" lon="-122.7543687">
      </trkpt>
      <trkpt lat="49.1190003" lon="-122.75441">
      </trkpt>
      <trkpt lat="49.1189984" lon="-122.754446">
      </trkpt>
      <trkpt lat="49.1189926" lon="-122.7544789">
      </trkpt>
      <trkpt lat="49.1189908" lon="-122.7545044">
      </trkpt>
      <trkpt lat="49.1189916" lon="-122.7545457">
      </trkpt>
      <trkpt lat="49.1189959" lon="-122.7545787">
      </trkpt>
      <trkpt lat="49.1189994" lon="-122.754631">
      </trkpt>
      <trkpt lat="49.1189995" lon="-122.754704">
      </trkpt>
      <trkpt lat="49.1189989" lon="-122.7547898">
      </trkpt>
      <trkpt lat="49.1189954" lon="-122.7548413">
      </trkpt>
      <trkpt lat="49.1189908" lon="-122.7548644">
      </trkpt>
      <trkpt lat="49.118989" lon="-122.7548874">
      </trkpt>
      <trkpt lat="49.1189902" lon="-122.754918">
      </trkpt>
      <trkpt lat="49.1189962" lon="-122.7549443">
      </trkpt>
      <trkpt lat="49.1190017" lon="-122.7549717">
      </trkpt>
      <trkpt lat="49.119004" lon="-122.7549969">
      </trkpt>
      <trkpt lat="49.1190057" lon="-122.7553273">
      </trkpt>
      <trkpt lat="49.1190037" lon="-122.7553649">
      </trkpt>
      <trkpt lat="49.1189989" lon="-122.7553949">
      </trkpt>
      <trkpt lat="49.1189981" lon="-122.755425">
      </trkpt>
      <trkpt lat="49.1190001" lon="-122.7554557">
      </trkpt>
      <trkpt lat="49.1190046" lon="-122.7554807">
      </trkpt>
      <trkpt lat="49.1190056" lon="-122.7555057">
      </trkpt>
      <trkpt lat="49.1190045" lon="-122.7556441">
      </trkpt>
      <trkpt lat="49.1189992" lon="-122.7556945">
      </trkpt>
      <trkpt lat="49.1189976" lon="-122.7557294">
      </trkpt>
      <trkpt lat="49.1189999" lon="-122.7557648">
      </trkpt>
      <trkpt lat="49.1190048" lon="-122.7558045">
      </trkpt>
      <trkpt lat="49.1190068" lon="-122.7559332">
      </trkpt>
      <trkpt lat="49.1190032" lon="-122.7559604">
      </trkpt>
      <trkpt lat="49.1189916" lon="-122.755988">
      </trkpt>
      <trkpt lat="49.1189909" lon="-122.7560545">
      </trkpt>
      <trkpt lat="49.1189984" lon="-122.7560733">
      </trkpt>
      <trkpt lat="49.1190006" lon="-122.7562958">
      </trkpt>
      <trkpt lat="49.1190057" lon="-122.7563281">
      </trkpt>
      <trkpt lat="49.1190204" lon="-122.7563625">
      </trkpt>
      <trkpt lat="49.1190387" lon="-122.7563873">
      </trkpt>
    </trkseg>
    <trkseg>
      <trkpt lat="49.1190387" lon="-122.7563873">
      </trkpt>
      <trkpt lat="49.1190544" lon="-122.7563969">
      </trkpt>
    </trkseg>
    <trkseg>
      <trkpt lat="49.1190544" lon="-122.7563969">
      </trkpt>
      <trkpt lat="49.1190549" lon="-122.7564377">
      </trkpt>
    </trkseg>
    <trkseg>
      <trkpt lat="49.1190542" lon="-122.7566798">
      </trkpt>
      <trkpt lat="49.1190549" lon="-122.756612">
      </trkpt>
      <trkpt lat="49.1190542" lon="-122.7565">
      </trkpt>
      <trkpt lat="49.1190549" lon="-122.7564377">
      </trkpt>
    </trkseg>
    <trkseg>
      <trkpt lat="49.1190542" lon="-122.7566798">
      </trkpt>
      <trkpt lat="49.1190541" lon="-122.7567258">
      </trkpt>
    </trkseg>
    <trkseg>
      <trkpt lat="49.1190541" lon="-122.7567258">
      </trkpt>
      <trkpt lat="49.1190497" lon="-122.7567395">
      </trkpt>
      <trkpt lat="49.1190474" lon="-122.7567552">
      </trkpt>
    </trkseg>
    <trkseg>
      <trkpt lat="49.1190474" lon="-122.7567552">
      </trkpt>
      <trkpt lat="49.1190465" lon="-122.7569808">
      </trkpt>
      <trkpt lat="49.1190407" lon="-122.7571889">
      </trkpt>
      <trkpt lat="49.11904" lon="-122.7572123">
      </trkpt>
      <trkpt lat="49.1190324" lon="-122.7575582">
      </trkpt>
      <trkpt lat="49.1190584" lon="-122.7579247">
      </trkpt>
      <trkpt lat="49.1190501" lon="-122.7582131">
      </trkpt>
      <trkpt lat="49.1190597" lon="-122.7584374">
      </trkpt>
      <trkpt lat="49.1190538" lon="-122.7597331">
      </trkpt>
      <trkpt lat="49.119052" lon="-122.759782">
      </trkpt>
      <trkpt lat="49.119045" lon="-122.7598335">
      </trkpt>
      <trkpt lat="49.119032" lon="-122.7599195">
      </trkpt>
      <trkpt lat="49.1190259" lon="-122.7599648">
      </trkpt>
      <trkpt lat="49.1190232" lon="-122.76001">
      </trkpt>
      <trkpt lat="49.1190257" lon="-122.7602649">
      </trkpt>
      <trkpt lat="49.1190393" lon="-122.7604622">
      </trkpt>
      <trkpt lat="49.1190592" lon="-122.7611522">
      </trkpt>
      <trkpt lat="49.1190495" lon="-122.761433">
      </trkpt>
      <trkpt lat="49.1190594" lon="-122.7621991">
      </trkpt>
      <trkpt lat="49.1190603" lon="-122.7622706">
      </trkpt>
      <trkpt lat="49.1190524" lon="-122.7622951">
      </trkpt>
    </trkseg>
    <trkseg>
      <trkpt lat="49.1190524" lon="-122.7622951">
      </trkpt>
      <trkpt lat="49.1190525" lon="-122.762361">
      </trkpt>
      <trkpt lat="49.1190526" lon="-122.762482">
      </trkpt>
      <trkpt lat="49.1190526" lon="-122.7625498">
      </trkpt>
    </trkseg>
    <trkseg>
      <trkpt lat="49.1190526" lon="-122.7625498">
      </trkpt>
      <trkpt lat="49.11906" lon="-122.7625792">
      </trkpt>
      <trkpt lat="49.1190612" lon="-122.762871">
      </trkpt>
      <trkpt lat="49.1190632" lon="-122.7633847">
      </trkpt>
      <trkpt lat="49.1190629" lon="-122.7634927">
      </trkpt>
      <trkpt lat="49.119066" lon="-122.7637691">
      </trkpt>
      <trkpt lat="49.1190753" lon="-122.7639041">
      </trkpt>
      <trkpt lat="49.1190793" lon="-122.7639748">
      </trkpt>
      <trkpt lat="49.119079" lon="-122.7640456">
      </trkpt>
      <trkpt lat="49.1190677" lon="-122.7642558">
      </trkpt>
      <trkpt lat="49.1190772" lon="-122.7645333">
      </trkpt>
      <trkpt lat="49.1190631" lon="-122.7648232">
      </trkpt>
      <trkpt lat="49.1190834" lon="-122.7650308">
      </trkpt>
      <trkpt lat="49.1190914" lon="-122.7650751">
      </trkpt>
      <trkpt lat="49.1190875" lon="-122.7652065">
      </trkpt>
      <trkpt lat="49.1190727" lon="-122.7653606">
      </trkpt>
      <trkpt lat="49.1190716" lon="-122.7653856">
      </trkpt>
    </trkseg>
    <trkseg>
      <trkpt lat="49.1190716" lon="-122.7653856">
      </trkpt>
      <trkpt lat="49.1190729" lon="-122.765455">
      </trkpt>
      <trkpt lat="49.1190755" lon="-122.76563">
      </trkpt>
      <trkpt lat="49.1190762" lon="-122.7656775">
      </trkpt>
    </trkseg>
    <trkseg>
      <trkpt lat="49.1190762" lon="-122.7656775">
      </trkpt>
      <trkpt lat="49.1190824" lon="-122.7657101">
      </trkpt>
      <trkpt lat="49.1190862" lon="-122.7658123">
      </trkpt>
      <trkpt lat="49.1190709" lon="-122.7660739">
      </trkpt>
      <trkpt lat="49.1190714" lon="-122.7662724">
      </trkpt>
      <trkpt lat="49.1190887" lon="-122.7664708">
      </trkpt>
      <trkpt lat="49.1190945" lon="-122.7666292">
      </trkpt>
      <trkpt lat="49.1190802" lon="-122.7668132">
      </trkpt>
      <trkpt lat="49.119093" lon="-122.766926">
      </trkpt>
      <trkpt lat="49.1191038" lon="-122.7670516">
      </trkpt>
      <trkpt lat="49.1190844" lon="-122.7672679">
      </trkpt>
      <trkpt lat="49.1190804" lon="-122.7674282">
      </trkpt>
      <trkpt lat="49.1190958" lon="-122.7676419">
      </trkpt>
    </trkseg>
  </trk>
</gpx>