<?xml version="1.0" encoding="UTF-8"?>
<gpx xmlns="http://www.topografix.com/GPX/1/1" xmlns:xsi="http://www.w3.org/2001/XMLSchema-instance" xsi:schemaLocation="http://www.topografix.com/GPX/1/1 http://www.topografix.com/GPX/1/1/gpx.xsd" version="1.1" creator="gpx.py -- https://github.com/tkrajina/gpxpy">
  <trk>
    <name>Cloverdale Greenway</name>
    <trkseg>
      <trkpt lat="49.1225917" lon="-122.7258411">
      </trkpt>
      <trkpt lat="49.1224292" lon="-122.7254799">
      </trkpt>
      <trkpt lat="49.1222913" lon="-122.7250285">
      </trkpt>
      <trkpt lat="49.1220008" lon="-122.724261">
      </trkpt>
      <trkpt lat="49.1218193" lon="-122.7239018">
      </trkpt>
    </trkseg>
    <trkseg>
      <trkpt lat="49.1218193" lon="-122.7239018">
      </trkpt>
      <trkpt lat="49.12177" lon="-122.7238181">
      </trkpt>
      <trkpt lat="49.1216761" lon="-122.7236705">
      </trkpt>
      <trkpt lat="49.1215822" lon="-122.7235237">
      </trkpt>
      <trkpt lat="49.121327" lon="-122.7231635">
      </trkpt>
      <trkpt lat="49.1212106" lon="-122.7229235">
      </trkpt>
      <trkpt lat="49.1209078" lon="-122.7219484">
      </trkpt>
      <trkpt lat="49.1207924" lon="-122.721634">
      </trkpt>
      <trkpt lat="49.1207183" lon="-122.7215085">
      </trkpt>
      <trkpt lat="49.1206475" lon="-122.7214087">
      </trkpt>
      <trkpt lat="49.1205636" lon="-122.721319">
      </trkpt>
      <trkpt lat="49.1204264" lon="-122.721217">
      </trkpt>
      <trkpt lat="49.1203391" lon="-122.7211801">
      </trkpt>
      <trkpt lat="49.1202565" lon="-122.7211575">
      </trkpt>
      <trkpt lat="49.1201744" lon="-122.7211513">
      </trkpt>
      <trkpt lat="49.1200474" lon="-122.7211417">
      </trkpt>
      <trkpt lat="49.1199722" lon="-122.7211401">
      </trkpt>
      <trkpt lat="49.1199004" lon="-122.7211285">
      </trkpt>
      <trkpt lat="49.1195478" lon="-122.721015">
      </trkpt>
      <trkpt lat="49.1195189" lon="-122.7209999">
      </trkpt>
      <trkpt lat="49.1194789" lon="-122.7209795">
      </trkpt>
      <trkpt lat="49.1194214" lon="-122.7209315">
      </trkpt>
      <trkpt lat="49.1191317" lon="-122.720604">
      </trkpt>
      <trkpt lat="49.1190908" lon="-122.720569">
      </trkpt>
      <trkpt lat="49.1190397" lon="-122.720544">
      </trkpt>
      <trkpt lat="49.1189535" lon="-122.720537">
      </trkpt>
      <trkpt lat="49.1188568" lon="-122.7205353">
      </trkpt>
    </trkseg>
    <trkseg>
      <trkpt lat="49.1188407" lon="-122.7170412">
      </trkpt>
      <trkpt lat="49.1188483" lon="-122.7186539">
      </trkpt>
      <trkpt lat="49.1188538" lon="-122.7198135">
      </trkpt>
      <trkpt lat="49.118855" lon="-122.720063">
      </trkpt>
      <trkpt lat="49.118857" lon="-122.7204914">
      </trkpt>
      <trkpt lat="49.1188568" lon="-122.7205353">
      </trkpt>
    </trkseg>
    <trkseg>
      <trkpt lat="49.1186294" lon="-122.718735">
      </trkpt>
      <trkpt lat="49.1186266" lon="-122.718458">
      </trkpt>
      <trkpt lat="49.1186076" lon="-122.7184576">
      </trkpt>
      <trkpt lat="49.1184225" lon="-122.7184533">
      </trkpt>
      <trkpt lat="49.1183647" lon="-122.7184508">
      </trkpt>
      <trkpt lat="49.1183257" lon="-122.7184471">
      </trkpt>
      <trkpt lat="49.1182921" lon="-122.718441">
      </trkpt>
    </trkseg>
    <trkseg>
      <trkpt lat="49.1182921" lon="-122.718441">
      </trkpt>
      <trkpt lat="49.1182451" lon="-122.7184274">
      </trkpt>
      <trkpt lat="49.1181945" lon="-122.7184072">
      </trkpt>
      <trkpt lat="49.1181458" lon="-122.718381">
      </trkpt>
      <trkpt lat="49.1181026" lon="-122.7183536">
      </trkpt>
      <trkpt lat="49.1180612" lon="-122.7183208">
      </trkpt>
      <trkpt lat="49.118004" lon="-122.7182717">
      </trkpt>
      <trkpt lat="49.1178588" lon="-122.7181256">
      </trkpt>
      <trkpt lat="49.1175323" lon="-122.71779">
      </trkpt>
      <trkpt lat="49.1174943" lon="-122.7177556">
      </trkpt>
      <trkpt lat="49.1174447" lon="-122.7177172">
      </trkpt>
      <trkpt lat="49.1173983" lon="-122.717689">
      </trkpt>
      <trkpt lat="49.1173389" lon="-122.717659">
      </trkpt>
      <trkpt lat="49.1172837" lon="-122.7176354">
      </trkpt>
      <trkpt lat="49.1172305" lon="-122.7176195">
      </trkpt>
      <trkpt lat="49.117169" lon="-122.71761">
      </trkpt>
      <trkpt lat="49.1171168" lon="-122.7176065">
      </trkpt>
      <trkpt lat="49.1170706" lon="-122.7176066">
      </trkpt>
      <trkpt lat="49.1168531" lon="-122.7176363">
      </trkpt>
      <trkpt lat="49.1167693" lon="-122.7176409">
      </trkpt>
      <trkpt lat="49.1166881" lon="-122.7176383">
      </trkpt>
      <trkpt lat="49.1166022" lon="-122.7176183">
      </trkpt>
      <trkpt lat="49.1165417" lon="-122.7175967">
      </trkpt>
      <trkpt lat="49.1164677" lon="-122.7175587">
      </trkpt>
      <trkpt lat="49.1163721" lon="-122.7174881">
      </trkpt>
      <trkpt lat="49.116172" lon="-122.7172854">
      </trkpt>
      <trkpt lat="49.1155135" lon="-122.7165946">
      </trkpt>
      <trkpt lat="49.1154591" lon="-122.7165407">
      </trkpt>
      <trkpt lat="49.1153804" lon="-122.716445">
      </trkpt>
      <trkpt lat="49.1153595" lon="-122.7164203">
      </trkpt>
      <trkpt lat="49.1153272" lon="-122.7163742">
      </trkpt>
      <trkpt lat="49.1152949" lon="-122.7163253">
      </trkpt>
      <trkpt lat="49.1152012" lon="-122.7161581">
      </trkpt>
      <trkpt lat="49.1151714" lon="-122.7161084">
      </trkpt>
      <trkpt lat="49.1151361" lon="-122.7160548">
      </trkpt>
      <trkpt lat="49.1150953" lon="-122.7160067">
      </trkpt>
      <trkpt lat="49.1150346" lon="-122.7159368">
      </trkpt>
      <trkpt lat="49.1143486" lon="-122.7152741">
      </trkpt>
      <trkpt lat="49.1142844" lon="-122.7152066">
      </trkpt>
      <trkpt lat="49.1142202" lon="-122.7151292">
      </trkpt>
      <trkpt lat="49.114061" lon="-122.7149326">
      </trkpt>
      <trkpt lat="49.1140164" lon="-122.71488">
      </trkpt>
      <trkpt lat="49.1139804" lon="-122.7148506">
      </trkpt>
      <trkpt lat="49.1139322" lon="-122.7148232">
      </trkpt>
      <trkpt lat="49.113822" lon="-122.7147734">
      </trkpt>
      <trkpt lat="49.1137381" lon="-122.7147275">
      </trkpt>
      <trkpt lat="49.1137002" lon="-122.7146976">
      </trkpt>
      <trkpt lat="49.1136569" lon="-122.7146511">
      </trkpt>
      <trkpt lat="49.11343" lon="-122.7143576">
      </trkpt>
      <trkpt lat="49.1133324" lon="-122.7142525">
      </trkpt>
      <trkpt lat="49.11329" lon="-122.7142003">
      </trkpt>
      <trkpt lat="49.1132542" lon="-122.7141447">
      </trkpt>
      <trkpt lat="49.1131048" lon="-122.7138811">
      </trkpt>
      <trkpt lat="49.1130714" lon="-122.7138337">
      </trkpt>
      <trkpt lat="49.1130358" lon="-122.7137912">
      </trkpt>
      <trkpt lat="49.1129981" lon="-122.7137538">
      </trkpt>
      <trkpt lat="49.1129603" lon="-122.7137245">
      </trkpt>
      <trkpt lat="49.1125914" lon="-122.7134748">
      </trkpt>
      <trkpt lat="49.1125628" lon="-122.7134469">
      </trkpt>
      <trkpt lat="49.1125342" lon="-122.7133976">
      </trkpt>
      <trkpt lat="49.1125313" lon="-122.7128352">
      </trkpt>
      <trkpt lat="49.1125547" lon="-122.7127719">
      </trkpt>
      <trkpt lat="49.1125546" lon="-122.7127413">
      </trkpt>
    </trkseg>
    <trkseg>
      <trkpt lat="49.1125546" lon="-122.7127413">
      </trkpt>
      <trkpt lat="49.1125539" lon="-122.7127103">
      </trkpt>
      <trkpt lat="49.1125533" lon="-122.7126793">
      </trkpt>
      <trkpt lat="49.1125522" lon="-122.7126314">
      </trkpt>
      <trkpt lat="49.1125296" lon="-122.7126314">
      </trkpt>
      <trkpt lat="49.1125071" lon="-122.7126314">
      </trkpt>
      <trkpt lat="49.1125065" lon="-122.7125806">
      </trkpt>
      <trkpt lat="49.1125059" lon="-122.7125373">
      </trkpt>
    </trkseg>
    <trkseg>
      <trkpt lat="49.1125059" lon="-122.7125373">
      </trkpt>
      <trkpt lat="49.1125078" lon="-122.7124971">
      </trkpt>
      <trkpt lat="49.1125103" lon="-122.7124686">
      </trkpt>
      <trkpt lat="49.1125147" lon="-122.7124486">
      </trkpt>
      <trkpt lat="49.1125203" lon="-122.7124287">
      </trkpt>
      <trkpt lat="49.1125258" lon="-122.7124087">
      </trkpt>
      <trkpt lat="49.1125296" lon="-122.7123806">
      </trkpt>
      <trkpt lat="49.1125287" lon="-122.7123457">
      </trkpt>
      <trkpt lat="49.1125254" lon="-122.712295">
      </trkpt>
      <trkpt lat="49.1125164" lon="-122.7122407">
      </trkpt>
      <trkpt lat="49.1125061" lon="-122.7122013">
      </trkpt>
      <trkpt lat="49.1124915" lon="-122.7121661">
      </trkpt>
      <trkpt lat="49.1124738" lon="-122.712132">
      </trkpt>
      <trkpt lat="49.1124539" lon="-122.7121044">
      </trkpt>
      <trkpt lat="49.1124288" lon="-122.712076">
      </trkpt>
      <trkpt lat="49.1123697" lon="-122.7120297">
      </trkpt>
      <trkpt lat="49.1121164" lon="-122.7118345">
      </trkpt>
      <trkpt lat="49.1120577" lon="-122.7117774">
      </trkpt>
      <trkpt lat="49.1120101" lon="-122.7117268">
      </trkpt>
      <trkpt lat="49.1119981" lon="-122.7117109">
      </trkpt>
      <trkpt lat="49.1119051" lon="-122.7115949">
      </trkpt>
      <trkpt lat="49.1116804" lon="-122.7112697">
      </trkpt>
      <trkpt lat="49.1116596" lon="-122.7112451">
      </trkpt>
      <trkpt lat="49.1116371" lon="-122.7112261">
      </trkpt>
      <trkpt lat="49.1116027" lon="-122.7112087">
      </trkpt>
      <trkpt lat="49.111569" lon="-122.7111945">
      </trkpt>
      <trkpt lat="49.1114897" lon="-122.71119">
      </trkpt>
      <trkpt lat="49.111479" lon="-122.7111904">
      </trkpt>
    </trkseg>
    <trkseg>
      <trkpt lat="49.111479" lon="-122.7111904">
      </trkpt>
      <trkpt lat="49.1114437" lon="-122.711191">
      </trkpt>
      <trkpt lat="49.1114162" lon="-122.7111914">
      </trkpt>
      <trkpt lat="49.1114162" lon="-122.7112757">
      </trkpt>
      <trkpt lat="49.111384" lon="-122.711276">
      </trkpt>
      <trkpt lat="49.1113506" lon="-122.7112764">
      </trkpt>
    </trkseg>
    <trkseg>
      <trkpt lat="49.1113506" lon="-122.7112764">
      </trkpt>
      <trkpt lat="49.1113413" lon="-122.7112762">
      </trkpt>
      <trkpt lat="49.1113373" lon="-122.7101484">
      </trkpt>
      <trkpt lat="49.1113003" lon="-122.7100419">
      </trkpt>
      <trkpt lat="49.1112574" lon="-122.7099401">
      </trkpt>
      <trkpt lat="49.1112097" lon="-122.7098506">
      </trkpt>
      <trkpt lat="49.1111631" lon="-122.7097819">
      </trkpt>
      <trkpt lat="49.1111078" lon="-122.7097275">
      </trkpt>
      <trkpt lat="49.1110388" lon="-122.709687">
      </trkpt>
      <trkpt lat="49.1109632" lon="-122.7096606">
      </trkpt>
      <trkpt lat="49.1105787" lon="-122.7095597">
      </trkpt>
      <trkpt lat="49.1104358" lon="-122.7095185">
      </trkpt>
      <trkpt lat="49.1103221" lon="-122.7094703">
      </trkpt>
      <trkpt lat="49.1101688" lon="-122.7094006">
      </trkpt>
      <trkpt lat="49.1101031" lon="-122.7093463">
      </trkpt>
      <trkpt lat="49.1100121" lon="-122.7092468">
      </trkpt>
      <trkpt lat="49.1099266" lon="-122.7091359">
      </trkpt>
      <trkpt lat="49.109853" lon="-122.7090137">
      </trkpt>
      <trkpt lat="49.1096673" lon="-122.7085911">
      </trkpt>
      <trkpt lat="49.1096019" lon="-122.7084582">
      </trkpt>
      <trkpt lat="49.1095413" lon="-122.7083635">
      </trkpt>
      <trkpt lat="49.1094925" lon="-122.7083051">
      </trkpt>
      <trkpt lat="49.1094378" lon="-122.7082429">
      </trkpt>
      <trkpt lat="49.1094022" lon="-122.7082107">
      </trkpt>
      <trkpt lat="49.1093637" lon="-122.7081829">
      </trkpt>
      <trkpt lat="49.1091574" lon="-122.708034">
      </trkpt>
      <trkpt lat="49.1090551" lon="-122.7079444">
      </trkpt>
      <trkpt lat="49.1089796" lon="-122.7078492">
      </trkpt>
      <trkpt lat="49.1089171" lon="-122.7077565">
      </trkpt>
      <trkpt lat="49.1088678" lon="-122.707668">
      </trkpt>
      <trkpt lat="49.1088112" lon="-122.7075368">
      </trkpt>
      <trkpt lat="49.1087468" lon="-122.7073603">
      </trkpt>
      <trkpt lat="49.1085903" lon="-122.7068039">
      </trkpt>
      <trkpt lat="49.1081187" lon="-122.7050295">
      </trkpt>
      <trkpt lat="49.1080697" lon="-122.7048491">
      </trkpt>
      <trkpt lat="49.1080404" lon="-122.7047842">
      </trkpt>
      <trkpt lat="49.1079996" lon="-122.704731">
      </trkpt>
      <trkpt lat="49.1079572" lon="-122.7046974">
      </trkpt>
      <trkpt lat="49.1079147" lon="-122.7046783">
      </trkpt>
      <trkpt lat="49.1078603" lon="-122.7046719">
      </trkpt>
      <trkpt lat="49.107805" lon="-122.7046684">
      </trkpt>
    </trkseg>
    <trkseg>
      <trkpt lat="49.107805" lon="-122.7046684">
      </trkpt>
      <trkpt lat="49.107748" lon="-122.7046669">
      </trkpt>
      <trkpt lat="49.1077019" lon="-122.7046641">
      </trkpt>
    </trkseg>
    <trkseg>
      <trkpt lat="49.1077019" lon="-122.7046641">
      </trkpt>
      <trkpt lat="49.1076025" lon="-122.7046519">
      </trkpt>
      <trkpt lat="49.1075299" lon="-122.7046383">
      </trkpt>
      <trkpt lat="49.1074619" lon="-122.70462">
      </trkpt>
      <trkpt lat="49.1073899" lon="-122.7045855">
      </trkpt>
      <trkpt lat="49.1073205" lon="-122.7045337">
      </trkpt>
      <trkpt lat="49.1072532" lon="-122.7044755">
      </trkpt>
      <trkpt lat="49.107196" lon="-122.7044129">
      </trkpt>
      <trkpt lat="49.1071366" lon="-122.7043265">
      </trkpt>
      <trkpt lat="49.107091" lon="-122.7042446">
      </trkpt>
      <trkpt lat="49.1069793" lon="-122.7040075">
      </trkpt>
      <trkpt lat="49.1066181" lon="-122.7031886">
      </trkpt>
      <trkpt lat="49.1063389" lon="-122.7025622">
      </trkpt>
      <trkpt lat="49.1063186" lon="-122.7024799">
      </trkpt>
      <trkpt lat="49.1063081" lon="-122.7023866">
      </trkpt>
      <trkpt lat="49.1063134" lon="-122.7018604">
      </trkpt>
      <trkpt lat="49.1063127" lon="-122.701763">
      </trkpt>
    </trkseg>
    <trkseg>
      <trkpt lat="49.1063127" lon="-122.701763">
      </trkpt>
      <trkpt lat="49.1063143" lon="-122.701683">
      </trkpt>
      <trkpt lat="49.1063134" lon="-122.7016126">
      </trkpt>
    </trkseg>
    <trkseg>
      <trkpt lat="49.1063134" lon="-122.7016126">
      </trkpt>
      <trkpt lat="49.1063139" lon="-122.7015839">
      </trkpt>
      <trkpt lat="49.1068924" lon="-122.7015814">
      </trkpt>
    </trkseg>
    <trkseg>
      <trkpt lat="49.1068924" lon="-122.7015814">
      </trkpt>
      <trkpt lat="49.1069059" lon="-122.7015781">
      </trkpt>
      <trkpt lat="49.1069179" lon="-122.7015691">
      </trkpt>
      <trkpt lat="49.1069267" lon="-122.7015534">
      </trkpt>
      <trkpt lat="49.1069311" lon="-122.7015365">
      </trkpt>
      <trkpt lat="49.10693" lon="-122.7014938">
      </trkpt>
      <trkpt lat="49.1069237" lon="-122.7013465">
      </trkpt>
      <trkpt lat="49.1069039" lon="-122.701328">
      </trkpt>
      <trkpt lat="49.1068809" lon="-122.7013022">
      </trkpt>
      <trkpt lat="49.1068684" lon="-122.7012848">
      </trkpt>
      <trkpt lat="49.1068572" lon="-122.7012645">
      </trkpt>
      <trkpt lat="49.1068098" lon="-122.7011592">
      </trkpt>
      <trkpt lat="49.1066749" lon="-122.70084">
      </trkpt>
      <trkpt lat="49.1065267" lon="-122.7004655">
      </trkpt>
      <trkpt lat="49.1061689" lon="-122.699688">
      </trkpt>
      <trkpt lat="49.1059488" lon="-122.6992145">
      </trkpt>
      <trkpt lat="49.1057404" lon="-122.6987318">
      </trkpt>
      <trkpt lat="49.1053324" lon="-122.697812">
      </trkpt>
      <trkpt lat="49.1052545" lon="-122.6976532">
      </trkpt>
      <trkpt lat="49.1051815" lon="-122.6975162">
      </trkpt>
      <trkpt lat="49.1051158" lon="-122.6973699">
      </trkpt>
      <trkpt lat="49.1050458" lon="-122.6971962">
      </trkpt>
      <trkpt lat="49.1049697" lon="-122.6969975">
      </trkpt>
      <trkpt lat="49.1048969" lon="-122.6968338">
      </trkpt>
      <trkpt lat="49.1048101" lon="-122.6966776">
      </trkpt>
      <trkpt lat="49.1046949" lon="-122.6964247">
      </trkpt>
      <trkpt lat="49.1044717" lon="-122.6959319">
      </trkpt>
      <trkpt lat="49.1044669" lon="-122.695904">
      </trkpt>
    </trkseg>
    <trkseg>
      <trkpt lat="49.1044669" lon="-122.695904">
      </trkpt>
      <trkpt lat="49.1044829" lon="-122.6953789">
      </trkpt>
      <trkpt lat="49.1045316" lon="-122.6940499">
      </trkpt>
      <trkpt lat="49.1045754" lon="-122.6926202">
      </trkpt>
      <trkpt lat="49.1045672" lon="-122.6925852">
      </trkpt>
    </trkseg>
    <trkseg>
      <trkpt lat="49.1065126" lon="-122.7045003">
      </trkpt>
      <trkpt lat="49.1065386" lon="-122.7044728">
      </trkpt>
      <trkpt lat="49.1068437" lon="-122.7041512">
      </trkpt>
      <trkpt lat="49.1069793" lon="-122.7040075">
      </trkpt>
    </trkseg>
  </trk>
</gpx>