<?xml version="1.0" encoding="UTF-8"?>
<gpx xmlns="http://www.topografix.com/GPX/1/1" xmlns:xsi="http://www.w3.org/2001/XMLSchema-instance" xsi:schemaLocation="http://www.topografix.com/GPX/1/1 http://www.topografix.com/GPX/1/1/gpx.xsd" version="1.1" creator="gpx.py -- https://github.com/tkrajina/gpxpy">
  <trk>
    <name>Ridgeline Trail</name>
    <trkseg>
      <trkpt lat="49.1039037" lon="-121.9105309">
      </trkpt>
      <trkpt lat="49.103987" lon="-121.9105257">
      </trkpt>
      <trkpt lat="49.1040222" lon="-121.9105089">
      </trkpt>
      <trkpt lat="49.1040494" lon="-121.9104646">
      </trkpt>
      <trkpt lat="49.1041418" lon="-121.9101875">
      </trkpt>
      <trkpt lat="49.1041627" lon="-121.9101629">
      </trkpt>
      <trkpt lat="49.1041943" lon="-121.9101521">
      </trkpt>
      <trkpt lat="49.1042523" lon="-121.9101575">
      </trkpt>
      <trkpt lat="49.1042821" lon="-121.9101553">
      </trkpt>
      <trkpt lat="49.1043275" lon="-121.9101166">
      </trkpt>
      <trkpt lat="49.104517" lon="-121.9097425">
      </trkpt>
      <trkpt lat="49.1046439" lon="-121.9095245">
      </trkpt>
      <trkpt lat="49.1046816" lon="-121.9095098">
      </trkpt>
      <trkpt lat="49.1047158" lon="-121.9095111">
      </trkpt>
      <trkpt lat="49.1048195" lon="-121.9096264">
      </trkpt>
      <trkpt lat="49.1048571" lon="-121.9096652">
      </trkpt>
      <trkpt lat="49.1049034" lon="-121.9096807">
      </trkpt>
      <trkpt lat="49.1050897" lon="-121.9096938">
      </trkpt>
      <trkpt lat="49.1051865" lon="-121.909755">
      </trkpt>
      <trkpt lat="49.1053076" lon="-121.9099376">
      </trkpt>
      <trkpt lat="49.1053322" lon="-121.9099765">
      </trkpt>
      <trkpt lat="49.1053428" lon="-121.9100212">
      </trkpt>
      <trkpt lat="49.1053465" lon="-121.9100979">
      </trkpt>
      <trkpt lat="49.1053585" lon="-121.9101488">
      </trkpt>
      <trkpt lat="49.1053794" lon="-121.910186">
      </trkpt>
      <trkpt lat="49.1055166" lon="-121.9103422">
      </trkpt>
      <trkpt lat="49.1055972" lon="-121.910404">
      </trkpt>
      <trkpt lat="49.1056832" lon="-121.9105412">
      </trkpt>
    </trkseg>
  </trk>
</gpx>