<?xml version="1.0" encoding="UTF-8"?>
<gpx xmlns="http://www.topografix.com/GPX/1/1" xmlns:xsi="http://www.w3.org/2001/XMLSchema-instance" xsi:schemaLocation="http://www.topografix.com/GPX/1/1 http://www.topografix.com/GPX/1/1/gpx.xsd" version="1.1" creator="gpx.py -- https://github.com/tkrajina/gpxpy">
  <trk>
    <name>Gloria Elk Thurston</name>
    <trkseg>
      <trkpt lat="49.14335995" lon="-121.79010471">
      </trkpt>
      <trkpt lat="49.143345" lon="-121.789928">
      </trkpt>
      <trkpt lat="49.143341" lon="-121.789933">
      </trkpt>
      <trkpt lat="49.143278" lon="-121.789991">
      </trkpt>
      <trkpt lat="49.14321" lon="-121.78980601">
      </trkpt>
      <trkpt lat="49.143079" lon="-121.789686">
      </trkpt>
      <trkpt lat="49.143061" lon="-121.78964801">
      </trkpt>
      <trkpt lat="49.143005" lon="-121.789645">
      </trkpt>
      <trkpt lat="49.142944" lon="-121.789763">
      </trkpt>
      <trkpt lat="49.142811" lon="-121.790019">
      </trkpt>
      <trkpt lat="49.142756" lon="-121.790201">
      </trkpt>
      <trkpt lat="49.142684" lon="-121.790266">
      </trkpt>
      <trkpt lat="49.142653" lon="-121.790218">
      </trkpt>
      <trkpt lat="49.142653" lon="-121.790212">
      </trkpt>
      <trkpt lat="49.142562" lon="-121.79020099">
      </trkpt>
      <trkpt lat="49.142486" lon="-121.79021401">
      </trkpt>
      <trkpt lat="49.142478" lon="-121.790226">
      </trkpt>
      <trkpt lat="49.142454" lon="-121.790045">
      </trkpt>
      <trkpt lat="49.142446" lon="-121.79002701">
      </trkpt>
      <trkpt lat="49.142429" lon="-121.789913">
      </trkpt>
      <trkpt lat="49.142453" lon="-121.78984501">
      </trkpt>
      <trkpt lat="49.142447" lon="-121.78976901">
      </trkpt>
      <trkpt lat="49.142412" lon="-121.789831">
      </trkpt>
      <trkpt lat="49.142373" lon="-121.78986799">
      </trkpt>
      <trkpt lat="49.142282" lon="-121.78993">
      </trkpt>
      <trkpt lat="49.142272" lon="-121.789928">
      </trkpt>
      <trkpt lat="49.142196" lon="-121.789827">
      </trkpt>
      <trkpt lat="49.142106" lon="-121.789854">
      </trkpt>
      <trkpt lat="49.14204" lon="-121.78980099">
      </trkpt>
      <trkpt lat="49.141892" lon="-121.78981901">
      </trkpt>
      <trkpt lat="49.141703" lon="-121.789846">
      </trkpt>
      <trkpt lat="49.141626" lon="-121.789695">
      </trkpt>
      <trkpt lat="49.141613" lon="-121.78954701">
      </trkpt>
      <trkpt lat="49.141625" lon="-121.78954099">
      </trkpt>
      <trkpt lat="49.141562" lon="-121.789463">
      </trkpt>
      <trkpt lat="49.141467" lon="-121.789457">
      </trkpt>
      <trkpt lat="49.1414" lon="-121.78951899">
      </trkpt>
      <trkpt lat="49.141315" lon="-121.78943301">
      </trkpt>
      <trkpt lat="49.141235" lon="-121.789378">
      </trkpt>
      <trkpt lat="49.141126" lon="-121.7893">
      </trkpt>
      <trkpt lat="49.141023" lon="-121.78921799">
      </trkpt>
      <trkpt lat="49.140916" lon="-121.78909299">
      </trkpt>
      <trkpt lat="49.140847" lon="-121.788983">
      </trkpt>
      <trkpt lat="49.140771" lon="-121.788829">
      </trkpt>
      <trkpt lat="49.140786" lon="-121.78882499">
      </trkpt>
      <trkpt lat="49.14071344" lon="-121.78873632">
      </trkpt>
      <trkpt lat="49.140719" lon="-121.78873401">
      </trkpt>
      <trkpt lat="49.14087696" lon="-121.78876834">
      </trkpt>
      <trkpt lat="49.140873" lon="-121.788798">
      </trkpt>
      <trkpt lat="49.140911" lon="-121.788774">
      </trkpt>
      <trkpt lat="49.141038" lon="-121.788878">
      </trkpt>
      <trkpt lat="49.141036" lon="-121.78888301">
      </trkpt>
      <trkpt lat="49.141144" lon="-121.788992">
      </trkpt>
      <trkpt lat="49.141209" lon="-121.78900801">
      </trkpt>
      <trkpt lat="49.141198" lon="-121.788968">
      </trkpt>
      <trkpt lat="49.141205" lon="-121.788955">
      </trkpt>
      <trkpt lat="49.14121" lon="-121.788889">
      </trkpt>
      <trkpt lat="49.141116" lon="-121.788809">
      </trkpt>
      <trkpt lat="49.140965" lon="-121.788655">
      </trkpt>
      <trkpt lat="49.14088" lon="-121.78859699">
      </trkpt>
      <trkpt lat="49.140805" lon="-121.788623">
      </trkpt>
      <trkpt lat="49.140745" lon="-121.78851">
      </trkpt>
      <trkpt lat="49.140711" lon="-121.78838099">
      </trkpt>
      <trkpt lat="49.140694" lon="-121.788279">
      </trkpt>
      <trkpt lat="49.140698" lon="-121.788278">
      </trkpt>
      <trkpt lat="49.140682" lon="-121.788248">
      </trkpt>
      <trkpt lat="49.140631" lon="-121.788202">
      </trkpt>
      <trkpt lat="49.140643" lon="-121.788017">
      </trkpt>
      <trkpt lat="49.140599" lon="-121.788028">
      </trkpt>
      <trkpt lat="49.140553" lon="-121.788023">
      </trkpt>
      <trkpt lat="49.140486" lon="-121.78800701">
      </trkpt>
      <trkpt lat="49.140469" lon="-121.787999">
      </trkpt>
      <trkpt lat="49.140468" lon="-121.787861">
      </trkpt>
      <trkpt lat="49.140477" lon="-121.787844">
      </trkpt>
      <trkpt lat="49.14046779" lon="-121.78782741">
      </trkpt>
      <trkpt lat="49.140414" lon="-121.787815">
      </trkpt>
      <trkpt lat="49.140338" lon="-121.78776101">
      </trkpt>
      <trkpt lat="49.140317" lon="-121.78763201">
      </trkpt>
      <trkpt lat="49.140295" lon="-121.787528">
      </trkpt>
      <trkpt lat="49.140226" lon="-121.78752">
      </trkpt>
      <trkpt lat="49.140157" lon="-121.787564">
      </trkpt>
      <trkpt lat="49.140114" lon="-121.787522">
      </trkpt>
      <trkpt lat="49.140148" lon="-121.787371">
      </trkpt>
      <trkpt lat="49.140152" lon="-121.78724">
      </trkpt>
      <trkpt lat="49.14021" lon="-121.78721599">
      </trkpt>
      <trkpt lat="49.140155" lon="-121.78723499">
      </trkpt>
      <trkpt lat="49.140082" lon="-121.78728">
      </trkpt>
      <trkpt lat="49.140071" lon="-121.787249">
      </trkpt>
      <trkpt lat="49.140064" lon="-121.78717199">
      </trkpt>
      <trkpt lat="49.140054" lon="-121.787149">
      </trkpt>
      <trkpt lat="49.139994" lon="-121.787158">
      </trkpt>
      <trkpt lat="49.13997" lon="-121.78706">
      </trkpt>
      <trkpt lat="49.139969" lon="-121.787011">
      </trkpt>
      <trkpt lat="49.139996" lon="-121.786894">
      </trkpt>
      <trkpt lat="49.139985" lon="-121.78688399">
      </trkpt>
      <trkpt lat="49.139986" lon="-121.786873">
      </trkpt>
      <trkpt lat="49.139972" lon="-121.786748">
      </trkpt>
      <trkpt lat="49.13997" lon="-121.786631">
      </trkpt>
      <trkpt lat="49.139981" lon="-121.786511">
      </trkpt>
      <trkpt lat="49.139961" lon="-121.78647801">
      </trkpt>
      <trkpt lat="49.139921" lon="-121.786579">
      </trkpt>
      <trkpt lat="49.139911" lon="-121.786544">
      </trkpt>
      <trkpt lat="49.139917" lon="-121.786427">
      </trkpt>
      <trkpt lat="49.139917" lon="-121.786304">
      </trkpt>
      <trkpt lat="49.139878" lon="-121.786333">
      </trkpt>
      <trkpt lat="49.13986" lon="-121.78637699">
      </trkpt>
      <trkpt lat="49.139808" lon="-121.78621201">
      </trkpt>
      <trkpt lat="49.139775" lon="-121.786077">
      </trkpt>
      <trkpt lat="49.139759" lon="-121.785982">
      </trkpt>
      <trkpt lat="49.139742" lon="-121.785917">
      </trkpt>
      <trkpt lat="49.139719" lon="-121.785889">
      </trkpt>
      <trkpt lat="49.139713" lon="-121.78576601">
      </trkpt>
      <trkpt lat="49.13971" lon="-121.785692">
      </trkpt>
      <trkpt lat="49.139705" lon="-121.785619">
      </trkpt>
      <trkpt lat="49.139692" lon="-121.785545">
      </trkpt>
      <trkpt lat="49.139694" lon="-121.78554">
      </trkpt>
      <trkpt lat="49.139631" lon="-121.785498">
      </trkpt>
      <trkpt lat="49.139601" lon="-121.785368">
      </trkpt>
      <trkpt lat="49.139578" lon="-121.785277">
      </trkpt>
      <trkpt lat="49.139563" lon="-121.78515">
      </trkpt>
      <trkpt lat="49.139567" lon="-121.785074">
      </trkpt>
      <trkpt lat="49.139527" lon="-121.785004">
      </trkpt>
      <trkpt lat="49.139537" lon="-121.78486701">
      </trkpt>
      <trkpt lat="49.139542" lon="-121.784827">
      </trkpt>
      <trkpt lat="49.139487" lon="-121.784793">
      </trkpt>
      <trkpt lat="49.139426" lon="-121.784756">
      </trkpt>
      <trkpt lat="49.139405" lon="-121.78473801">
      </trkpt>
      <trkpt lat="49.139364" lon="-121.78470199">
      </trkpt>
      <trkpt lat="49.139356" lon="-121.78466799">
      </trkpt>
      <trkpt lat="49.13932" lon="-121.784635">
      </trkpt>
      <trkpt lat="49.139288" lon="-121.784583">
      </trkpt>
      <trkpt lat="49.139315" lon="-121.78427601">
      </trkpt>
      <trkpt lat="49.139248" lon="-121.784249">
      </trkpt>
      <trkpt lat="49.139292" lon="-121.78417801">
      </trkpt>
      <trkpt lat="49.139286" lon="-121.784102">
      </trkpt>
      <trkpt lat="49.139233" lon="-121.783968">
      </trkpt>
      <trkpt lat="49.139218" lon="-121.783887">
      </trkpt>
      <trkpt lat="49.139199" lon="-121.78380299">
      </trkpt>
      <trkpt lat="49.139192" lon="-121.783706">
      </trkpt>
      <trkpt lat="49.139231" lon="-121.783656">
      </trkpt>
      <trkpt lat="49.139356" lon="-121.783533">
      </trkpt>
      <trkpt lat="49.139383" lon="-121.783553">
      </trkpt>
      <trkpt lat="49.139444" lon="-121.783485">
      </trkpt>
      <trkpt lat="49.139345" lon="-121.783438">
      </trkpt>
      <trkpt lat="49.139294" lon="-121.783412">
      </trkpt>
      <trkpt lat="49.139191" lon="-121.783384">
      </trkpt>
      <trkpt lat="49.139185" lon="-121.783373">
      </trkpt>
      <trkpt lat="49.139194" lon="-121.783268">
      </trkpt>
      <trkpt lat="49.139171" lon="-121.783187">
      </trkpt>
      <trkpt lat="49.139216" lon="-121.783068">
      </trkpt>
      <trkpt lat="49.139265" lon="-121.783019">
      </trkpt>
      <trkpt lat="49.139331" lon="-121.783042">
      </trkpt>
      <trkpt lat="49.139438" lon="-121.78293">
      </trkpt>
      <trkpt lat="49.139441" lon="-121.78284799">
      </trkpt>
      <trkpt lat="49.139464" lon="-121.782878">
      </trkpt>
      <trkpt lat="49.139438" lon="-121.782791">
      </trkpt>
      <trkpt lat="49.139353" lon="-121.782746">
      </trkpt>
      <trkpt lat="49.139333" lon="-121.782737">
      </trkpt>
      <trkpt lat="49.13939" lon="-121.78269">
      </trkpt>
      <trkpt lat="49.139413" lon="-121.78263">
      </trkpt>
      <trkpt lat="49.139522" lon="-121.78255301">
      </trkpt>
      <trkpt lat="49.139526" lon="-121.78248501">
      </trkpt>
      <trkpt lat="49.13956" lon="-121.78238899">
      </trkpt>
      <trkpt lat="49.139587" lon="-121.78231001">
      </trkpt>
      <trkpt lat="49.139543" lon="-121.78231199">
      </trkpt>
      <trkpt lat="49.139563" lon="-121.782201">
      </trkpt>
      <trkpt lat="49.139526" lon="-121.78214799">
      </trkpt>
      <trkpt lat="49.139481" lon="-121.782111">
      </trkpt>
      <trkpt lat="49.139446" lon="-121.782066">
      </trkpt>
      <trkpt lat="49.139358" lon="-121.782024">
      </trkpt>
      <trkpt lat="49.139329" lon="-121.781945">
      </trkpt>
      <trkpt lat="49.139247" lon="-121.78188599">
      </trkpt>
      <trkpt lat="49.139267" lon="-121.78183901">
      </trkpt>
      <trkpt lat="49.139263" lon="-121.781838">
      </trkpt>
      <trkpt lat="49.139221" lon="-121.78171499">
      </trkpt>
      <trkpt lat="49.139222" lon="-121.78156599">
      </trkpt>
      <trkpt lat="49.139224" lon="-121.78132399">
      </trkpt>
      <trkpt lat="49.139195" lon="-121.781202">
      </trkpt>
      <trkpt lat="49.139124" lon="-121.781176">
      </trkpt>
      <trkpt lat="49.139039" lon="-121.781257">
      </trkpt>
      <trkpt lat="49.138945" lon="-121.781352">
      </trkpt>
      <trkpt lat="49.138873" lon="-121.78138199">
      </trkpt>
      <trkpt lat="49.138818" lon="-121.781318">
      </trkpt>
      <trkpt lat="49.138849" lon="-121.781208">
      </trkpt>
      <trkpt lat="49.138918" lon="-121.78104799">
      </trkpt>
      <trkpt lat="49.138903" lon="-121.781017">
      </trkpt>
      <trkpt lat="49.138866" lon="-121.781005">
      </trkpt>
      <trkpt lat="49.138814" lon="-121.78098301">
      </trkpt>
      <trkpt lat="49.138736" lon="-121.781017">
      </trkpt>
      <trkpt lat="49.138697" lon="-121.78098399">
      </trkpt>
      <trkpt lat="49.138669" lon="-121.78095599">
      </trkpt>
      <trkpt lat="49.138653" lon="-121.780867">
      </trkpt>
      <trkpt lat="49.138625" lon="-121.78081899">
      </trkpt>
      <trkpt lat="49.138575" lon="-121.780731">
      </trkpt>
      <trkpt lat="49.138563" lon="-121.78071601">
      </trkpt>
      <trkpt lat="49.138483" lon="-121.78063799">
      </trkpt>
      <trkpt lat="49.138452" lon="-121.780594">
      </trkpt>
      <trkpt lat="49.138435" lon="-121.78049499">
      </trkpt>
      <trkpt lat="49.138373" lon="-121.780434">
      </trkpt>
      <trkpt lat="49.138319" lon="-121.780386">
      </trkpt>
      <trkpt lat="49.138225" lon="-121.780365">
      </trkpt>
      <trkpt lat="49.138169" lon="-121.78034399">
      </trkpt>
      <trkpt lat="49.138048" lon="-121.780313">
      </trkpt>
      <trkpt lat="49.137982" lon="-121.780282">
      </trkpt>
      <trkpt lat="49.137838" lon="-121.78009999">
      </trkpt>
      <trkpt lat="49.137748" lon="-121.780043">
      </trkpt>
      <trkpt lat="49.137647" lon="-121.77998">
      </trkpt>
      <trkpt lat="49.137612" lon="-121.779943">
      </trkpt>
      <trkpt lat="49.137518" lon="-121.779945">
      </trkpt>
      <trkpt lat="49.137452" lon="-121.77992899">
      </trkpt>
      <trkpt lat="49.137348" lon="-121.779871">
      </trkpt>
      <trkpt lat="49.137275" lon="-121.77975">
      </trkpt>
      <trkpt lat="49.137194" lon="-121.77964">
      </trkpt>
      <trkpt lat="49.13713" lon="-121.779503">
      </trkpt>
      <trkpt lat="49.137068" lon="-121.77945201">
      </trkpt>
      <trkpt lat="49.136965" lon="-121.77939299">
      </trkpt>
      <trkpt lat="49.136887" lon="-121.77933899">
      </trkpt>
      <trkpt lat="49.136795" lon="-121.779266">
      </trkpt>
      <trkpt lat="49.136796" lon="-121.779261">
      </trkpt>
      <trkpt lat="49.136723" lon="-121.779188">
      </trkpt>
      <trkpt lat="49.136613" lon="-121.779194">
      </trkpt>
      <trkpt lat="49.13655" lon="-121.779219">
      </trkpt>
      <trkpt lat="49.136538" lon="-121.779122">
      </trkpt>
      <trkpt lat="49.136578" lon="-121.779016">
      </trkpt>
      <trkpt lat="49.136556" lon="-121.77888">
      </trkpt>
      <trkpt lat="49.136601" lon="-121.778792">
      </trkpt>
      <trkpt lat="49.136567" lon="-121.778763">
      </trkpt>
      <trkpt lat="49.136595" lon="-121.77873">
      </trkpt>
      <trkpt lat="49.136581" lon="-121.778633">
      </trkpt>
      <trkpt lat="49.136559" lon="-121.778571">
      </trkpt>
      <trkpt lat="49.136539" lon="-121.778567">
      </trkpt>
      <trkpt lat="49.136546" lon="-121.77852901">
      </trkpt>
      <trkpt lat="49.136588" lon="-121.778422">
      </trkpt>
      <trkpt lat="49.136521" lon="-121.778456">
      </trkpt>
      <trkpt lat="49.136528" lon="-121.77832">
      </trkpt>
      <trkpt lat="49.136485" lon="-121.778306">
      </trkpt>
      <trkpt lat="49.136453" lon="-121.77827601">
      </trkpt>
      <trkpt lat="49.136434" lon="-121.778187">
      </trkpt>
      <trkpt lat="49.136426" lon="-121.778174">
      </trkpt>
      <trkpt lat="49.136475" lon="-121.77804299">
      </trkpt>
      <trkpt lat="49.136525" lon="-121.777933">
      </trkpt>
      <trkpt lat="49.136502" lon="-121.777895">
      </trkpt>
      <trkpt lat="49.136439" lon="-121.777908">
      </trkpt>
      <trkpt lat="49.1364" lon="-121.77777899">
      </trkpt>
      <trkpt lat="49.136364" lon="-121.777741">
      </trkpt>
      <trkpt lat="49.136365" lon="-121.777736">
      </trkpt>
      <trkpt lat="49.136317" lon="-121.777742">
      </trkpt>
      <trkpt lat="49.136269" lon="-121.77777">
      </trkpt>
      <trkpt lat="49.136218" lon="-121.77772401">
      </trkpt>
      <trkpt lat="49.136202" lon="-121.77773">
      </trkpt>
      <trkpt lat="49.136187" lon="-121.777716">
      </trkpt>
      <trkpt lat="49.136049" lon="-121.777696">
      </trkpt>
      <trkpt lat="49.135942" lon="-121.777654">
      </trkpt>
      <trkpt lat="49.135846" lon="-121.777596">
      </trkpt>
      <trkpt lat="49.135827" lon="-121.77751699">
      </trkpt>
      <trkpt lat="49.135778" lon="-121.777481">
      </trkpt>
      <trkpt lat="49.135719" lon="-121.77742299">
      </trkpt>
      <trkpt lat="49.135651" lon="-121.777334">
      </trkpt>
      <trkpt lat="49.135671" lon="-121.77717799">
      </trkpt>
      <trkpt lat="49.135661" lon="-121.77697801">
      </trkpt>
      <trkpt lat="49.135646" lon="-121.776852">
      </trkpt>
      <trkpt lat="49.135683" lon="-121.776667">
      </trkpt>
      <trkpt lat="49.135666" lon="-121.776546">
      </trkpt>
      <trkpt lat="49.135727" lon="-121.776274">
      </trkpt>
      <trkpt lat="49.135789" lon="-121.77612199">
      </trkpt>
      <trkpt lat="49.135826" lon="-121.77612101">
      </trkpt>
      <trkpt lat="49.135847" lon="-121.77616101">
      </trkpt>
      <trkpt lat="49.135881" lon="-121.77589201">
      </trkpt>
      <trkpt lat="49.135825" lon="-121.77584101">
      </trkpt>
      <trkpt lat="49.135825" lon="-121.77581799">
      </trkpt>
      <trkpt lat="49.135818" lon="-121.77582">
      </trkpt>
      <trkpt lat="49.135815" lon="-121.775795">
      </trkpt>
      <trkpt lat="49.135797" lon="-121.77579">
      </trkpt>
      <trkpt lat="49.135833" lon="-121.77575">
      </trkpt>
      <trkpt lat="49.135871" lon="-121.775713">
      </trkpt>
      <trkpt lat="49.135855" lon="-121.77569601">
      </trkpt>
      <trkpt lat="49.13592874" lon="-121.77565316">
      </trkpt>
      <trkpt lat="49.135994" lon="-121.775752">
      </trkpt>
      <trkpt lat="49.136027" lon="-121.775773">
      </trkpt>
      <trkpt lat="49.136171" lon="-121.77579399">
      </trkpt>
      <trkpt lat="49.136325" lon="-121.77575701">
      </trkpt>
      <trkpt lat="49.136434" lon="-121.77581001">
      </trkpt>
      <trkpt lat="49.136515" lon="-121.775751">
      </trkpt>
      <trkpt lat="49.136555" lon="-121.77567801">
      </trkpt>
      <trkpt lat="49.136623" lon="-121.775626">
      </trkpt>
      <trkpt lat="49.136643" lon="-121.775528">
      </trkpt>
      <trkpt lat="49.136697" lon="-121.775442">
      </trkpt>
      <trkpt lat="49.136774" lon="-121.775369">
      </trkpt>
      <trkpt lat="49.136793" lon="-121.77529401">
      </trkpt>
      <trkpt lat="49.136816" lon="-121.775188">
      </trkpt>
      <trkpt lat="49.136834" lon="-121.775093">
      </trkpt>
      <trkpt lat="49.136821" lon="-121.775033">
      </trkpt>
      <trkpt lat="49.136775" lon="-121.77493699">
      </trkpt>
      <trkpt lat="49.136688" lon="-121.774875">
      </trkpt>
      <trkpt lat="49.136603" lon="-121.774806">
      </trkpt>
      <trkpt lat="49.136552" lon="-121.774708">
      </trkpt>
      <trkpt lat="49.136523" lon="-121.774599">
      </trkpt>
      <trkpt lat="49.136484" lon="-121.774569">
      </trkpt>
      <trkpt lat="49.136377" lon="-121.774553">
      </trkpt>
      <trkpt lat="49.136233" lon="-121.77445699">
      </trkpt>
      <trkpt lat="49.136191" lon="-121.774382">
      </trkpt>
      <trkpt lat="49.136101" lon="-121.774223">
      </trkpt>
      <trkpt lat="49.136044" lon="-121.77411599">
      </trkpt>
      <trkpt lat="49.135926" lon="-121.77411401">
      </trkpt>
      <trkpt lat="49.135695" lon="-121.774191">
      </trkpt>
      <trkpt lat="49.135605" lon="-121.774287">
      </trkpt>
      <trkpt lat="49.135491" lon="-121.774266">
      </trkpt>
      <trkpt lat="49.13542" lon="-121.774287">
      </trkpt>
      <trkpt lat="49.135334" lon="-121.77431">
      </trkpt>
      <trkpt lat="49.13531" lon="-121.774324">
      </trkpt>
      <trkpt lat="49.135149" lon="-121.774402">
      </trkpt>
      <trkpt lat="49.135032" lon="-121.77438901">
      </trkpt>
      <trkpt lat="49.134894" lon="-121.774375">
      </trkpt>
      <trkpt lat="49.134851" lon="-121.774377">
      </trkpt>
      <trkpt lat="49.134817" lon="-121.774413">
      </trkpt>
      <trkpt lat="49.134742" lon="-121.774548">
      </trkpt>
      <trkpt lat="49.134727" lon="-121.77455801">
      </trkpt>
      <trkpt lat="49.134648" lon="-121.774599">
      </trkpt>
      <trkpt lat="49.134562" lon="-121.77468599">
      </trkpt>
      <trkpt lat="49.134542" lon="-121.77473299">
      </trkpt>
      <trkpt lat="49.134522" lon="-121.774731">
      </trkpt>
      <trkpt lat="49.134441" lon="-121.774723">
      </trkpt>
      <trkpt lat="49.13446" lon="-121.77473999">
      </trkpt>
      <trkpt lat="49.134441" lon="-121.774761">
      </trkpt>
      <trkpt lat="49.134408" lon="-121.774796">
      </trkpt>
      <trkpt lat="49.134374" lon="-121.77483">
      </trkpt>
      <trkpt lat="49.134298" lon="-121.77490601">
      </trkpt>
      <trkpt lat="49.134179" lon="-121.77496401">
      </trkpt>
      <trkpt lat="49.134127" lon="-121.775063">
      </trkpt>
      <trkpt lat="49.134092" lon="-121.77513399">
      </trkpt>
      <trkpt lat="49.134055" lon="-121.775336">
      </trkpt>
      <trkpt lat="49.134009" lon="-121.775479">
      </trkpt>
      <trkpt lat="49.133974" lon="-121.77553801">
      </trkpt>
      <trkpt lat="49.133946" lon="-121.77558501">
      </trkpt>
      <trkpt lat="49.133938" lon="-121.77561">
      </trkpt>
      <trkpt lat="49.133945" lon="-121.775625">
      </trkpt>
      <trkpt lat="49.133883" lon="-121.775659">
      </trkpt>
      <trkpt lat="49.13387164" lon="-121.77567604">
      </trkpt>
      <trkpt lat="49.133814" lon="-121.77566099">
      </trkpt>
      <trkpt lat="49.133749" lon="-121.775655">
      </trkpt>
      <trkpt lat="49.133645" lon="-121.775648">
      </trkpt>
      <trkpt lat="49.133589" lon="-121.775615">
      </trkpt>
      <trkpt lat="49.133506" lon="-121.77550299">
      </trkpt>
      <trkpt lat="49.133466" lon="-121.77547699">
      </trkpt>
      <trkpt lat="49.133386" lon="-121.77539301">
      </trkpt>
      <trkpt lat="49.133298" lon="-121.775332">
      </trkpt>
      <trkpt lat="49.133195" lon="-121.77531">
      </trkpt>
      <trkpt lat="49.133125" lon="-121.775259">
      </trkpt>
      <trkpt lat="49.133039" lon="-121.775248">
      </trkpt>
      <trkpt lat="49.132988" lon="-121.775157">
      </trkpt>
      <trkpt lat="49.13294" lon="-121.775126">
      </trkpt>
      <trkpt lat="49.132933" lon="-121.77512701">
      </trkpt>
      <trkpt lat="49.132849" lon="-121.775084">
      </trkpt>
      <trkpt lat="49.132865" lon="-121.774992">
      </trkpt>
      <trkpt lat="49.132825" lon="-121.77492699">
      </trkpt>
      <trkpt lat="49.132778" lon="-121.774789">
      </trkpt>
      <trkpt lat="49.132724" lon="-121.774653">
      </trkpt>
      <trkpt lat="49.132659" lon="-121.77467899">
      </trkpt>
      <trkpt lat="49.132583" lon="-121.77468399">
      </trkpt>
      <trkpt lat="49.132511" lon="-121.77469699">
      </trkpt>
      <trkpt lat="49.132432" lon="-121.77468899">
      </trkpt>
      <trkpt lat="49.132405" lon="-121.77467699">
      </trkpt>
      <trkpt lat="49.13228" lon="-121.77470099">
      </trkpt>
      <trkpt lat="49.132253" lon="-121.77472">
      </trkpt>
      <trkpt lat="49.132187" lon="-121.77469501">
      </trkpt>
      <trkpt lat="49.132083" lon="-121.77469499">
      </trkpt>
      <trkpt lat="49.132035" lon="-121.774615">
      </trkpt>
      <trkpt lat="49.131982" lon="-121.774546">
      </trkpt>
      <trkpt lat="49.13193" lon="-121.774557">
      </trkpt>
      <trkpt lat="49.131872" lon="-121.774499">
      </trkpt>
      <trkpt lat="49.131845" lon="-121.774404">
      </trkpt>
      <trkpt lat="49.131829" lon="-121.77438101">
      </trkpt>
      <trkpt lat="49.131826" lon="-121.774294">
      </trkpt>
      <trkpt lat="49.131809" lon="-121.77424701">
      </trkpt>
      <trkpt lat="49.13177" lon="-121.774253">
      </trkpt>
      <trkpt lat="49.131679" lon="-121.774214">
      </trkpt>
      <trkpt lat="49.131581" lon="-121.774226">
      </trkpt>
      <trkpt lat="49.131465" lon="-121.774227">
      </trkpt>
      <trkpt lat="49.131402" lon="-121.774218">
      </trkpt>
      <trkpt lat="49.131404" lon="-121.774126">
      </trkpt>
      <trkpt lat="49.131381" lon="-121.774105">
      </trkpt>
      <trkpt lat="49.131293" lon="-121.77409501">
      </trkpt>
      <trkpt lat="49.131167" lon="-121.774112">
      </trkpt>
      <trkpt lat="49.131085" lon="-121.774153">
      </trkpt>
      <trkpt lat="49.131046" lon="-121.77413701">
      </trkpt>
      <trkpt lat="49.130975" lon="-121.774206">
      </trkpt>
      <trkpt lat="49.130853" lon="-121.774298">
      </trkpt>
      <trkpt lat="49.130755" lon="-121.774395">
      </trkpt>
      <trkpt lat="49.13067" lon="-121.77450099">
      </trkpt>
      <trkpt lat="49.130534" lon="-121.774587">
      </trkpt>
      <trkpt lat="49.130464" lon="-121.774619">
      </trkpt>
      <trkpt lat="49.130385" lon="-121.77460799">
      </trkpt>
      <trkpt lat="49.130383" lon="-121.774564">
      </trkpt>
      <trkpt lat="49.13038" lon="-121.774439">
      </trkpt>
      <trkpt lat="49.130343" lon="-121.774378">
      </trkpt>
      <trkpt lat="49.130318" lon="-121.77433001">
      </trkpt>
      <trkpt lat="49.130307" lon="-121.774336">
      </trkpt>
      <trkpt lat="49.130266" lon="-121.774312">
      </trkpt>
      <trkpt lat="49.13026" lon="-121.77435301">
      </trkpt>
      <trkpt lat="49.1302" lon="-121.774529">
      </trkpt>
      <trkpt lat="49.13013" lon="-121.774602">
      </trkpt>
      <trkpt lat="49.130033" lon="-121.77468599">
      </trkpt>
      <trkpt lat="49.129976" lon="-121.774715">
      </trkpt>
      <trkpt lat="49.129853" lon="-121.774804">
      </trkpt>
      <trkpt lat="49.129818" lon="-121.77476201">
      </trkpt>
      <trkpt lat="49.129812" lon="-121.774676">
      </trkpt>
      <trkpt lat="49.129793" lon="-121.77459001">
      </trkpt>
      <trkpt lat="49.129774" lon="-121.774568">
      </trkpt>
      <trkpt lat="49.129741" lon="-121.774557">
      </trkpt>
      <trkpt lat="49.129746" lon="-121.774517">
      </trkpt>
      <trkpt lat="49.129743" lon="-121.77445599">
      </trkpt>
      <trkpt lat="49.129717" lon="-121.774454">
      </trkpt>
      <trkpt lat="49.12974" lon="-121.774373">
      </trkpt>
      <trkpt lat="49.129721" lon="-121.774314">
      </trkpt>
      <trkpt lat="49.129669" lon="-121.774351">
      </trkpt>
      <trkpt lat="49.129628" lon="-121.774345">
      </trkpt>
      <trkpt lat="49.129555" lon="-121.774298">
      </trkpt>
      <trkpt lat="49.129486" lon="-121.774298">
      </trkpt>
      <trkpt lat="49.129445" lon="-121.774251">
      </trkpt>
      <trkpt lat="49.129388" lon="-121.774263">
      </trkpt>
      <trkpt lat="49.129368" lon="-121.77424">
      </trkpt>
      <trkpt lat="49.129352" lon="-121.77419999">
      </trkpt>
      <trkpt lat="49.129303" lon="-121.77409899">
      </trkpt>
      <trkpt lat="49.129266" lon="-121.774016">
      </trkpt>
      <trkpt lat="49.129167" lon="-121.773972">
      </trkpt>
      <trkpt lat="49.129108" lon="-121.773969">
      </trkpt>
      <trkpt lat="49.129029" lon="-121.774022">
      </trkpt>
      <trkpt lat="49.128964" lon="-121.774065">
      </trkpt>
      <trkpt lat="49.128922" lon="-121.774076">
      </trkpt>
      <trkpt lat="49.128876" lon="-121.77412901">
      </trkpt>
      <trkpt lat="49.12883" lon="-121.774216">
      </trkpt>
      <trkpt lat="49.128772" lon="-121.77423001">
      </trkpt>
      <trkpt lat="49.128722" lon="-121.774191">
      </trkpt>
      <trkpt lat="49.128677" lon="-121.77416199">
      </trkpt>
      <trkpt lat="49.128629" lon="-121.77421901">
      </trkpt>
      <trkpt lat="49.128604" lon="-121.774233">
      </trkpt>
      <trkpt lat="49.128569" lon="-121.77430399">
      </trkpt>
      <trkpt lat="49.12847" lon="-121.774556">
      </trkpt>
      <trkpt lat="49.128403" lon="-121.77469401">
      </trkpt>
      <trkpt lat="49.128326" lon="-121.77479701">
      </trkpt>
      <trkpt lat="49.128263" lon="-121.774829">
      </trkpt>
      <trkpt lat="49.128174" lon="-121.77488601">
      </trkpt>
      <trkpt lat="49.128112" lon="-121.77493501">
      </trkpt>
      <trkpt lat="49.128107" lon="-121.774956">
      </trkpt>
      <trkpt lat="49.128121" lon="-121.774971">
      </trkpt>
      <trkpt lat="49.128122" lon="-121.774978">
      </trkpt>
      <trkpt lat="49.128117" lon="-121.77499899">
      </trkpt>
      <trkpt lat="49.1281" lon="-121.775009">
      </trkpt>
      <trkpt lat="49.128084" lon="-121.775011">
      </trkpt>
      <trkpt lat="49.128081" lon="-121.77502101">
      </trkpt>
      <trkpt lat="49.128023" lon="-121.775147">
      </trkpt>
      <trkpt lat="49.128019" lon="-121.775169">
      </trkpt>
      <trkpt lat="49.128013" lon="-121.775301">
      </trkpt>
      <trkpt lat="49.128006" lon="-121.775458">
      </trkpt>
      <trkpt lat="49.127985" lon="-121.775548">
      </trkpt>
      <trkpt lat="49.127966" lon="-121.77574499">
      </trkpt>
      <trkpt lat="49.127954" lon="-121.775883">
      </trkpt>
      <trkpt lat="49.127977" lon="-121.776115">
      </trkpt>
      <trkpt lat="49.127969" lon="-121.776132">
      </trkpt>
      <trkpt lat="49.127988" lon="-121.776269">
      </trkpt>
      <trkpt lat="49.127992" lon="-121.776299">
      </trkpt>
      <trkpt lat="49.128002" lon="-121.77638101">
      </trkpt>
      <trkpt lat="49.127996" lon="-121.776609">
      </trkpt>
      <trkpt lat="49.128014" lon="-121.77671499">
      </trkpt>
      <trkpt lat="49.128023" lon="-121.776869">
      </trkpt>
      <trkpt lat="49.128026" lon="-121.776976">
      </trkpt>
      <trkpt lat="49.128027" lon="-121.777272">
      </trkpt>
      <trkpt lat="49.128035" lon="-121.777354">
      </trkpt>
      <trkpt lat="49.128016" lon="-121.777459">
      </trkpt>
      <trkpt lat="49.128004" lon="-121.777596">
      </trkpt>
      <trkpt lat="49.128013" lon="-121.777785">
      </trkpt>
      <trkpt lat="49.128004" lon="-121.777844">
      </trkpt>
      <trkpt lat="49.128006" lon="-121.778065">
      </trkpt>
      <trkpt lat="49.128007" lon="-121.77809301">
      </trkpt>
      <trkpt lat="49.128" lon="-121.778245">
      </trkpt>
      <trkpt lat="49.127985" lon="-121.778312">
      </trkpt>
      <trkpt lat="49.128013" lon="-121.778432">
      </trkpt>
      <trkpt lat="49.12802" lon="-121.778482">
      </trkpt>
      <trkpt lat="49.12803" lon="-121.77859299">
      </trkpt>
      <trkpt lat="49.128045" lon="-121.778713">
      </trkpt>
      <trkpt lat="49.128026" lon="-121.778821">
      </trkpt>
      <trkpt lat="49.128023" lon="-121.77883">
      </trkpt>
      <trkpt lat="49.128033" lon="-121.77886599">
      </trkpt>
      <trkpt lat="49.128033" lon="-121.778876">
      </trkpt>
      <trkpt lat="49.128049" lon="-121.778869">
      </trkpt>
      <trkpt lat="49.128059" lon="-121.77886701">
      </trkpt>
      <trkpt lat="49.128126" lon="-121.77893799">
      </trkpt>
      <trkpt lat="49.128126" lon="-121.779004">
      </trkpt>
      <trkpt lat="49.128152" lon="-121.77910701">
      </trkpt>
      <trkpt lat="49.128182" lon="-121.77919599">
      </trkpt>
      <trkpt lat="49.12818" lon="-121.77926601">
      </trkpt>
      <trkpt lat="49.128181" lon="-121.77927899">
      </trkpt>
      <trkpt lat="49.128203" lon="-121.779325">
      </trkpt>
      <trkpt lat="49.12823" lon="-121.77938999">
      </trkpt>
      <trkpt lat="49.128255" lon="-121.779465">
      </trkpt>
      <trkpt lat="49.128275" lon="-121.779499">
      </trkpt>
      <trkpt lat="49.12831" lon="-121.779602">
      </trkpt>
      <trkpt lat="49.1283" lon="-121.779737">
      </trkpt>
      <trkpt lat="49.12831" lon="-121.779778">
      </trkpt>
      <trkpt lat="49.128318" lon="-121.779836">
      </trkpt>
      <trkpt lat="49.128334" lon="-121.77990299">
      </trkpt>
      <trkpt lat="49.128321" lon="-121.779971">
      </trkpt>
      <trkpt lat="49.12835" lon="-121.780107">
      </trkpt>
      <trkpt lat="49.128351" lon="-121.780131">
      </trkpt>
      <trkpt lat="49.128381" lon="-121.780171">
      </trkpt>
      <trkpt lat="49.128425" lon="-121.78022601">
      </trkpt>
      <trkpt lat="49.128496" lon="-121.780313">
      </trkpt>
      <trkpt lat="49.128507" lon="-121.780347">
      </trkpt>
      <trkpt lat="49.128525" lon="-121.78037599">
      </trkpt>
      <trkpt lat="49.128574" lon="-121.78045599">
      </trkpt>
      <trkpt lat="49.12858" lon="-121.780464">
      </trkpt>
      <trkpt lat="49.128628" lon="-121.780525">
      </trkpt>
      <trkpt lat="49.12867" lon="-121.780569">
      </trkpt>
      <trkpt lat="49.128728" lon="-121.780646">
      </trkpt>
      <trkpt lat="49.128769" lon="-121.780693">
      </trkpt>
      <trkpt lat="49.128779" lon="-121.780733">
      </trkpt>
      <trkpt lat="49.12884" lon="-121.78083999">
      </trkpt>
      <trkpt lat="49.128866" lon="-121.78086801">
      </trkpt>
      <trkpt lat="49.128921" lon="-121.78097301">
      </trkpt>
      <trkpt lat="49.129004" lon="-121.78107">
      </trkpt>
      <trkpt lat="49.129019" lon="-121.78108401">
      </trkpt>
      <trkpt lat="49.129083" lon="-121.781133">
      </trkpt>
      <trkpt lat="49.129079" lon="-121.781122">
      </trkpt>
      <trkpt lat="49.12919" lon="-121.78118299">
      </trkpt>
      <trkpt lat="49.129351" lon="-121.78128">
      </trkpt>
      <trkpt lat="49.129448" lon="-121.781328">
      </trkpt>
      <trkpt lat="49.129449" lon="-121.78134399">
      </trkpt>
    </trkseg>
    <trkseg>
      <trkpt lat="49.10691874" lon="-121.76783249">
      </trkpt>
      <trkpt lat="49.106979" lon="-121.76777199">
      </trkpt>
      <trkpt lat="49.107048" lon="-121.767754">
      </trkpt>
      <trkpt lat="49.107168" lon="-121.76781499">
      </trkpt>
      <trkpt lat="49.107238" lon="-121.76782">
      </trkpt>
      <trkpt lat="49.107307" lon="-121.767827">
      </trkpt>
      <trkpt lat="49.107319" lon="-121.767786">
      </trkpt>
      <trkpt lat="49.107321" lon="-121.767756">
      </trkpt>
      <trkpt lat="49.107318" lon="-121.767697">
      </trkpt>
      <trkpt lat="49.107339" lon="-121.767714">
      </trkpt>
      <trkpt lat="49.107352" lon="-121.76773199">
      </trkpt>
      <trkpt lat="49.107373" lon="-121.767793">
      </trkpt>
      <trkpt lat="49.107368" lon="-121.767805">
      </trkpt>
      <trkpt lat="49.107381" lon="-121.76782914">
      </trkpt>
      <trkpt lat="49.107381" lon="-121.767843">
      </trkpt>
      <trkpt lat="49.10739" lon="-121.767838">
      </trkpt>
      <trkpt lat="49.107407" lon="-121.767868">
      </trkpt>
      <trkpt lat="49.107446" lon="-121.767893">
      </trkpt>
      <trkpt lat="49.107501" lon="-121.76784999">
      </trkpt>
      <trkpt lat="49.107535" lon="-121.76789">
      </trkpt>
      <trkpt lat="49.107577" lon="-121.76792499">
      </trkpt>
      <trkpt lat="49.107633" lon="-121.767894">
      </trkpt>
      <trkpt lat="49.107656" lon="-121.76787001">
      </trkpt>
      <trkpt lat="49.107719" lon="-121.767811">
      </trkpt>
      <trkpt lat="49.107732" lon="-121.767773">
      </trkpt>
      <trkpt lat="49.107736" lon="-121.767759">
      </trkpt>
      <trkpt lat="49.107728" lon="-121.767724">
      </trkpt>
      <trkpt lat="49.107732" lon="-121.767657">
      </trkpt>
      <trkpt lat="49.107761" lon="-121.767672">
      </trkpt>
      <trkpt lat="49.107822" lon="-121.76759999">
      </trkpt>
      <trkpt lat="49.107838" lon="-121.767613">
      </trkpt>
      <trkpt lat="49.107853" lon="-121.767644">
      </trkpt>
      <trkpt lat="49.10785655" lon="-121.7676357">
      </trkpt>
      <trkpt lat="49.107871" lon="-121.76763301">
      </trkpt>
      <trkpt lat="49.107894" lon="-121.767612">
      </trkpt>
      <trkpt lat="49.10788" lon="-121.76757099">
      </trkpt>
      <trkpt lat="49.107909" lon="-121.76753">
      </trkpt>
      <trkpt lat="49.107905" lon="-121.767517">
      </trkpt>
      <trkpt lat="49.107923" lon="-121.76749001">
      </trkpt>
      <trkpt lat="49.107923" lon="-121.767509">
      </trkpt>
      <trkpt lat="49.10791877" lon="-121.76751754">
      </trkpt>
      <trkpt lat="49.107927" lon="-121.767534">
      </trkpt>
      <trkpt lat="49.107968" lon="-121.767534">
      </trkpt>
      <trkpt lat="49.10798" lon="-121.76755701">
      </trkpt>
      <trkpt lat="49.107986" lon="-121.76755601">
      </trkpt>
      <trkpt lat="49.10798647" lon="-121.76755702">
      </trkpt>
      <trkpt lat="49.10799" lon="-121.76754201">
      </trkpt>
      <trkpt lat="49.107992" lon="-121.767485">
      </trkpt>
      <trkpt lat="49.108009" lon="-121.767455">
      </trkpt>
      <trkpt lat="49.10802284" lon="-121.76745039">
      </trkpt>
      <trkpt lat="49.108015" lon="-121.76742101">
      </trkpt>
      <trkpt lat="49.10802437" lon="-121.76741755">
      </trkpt>
      <trkpt lat="49.108041" lon="-121.76726401">
      </trkpt>
      <trkpt lat="49.108096" lon="-121.767215">
      </trkpt>
      <trkpt lat="49.108096" lon="-121.767192">
      </trkpt>
      <trkpt lat="49.108125" lon="-121.76719899">
      </trkpt>
      <trkpt lat="49.108148" lon="-121.767192">
      </trkpt>
      <trkpt lat="49.108162" lon="-121.767165">
      </trkpt>
      <trkpt lat="49.108191" lon="-121.767125">
      </trkpt>
      <trkpt lat="49.108208" lon="-121.767085">
      </trkpt>
      <trkpt lat="49.108212" lon="-121.767078">
      </trkpt>
      <trkpt lat="49.108219" lon="-121.76706">
      </trkpt>
      <trkpt lat="49.108242" lon="-121.767038">
      </trkpt>
      <trkpt lat="49.108232" lon="-121.767026">
      </trkpt>
      <trkpt lat="49.108228" lon="-121.76698999">
      </trkpt>
      <trkpt lat="49.108318" lon="-121.76688699">
      </trkpt>
      <trkpt lat="49.108296" lon="-121.76687901">
      </trkpt>
      <trkpt lat="49.108286" lon="-121.766876">
      </trkpt>
      <trkpt lat="49.10829311" lon="-121.76682622">
      </trkpt>
      <trkpt lat="49.108299" lon="-121.766838">
      </trkpt>
      <trkpt lat="49.108327" lon="-121.766769">
      </trkpt>
      <trkpt lat="49.108362" lon="-121.766767">
      </trkpt>
      <trkpt lat="49.108358" lon="-121.766792">
      </trkpt>
      <trkpt lat="49.108411" lon="-121.76681199">
      </trkpt>
      <trkpt lat="49.108422" lon="-121.766819">
      </trkpt>
      <trkpt lat="49.108456" lon="-121.766811">
      </trkpt>
      <trkpt lat="49.108472" lon="-121.766805">
      </trkpt>
      <trkpt lat="49.108478" lon="-121.766813">
      </trkpt>
      <trkpt lat="49.108513" lon="-121.766776">
      </trkpt>
      <trkpt lat="49.108475" lon="-121.766782">
      </trkpt>
      <trkpt lat="49.108489" lon="-121.766755">
      </trkpt>
      <trkpt lat="49.108465" lon="-121.766714">
      </trkpt>
      <trkpt lat="49.108476" lon="-121.766675">
      </trkpt>
      <trkpt lat="49.108464" lon="-121.76668">
      </trkpt>
      <trkpt lat="49.108471" lon="-121.766613">
      </trkpt>
      <trkpt lat="49.108477" lon="-121.766598">
      </trkpt>
      <trkpt lat="49.108491" lon="-121.766567">
      </trkpt>
      <trkpt lat="49.108496" lon="-121.766554">
      </trkpt>
      <trkpt lat="49.108507" lon="-121.76656199">
      </trkpt>
      <trkpt lat="49.108524" lon="-121.76657">
      </trkpt>
      <trkpt lat="49.108524" lon="-121.766572">
      </trkpt>
      <trkpt lat="49.108571" lon="-121.76658401">
      </trkpt>
      <trkpt lat="49.108598" lon="-121.76650901">
      </trkpt>
      <trkpt lat="49.108591" lon="-121.76648">
      </trkpt>
      <trkpt lat="49.108652" lon="-121.766349">
      </trkpt>
      <trkpt lat="49.10866137" lon="-121.76631753">
      </trkpt>
      <trkpt lat="49.10866" lon="-121.766317">
      </trkpt>
      <trkpt lat="49.108657" lon="-121.766309">
      </trkpt>
      <trkpt lat="49.108675" lon="-121.766267">
      </trkpt>
      <trkpt lat="49.108669" lon="-121.766218">
      </trkpt>
      <trkpt lat="49.108668" lon="-121.766184">
      </trkpt>
      <trkpt lat="49.108697" lon="-121.766089">
      </trkpt>
      <trkpt lat="49.108703" lon="-121.766053">
      </trkpt>
      <trkpt lat="49.108696" lon="-121.76602299">
      </trkpt>
      <trkpt lat="49.108714" lon="-121.765943">
      </trkpt>
      <trkpt lat="49.108747" lon="-121.765906">
      </trkpt>
      <trkpt lat="49.108757" lon="-121.76590799">
      </trkpt>
      <trkpt lat="49.108756" lon="-121.765838">
      </trkpt>
      <trkpt lat="49.10874578" lon="-121.76584311">
      </trkpt>
      <trkpt lat="49.108748" lon="-121.765784">
      </trkpt>
      <trkpt lat="49.108714" lon="-121.76569799">
      </trkpt>
      <trkpt lat="49.108701" lon="-121.765674">
      </trkpt>
      <trkpt lat="49.108697" lon="-121.765656">
      </trkpt>
      <trkpt lat="49.108705" lon="-121.765656">
      </trkpt>
      <trkpt lat="49.10871" lon="-121.76563">
      </trkpt>
      <trkpt lat="49.108708" lon="-121.76561799">
      </trkpt>
      <trkpt lat="49.10870885" lon="-121.7656186">
      </trkpt>
      <trkpt lat="49.10871017" lon="-121.76561955">
      </trkpt>
      <trkpt lat="49.10871" lon="-121.765617">
      </trkpt>
      <trkpt lat="49.10871267" lon="-121.76561699">
      </trkpt>
      <trkpt lat="49.108749" lon="-121.765617">
      </trkpt>
      <trkpt lat="49.108743" lon="-121.765634">
      </trkpt>
      <trkpt lat="49.108748" lon="-121.76563299">
      </trkpt>
      <trkpt lat="49.10875631" lon="-121.76562469">
      </trkpt>
      <trkpt lat="49.108759" lon="-121.765628">
      </trkpt>
      <trkpt lat="49.10879" lon="-121.765596">
      </trkpt>
      <trkpt lat="49.1088" lon="-121.765597">
      </trkpt>
      <trkpt lat="49.1088" lon="-121.765626">
      </trkpt>
      <trkpt lat="49.108809" lon="-121.765626">
      </trkpt>
      <trkpt lat="49.108814" lon="-121.765625">
      </trkpt>
      <trkpt lat="49.108809" lon="-121.765599">
      </trkpt>
      <trkpt lat="49.10883092" lon="-121.76551127">
      </trkpt>
      <trkpt lat="49.10883114" lon="-121.76551058">
      </trkpt>
      <trkpt lat="49.108839" lon="-121.765486">
      </trkpt>
      <trkpt lat="49.10883927" lon="-121.76548445">
      </trkpt>
      <trkpt lat="49.10884142" lon="-121.76546833">
      </trkpt>
      <trkpt lat="49.108842" lon="-121.765464">
      </trkpt>
      <trkpt lat="49.108853" lon="-121.76541301">
      </trkpt>
      <trkpt lat="49.108876" lon="-121.76534">
      </trkpt>
      <trkpt lat="49.108868" lon="-121.765342">
      </trkpt>
      <trkpt lat="49.108873" lon="-121.765308">
      </trkpt>
      <trkpt lat="49.108883" lon="-121.765301">
      </trkpt>
      <trkpt lat="49.108896" lon="-121.765327">
      </trkpt>
      <trkpt lat="49.108886" lon="-121.765273">
      </trkpt>
      <trkpt lat="49.108918" lon="-121.765232">
      </trkpt>
      <trkpt lat="49.108928" lon="-121.765201">
      </trkpt>
      <trkpt lat="49.108968" lon="-121.765085">
      </trkpt>
      <trkpt lat="49.10899" lon="-121.764872">
      </trkpt>
      <trkpt lat="49.109012" lon="-121.76473">
      </trkpt>
      <trkpt lat="49.109051" lon="-121.764622">
      </trkpt>
      <trkpt lat="49.10903" lon="-121.764571">
      </trkpt>
      <trkpt lat="49.109045" lon="-121.764518">
      </trkpt>
      <trkpt lat="49.109017" lon="-121.764497">
      </trkpt>
      <trkpt lat="49.109047" lon="-121.76437299">
      </trkpt>
      <trkpt lat="49.109083" lon="-121.76428801">
      </trkpt>
      <trkpt lat="49.109074" lon="-121.76425">
      </trkpt>
      <trkpt lat="49.109072" lon="-121.764173">
      </trkpt>
      <trkpt lat="49.109076" lon="-121.76410601">
      </trkpt>
      <trkpt lat="49.109094" lon="-121.764024">
      </trkpt>
      <trkpt lat="49.109147" lon="-121.763986">
      </trkpt>
      <trkpt lat="49.10925" lon="-121.76391499">
      </trkpt>
      <trkpt lat="49.109289" lon="-121.763877">
      </trkpt>
      <trkpt lat="49.109288" lon="-121.763798">
      </trkpt>
      <trkpt lat="49.109335" lon="-121.763672">
      </trkpt>
      <trkpt lat="49.109333" lon="-121.763631">
      </trkpt>
      <trkpt lat="49.109344" lon="-121.763602">
      </trkpt>
      <trkpt lat="49.109359" lon="-121.763568">
      </trkpt>
      <trkpt lat="49.109312" lon="-121.76352">
      </trkpt>
      <trkpt lat="49.109315" lon="-121.76338601">
      </trkpt>
      <trkpt lat="49.109332" lon="-121.76333101">
      </trkpt>
      <trkpt lat="49.109355" lon="-121.76329">
      </trkpt>
      <trkpt lat="49.109357" lon="-121.763273">
      </trkpt>
      <trkpt lat="49.109355" lon="-121.76327101">
      </trkpt>
      <trkpt lat="49.109345" lon="-121.76326099">
      </trkpt>
      <trkpt lat="49.109305" lon="-121.763248">
      </trkpt>
      <trkpt lat="49.109327" lon="-121.763158">
      </trkpt>
      <trkpt lat="49.109378" lon="-121.7631">
      </trkpt>
      <trkpt lat="49.109439" lon="-121.763124">
      </trkpt>
      <trkpt lat="49.109485" lon="-121.763135">
      </trkpt>
      <trkpt lat="49.109525" lon="-121.763158">
      </trkpt>
      <trkpt lat="49.109683" lon="-121.76326">
      </trkpt>
      <trkpt lat="49.109781" lon="-121.76330901">
      </trkpt>
      <trkpt lat="49.109811" lon="-121.763259">
      </trkpt>
      <trkpt lat="49.109914" lon="-121.76337">
      </trkpt>
      <trkpt lat="49.109946" lon="-121.763256">
      </trkpt>
      <trkpt lat="49.109888" lon="-121.763143">
      </trkpt>
      <trkpt lat="49.109874" lon="-121.763129">
      </trkpt>
      <trkpt lat="49.109799" lon="-121.763052">
      </trkpt>
      <trkpt lat="49.109769" lon="-121.76302">
      </trkpt>
      <trkpt lat="49.109753" lon="-121.76299199">
      </trkpt>
      <trkpt lat="49.109714" lon="-121.762843">
      </trkpt>
      <trkpt lat="49.109661" lon="-121.762751">
      </trkpt>
      <trkpt lat="49.109648" lon="-121.76272899">
      </trkpt>
      <trkpt lat="49.109705" lon="-121.762635">
      </trkpt>
      <trkpt lat="49.109744" lon="-121.762608">
      </trkpt>
      <trkpt lat="49.109811" lon="-121.762499">
      </trkpt>
      <trkpt lat="49.109876" lon="-121.76246299">
      </trkpt>
      <trkpt lat="49.109942" lon="-121.76250599">
      </trkpt>
      <trkpt lat="49.110026" lon="-121.762495">
      </trkpt>
      <trkpt lat="49.110093" lon="-121.76251999">
      </trkpt>
      <trkpt lat="49.110112" lon="-121.76247299">
      </trkpt>
      <trkpt lat="49.110102" lon="-121.76240699">
      </trkpt>
      <trkpt lat="49.110088" lon="-121.76232401">
      </trkpt>
      <trkpt lat="49.110077" lon="-121.762238">
      </trkpt>
      <trkpt lat="49.110053" lon="-121.762134">
      </trkpt>
      <trkpt lat="49.110034" lon="-121.762029">
      </trkpt>
      <trkpt lat="49.110026" lon="-121.76200601">
      </trkpt>
      <trkpt lat="49.110015" lon="-121.761905">
      </trkpt>
      <trkpt lat="49.110019" lon="-121.7619">
      </trkpt>
      <trkpt lat="49.110068" lon="-121.76185499">
      </trkpt>
      <trkpt lat="49.110126" lon="-121.761848">
      </trkpt>
      <trkpt lat="49.110204" lon="-121.76187899">
      </trkpt>
      <trkpt lat="49.110281" lon="-121.761908">
      </trkpt>
      <trkpt lat="49.110326" lon="-121.761939">
      </trkpt>
      <trkpt lat="49.110359" lon="-121.761966">
      </trkpt>
      <trkpt lat="49.110426" lon="-121.762">
      </trkpt>
      <trkpt lat="49.110443" lon="-121.762093">
      </trkpt>
      <trkpt lat="49.110497" lon="-121.762178">
      </trkpt>
      <trkpt lat="49.110503" lon="-121.762264">
      </trkpt>
      <trkpt lat="49.110525" lon="-121.76235899">
      </trkpt>
      <trkpt lat="49.110538" lon="-121.76233901">
      </trkpt>
      <trkpt lat="49.110562" lon="-121.76238199">
      </trkpt>
      <trkpt lat="49.110578" lon="-121.762411">
      </trkpt>
      <trkpt lat="49.110605" lon="-121.76240399">
      </trkpt>
      <trkpt lat="49.110644" lon="-121.762393">
      </trkpt>
      <trkpt lat="49.110671" lon="-121.76246799">
      </trkpt>
      <trkpt lat="49.110711" lon="-121.76245">
      </trkpt>
      <trkpt lat="49.110755" lon="-121.76242201">
      </trkpt>
      <trkpt lat="49.110742" lon="-121.76238501">
      </trkpt>
      <trkpt lat="49.11075" lon="-121.762357">
      </trkpt>
      <trkpt lat="49.11079" lon="-121.762339">
      </trkpt>
      <trkpt lat="49.110777" lon="-121.762333">
      </trkpt>
      <trkpt lat="49.110855" lon="-121.76219">
      </trkpt>
      <trkpt lat="49.110855" lon="-121.76212501">
      </trkpt>
      <trkpt lat="49.110843" lon="-121.762115">
      </trkpt>
      <trkpt lat="49.110829" lon="-121.762071">
      </trkpt>
      <trkpt lat="49.110875" lon="-121.76206">
      </trkpt>
      <trkpt lat="49.110907" lon="-121.761976">
      </trkpt>
      <trkpt lat="49.110954" lon="-121.761992">
      </trkpt>
      <trkpt lat="49.111005" lon="-121.76177199">
      </trkpt>
      <trkpt lat="49.111092" lon="-121.761638">
      </trkpt>
      <trkpt lat="49.111147" lon="-121.76156399">
      </trkpt>
      <trkpt lat="49.111198" lon="-121.76146101">
      </trkpt>
      <trkpt lat="49.111327" lon="-121.761353">
      </trkpt>
      <trkpt lat="49.111363" lon="-121.761275">
      </trkpt>
      <trkpt lat="49.111393" lon="-121.761252">
      </trkpt>
      <trkpt lat="49.111453" lon="-121.761221">
      </trkpt>
      <trkpt lat="49.111507" lon="-121.761124">
      </trkpt>
      <trkpt lat="49.111567" lon="-121.761055">
      </trkpt>
      <trkpt lat="49.111649" lon="-121.761027">
      </trkpt>
      <trkpt lat="49.111698" lon="-121.761014">
      </trkpt>
      <trkpt lat="49.111791" lon="-121.761002">
      </trkpt>
      <trkpt lat="49.111786" lon="-121.761016">
      </trkpt>
      <trkpt lat="49.111874" lon="-121.760967">
      </trkpt>
      <trkpt lat="49.111919" lon="-121.760954">
      </trkpt>
      <trkpt lat="49.11199" lon="-121.760922">
      </trkpt>
      <trkpt lat="49.11203" lon="-121.760962">
      </trkpt>
      <trkpt lat="49.112084" lon="-121.760924">
      </trkpt>
      <trkpt lat="49.112106" lon="-121.76093901">
      </trkpt>
      <trkpt lat="49.112137" lon="-121.760973">
      </trkpt>
      <trkpt lat="49.112165" lon="-121.76101701">
      </trkpt>
      <trkpt lat="49.11216629" lon="-121.76102452">
      </trkpt>
      <trkpt lat="49.112173" lon="-121.76101">
      </trkpt>
      <trkpt lat="49.112224" lon="-121.761007">
      </trkpt>
      <trkpt lat="49.112263" lon="-121.760973">
      </trkpt>
      <trkpt lat="49.112294" lon="-121.76091101">
      </trkpt>
      <trkpt lat="49.112318" lon="-121.760894">
      </trkpt>
      <trkpt lat="49.112335" lon="-121.760874">
      </trkpt>
      <trkpt lat="49.112319" lon="-121.76086999">
      </trkpt>
      <trkpt lat="49.112372" lon="-121.76080399">
      </trkpt>
      <trkpt lat="49.112439" lon="-121.760727">
      </trkpt>
      <trkpt lat="49.112475" lon="-121.76067899">
      </trkpt>
      <trkpt lat="49.112501" lon="-121.760656">
      </trkpt>
      <trkpt lat="49.112518" lon="-121.760669">
      </trkpt>
      <trkpt lat="49.112523" lon="-121.760666">
      </trkpt>
      <trkpt lat="49.112541" lon="-121.760661">
      </trkpt>
      <trkpt lat="49.11258" lon="-121.760642">
      </trkpt>
      <trkpt lat="49.112609" lon="-121.760645">
      </trkpt>
      <trkpt lat="49.112647" lon="-121.760653">
      </trkpt>
      <trkpt lat="49.11266" lon="-121.760668">
      </trkpt>
      <trkpt lat="49.11269" lon="-121.760697">
      </trkpt>
      <trkpt lat="49.112733" lon="-121.760688">
      </trkpt>
      <trkpt lat="49.112779" lon="-121.760699">
      </trkpt>
      <trkpt lat="49.112787" lon="-121.760694">
      </trkpt>
      <trkpt lat="49.112816" lon="-121.760696">
      </trkpt>
      <trkpt lat="49.112835" lon="-121.760704">
      </trkpt>
      <trkpt lat="49.112853" lon="-121.760684">
      </trkpt>
      <trkpt lat="49.11288" lon="-121.76059601">
      </trkpt>
      <trkpt lat="49.112895" lon="-121.760634">
      </trkpt>
      <trkpt lat="49.112902" lon="-121.760669">
      </trkpt>
      <trkpt lat="49.112917" lon="-121.760734">
      </trkpt>
      <trkpt lat="49.112922" lon="-121.76081401">
      </trkpt>
      <trkpt lat="49.112917" lon="-121.760865">
      </trkpt>
      <trkpt lat="49.112936" lon="-121.760907">
      </trkpt>
      <trkpt lat="49.112966" lon="-121.760959">
      </trkpt>
      <trkpt lat="49.11298" lon="-121.761003">
      </trkpt>
      <trkpt lat="49.112992" lon="-121.760997">
      </trkpt>
      <trkpt lat="49.113051" lon="-121.761023">
      </trkpt>
      <trkpt lat="49.113055" lon="-121.761025">
      </trkpt>
      <trkpt lat="49.113071" lon="-121.76108799">
      </trkpt>
      <trkpt lat="49.113073" lon="-121.761108">
      </trkpt>
      <trkpt lat="49.113069" lon="-121.76115299">
      </trkpt>
      <trkpt lat="49.113076" lon="-121.761194">
      </trkpt>
      <trkpt lat="49.113087" lon="-121.761183">
      </trkpt>
      <trkpt lat="49.113114" lon="-121.761167">
      </trkpt>
      <trkpt lat="49.113135" lon="-121.761174">
      </trkpt>
      <trkpt lat="49.113138" lon="-121.76119299">
      </trkpt>
      <trkpt lat="49.113182" lon="-121.76120399">
      </trkpt>
      <trkpt lat="49.113199" lon="-121.761212">
      </trkpt>
      <trkpt lat="49.113198" lon="-121.761223">
      </trkpt>
      <trkpt lat="49.113235" lon="-121.76123101">
      </trkpt>
      <trkpt lat="49.113231" lon="-121.761278">
      </trkpt>
      <trkpt lat="49.113243" lon="-121.76128499">
      </trkpt>
      <trkpt lat="49.113277" lon="-121.761292">
      </trkpt>
      <trkpt lat="49.113291" lon="-121.761299">
      </trkpt>
      <trkpt lat="49.113303" lon="-121.761331">
      </trkpt>
      <trkpt lat="49.113322" lon="-121.761314">
      </trkpt>
      <trkpt lat="49.113358" lon="-121.761329">
      </trkpt>
      <trkpt lat="49.11339" lon="-121.76133699">
      </trkpt>
      <trkpt lat="49.11342645" lon="-121.76137542">
      </trkpt>
      <trkpt lat="49.113461" lon="-121.761369">
      </trkpt>
      <trkpt lat="49.113492" lon="-121.761342">
      </trkpt>
      <trkpt lat="49.113527" lon="-121.761342">
      </trkpt>
      <trkpt lat="49.113545" lon="-121.761336">
      </trkpt>
      <trkpt lat="49.113668" lon="-121.761329">
      </trkpt>
      <trkpt lat="49.113732" lon="-121.761355">
      </trkpt>
      <trkpt lat="49.113838" lon="-121.761292">
      </trkpt>
      <trkpt lat="49.113898" lon="-121.761273">
      </trkpt>
      <trkpt lat="49.113937" lon="-121.761242">
      </trkpt>
      <trkpt lat="49.113984" lon="-121.761308">
      </trkpt>
      <trkpt lat="49.113996" lon="-121.761337">
      </trkpt>
      <trkpt lat="49.113994" lon="-121.761342">
      </trkpt>
      <trkpt lat="49.11398756" lon="-121.76134668">
      </trkpt>
      <trkpt lat="49.114051" lon="-121.76133399">
      </trkpt>
      <trkpt lat="49.114079" lon="-121.761343">
      </trkpt>
      <trkpt lat="49.114141" lon="-121.761353">
      </trkpt>
      <trkpt lat="49.114178" lon="-121.761321">
      </trkpt>
      <trkpt lat="49.114229" lon="-121.76133">
      </trkpt>
      <trkpt lat="49.11425" lon="-121.761272">
      </trkpt>
      <trkpt lat="49.114303" lon="-121.76128801">
      </trkpt>
      <trkpt lat="49.114339" lon="-121.761244">
      </trkpt>
      <trkpt lat="49.114367" lon="-121.76123499">
      </trkpt>
      <trkpt lat="49.114447" lon="-121.761234">
      </trkpt>
      <trkpt lat="49.114517" lon="-121.76123599">
      </trkpt>
      <trkpt lat="49.114553" lon="-121.761232">
      </trkpt>
      <trkpt lat="49.114594" lon="-121.761273">
      </trkpt>
      <trkpt lat="49.114655" lon="-121.761294">
      </trkpt>
      <trkpt lat="49.114685" lon="-121.761352">
      </trkpt>
      <trkpt lat="49.114715" lon="-121.761376">
      </trkpt>
      <trkpt lat="49.114773" lon="-121.761382">
      </trkpt>
      <trkpt lat="49.114779" lon="-121.761396">
      </trkpt>
      <trkpt lat="49.114847" lon="-121.761455">
      </trkpt>
      <trkpt lat="49.114905" lon="-121.7615">
      </trkpt>
      <trkpt lat="49.114986" lon="-121.761499">
      </trkpt>
      <trkpt lat="49.115018" lon="-121.76144199">
      </trkpt>
      <trkpt lat="49.115026" lon="-121.761516">
      </trkpt>
      <trkpt lat="49.115032" lon="-121.76157">
      </trkpt>
      <trkpt lat="49.11508" lon="-121.76161801">
      </trkpt>
      <trkpt lat="49.115114" lon="-121.761654">
      </trkpt>
      <trkpt lat="49.115115" lon="-121.761705">
      </trkpt>
      <trkpt lat="49.115125" lon="-121.76170999">
      </trkpt>
      <trkpt lat="49.115183" lon="-121.76169999">
      </trkpt>
      <trkpt lat="49.115233" lon="-121.76171">
      </trkpt>
      <trkpt lat="49.115302" lon="-121.761704">
      </trkpt>
      <trkpt lat="49.115383" lon="-121.761673">
      </trkpt>
      <trkpt lat="49.115438" lon="-121.761689">
      </trkpt>
      <trkpt lat="49.115532" lon="-121.76171401">
      </trkpt>
      <trkpt lat="49.115612" lon="-121.761702">
      </trkpt>
      <trkpt lat="49.115685" lon="-121.761707">
      </trkpt>
      <trkpt lat="49.115711" lon="-121.761723">
      </trkpt>
      <trkpt lat="49.115734" lon="-121.761689">
      </trkpt>
      <trkpt lat="49.115755" lon="-121.761674">
      </trkpt>
      <trkpt lat="49.11576" lon="-121.761669">
      </trkpt>
      <trkpt lat="49.115783" lon="-121.761687">
      </trkpt>
      <trkpt lat="49.115854" lon="-121.76174001">
      </trkpt>
      <trkpt lat="49.115924" lon="-121.761753">
      </trkpt>
      <trkpt lat="49.115976" lon="-121.761731">
      </trkpt>
      <trkpt lat="49.11607" lon="-121.7617">
      </trkpt>
      <trkpt lat="49.116147" lon="-121.761692">
      </trkpt>
      <trkpt lat="49.116226" lon="-121.761718">
      </trkpt>
      <trkpt lat="49.116292" lon="-121.761701">
      </trkpt>
      <trkpt lat="49.116361" lon="-121.761692">
      </trkpt>
      <trkpt lat="49.116352" lon="-121.76168099">
      </trkpt>
      <trkpt lat="49.116402" lon="-121.761653">
      </trkpt>
      <trkpt lat="49.11641" lon="-121.76166901">
      </trkpt>
      <trkpt lat="49.116447" lon="-121.76160699">
      </trkpt>
      <trkpt lat="49.11648" lon="-121.76157001">
      </trkpt>
      <trkpt lat="49.11649" lon="-121.76151801">
      </trkpt>
      <trkpt lat="49.116538" lon="-121.76147799">
      </trkpt>
      <trkpt lat="49.116567" lon="-121.761366">
      </trkpt>
      <trkpt lat="49.11662" lon="-121.761323">
      </trkpt>
      <trkpt lat="49.11669" lon="-121.76127">
      </trkpt>
      <trkpt lat="49.116745" lon="-121.76128901">
      </trkpt>
      <trkpt lat="49.116785" lon="-121.76128999">
      </trkpt>
      <trkpt lat="49.116821" lon="-121.761308">
      </trkpt>
      <trkpt lat="49.116958" lon="-121.76132701">
      </trkpt>
      <trkpt lat="49.116992" lon="-121.761278">
      </trkpt>
      <trkpt lat="49.116961" lon="-121.761241">
      </trkpt>
      <trkpt lat="49.11693" lon="-121.761153">
      </trkpt>
      <trkpt lat="49.117011" lon="-121.761128">
      </trkpt>
      <trkpt lat="49.117043" lon="-121.76114601">
      </trkpt>
      <trkpt lat="49.117048" lon="-121.761183">
      </trkpt>
      <trkpt lat="49.117099" lon="-121.761205">
      </trkpt>
      <trkpt lat="49.117153" lon="-121.76121101">
      </trkpt>
      <trkpt lat="49.117208" lon="-121.761236">
      </trkpt>
      <trkpt lat="49.117275" lon="-121.761271">
      </trkpt>
      <trkpt lat="49.117322" lon="-121.76130101">
      </trkpt>
      <trkpt lat="49.117365" lon="-121.761337">
      </trkpt>
      <trkpt lat="49.117388" lon="-121.761322">
      </trkpt>
      <trkpt lat="49.117439" lon="-121.76137701">
      </trkpt>
      <trkpt lat="49.11748" lon="-121.76144">
      </trkpt>
      <trkpt lat="49.117569" lon="-121.761519">
      </trkpt>
      <trkpt lat="49.1176" lon="-121.76154401">
      </trkpt>
      <trkpt lat="49.117613" lon="-121.76157399">
      </trkpt>
      <trkpt lat="49.117663" lon="-121.76163901">
      </trkpt>
      <trkpt lat="49.117727" lon="-121.761651">
      </trkpt>
      <trkpt lat="49.117798" lon="-121.76166899">
      </trkpt>
      <trkpt lat="49.117797" lon="-121.761667">
      </trkpt>
      <trkpt lat="49.117826" lon="-121.761661">
      </trkpt>
      <trkpt lat="49.117916" lon="-121.76165301">
      </trkpt>
      <trkpt lat="49.117995" lon="-121.76169401">
      </trkpt>
      <trkpt lat="49.118032" lon="-121.76173201">
      </trkpt>
      <trkpt lat="49.118038" lon="-121.76171001">
      </trkpt>
      <trkpt lat="49.1181" lon="-121.76173399">
      </trkpt>
      <trkpt lat="49.118107" lon="-121.761766">
      </trkpt>
      <trkpt lat="49.118152" lon="-121.761761">
      </trkpt>
      <trkpt lat="49.11818" lon="-121.761751">
      </trkpt>
      <trkpt lat="49.118223" lon="-121.7617">
      </trkpt>
      <trkpt lat="49.118216" lon="-121.761688">
      </trkpt>
      <trkpt lat="49.118272" lon="-121.761636">
      </trkpt>
      <trkpt lat="49.118332" lon="-121.761602">
      </trkpt>
      <trkpt lat="49.118361" lon="-121.761606">
      </trkpt>
      <trkpt lat="49.11841" lon="-121.761595">
      </trkpt>
      <trkpt lat="49.118484" lon="-121.7616">
      </trkpt>
      <trkpt lat="49.118548" lon="-121.761537">
      </trkpt>
      <trkpt lat="49.118632" lon="-121.76145901">
      </trkpt>
      <trkpt lat="49.118649" lon="-121.761454">
      </trkpt>
      <trkpt lat="49.118696" lon="-121.761518">
      </trkpt>
      <trkpt lat="49.1187" lon="-121.76155901">
      </trkpt>
      <trkpt lat="49.11876" lon="-121.76163301">
      </trkpt>
      <trkpt lat="49.11882" lon="-121.761791">
      </trkpt>
      <trkpt lat="49.11883049" lon="-121.76180482">
      </trkpt>
      <trkpt lat="49.118852" lon="-121.761784">
      </trkpt>
      <trkpt lat="49.118931" lon="-121.761766">
      </trkpt>
      <trkpt lat="49.119003" lon="-121.76184901">
      </trkpt>
      <trkpt lat="49.119021" lon="-121.76188199">
      </trkpt>
      <trkpt lat="49.119093" lon="-121.761896">
      </trkpt>
      <trkpt lat="49.119156" lon="-121.76200299">
      </trkpt>
      <trkpt lat="49.119185" lon="-121.762026">
      </trkpt>
      <trkpt lat="49.119208" lon="-121.762104">
      </trkpt>
      <trkpt lat="49.119247" lon="-121.762146">
      </trkpt>
      <trkpt lat="49.119304" lon="-121.76216799">
      </trkpt>
      <trkpt lat="49.119379" lon="-121.76223399">
      </trkpt>
      <trkpt lat="49.119449" lon="-121.762287">
      </trkpt>
      <trkpt lat="49.119518" lon="-121.76236499">
      </trkpt>
      <trkpt lat="49.119583" lon="-121.76238299">
      </trkpt>
      <trkpt lat="49.119632" lon="-121.762292">
      </trkpt>
      <trkpt lat="49.119691" lon="-121.762308">
      </trkpt>
      <trkpt lat="49.119715" lon="-121.762392">
      </trkpt>
      <trkpt lat="49.119744" lon="-121.76247501">
      </trkpt>
      <trkpt lat="49.119747" lon="-121.76248">
      </trkpt>
      <trkpt lat="49.119762" lon="-121.762476">
      </trkpt>
      <trkpt lat="49.119797" lon="-121.76244299">
      </trkpt>
      <trkpt lat="49.119779" lon="-121.762483">
      </trkpt>
      <trkpt lat="49.1198" lon="-121.762541">
      </trkpt>
      <trkpt lat="49.119826" lon="-121.76260899">
      </trkpt>
      <trkpt lat="49.11982" lon="-121.762642">
      </trkpt>
      <trkpt lat="49.119812" lon="-121.762685">
      </trkpt>
      <trkpt lat="49.119814" lon="-121.76274301">
      </trkpt>
      <trkpt lat="49.119834" lon="-121.76277999">
      </trkpt>
      <trkpt lat="49.119841" lon="-121.762792">
      </trkpt>
      <trkpt lat="49.11993" lon="-121.76288901">
      </trkpt>
      <trkpt lat="49.11995297" lon="-121.76290815">
      </trkpt>
      <trkpt lat="49.119992" lon="-121.762914">
      </trkpt>
      <trkpt lat="49.120026" lon="-121.763018">
      </trkpt>
      <trkpt lat="49.120097" lon="-121.763011">
      </trkpt>
      <trkpt lat="49.120166" lon="-121.76302699">
      </trkpt>
      <trkpt lat="49.120161" lon="-121.762958">
      </trkpt>
      <trkpt lat="49.120187" lon="-121.762947">
      </trkpt>
      <trkpt lat="49.120263" lon="-121.762965">
      </trkpt>
      <trkpt lat="49.120305" lon="-121.762953">
      </trkpt>
      <trkpt lat="49.120251" lon="-121.76285">
      </trkpt>
      <trkpt lat="49.120292" lon="-121.762821">
      </trkpt>
      <trkpt lat="49.1203" lon="-121.76278901">
      </trkpt>
      <trkpt lat="49.120358" lon="-121.762768">
      </trkpt>
      <trkpt lat="49.120435" lon="-121.76281101">
      </trkpt>
      <trkpt lat="49.120529" lon="-121.762799">
      </trkpt>
      <trkpt lat="49.120565" lon="-121.762814">
      </trkpt>
      <trkpt lat="49.120599" lon="-121.76284499">
      </trkpt>
      <trkpt lat="49.120678" lon="-121.762849">
      </trkpt>
      <trkpt lat="49.120737" lon="-121.76291701">
      </trkpt>
      <trkpt lat="49.120843" lon="-121.763009">
      </trkpt>
      <trkpt lat="49.120895" lon="-121.763067">
      </trkpt>
      <trkpt lat="49.120987" lon="-121.763126">
      </trkpt>
      <trkpt lat="49.121065" lon="-121.76312999">
      </trkpt>
      <trkpt lat="49.121137" lon="-121.763165">
      </trkpt>
      <trkpt lat="49.121257" lon="-121.763289">
      </trkpt>
      <trkpt lat="49.121368" lon="-121.763435">
      </trkpt>
      <trkpt lat="49.12144" lon="-121.763497">
      </trkpt>
      <trkpt lat="49.121479" lon="-121.763581">
      </trkpt>
      <trkpt lat="49.121499" lon="-121.76364599">
      </trkpt>
      <trkpt lat="49.121524" lon="-121.76369">
      </trkpt>
      <trkpt lat="49.121539" lon="-121.76367">
      </trkpt>
      <trkpt lat="49.12156" lon="-121.76363399">
      </trkpt>
      <trkpt lat="49.121617" lon="-121.763621">
      </trkpt>
      <trkpt lat="49.121683" lon="-121.763586">
      </trkpt>
      <trkpt lat="49.121728" lon="-121.76356399">
      </trkpt>
      <trkpt lat="49.121732" lon="-121.763562">
      </trkpt>
      <trkpt lat="49.121843" lon="-121.763542">
      </trkpt>
      <trkpt lat="49.121927" lon="-121.76358401">
      </trkpt>
      <trkpt lat="49.121967" lon="-121.763628">
      </trkpt>
      <trkpt lat="49.121993" lon="-121.76355501">
      </trkpt>
      <trkpt lat="49.122038" lon="-121.763515">
      </trkpt>
      <trkpt lat="49.122105" lon="-121.763503">
      </trkpt>
      <trkpt lat="49.122188" lon="-121.763536">
      </trkpt>
      <trkpt lat="49.122195" lon="-121.76354101">
      </trkpt>
      <trkpt lat="49.122229" lon="-121.763585">
      </trkpt>
      <trkpt lat="49.122262" lon="-121.763575">
      </trkpt>
      <trkpt lat="49.122299" lon="-121.76359301">
      </trkpt>
      <trkpt lat="49.122342" lon="-121.763582">
      </trkpt>
      <trkpt lat="49.122394" lon="-121.763625">
      </trkpt>
      <trkpt lat="49.122489" lon="-121.763655">
      </trkpt>
      <trkpt lat="49.122565" lon="-121.76370399">
      </trkpt>
      <trkpt lat="49.122592" lon="-121.76376101">
      </trkpt>
      <trkpt lat="49.122655" lon="-121.763837">
      </trkpt>
      <trkpt lat="49.122687" lon="-121.76385001">
      </trkpt>
      <trkpt lat="49.122712" lon="-121.763899">
      </trkpt>
      <trkpt lat="49.122728" lon="-121.76392799">
      </trkpt>
      <trkpt lat="49.1228" lon="-121.764008">
      </trkpt>
      <trkpt lat="49.122841" lon="-121.764039">
      </trkpt>
      <trkpt lat="49.122915" lon="-121.764085">
      </trkpt>
      <trkpt lat="49.12294" lon="-121.76410799">
      </trkpt>
      <trkpt lat="49.123006" lon="-121.764161">
      </trkpt>
      <trkpt lat="49.123002" lon="-121.764197">
      </trkpt>
      <trkpt lat="49.123042" lon="-121.764226">
      </trkpt>
      <trkpt lat="49.123064" lon="-121.764255">
      </trkpt>
      <trkpt lat="49.123147" lon="-121.76428101">
      </trkpt>
      <trkpt lat="49.123224" lon="-121.764321">
      </trkpt>
      <trkpt lat="49.123278" lon="-121.76433799">
      </trkpt>
      <trkpt lat="49.123358" lon="-121.76437999">
      </trkpt>
      <trkpt lat="49.123368" lon="-121.764378">
      </trkpt>
      <trkpt lat="49.123436" lon="-121.764389">
      </trkpt>
      <trkpt lat="49.123526" lon="-121.76442">
      </trkpt>
      <trkpt lat="49.123603" lon="-121.76447299">
      </trkpt>
      <trkpt lat="49.123659" lon="-121.76448601">
      </trkpt>
      <trkpt lat="49.123678" lon="-121.76447">
      </trkpt>
      <trkpt lat="49.12377" lon="-121.76446099">
      </trkpt>
      <trkpt lat="49.123786" lon="-121.76448099">
      </trkpt>
      <trkpt lat="49.123842" lon="-121.764461">
      </trkpt>
      <trkpt lat="49.123869" lon="-121.764415">
      </trkpt>
      <trkpt lat="49.123936" lon="-121.76433">
      </trkpt>
      <trkpt lat="49.123992" lon="-121.764328">
      </trkpt>
      <trkpt lat="49.124065" lon="-121.764329">
      </trkpt>
      <trkpt lat="49.124089" lon="-121.76438">
      </trkpt>
      <trkpt lat="49.124184" lon="-121.764437">
      </trkpt>
      <trkpt lat="49.124259" lon="-121.764387">
      </trkpt>
      <trkpt lat="49.124328" lon="-121.764432">
      </trkpt>
      <trkpt lat="49.124348" lon="-121.764436">
      </trkpt>
      <trkpt lat="49.124413" lon="-121.764455">
      </trkpt>
      <trkpt lat="49.124474" lon="-121.764473">
      </trkpt>
      <trkpt lat="49.124527" lon="-121.764504">
      </trkpt>
      <trkpt lat="49.124536" lon="-121.764507">
      </trkpt>
      <trkpt lat="49.12455" lon="-121.764524">
      </trkpt>
      <trkpt lat="49.124665" lon="-121.764569">
      </trkpt>
      <trkpt lat="49.124771" lon="-121.76461199">
      </trkpt>
      <trkpt lat="49.124808" lon="-121.76459001">
      </trkpt>
      <trkpt lat="49.124833" lon="-121.76457401">
      </trkpt>
      <trkpt lat="49.124863" lon="-121.764554">
      </trkpt>
      <trkpt lat="49.124908" lon="-121.764588">
      </trkpt>
      <trkpt lat="49.124969" lon="-121.76450099">
      </trkpt>
      <trkpt lat="49.125009" lon="-121.764546">
      </trkpt>
      <trkpt lat="49.125076" lon="-121.76459">
      </trkpt>
      <trkpt lat="49.1253" lon="-121.764486">
      </trkpt>
      <trkpt lat="49.125435" lon="-121.764454">
      </trkpt>
      <trkpt lat="49.12548" lon="-121.76439199">
      </trkpt>
      <trkpt lat="49.125579" lon="-121.764365">
      </trkpt>
      <trkpt lat="49.125895" lon="-121.76430401">
      </trkpt>
      <trkpt lat="49.126004" lon="-121.764236">
      </trkpt>
      <trkpt lat="49.126023" lon="-121.764162">
      </trkpt>
      <trkpt lat="49.126036" lon="-121.76412401">
      </trkpt>
      <trkpt lat="49.12607" lon="-121.764119">
      </trkpt>
      <trkpt lat="49.126153" lon="-121.764156">
      </trkpt>
      <trkpt lat="49.126204" lon="-121.764227">
      </trkpt>
      <trkpt lat="49.126414" lon="-121.76404701">
      </trkpt>
      <trkpt lat="49.126508" lon="-121.764045">
      </trkpt>
      <trkpt lat="49.126689" lon="-121.764095">
      </trkpt>
      <trkpt lat="49.126932" lon="-121.76436101">
      </trkpt>
      <trkpt lat="49.127029" lon="-121.764512">
      </trkpt>
      <trkpt lat="49.126952" lon="-121.764535">
      </trkpt>
      <trkpt lat="49.127001" lon="-121.764608">
      </trkpt>
      <trkpt lat="49.127109" lon="-121.764647">
      </trkpt>
      <trkpt lat="49.127153" lon="-121.76473501">
      </trkpt>
      <trkpt lat="49.127248" lon="-121.764823">
      </trkpt>
      <trkpt lat="49.127321" lon="-121.76494">
      </trkpt>
      <trkpt lat="49.127498" lon="-121.76495801">
      </trkpt>
      <trkpt lat="49.127552" lon="-121.76516999">
      </trkpt>
      <trkpt lat="49.127612" lon="-121.765549">
      </trkpt>
      <trkpt lat="49.127643" lon="-121.76557">
      </trkpt>
      <trkpt lat="49.127625" lon="-121.765634">
      </trkpt>
      <trkpt lat="49.127622" lon="-121.765654">
      </trkpt>
      <trkpt lat="49.12767543" lon="-121.76567584">
      </trkpt>
      <trkpt lat="49.127754" lon="-121.766008">
      </trkpt>
      <trkpt lat="49.127806" lon="-121.766048">
      </trkpt>
      <trkpt lat="49.127844" lon="-121.766225">
      </trkpt>
      <trkpt lat="49.127859" lon="-121.766304">
      </trkpt>
      <trkpt lat="49.127905" lon="-121.76638101">
      </trkpt>
      <trkpt lat="49.127947" lon="-121.76645899">
      </trkpt>
      <trkpt lat="49.127954" lon="-121.766564">
      </trkpt>
      <trkpt lat="49.128009" lon="-121.76666">
      </trkpt>
      <trkpt lat="49.12806" lon="-121.76681101">
      </trkpt>
      <trkpt lat="49.128033" lon="-121.766904">
      </trkpt>
      <trkpt lat="49.128032" lon="-121.76696501">
      </trkpt>
      <trkpt lat="49.128028" lon="-121.76701799">
      </trkpt>
      <trkpt lat="49.128012" lon="-121.76718101">
      </trkpt>
      <trkpt lat="49.128004" lon="-121.767233">
      </trkpt>
      <trkpt lat="49.128036" lon="-121.76732">
      </trkpt>
      <trkpt lat="49.128084" lon="-121.767445">
      </trkpt>
      <trkpt lat="49.128171" lon="-121.767487">
      </trkpt>
      <trkpt lat="49.128201" lon="-121.767597">
      </trkpt>
      <trkpt lat="49.128237" lon="-121.767713">
      </trkpt>
      <trkpt lat="49.128242" lon="-121.76772">
      </trkpt>
      <trkpt lat="49.128273" lon="-121.767825">
      </trkpt>
      <trkpt lat="49.128276" lon="-121.767862">
      </trkpt>
      <trkpt lat="49.128273" lon="-121.767908">
      </trkpt>
      <trkpt lat="49.128304" lon="-121.767955">
      </trkpt>
      <trkpt lat="49.128344" lon="-121.768022">
      </trkpt>
      <trkpt lat="49.128379" lon="-121.768089">
      </trkpt>
      <trkpt lat="49.128389" lon="-121.768158">
      </trkpt>
      <trkpt lat="49.128404" lon="-121.768226">
      </trkpt>
      <trkpt lat="49.128477" lon="-121.768246">
      </trkpt>
      <trkpt lat="49.128514" lon="-121.768267">
      </trkpt>
      <trkpt lat="49.128539" lon="-121.768374">
      </trkpt>
      <trkpt lat="49.128608" lon="-121.768431">
      </trkpt>
      <trkpt lat="49.128665" lon="-121.768624">
      </trkpt>
      <trkpt lat="49.128684" lon="-121.768656">
      </trkpt>
      <trkpt lat="49.128722" lon="-121.768756">
      </trkpt>
      <trkpt lat="49.128746" lon="-121.768828">
      </trkpt>
      <trkpt lat="49.128722" lon="-121.768963">
      </trkpt>
      <trkpt lat="49.128744" lon="-121.76917">
      </trkpt>
      <trkpt lat="49.128778" lon="-121.769252">
      </trkpt>
      <trkpt lat="49.128768" lon="-121.769387">
      </trkpt>
      <trkpt lat="49.128768" lon="-121.76948699">
      </trkpt>
      <trkpt lat="49.128759" lon="-121.769558">
      </trkpt>
      <trkpt lat="49.128741" lon="-121.769583">
      </trkpt>
      <trkpt lat="49.128683" lon="-121.769654">
      </trkpt>
      <trkpt lat="49.128673" lon="-121.76971">
      </trkpt>
      <trkpt lat="49.128662" lon="-121.76981001">
      </trkpt>
      <trkpt lat="49.128647" lon="-121.76987">
      </trkpt>
      <trkpt lat="49.128624" lon="-121.76996299">
      </trkpt>
      <trkpt lat="49.128591" lon="-121.770058">
      </trkpt>
      <trkpt lat="49.128562" lon="-121.770419">
      </trkpt>
      <trkpt lat="49.128565" lon="-121.77048399">
      </trkpt>
      <trkpt lat="49.128578" lon="-121.770542">
      </trkpt>
      <trkpt lat="49.128586" lon="-121.77059201">
      </trkpt>
      <trkpt lat="49.128649" lon="-121.77063799">
      </trkpt>
      <trkpt lat="49.128606" lon="-121.770682">
      </trkpt>
      <trkpt lat="49.128624" lon="-121.770717">
      </trkpt>
      <trkpt lat="49.128716" lon="-121.77077899">
      </trkpt>
      <trkpt lat="49.12861" lon="-121.77085399">
      </trkpt>
      <trkpt lat="49.128673" lon="-121.770963">
      </trkpt>
      <trkpt lat="49.128599" lon="-121.77107801">
      </trkpt>
      <trkpt lat="49.128524" lon="-121.771185">
      </trkpt>
      <trkpt lat="49.128597" lon="-121.771251">
      </trkpt>
      <trkpt lat="49.128611" lon="-121.771291">
      </trkpt>
      <trkpt lat="49.128565" lon="-121.77144999">
      </trkpt>
      <trkpt lat="49.128568" lon="-121.77165">
      </trkpt>
      <trkpt lat="49.128562" lon="-121.772075">
      </trkpt>
      <trkpt lat="49.128407" lon="-121.77225501">
      </trkpt>
      <trkpt lat="49.128398" lon="-121.772485">
      </trkpt>
      <trkpt lat="49.128172" lon="-121.773144">
      </trkpt>
      <trkpt lat="49.128153" lon="-121.77375101">
      </trkpt>
      <trkpt lat="49.128162" lon="-121.773859">
      </trkpt>
      <trkpt lat="49.128102" lon="-121.773956">
      </trkpt>
      <trkpt lat="49.127957" lon="-121.774067">
      </trkpt>
      <trkpt lat="49.127976" lon="-121.77417801">
      </trkpt>
      <trkpt lat="49.127989" lon="-121.774317">
      </trkpt>
      <trkpt lat="49.127955" lon="-121.774335">
      </trkpt>
      <trkpt lat="49.127953" lon="-121.774353">
      </trkpt>
      <trkpt lat="49.127954" lon="-121.774388">
      </trkpt>
      <trkpt lat="49.127953" lon="-121.77458">
      </trkpt>
      <trkpt lat="49.12802" lon="-121.774655">
      </trkpt>
      <trkpt lat="49.12801" lon="-121.77479999">
      </trkpt>
      <trkpt lat="49.128016" lon="-121.77482501">
      </trkpt>
      <trkpt lat="49.12802" lon="-121.774845">
      </trkpt>
      <trkpt lat="49.127997" lon="-121.774871">
      </trkpt>
      <trkpt lat="49.127987" lon="-121.775014">
      </trkpt>
      <trkpt lat="49.12802512" lon="-121.77514239">
      </trkpt>
    </trkseg>
  </trk>
</gpx>