<?xml version="1.0" encoding="UTF-8"?>
<gpx xmlns="http://www.topografix.com/GPX/1/1" xmlns:xsi="http://www.w3.org/2001/XMLSchema-instance" xsi:schemaLocation="http://www.topografix.com/GPX/1/1 http://www.topografix.com/GPX/1/1/gpx.xsd" version="1.1" creator="gpx.py -- https://github.com/tkrajina/gpxpy">
  <trk>
    <name>Lucky 7</name>
    <trkseg>
      <trkpt lat="54.49041937" lon="-128.47784164">
      </trkpt>
      <trkpt lat="54.49043" lon="-128.47783999">
      </trkpt>
      <trkpt lat="54.49053" lon="-128.47771001">
      </trkpt>
      <trkpt lat="54.49064" lon="-128.47746">
      </trkpt>
      <trkpt lat="54.4909" lon="-128.47696">
      </trkpt>
      <trkpt lat="54.49112" lon="-128.47642001">
      </trkpt>
      <trkpt lat="54.49126" lon="-128.47629">
      </trkpt>
      <trkpt lat="54.49137" lon="-128.47609">
      </trkpt>
      <trkpt lat="54.4914" lon="-128.47599999">
      </trkpt>
      <trkpt lat="54.49149" lon="-128.47522">
      </trkpt>
      <trkpt lat="54.49156" lon="-128.47511001">
      </trkpt>
      <trkpt lat="54.49204" lon="-128.47459001">
      </trkpt>
      <trkpt lat="54.49225" lon="-128.47432">
      </trkpt>
      <trkpt lat="54.49231" lon="-128.47429001">
      </trkpt>
      <trkpt lat="54.49248473" lon="-128.47413036">
      </trkpt>
      <trkpt lat="54.49263" lon="-128.47409">
      </trkpt>
      <trkpt lat="54.49263686" lon="-128.47407629">
      </trkpt>
      <trkpt lat="54.49275" lon="-128.47384999">
      </trkpt>
      <trkpt lat="54.49288" lon="-128.47363001">
      </trkpt>
      <trkpt lat="54.49285" lon="-128.47332">
      </trkpt>
      <trkpt lat="54.49293" lon="-128.47304999">
      </trkpt>
      <trkpt lat="54.49301" lon="-128.4728">
      </trkpt>
      <trkpt lat="54.49296" lon="-128.47249">
      </trkpt>
      <trkpt lat="54.49285" lon="-128.47221">
      </trkpt>
      <trkpt lat="54.49277" lon="-128.47192">
      </trkpt>
      <trkpt lat="54.49293" lon="-128.47176">
      </trkpt>
      <trkpt lat="54.4931" lon="-128.47169">
      </trkpt>
      <trkpt lat="54.49328" lon="-128.47164">
      </trkpt>
      <trkpt lat="54.49345" lon="-128.47168999">
      </trkpt>
      <trkpt lat="54.49352" lon="-128.47147">
      </trkpt>
      <trkpt lat="54.49342" lon="-128.47121001">
      </trkpt>
      <trkpt lat="54.49338" lon="-128.47096">
      </trkpt>
      <trkpt lat="54.49356" lon="-128.47099001">
      </trkpt>
      <trkpt lat="54.49374" lon="-128.47107">
      </trkpt>
      <trkpt lat="54.49391" lon="-128.47117999">
      </trkpt>
      <trkpt lat="54.49409" lon="-128.47125999">
      </trkpt>
      <trkpt lat="54.49426" lon="-128.47152">
      </trkpt>
      <trkpt lat="54.49443" lon="-128.47161999">
      </trkpt>
      <trkpt lat="54.4946" lon="-128.47174001">
      </trkpt>
      <trkpt lat="54.49476" lon="-128.47174">
      </trkpt>
      <trkpt lat="54.49494" lon="-128.47183">
      </trkpt>
      <trkpt lat="54.49511" lon="-128.47194">
      </trkpt>
      <trkpt lat="54.49528" lon="-128.47193999">
      </trkpt>
      <trkpt lat="54.49545" lon="-128.47185">
      </trkpt>
      <trkpt lat="54.49561" lon="-128.472">
      </trkpt>
      <trkpt lat="54.49578" lon="-128.47215">
      </trkpt>
      <trkpt lat="54.49595" lon="-128.47227">
      </trkpt>
      <trkpt lat="54.49605" lon="-128.47211">
      </trkpt>
      <trkpt lat="54.49623" lon="-128.47216">
      </trkpt>
      <trkpt lat="54.49639" lon="-128.47235">
      </trkpt>
      <trkpt lat="54.49658" lon="-128.47235001">
      </trkpt>
      <trkpt lat="54.49675" lon="-128.47237001">
      </trkpt>
      <trkpt lat="54.49693" lon="-128.47243001">
      </trkpt>
      <trkpt lat="54.49705" lon="-128.4723">
      </trkpt>
      <trkpt lat="54.49716" lon="-128.47204">
      </trkpt>
      <trkpt lat="54.49724" lon="-128.47182">
      </trkpt>
      <trkpt lat="54.49736" lon="-128.47160999">
      </trkpt>
      <trkpt lat="54.49727" lon="-128.47135999">
      </trkpt>
      <trkpt lat="54.4974" lon="-128.47114999">
      </trkpt>
      <trkpt lat="54.49728" lon="-128.4709">
      </trkpt>
      <trkpt lat="54.49712" lon="-128.47077999">
      </trkpt>
      <trkpt lat="54.497" lon="-128.47055001">
      </trkpt>
      <trkpt lat="54.49692" lon="-128.47027">
      </trkpt>
      <trkpt lat="54.49707" lon="-128.47007">
      </trkpt>
      <trkpt lat="54.49724" lon="-128.46998">
      </trkpt>
      <trkpt lat="54.49743" lon="-128.46999">
      </trkpt>
      <trkpt lat="54.49732" lon="-128.4698">
      </trkpt>
      <trkpt lat="54.49722" lon="-128.46952999">
      </trkpt>
      <trkpt lat="54.49712" lon="-128.46926001">
      </trkpt>
      <trkpt lat="54.49693" lon="-128.46928001">
      </trkpt>
      <trkpt lat="54.49677" lon="-128.46914">
      </trkpt>
      <trkpt lat="54.49666" lon="-128.46887001">
      </trkpt>
      <trkpt lat="54.49652" lon="-128.46865">
      </trkpt>
      <trkpt lat="54.49651" lon="-128.46836">
      </trkpt>
      <trkpt lat="54.49645" lon="-128.46805999">
      </trkpt>
      <trkpt lat="54.49654" lon="-128.46781">
      </trkpt>
      <trkpt lat="54.4965" lon="-128.46749001">
      </trkpt>
      <trkpt lat="54.49662" lon="-128.46737999">
      </trkpt>
      <trkpt lat="54.49667" lon="-128.46706999">
      </trkpt>
      <trkpt lat="54.49675" lon="-128.46671">
      </trkpt>
      <trkpt lat="54.49693" lon="-128.46671">
      </trkpt>
      <trkpt lat="54.49685" lon="-128.46641001">
      </trkpt>
      <trkpt lat="54.49673" lon="-128.46616">
      </trkpt>
      <trkpt lat="54.49671891" lon="-128.46607677">
      </trkpt>
    </trkseg>
    <trkseg>
      <trkpt lat="54.49003897" lon="-128.4742497">
      </trkpt>
      <trkpt lat="54.49005" lon="-128.47423">
      </trkpt>
      <trkpt lat="54.4902" lon="-128.47402001">
      </trkpt>
      <trkpt lat="54.49031" lon="-128.47374001">
      </trkpt>
      <trkpt lat="54.49039" lon="-128.47344">
      </trkpt>
      <trkpt lat="54.49056" lon="-128.47335999">
      </trkpt>
      <trkpt lat="54.49075" lon="-128.47329001">
      </trkpt>
      <trkpt lat="54.49093" lon="-128.47337001">
      </trkpt>
      <trkpt lat="54.49104" lon="-128.4736">
      </trkpt>
      <trkpt lat="54.49121" lon="-128.47376001">
      </trkpt>
      <trkpt lat="54.4914" lon="-128.47377001">
      </trkpt>
      <trkpt lat="54.49158" lon="-128.47374">
      </trkpt>
      <trkpt lat="54.49176" lon="-128.47368">
      </trkpt>
      <trkpt lat="54.49193" lon="-128.47382">
      </trkpt>
      <trkpt lat="54.49207" lon="-128.47401999">
      </trkpt>
      <trkpt lat="54.49225" lon="-128.47411">
      </trkpt>
      <trkpt lat="54.49245" lon="-128.47414">
      </trkpt>
      <trkpt lat="54.49248473" lon="-128.47413036">
      </trkpt>
    </trkseg>
  </trk>
</gpx>