<?xml version="1.0" encoding="UTF-8"?>
<gpx xmlns="http://www.topografix.com/GPX/1/1" xmlns:xsi="http://www.w3.org/2001/XMLSchema-instance" xsi:schemaLocation="http://www.topografix.com/GPX/1/1 http://www.topografix.com/GPX/1/1/gpx.xsd" version="1.1" creator="gpx.py -- https://github.com/tkrajina/gpxpy">
  <trk>
    <name>Billy's Epic</name>
    <trkseg>
      <trkpt lat="50.13731939" lon="-122.98411567">
      </trkpt>
      <trkpt lat="50.13733741" lon="-122.98417589">
      </trkpt>
      <trkpt lat="50.13736575" lon="-122.98422365">
      </trkpt>
      <trkpt lat="50.13741537" lon="-122.98428977">
      </trkpt>
      <trkpt lat="50.13743898" lon="-122.98430814">
      </trkpt>
      <trkpt lat="50.13745789" lon="-122.98435223">
      </trkpt>
      <trkpt lat="50.13747678" lon="-122.98437428">
      </trkpt>
      <trkpt lat="50.13749143" lon="-122.98441846">
      </trkpt>
      <trkpt lat="50.13749232" lon="-122.98442586">
      </trkpt>
      <trkpt lat="50.13741217" lon="-122.98454842">
      </trkpt>
      <trkpt lat="50.13731939" lon="-122.98467851">
      </trkpt>
      <trkpt lat="50.13728159" lon="-122.98475891">
      </trkpt>
      <trkpt lat="50.13729567" lon="-122.98490662">
      </trkpt>
      <trkpt lat="50.13735337" lon="-122.98492928">
      </trkpt>
      <trkpt lat="50.13742777" lon="-122.98488219">
      </trkpt>
      <trkpt lat="50.13750545" lon="-122.98501945">
      </trkpt>
      <trkpt lat="50.13760036" lon="-122.98506224">
      </trkpt>
      <trkpt lat="50.13764565" lon="-122.98499009">
      </trkpt>
      <trkpt lat="50.13771102" lon="-122.98500497">
      </trkpt>
      <trkpt lat="50.13772506" lon="-122.98500046">
      </trkpt>
      <trkpt lat="50.13773919" lon="-122.98499667">
      </trkpt>
      <trkpt lat="50.13775339" lon="-122.98499359">
      </trkpt>
      <trkpt lat="50.13776765" lon="-122.98499123">
      </trkpt>
      <trkpt lat="50.13778195" lon="-122.98498959">
      </trkpt>
      <trkpt lat="50.13779627" lon="-122.98498867">
      </trkpt>
      <trkpt lat="50.13781062" lon="-122.98498846">
      </trkpt>
      <trkpt lat="50.13782495" lon="-122.98498899">
      </trkpt>
      <trkpt lat="50.13783927" lon="-122.98499024">
      </trkpt>
      <trkpt lat="50.13784727" lon="-122.98499219">
      </trkpt>
      <trkpt lat="50.13785525" lon="-122.98499456">
      </trkpt>
      <trkpt lat="50.13786315" lon="-122.98499735">
      </trkpt>
      <trkpt lat="50.137871" lon="-122.98500054">
      </trkpt>
      <trkpt lat="50.13787878" lon="-122.98500416">
      </trkpt>
      <trkpt lat="50.13788646" lon="-122.98500816">
      </trkpt>
      <trkpt lat="50.13789406" lon="-122.98501257">
      </trkpt>
      <trkpt lat="50.13790156" lon="-122.98501738">
      </trkpt>
      <trkpt lat="50.13790895" lon="-122.98502257">
      </trkpt>
      <trkpt lat="50.13791622" lon="-122.98502815">
      </trkpt>
      <trkpt lat="50.13792338" lon="-122.98503412">
      </trkpt>
      <trkpt lat="50.1379304" lon="-122.98504045">
      </trkpt>
      <trkpt lat="50.13793727" lon="-122.98504713">
      </trkpt>
      <trkpt lat="50.137944" lon="-122.98505418">
      </trkpt>
      <trkpt lat="50.13800497" lon="-122.9850669">
      </trkpt>
      <trkpt lat="50.13802669" lon="-122.98515612">
      </trkpt>
      <trkpt lat="50.13797259" lon="-122.98539014">
      </trkpt>
      <trkpt lat="50.13792937" lon="-122.98548666">
      </trkpt>
      <trkpt lat="50.13788806" lon="-122.98558519">
      </trkpt>
      <trkpt lat="50.13784871" lon="-122.98568564">
      </trkpt>
      <trkpt lat="50.13781137" lon="-122.98578791">
      </trkpt>
      <trkpt lat="50.13778943" lon="-122.9859046">
      </trkpt>
      <trkpt lat="50.13784022" lon="-122.98597694">
      </trkpt>
      <trkpt lat="50.13785804" lon="-122.98598013">
      </trkpt>
      <trkpt lat="50.13787591" lon="-122.98598239">
      </trkpt>
      <trkpt lat="50.13789382" lon="-122.98598372">
      </trkpt>
      <trkpt lat="50.13791176" lon="-122.9859841">
      </trkpt>
      <trkpt lat="50.13792969" lon="-122.98598356">
      </trkpt>
      <trkpt lat="50.1379476" lon="-122.98598207">
      </trkpt>
      <trkpt lat="50.13796547" lon="-122.98597964">
      </trkpt>
      <trkpt lat="50.13798271" lon="-122.98596565">
      </trkpt>
      <trkpt lat="50.13800026" lon="-122.98595255">
      </trkpt>
      <trkpt lat="50.13801807" lon="-122.98594039">
      </trkpt>
      <trkpt lat="50.13803614" lon="-122.98592917">
      </trkpt>
      <trkpt lat="50.13805445" lon="-122.98591892">
      </trkpt>
      <trkpt lat="50.13807296" lon="-122.98590964">
      </trkpt>
      <trkpt lat="50.13809167" lon="-122.98590135">
      </trkpt>
      <trkpt lat="50.13811055" lon="-122.98589403">
      </trkpt>
      <trkpt lat="50.13812958" lon="-122.98588773">
      </trkpt>
      <trkpt lat="50.13814873" lon="-122.98588242">
      </trkpt>
      <trkpt lat="50.138168" lon="-122.98587814">
      </trkpt>
      <trkpt lat="50.13818733" lon="-122.98587487">
      </trkpt>
      <trkpt lat="50.13820674" lon="-122.98587263">
      </trkpt>
      <trkpt lat="50.13823025" lon="-122.98585411">
      </trkpt>
      <trkpt lat="50.13825336" lon="-122.98583442">
      </trkpt>
      <trkpt lat="50.13827606" lon="-122.98581359">
      </trkpt>
      <trkpt lat="50.13829831" lon="-122.98579163">
      </trkpt>
      <trkpt lat="50.1383201" lon="-122.98576857">
      </trkpt>
      <trkpt lat="50.13834141" lon="-122.98574443">
      </trkpt>
      <trkpt lat="50.13839499" lon="-122.98579667">
      </trkpt>
      <trkpt lat="50.1384357" lon="-122.98588076">
      </trkpt>
      <trkpt lat="50.13850139" lon="-122.98586005">
      </trkpt>
      <trkpt lat="50.13858231" lon="-122.9857916">
      </trkpt>
      <trkpt lat="50.13864292" lon="-122.98570593">
      </trkpt>
      <trkpt lat="50.13869081" lon="-122.98567902">
      </trkpt>
      <trkpt lat="50.13876214" lon="-122.98568899">
      </trkpt>
      <trkpt lat="50.13883362" lon="-122.98569558">
      </trkpt>
      <trkpt lat="50.13890521" lon="-122.98569876">
      </trkpt>
      <trkpt lat="50.13897682" lon="-122.98569853">
      </trkpt>
      <trkpt lat="50.13904756" lon="-122.98571888">
      </trkpt>
      <trkpt lat="50.13907659" lon="-122.98570088">
      </trkpt>
      <trkpt lat="50.13912113" lon="-122.98558157">
      </trkpt>
      <trkpt lat="50.1391891" lon="-122.98556166">
      </trkpt>
      <trkpt lat="50.13924093" lon="-122.98561071">
      </trkpt>
      <trkpt lat="50.13932146" lon="-122.98557232">
      </trkpt>
      <trkpt lat="50.13940149" lon="-122.98557644">
      </trkpt>
      <trkpt lat="50.13944049" lon="-122.98566882">
      </trkpt>
      <trkpt lat="50.13951716" lon="-122.98573528">
      </trkpt>
      <trkpt lat="50.13953673" lon="-122.98572877">
      </trkpt>
      <trkpt lat="50.13955615" lon="-122.98572121">
      </trkpt>
      <trkpt lat="50.13957538" lon="-122.9857126">
      </trkpt>
      <trkpt lat="50.13959441" lon="-122.98570296">
      </trkpt>
      <trkpt lat="50.13961322" lon="-122.98569229">
      </trkpt>
      <trkpt lat="50.13963177" lon="-122.9856806">
      </trkpt>
      <trkpt lat="50.13965005" lon="-122.98566793">
      </trkpt>
      <trkpt lat="50.13966804" lon="-122.98565426">
      </trkpt>
      <trkpt lat="50.1397293" lon="-122.98565477">
      </trkpt>
      <trkpt lat="50.13984735" lon="-122.98559308">
      </trkpt>
      <trkpt lat="50.13993911" lon="-122.98549963">
      </trkpt>
      <trkpt lat="50.14000471" lon="-122.98560438">
      </trkpt>
      <trkpt lat="50.14003693" lon="-122.9857341">
      </trkpt>
      <trkpt lat="50.1400424" lon="-122.98591134">
      </trkpt>
      <trkpt lat="50.14012485" lon="-122.98591478">
      </trkpt>
      <trkpt lat="50.14019036" lon="-122.98599121">
      </trkpt>
      <trkpt lat="50.14021556" lon="-122.98605921">
      </trkpt>
      <trkpt lat="50.14021237" lon="-122.98619847">
      </trkpt>
      <trkpt lat="50.14015589" lon="-122.98633584">
      </trkpt>
      <trkpt lat="50.14009522" lon="-122.98643497">
      </trkpt>
      <trkpt lat="50.14006253" lon="-122.98654382">
      </trkpt>
      <trkpt lat="50.14003943" lon="-122.98672309">
      </trkpt>
      <trkpt lat="50.14006026" lon="-122.98681677">
      </trkpt>
      <trkpt lat="50.14011735" lon="-122.98685791">
      </trkpt>
      <trkpt lat="50.14015772" lon="-122.98685922">
      </trkpt>
      <trkpt lat="50.14017491" lon="-122.98684486">
      </trkpt>
      <trkpt lat="50.14019179" lon="-122.98682963">
      </trkpt>
      <trkpt lat="50.14020833" lon="-122.98681354">
      </trkpt>
      <trkpt lat="50.14022452" lon="-122.9867966">
      </trkpt>
      <trkpt lat="50.14024034" lon="-122.98677884">
      </trkpt>
      <trkpt lat="50.14025578" lon="-122.98676027">
      </trkpt>
      <trkpt lat="50.14027081" lon="-122.98674093">
      </trkpt>
      <trkpt lat="50.14028542" lon="-122.98672082">
      </trkpt>
      <trkpt lat="50.14029961" lon="-122.98669998">
      </trkpt>
      <trkpt lat="50.14031334" lon="-122.9866784">
      </trkpt>
      <trkpt lat="50.1403266" lon="-122.98665614">
      </trkpt>
      <trkpt lat="50.14033938" lon="-122.98663322">
      </trkpt>
      <trkpt lat="50.14035167" lon="-122.98660964">
      </trkpt>
      <trkpt lat="50.14036345" lon="-122.98658544">
      </trkpt>
      <trkpt lat="50.14037472" lon="-122.98656065">
      </trkpt>
      <trkpt lat="50.14044276" lon="-122.98655673">
      </trkpt>
      <trkpt lat="50.14045638" lon="-122.98656395">
      </trkpt>
      <trkpt lat="50.14047015" lon="-122.98657043">
      </trkpt>
      <trkpt lat="50.14048406" lon="-122.98657614">
      </trkpt>
      <trkpt lat="50.1404981" lon="-122.98658111">
      </trkpt>
      <trkpt lat="50.14051223" lon="-122.98658528">
      </trkpt>
      <trkpt lat="50.14052646" lon="-122.98658868">
      </trkpt>
      <trkpt lat="50.14054075" lon="-122.9865913">
      </trkpt>
      <trkpt lat="50.14055509" lon="-122.98659314">
      </trkpt>
      <trkpt lat="50.14056947" lon="-122.98659419">
      </trkpt>
      <trkpt lat="50.14071513" lon="-122.98653459">
      </trkpt>
      <trkpt lat="50.14078781" lon="-122.98657162">
      </trkpt>
      <trkpt lat="50.14084198" lon="-122.98664708">
      </trkpt>
      <trkpt lat="50.14091485" lon="-122.98666901">
      </trkpt>
      <trkpt lat="50.1409742" lon="-122.98671827">
      </trkpt>
      <trkpt lat="50.14077635" lon="-122.98691382">
      </trkpt>
      <trkpt lat="50.14061956" lon="-122.98702945">
      </trkpt>
      <trkpt lat="50.14059633" lon="-122.98706056">
      </trkpt>
      <trkpt lat="50.1405738" lon="-122.98709291">
      </trkpt>
      <trkpt lat="50.14055198" lon="-122.98712644">
      </trkpt>
      <trkpt lat="50.14053092" lon="-122.98716109">
      </trkpt>
      <trkpt lat="50.14051062" lon="-122.98719686">
      </trkpt>
      <trkpt lat="50.14049112" lon="-122.98723366">
      </trkpt>
      <trkpt lat="50.14046965" lon="-122.9872593">
      </trkpt>
      <trkpt lat="50.14044761" lon="-122.98728375">
      </trkpt>
      <trkpt lat="50.14042504" lon="-122.98730698">
      </trkpt>
      <trkpt lat="50.14040195" lon="-122.98732897">
      </trkpt>
      <trkpt lat="50.14037839" lon="-122.98734969">
      </trkpt>
      <trkpt lat="50.14035438" lon="-122.98736911">
      </trkpt>
      <trkpt lat="50.14017421" lon="-122.98763373">
      </trkpt>
      <trkpt lat="50.14010594" lon="-122.98771124">
      </trkpt>
      <trkpt lat="50.14003927" lon="-122.98779204">
      </trkpt>
      <trkpt lat="50.13997428" lon="-122.98787609">
      </trkpt>
      <trkpt lat="50.13991102" lon="-122.98796329">
      </trkpt>
      <trkpt lat="50.13984956" lon="-122.98805355">
      </trkpt>
      <trkpt lat="50.13980758" lon="-122.98814702">
      </trkpt>
      <trkpt lat="50.13979355" lon="-122.98822784">
      </trkpt>
      <trkpt lat="50.13973765" lon="-122.98827325">
      </trkpt>
      <trkpt lat="50.13973995" lon="-122.98837768">
      </trkpt>
      <trkpt lat="50.13968396" lon="-122.98847029">
      </trkpt>
      <trkpt lat="50.13965652" lon="-122.98855083">
      </trkpt>
      <trkpt lat="50.13957016" lon="-122.98860817">
      </trkpt>
      <trkpt lat="50.13955288" lon="-122.98864571">
      </trkpt>
      <trkpt lat="50.13953477" lon="-122.98868228">
      </trkpt>
      <trkpt lat="50.13951587" lon="-122.98871787">
      </trkpt>
      <trkpt lat="50.13949618" lon="-122.98875243">
      </trkpt>
      <trkpt lat="50.13947574" lon="-122.98878589">
      </trkpt>
      <trkpt lat="50.13945457" lon="-122.98881826">
      </trkpt>
      <trkpt lat="50.1394327" lon="-122.98884946">
      </trkpt>
      <trkpt lat="50.13941015" lon="-122.98887947">
      </trkpt>
      <trkpt lat="50.13935213" lon="-122.98899777">
      </trkpt>
      <trkpt lat="50.13931796" lon="-122.9890038">
      </trkpt>
      <trkpt lat="50.13928395" lon="-122.98901167">
      </trkpt>
      <trkpt lat="50.13925014" lon="-122.98902138">
      </trkpt>
      <trkpt lat="50.13921656" lon="-122.9890329">
      </trkpt>
      <trkpt lat="50.13918326" lon="-122.98904624">
      </trkpt>
      <trkpt lat="50.13915028" lon="-122.98906136">
      </trkpt>
      <trkpt lat="50.13911765" lon="-122.98907827">
      </trkpt>
      <trkpt lat="50.13909744" lon="-122.98909794">
      </trkpt>
      <trkpt lat="50.13907684" lon="-122.98911661">
      </trkpt>
      <trkpt lat="50.13905588" lon="-122.98913425">
      </trkpt>
      <trkpt lat="50.13903457" lon="-122.98915089">
      </trkpt>
      <trkpt lat="50.13901293" lon="-122.98916645">
      </trkpt>
      <trkpt lat="50.13899099" lon="-122.98918095">
      </trkpt>
      <trkpt lat="50.13896877" lon="-122.98919437">
      </trkpt>
      <trkpt lat="50.13894628" lon="-122.9892067">
      </trkpt>
      <trkpt lat="50.1388886" lon="-122.98921758">
      </trkpt>
      <trkpt lat="50.13883118" lon="-122.98923138">
      </trkpt>
      <trkpt lat="50.13877408" lon="-122.98924807">
      </trkpt>
      <trkpt lat="50.13871736" lon="-122.98926765">
      </trkpt>
      <trkpt lat="50.13836164" lon="-122.98942773">
      </trkpt>
      <trkpt lat="50.13824412" lon="-122.98943464">
      </trkpt>
      <trkpt lat="50.1381468" lon="-122.98946971">
      </trkpt>
      <trkpt lat="50.13810632" lon="-122.98951172">
      </trkpt>
      <trkpt lat="50.13801647" lon="-122.98953477">
      </trkpt>
      <trkpt lat="50.13793399" lon="-122.98959392">
      </trkpt>
      <trkpt lat="50.13783738" lon="-122.98971487">
      </trkpt>
    </trkseg>
  </trk>
</gpx>