<?xml version="1.0" encoding="UTF-8"?>
<gpx xmlns="http://www.topografix.com/GPX/1/1" xmlns:xsi="http://www.w3.org/2001/XMLSchema-instance" xsi:schemaLocation="http://www.topografix.com/GPX/1/1 http://www.topografix.com/GPX/1/1/gpx.xsd" version="1.1" creator="gpx.py -- https://github.com/tkrajina/gpxpy">
  <trk>
    <name>Old Binty's</name>
    <trkseg>
      <trkpt lat="50.13783741" lon="-122.98971487">
      </trkpt>
      <trkpt lat="50.13782713" lon="-122.98977534">
      </trkpt>
      <trkpt lat="50.13790698" lon="-122.9898917">
      </trkpt>
      <trkpt lat="50.13793633" lon="-122.98996545">
      </trkpt>
      <trkpt lat="50.13808788" lon="-122.99005286">
      </trkpt>
      <trkpt lat="50.13816535" lon="-122.98999534">
      </trkpt>
      <trkpt lat="50.1381851" lon="-122.989958">
      </trkpt>
      <trkpt lat="50.13826552" lon="-122.98984174">
      </trkpt>
      <trkpt lat="50.13828983" lon="-122.98982732">
      </trkpt>
      <trkpt lat="50.13831379" lon="-122.98981159">
      </trkpt>
      <trkpt lat="50.13833738" lon="-122.98979458">
      </trkpt>
      <trkpt lat="50.13836059" lon="-122.98977631">
      </trkpt>
      <trkpt lat="50.13838336" lon="-122.9897568">
      </trkpt>
      <trkpt lat="50.1384057" lon="-122.98973606">
      </trkpt>
      <trkpt lat="50.13842755" lon="-122.98971414">
      </trkpt>
      <trkpt lat="50.13851156" lon="-122.98971806">
      </trkpt>
      <trkpt lat="50.13859734" lon="-122.98966386">
      </trkpt>
      <trkpt lat="50.13865687" lon="-122.98965327">
      </trkpt>
      <trkpt lat="50.13872764" lon="-122.98959447">
      </trkpt>
      <trkpt lat="50.13879031" lon="-122.98960187">
      </trkpt>
      <trkpt lat="50.13891637" lon="-122.98957825">
      </trkpt>
      <trkpt lat="50.13902496" lon="-122.98959048">
      </trkpt>
      <trkpt lat="50.13909107" lon="-122.98968774">
      </trkpt>
      <trkpt lat="50.1391862" lon="-122.98976718">
      </trkpt>
      <trkpt lat="50.13919088" lon="-122.98982827">
      </trkpt>
      <trkpt lat="50.13922094" lon="-122.98990793">
      </trkpt>
      <trkpt lat="50.1392702" lon="-122.9899883">
      </trkpt>
      <trkpt lat="50.13926332" lon="-122.99011974">
      </trkpt>
      <trkpt lat="50.13923197" lon="-122.9902059">
      </trkpt>
      <trkpt lat="50.13926564" lon="-122.99027251">
      </trkpt>
      <trkpt lat="50.13934272" lon="-122.99033572">
      </trkpt>
      <trkpt lat="50.13942015" lon="-122.99031533">
      </trkpt>
      <trkpt lat="50.13945278" lon="-122.99028505">
      </trkpt>
      <trkpt lat="50.13958421" lon="-122.99018775">
      </trkpt>
      <trkpt lat="50.13968684" lon="-122.99015531">
      </trkpt>
      <trkpt lat="50.13975547" lon="-122.9901946">
      </trkpt>
      <trkpt lat="50.1397767" lon="-122.99018678">
      </trkpt>
      <trkpt lat="50.13979778" lon="-122.99017792">
      </trkpt>
      <trkpt lat="50.13981867" lon="-122.99016801">
      </trkpt>
      <trkpt lat="50.13983933" lon="-122.99015708">
      </trkpt>
      <trkpt lat="50.13985976" lon="-122.99014512">
      </trkpt>
      <trkpt lat="50.13987994" lon="-122.99013215">
      </trkpt>
      <trkpt lat="50.13989983" lon="-122.9901182">
      </trkpt>
      <trkpt lat="50.13996372" lon="-122.99014534">
      </trkpt>
      <trkpt lat="50.14004803" lon="-122.99008692">
      </trkpt>
      <trkpt lat="50.14023631" lon="-122.9899838">
      </trkpt>
      <trkpt lat="50.14036057" lon="-122.98996564">
      </trkpt>
      <trkpt lat="50.14045339" lon="-122.98990237">
      </trkpt>
      <trkpt lat="50.14065694" lon="-122.98994603">
      </trkpt>
      <trkpt lat="50.14076901" lon="-122.99009998">
      </trkpt>
      <trkpt lat="50.14084148" lon="-122.99017755">
      </trkpt>
      <trkpt lat="50.14087362" lon="-122.99017052">
      </trkpt>
      <trkpt lat="50.14090589" lon="-122.99016507">
      </trkpt>
      <trkpt lat="50.14093824" lon="-122.99016119">
      </trkpt>
      <trkpt lat="50.14097067" lon="-122.99015889">
      </trkpt>
      <trkpt lat="50.14100313" lon="-122.99015817">
      </trkpt>
      <trkpt lat="50.14103558" lon="-122.99015904">
      </trkpt>
      <trkpt lat="50.141068" lon="-122.99016149">
      </trkpt>
      <trkpt lat="50.14110034" lon="-122.99016552">
      </trkpt>
      <trkpt lat="50.14112124" lon="-122.99019953">
      </trkpt>
      <trkpt lat="50.14114279" lon="-122.99023251">
      </trkpt>
      <trkpt lat="50.14116499" lon="-122.99026444">
      </trkpt>
      <trkpt lat="50.1411878" lon="-122.9902953">
      </trkpt>
      <trkpt lat="50.14121123" lon="-122.99032505">
      </trkpt>
      <trkpt lat="50.14123522" lon="-122.99035365">
      </trkpt>
      <trkpt lat="50.14134625" lon="-122.99040741">
      </trkpt>
      <trkpt lat="50.14153555" lon="-122.99040083">
      </trkpt>
      <trkpt lat="50.14155533" lon="-122.99043469">
      </trkpt>
      <trkpt lat="50.14159492" lon="-122.99050248">
      </trkpt>
      <trkpt lat="50.1416472" lon="-122.99045913">
      </trkpt>
      <trkpt lat="50.14172228" lon="-122.99045937">
      </trkpt>
      <trkpt lat="50.14179425" lon="-122.99040954">
      </trkpt>
      <trkpt lat="50.1418673" lon="-122.99036371">
      </trkpt>
      <trkpt lat="50.14194136" lon="-122.99032195">
      </trkpt>
      <trkpt lat="50.14199412" lon="-122.9903242">
      </trkpt>
      <trkpt lat="50.14203349" lon="-122.99026668">
      </trkpt>
      <trkpt lat="50.14210341" lon="-122.99032783">
      </trkpt>
      <trkpt lat="50.14216212" lon="-122.99024108">
      </trkpt>
      <trkpt lat="50.14218646" lon="-122.99015722">
      </trkpt>
      <trkpt lat="50.14237188" lon="-122.99007351">
      </trkpt>
      <trkpt lat="50.14239442" lon="-122.99005545">
      </trkpt>
      <trkpt lat="50.14241654" lon="-122.99003614">
      </trkpt>
      <trkpt lat="50.1424382" lon="-122.99001565">
      </trkpt>
      <trkpt lat="50.14245939" lon="-122.98999398">
      </trkpt>
      <trkpt lat="50.14248008" lon="-122.98997117">
      </trkpt>
      <trkpt lat="50.14250025" lon="-122.98994723">
      </trkpt>
      <trkpt lat="50.14257835" lon="-122.98992436">
      </trkpt>
      <trkpt lat="50.14260877" lon="-122.98994369">
      </trkpt>
      <trkpt lat="50.14263873" lon="-122.98996468">
      </trkpt>
      <trkpt lat="50.1426682" lon="-122.98998732">
      </trkpt>
      <trkpt lat="50.14269713" lon="-122.99001155">
      </trkpt>
      <trkpt lat="50.1427255" lon="-122.99003738">
      </trkpt>
      <trkpt lat="50.14275326" lon="-122.99006474">
      </trkpt>
      <trkpt lat="50.14282" lon="-122.99016025">
      </trkpt>
      <trkpt lat="50.14283594" lon="-122.99015424">
      </trkpt>
      <trkpt lat="50.14285201" lon="-122.99014907">
      </trkpt>
      <trkpt lat="50.14286818" lon="-122.99014475">
      </trkpt>
      <trkpt lat="50.14288444" lon="-122.99014129">
      </trkpt>
      <trkpt lat="50.14290077" lon="-122.99013869">
      </trkpt>
      <trkpt lat="50.14291714" lon="-122.99013693">
      </trkpt>
      <trkpt lat="50.14293353" lon="-122.99013604">
      </trkpt>
      <trkpt lat="50.14294994" lon="-122.99013602">
      </trkpt>
      <trkpt lat="50.14296634" lon="-122.99013685">
      </trkpt>
      <trkpt lat="50.14298272" lon="-122.99013855">
      </trkpt>
      <trkpt lat="50.14305932" lon="-122.99009873">
      </trkpt>
      <trkpt lat="50.14307168" lon="-122.99008463">
      </trkpt>
      <trkpt lat="50.14308375" lon="-122.99006989">
      </trkpt>
      <trkpt lat="50.14309548" lon="-122.99005456">
      </trkpt>
      <trkpt lat="50.1431069" lon="-122.99003864">
      </trkpt>
      <trkpt lat="50.14311797" lon="-122.99002213">
      </trkpt>
      <trkpt lat="50.14312869" lon="-122.99000507">
      </trkpt>
      <trkpt lat="50.14313904" lon="-122.98998747">
      </trkpt>
      <trkpt lat="50.14314901" lon="-122.98996935">
      </trkpt>
      <trkpt lat="50.14323315" lon="-122.99002009">
      </trkpt>
      <trkpt lat="50.14327178" lon="-122.99010898">
      </trkpt>
      <trkpt lat="50.14331968" lon="-122.9900824">
      </trkpt>
      <trkpt lat="50.14334787" lon="-122.99000396">
      </trkpt>
      <trkpt lat="50.1434112" lon="-122.98996698">
      </trkpt>
      <trkpt lat="50.14350246" lon="-122.98983666">
      </trkpt>
      <trkpt lat="50.14359404" lon="-122.98965407">
      </trkpt>
      <trkpt lat="50.14362607" lon="-122.98961122">
      </trkpt>
      <trkpt lat="50.14370604" lon="-122.98964175">
      </trkpt>
      <trkpt lat="50.14375016" lon="-122.989613">
      </trkpt>
      <trkpt lat="50.14380564" lon="-122.98954487">
      </trkpt>
      <trkpt lat="50.14382597" lon="-122.98943395">
      </trkpt>
      <trkpt lat="50.14382116" lon="-122.98936536">
      </trkpt>
      <trkpt lat="50.14377525" lon="-122.98919423">
      </trkpt>
      <trkpt lat="50.14378112" lon="-122.98917419">
      </trkpt>
      <trkpt lat="50.14378656" lon="-122.98915386">
      </trkpt>
      <trkpt lat="50.14379157" lon="-122.98913326">
      </trkpt>
      <trkpt lat="50.14379613" lon="-122.98911242">
      </trkpt>
      <trkpt lat="50.14380025" lon="-122.98909135">
      </trkpt>
      <trkpt lat="50.14380391" lon="-122.98907007">
      </trkpt>
      <trkpt lat="50.14380712" lon="-122.98904863">
      </trkpt>
      <trkpt lat="50.14380988" lon="-122.98902702">
      </trkpt>
      <trkpt lat="50.14381217" lon="-122.9890053">
      </trkpt>
      <trkpt lat="50.143814" lon="-122.98898346">
      </trkpt>
      <trkpt lat="50.14384181" lon="-122.9888749">
      </trkpt>
      <trkpt lat="50.14388454" lon="-122.98880752">
      </trkpt>
      <trkpt lat="50.14396328" lon="-122.98880299">
      </trkpt>
      <trkpt lat="50.14410682" lon="-122.98874122">
      </trkpt>
      <trkpt lat="50.14417835" lon="-122.98865958">
      </trkpt>
      <trkpt lat="50.1442245" lon="-122.98850611">
      </trkpt>
      <trkpt lat="50.14423647" lon="-122.988442">
      </trkpt>
      <trkpt lat="50.14418791" lon="-122.98830726">
      </trkpt>
      <trkpt lat="50.14419266" lon="-122.98815561">
      </trkpt>
      <trkpt lat="50.14416877" lon="-122.98802428">
      </trkpt>
      <trkpt lat="50.1442333" lon="-122.98791017">
      </trkpt>
      <trkpt lat="50.14425698" lon="-122.98782463">
      </trkpt>
      <trkpt lat="50.14424691" lon="-122.98772417">
      </trkpt>
      <trkpt lat="50.14425956" lon="-122.9876598">
      </trkpt>
      <trkpt lat="50.14427084" lon="-122.98759484">
      </trkpt>
      <trkpt lat="50.14428074" lon="-122.98752932">
      </trkpt>
      <trkpt lat="50.14428926" lon="-122.98746334">
      </trkpt>
      <trkpt lat="50.14430187" lon="-122.98742571">
      </trkpt>
      <trkpt lat="50.14431371" lon="-122.98738748">
      </trkpt>
      <trkpt lat="50.14432478" lon="-122.98734869">
      </trkpt>
      <trkpt lat="50.14433505" lon="-122.98730937">
      </trkpt>
      <trkpt lat="50.14434452" lon="-122.98726957">
      </trkpt>
      <trkpt lat="50.14435317" lon="-122.98722932">
      </trkpt>
      <trkpt lat="50.14436101" lon="-122.98718867">
      </trkpt>
      <trkpt lat="50.14436801" lon="-122.98714766">
      </trkpt>
      <trkpt lat="50.14438811" lon="-122.9868607">
      </trkpt>
      <trkpt lat="50.14441328" lon="-122.98669748">
      </trkpt>
      <trkpt lat="50.14448627" lon="-122.98665262">
      </trkpt>
      <trkpt lat="50.14462052" lon="-122.98644329">
      </trkpt>
      <trkpt lat="50.14462266" lon="-122.98638209">
      </trkpt>
      <trkpt lat="50.14462348" lon="-122.98632081">
      </trkpt>
      <trkpt lat="50.14462296" lon="-122.98625953">
      </trkpt>
      <trkpt lat="50.14462112" lon="-122.98619831">
      </trkpt>
      <trkpt lat="50.14461794" lon="-122.98613721">
      </trkpt>
      <trkpt lat="50.1446515" lon="-122.98600579">
      </trkpt>
      <trkpt lat="50.14465846" lon="-122.98590543">
      </trkpt>
      <trkpt lat="50.14470035" lon="-122.98578392">
      </trkpt>
      <trkpt lat="50.14470301" lon="-122.98560098">
      </trkpt>
      <trkpt lat="50.144784" lon="-122.98545523">
      </trkpt>
      <trkpt lat="50.14482766" lon="-122.98532055">
      </trkpt>
      <trkpt lat="50.14483954" lon="-122.98519233">
      </trkpt>
      <trkpt lat="50.14487938" lon="-122.98502888">
      </trkpt>
      <trkpt lat="50.14490904" lon="-122.98499791">
      </trkpt>
      <trkpt lat="50.14493933" lon="-122.98496851">
      </trkpt>
      <trkpt lat="50.14497026" lon="-122.9849407">
      </trkpt>
      <trkpt lat="50.14500176" lon="-122.98491454">
      </trkpt>
      <trkpt lat="50.14503381" lon="-122.98489005">
      </trkpt>
      <trkpt lat="50.14506638" lon="-122.98486724">
      </trkpt>
      <trkpt lat="50.14509942" lon="-122.98484614">
      </trkpt>
      <trkpt lat="50.1450868" lon="-122.9846958">
      </trkpt>
      <trkpt lat="50.1451952" lon="-122.98455399">
      </trkpt>
    </trkseg>
  </trk>
</gpx>