<?xml version="1.0" encoding="UTF-8"?>
<gpx xmlns="http://www.topografix.com/GPX/1/1" xmlns:xsi="http://www.w3.org/2001/XMLSchema-instance" xsi:schemaLocation="http://www.topografix.com/GPX/1/1 http://www.topografix.com/GPX/1/1/gpx.xsd" version="1.1" creator="gpx.py -- https://github.com/tkrajina/gpxpy">
  <trk>
    <name>Green Lake Loop</name>
    <trkseg>
      <trkpt lat="50.1627901" lon="-122.89946489">
      </trkpt>
      <trkpt lat="50.16278892" lon="-122.89946491">
      </trkpt>
      <trkpt lat="50.16203706" lon="-122.89948347">
      </trkpt>
      <trkpt lat="50.16198667" lon="-122.89971937">
      </trkpt>
      <trkpt lat="50.16175963" lon="-122.899936">
      </trkpt>
      <trkpt lat="50.16150734" lon="-122.90013303">
      </trkpt>
      <trkpt lat="50.16124232" lon="-122.90023184">
      </trkpt>
      <trkpt lat="50.16107824" lon="-122.90025182">
      </trkpt>
      <trkpt lat="50.16077522" lon="-122.90019351">
      </trkpt>
      <trkpt lat="50.1604975" lon="-122.90019409">
      </trkpt>
      <trkpt lat="50.16029561" lon="-122.90029275">
      </trkpt>
      <trkpt lat="50.160119" lon="-122.90043068">
      </trkpt>
      <trkpt lat="50.15999305" lon="-122.90076499">
      </trkpt>
      <trkpt lat="50.15981664" lon="-122.9011387">
      </trkpt>
      <trkpt lat="50.15957707" lon="-122.90145358">
      </trkpt>
      <trkpt lat="50.1591861" lon="-122.90188668">
      </trkpt>
      <trkpt lat="50.15895909" lon="-122.9021426">
      </trkpt>
      <trkpt lat="50.15876998" lon="-122.90241807">
      </trkpt>
      <trkpt lat="50.15858092" lon="-122.90277214">
      </trkpt>
      <trkpt lat="50.15841721" lon="-122.90324407">
      </trkpt>
      <trkpt lat="50.15826591" lon="-122.90346051">
      </trkpt>
      <trkpt lat="50.1581397" lon="-122.90350007">
      </trkpt>
      <trkpt lat="50.15800089" lon="-122.90355929">
      </trkpt>
      <trkpt lat="50.15781177" lon="-122.90383477">
      </trkpt>
      <trkpt lat="50.15767318" lon="-122.90414941">
      </trkpt>
      <trkpt lat="50.1574842" lon="-122.90460172">
      </trkpt>
      <trkpt lat="50.1575097" lon="-122.90491605">
      </trkpt>
      <trkpt lat="50.15757312" lon="-122.90528926">
      </trkpt>
      <trkpt lat="50.15757336" lon="-122.90558399">
      </trkpt>
      <trkpt lat="50.15749783" lon="-122.90583957">
      </trkpt>
      <trkpt lat="50.15734651" lon="-122.90603636">
      </trkpt>
      <trkpt lat="50.15719511" lon="-122.90615455">
      </trkpt>
      <trkpt lat="50.15699315" lon="-122.90615495">
      </trkpt>
      <trkpt lat="50.15685446" lon="-122.90637136">
      </trkpt>
      <trkpt lat="50.15667799" lon="-122.90668609">
      </trkpt>
      <trkpt lat="50.15660246" lon="-122.90696131">
      </trkpt>
      <trkpt lat="50.15659017" lon="-122.90737395">
      </trkpt>
      <trkpt lat="50.15656517" lon="-122.90768838">
      </trkpt>
      <trkpt lat="50.15659062" lon="-122.90794376">
      </trkpt>
      <trkpt lat="50.15652771" lon="-122.90819931">
      </trkpt>
      <trkpt lat="50.1564649" lon="-122.90859239">
      </trkpt>
      <trkpt lat="50.15632635" lon="-122.90898563">
      </trkpt>
      <trkpt lat="50.15631388" lon="-122.90918214">
      </trkpt>
      <trkpt lat="50.15623831" lon="-122.90939841">
      </trkpt>
      <trkpt lat="50.15627638" lon="-122.90965377">
      </trkpt>
      <trkpt lat="50.15628914" lon="-122.90983058">
      </trkpt>
      <trkpt lat="50.15628931" lon="-122.91004672">
      </trkpt>
      <trkpt lat="50.15620107" lon="-122.91020407">
      </trkpt>
      <trkpt lat="50.15618037" lon="-122.91055701">
      </trkpt>
      <trkpt lat="50.15610099" lon="-122.91063691">
      </trkpt>
      <trkpt lat="50.15602933" lon="-122.91073557">
      </trkpt>
      <trkpt lat="50.15596192" lon="-122.9108802">
      </trkpt>
      <trkpt lat="50.15587342" lon="-122.91105115">
      </trkpt>
      <trkpt lat="50.15579763" lon="-122.91126805">
      </trkpt>
      <trkpt lat="50.15573868" lon="-122.91143894">
      </trkpt>
      <trkpt lat="50.15569669" lon="-122.9117149">
      </trkpt>
      <trkpt lat="50.15567995" lon="-122.91191199">
      </trkpt>
      <trkpt lat="50.15566199" lon="-122.91213862">
      </trkpt>
      <trkpt lat="50.1556774" lon="-122.9122663">
      </trkpt>
      <trkpt lat="50.15573944" lon="-122.91243079">
      </trkpt>
      <trkpt lat="50.1557817" lon="-122.91252925">
      </trkpt>
      <trkpt lat="50.15581134" lon="-122.91266057">
      </trkpt>
      <trkpt lat="50.15581568" lon="-122.91281164">
      </trkpt>
      <trkpt lat="50.15575668" lon="-122.91292341">
      </trkpt>
      <trkpt lat="50.15565125" lon="-122.91300899">
      </trkpt>
      <trkpt lat="50.15554156" lon="-122.91307487">
      </trkpt>
      <trkpt lat="50.15548676" lon="-122.91314724">
      </trkpt>
      <trkpt lat="50.15543199" lon="-122.91327214">
      </trkpt>
      <trkpt lat="50.15534348" lon="-122.91342337">
      </trkpt>
      <trkpt lat="50.15522549" lon="-122.91365348">
      </trkpt>
      <trkpt lat="50.15517681" lon="-122.91383961">
      </trkpt>
      <trkpt lat="50.15509914" lon="-122.91400184">
      </trkpt>
      <trkpt lat="50.15503173" lon="-122.91415303">
      </trkpt>
      <trkpt lat="50.15490524" lon="-122.9143109">
      </trkpt>
      <trkpt lat="50.15479142" lon="-122.91447532">
      </trkpt>
      <trkpt lat="50.15474506" lon="-122.91456736">
      </trkpt>
      <trkpt lat="50.15469033" lon="-122.91473823">
      </trkpt>
      <trkpt lat="50.15465668" lon="-122.91489594">
      </trkpt>
      <trkpt lat="50.15461464" lon="-122.91511277">
      </trkpt>
      <trkpt lat="50.15456414" lon="-122.91530991">
      </trkpt>
      <trkpt lat="50.15452628" lon="-122.9154742">
      </trkpt>
      <trkpt lat="50.15451376" lon="-122.91567126">
      </trkpt>
      <trkpt lat="50.15448434" lon="-122.91583554">
      </trkpt>
      <trkpt lat="50.15442112" lon="-122.91594073">
      </trkpt>
      <trkpt lat="50.15435369" lon="-122.91607222">
      </trkpt>
      <trkpt lat="50.1542863" lon="-122.91625625">
      </trkpt>
      <trkpt lat="50.15424841" lon="-122.91638112">
      </trkpt>
      <trkpt lat="50.15423554" lon="-122.91653431">
      </trkpt>
      <trkpt lat="50.15426968" lon="-122.91663067">
      </trkpt>
      <trkpt lat="50.15432461" lon="-122.91672254">
      </trkpt>
      <trkpt lat="50.15443862" lon="-122.91680116">
      </trkpt>
      <trkpt lat="50.15455684" lon="-122.91687978">
      </trkpt>
      <trkpt lat="50.15463705" lon="-122.91691906">
      </trkpt>
      <trkpt lat="50.15470882" lon="-122.91696491">
      </trkpt>
      <trkpt lat="50.15477639" lon="-122.91703704">
      </trkpt>
      <trkpt lat="50.15480178" lon="-122.91711582">
      </trkpt>
      <trkpt lat="50.15481452" lon="-122.91722746">
      </trkpt>
      <trkpt lat="50.15481035" lon="-122.91731286">
      </trkpt>
      <trkpt lat="50.15481046" lon="-122.91747051">
      </trkpt>
      <trkpt lat="50.15482744" lon="-122.91760185">
      </trkpt>
      <trkpt lat="50.15481065" lon="-122.91772667">
      </trkpt>
      <trkpt lat="50.15475583" lon="-122.91779244">
      </trkpt>
      <trkpt lat="50.15469311" lon="-122.91786925">
      </trkpt>
      <trkpt lat="50.15465051" lon="-122.9180488">
      </trkpt>
      <trkpt lat="50.15456196" lon="-122.91815404">
      </trkpt>
      <trkpt lat="50.15444385" lon="-122.91822651">
      </trkpt>
      <trkpt lat="50.15430041" lon="-122.91829242">
      </trkpt>
      <trkpt lat="50.15419073" lon="-122.91836486">
      </trkpt>
      <trkpt lat="50.15411055" lon="-122.91835843">
      </trkpt>
      <trkpt lat="50.15404721" lon="-122.91831256">
      </trkpt>
      <trkpt lat="50.15400492" lon="-122.91818785">
      </trkpt>
      <trkpt lat="50.15392889" lon="-122.91808944">
      </trkpt>
      <trkpt lat="50.15387822" lon="-122.91805012">
      </trkpt>
      <trkpt lat="50.15378537" lon="-122.91804371">
      </trkpt>
      <trkpt lat="50.15367078" lon="-122.91801401">
      </trkpt>
      <trkpt lat="50.15359855" lon="-122.91797671">
      </trkpt>
      <trkpt lat="50.15346454" lon="-122.91789319">
      </trkpt>
      <trkpt lat="50.15340541" lon="-122.91783418">
      </trkpt>
      <trkpt lat="50.15333362" lon="-122.91776204">
      </trkpt>
      <trkpt lat="50.15324501" lon="-122.91778848">
      </trkpt>
      <trkpt lat="50.15317756" lon="-122.91787398">
      </trkpt>
      <trkpt lat="50.15313547" lon="-122.91803825">
      </trkpt>
      <trkpt lat="50.1531145" lon="-122.91823533">
      </trkpt>
      <trkpt lat="50.1531062" lon="-122.91841269">
      </trkpt>
      <trkpt lat="50.15308097" lon="-122.91855723">
      </trkpt>
      <trkpt lat="50.15299242" lon="-122.91867561">
      </trkpt>
      <trkpt lat="50.15288695" lon="-122.9187152">
      </trkpt>
      <trkpt lat="50.15277301" lon="-122.91872853">
      </trkpt>
      <trkpt lat="50.15261689" lon="-122.91876164">
      </trkpt>
      <trkpt lat="50.15254515" lon="-122.91876833">
      </trkpt>
      <trkpt lat="50.15248612" lon="-122.9188341">
      </trkpt>
      <trkpt lat="50.15244604" lon="-122.91896495">
      </trkpt>
      <trkpt lat="50.15246944" lon="-122.91912969">
      </trkpt>
      <trkpt lat="50.15251596" lon="-122.91925442">
      </trkpt>
      <trkpt lat="50.15255829" lon="-122.91944482">
      </trkpt>
      <trkpt lat="50.15262598" lon="-122.91968116">
      </trkpt>
      <trkpt lat="50.15269438" lon="-122.91983987">
      </trkpt>
      <trkpt lat="50.15277316" lon="-122.92004944">
      </trkpt>
      <trkpt lat="50.1528569" lon="-122.92027226">
      </trkpt>
      <trkpt lat="50.15292117" lon="-122.92044326">
      </trkpt>
      <trkpt lat="50.15293474" lon="-122.92069871">
      </trkpt>
      <trkpt lat="50.15294758" lon="-122.92096142">
      </trkpt>
      <trkpt lat="50.15292664" lon="-122.92118478">
      </trkpt>
      <trkpt lat="50.15286348" lon="-122.92140163">
      </trkpt>
      <trkpt lat="50.15280457" lon="-122.92165132">
      </trkpt>
      <trkpt lat="50.15268664" lon="-122.92199962">
      </trkpt>
      <trkpt lat="50.15261506" lon="-122.9222362">
      </trkpt>
      <trkpt lat="50.15256512" lon="-122.92249943">
      </trkpt>
      <trkpt lat="50.15254359" lon="-122.92266324">
      </trkpt>
      <trkpt lat="50.15248462" lon="-122.92282754">
      </trkpt>
      <trkpt lat="50.15241297" lon="-122.92296559">
      </trkpt>
      <trkpt lat="50.15223591" lon="-122.92325486">
      </trkpt>
      <trkpt lat="50.15213053" lon="-122.92343237">
      </trkpt>
      <trkpt lat="50.15208421" lon="-122.92359008">
      </trkpt>
      <trkpt lat="50.15202102" lon="-122.92375438">
      </trkpt>
      <trkpt lat="50.1519114" lon="-122.92391876">
      </trkpt>
      <trkpt lat="50.15180172" lon="-122.92397804">
      </trkpt>
      <trkpt lat="50.15168782" lon="-122.92404391">
      </trkpt>
      <trkpt lat="50.15153596" lon="-122.92416237">
      </trkpt>
      <trkpt lat="50.15144743" lon="-122.92429387">
      </trkpt>
      <trkpt lat="50.15135042" lon="-122.9243794">
      </trkpt>
      <trkpt lat="50.15124915" lon="-122.92439928">
      </trkpt>
      <trkpt lat="50.15113943" lon="-122.92439945">
      </trkpt>
      <trkpt lat="50.15102546" lon="-122.92436678">
      </trkpt>
      <trkpt lat="50.15089885" lon="-122.92434728">
      </trkpt>
      <trkpt lat="50.15075538" lon="-122.9243672">
      </trkpt>
      <trkpt lat="50.15059925" lon="-122.92440029">
      </trkpt>
      <trkpt lat="50.15050213" lon="-122.9243282">
      </trkpt>
      <trkpt lat="50.15034575" lon="-122.92426083">
      </trkpt>
      <trkpt lat="50.15019831" lon="-122.92427604">
      </trkpt>
      <trkpt lat="50.15003804" lon="-122.92431121">
      </trkpt>
      <trkpt lat="50.14989386" lon="-122.92441121">
      </trkpt>
      <trkpt lat="50.14978818" lon="-122.92457601">
      </trkpt>
      <trkpt lat="50.14972098" lon="-122.92475571">
      </trkpt>
      <trkpt lat="50.14966339" lon="-122.92493041">
      </trkpt>
      <trkpt lat="50.14960899" lon="-122.9250652">
      </trkpt>
      <trkpt lat="50.14953531" lon="-122.92514513">
      </trkpt>
      <trkpt lat="50.14942317" lon="-122.92523012">
      </trkpt>
      <trkpt lat="50.14932065" lon="-122.92534004">
      </trkpt>
      <trkpt lat="50.1492566" lon="-122.92542494">
      </trkpt>
      <trkpt lat="50.14916589" lon="-122.92558494">
      </trkpt>
      <trkpt lat="50.14906121" lon="-122.92567469">
      </trkpt>
      <trkpt lat="50.14884336" lon="-122.92586459">
      </trkpt>
      <trkpt lat="50.14865432" lon="-122.92600956">
      </trkpt>
      <trkpt lat="50.14844284" lon="-122.92614458">
      </trkpt>
      <trkpt lat="50.14830184" lon="-122.92622462">
      </trkpt>
      <trkpt lat="50.14804224" lon="-122.9263198">
      </trkpt>
      <trkpt lat="50.14765134" lon="-122.92658978">
      </trkpt>
      <trkpt lat="50.14741099" lon="-122.92671487">
      </trkpt>
      <trkpt lat="50.14721553" lon="-122.92684987">
      </trkpt>
      <trkpt lat="50.14699123" lon="-122.92698987">
      </trkpt>
      <trkpt lat="50.1467362" lon="-122.92720527">
      </trkpt>
      <trkpt lat="50.14663623" lon="-122.92728125">
      </trkpt>
      <trkpt lat="50.14656197" lon="-122.92746095">
      </trkpt>
      <trkpt lat="50.14654923" lon="-122.92759665">
      </trkpt>
      <trkpt lat="50.14657756" lon="-122.92778418">
      </trkpt>
      <trkpt lat="50.14661099" lon="-122.92792781">
      </trkpt>
      <trkpt lat="50.14664186" lon="-122.92807941">
      </trkpt>
      <trkpt lat="50.14662034" lon="-122.92820109">
      </trkpt>
      <trkpt lat="50.14659841" lon="-122.92832291">
      </trkpt>
      <trkpt lat="50.14653691" lon="-122.92840281">
      </trkpt>
      <trkpt lat="50.14646771" lon="-122.92846678">
      </trkpt>
      <trkpt lat="50.14638314" lon="-122.92856268">
      </trkpt>
      <trkpt lat="50.14631908" lon="-122.9286426">
      </trkpt>
      <trkpt lat="50.14623966" lon="-122.92878239">
      </trkpt>
      <trkpt lat="50.14618074" lon="-122.92888224">
      </trkpt>
      <trkpt lat="50.1461273" lon="-122.92897875">
      </trkpt>
      <trkpt lat="50.14602189" lon="-122.92911395">
      </trkpt>
      <trkpt lat="50.14590397" lon="-122.92921389">
      </trkpt>
      <trkpt lat="50.14579377" lon="-122.92931382">
      </trkpt>
      <trkpt lat="50.14569379" lon="-122.92938979">
      </trkpt>
      <trkpt lat="50.14557891" lon="-122.92944629">
      </trkpt>
      <trkpt lat="50.14526049" lon="-122.9295301">
      </trkpt>
      <trkpt lat="50.14512715" lon="-122.92955425">
      </trkpt>
      <trkpt lat="50.14506049" lon="-122.92958626">
      </trkpt>
      <trkpt lat="50.14500667" lon="-122.92965419">
      </trkpt>
      <trkpt lat="50.14497853" lon="-122.92976197">
      </trkpt>
      <trkpt lat="50.14495296" lon="-122.92987773">
      </trkpt>
      <trkpt lat="50.14491456" lon="-122.9300015">
      </trkpt>
      <trkpt lat="50.14487105" lon="-122.93014125">
      </trkpt>
      <trkpt lat="50.14488651" lon="-122.93026094">
      </trkpt>
      <trkpt lat="50.14488111" lon="-122.93041247">
      </trkpt>
      <trkpt lat="50.14488412" lon="-122.93054029">
      </trkpt>
      <trkpt lat="50.14486623" lon="-122.93066403">
      </trkpt>
      <trkpt lat="50.14483041" lon="-122.93078779">
      </trkpt>
      <trkpt lat="50.14477405" lon="-122.93089562">
      </trkpt>
      <trkpt lat="50.14473305" lon="-122.93095155">
      </trkpt>
      <trkpt lat="50.14465616" lon="-122.93102748">
      </trkpt>
      <trkpt lat="50.14459209" lon="-122.93109142">
      </trkpt>
      <trkpt lat="50.1444998" lon="-122.9311554">
      </trkpt>
      <trkpt lat="50.14443315" lon="-122.93118743">
      </trkpt>
      <trkpt lat="50.14430499" lon="-122.93130333">
      </trkpt>
      <trkpt lat="50.14425887" lon="-122.93136726">
      </trkpt>
      <trkpt lat="50.14422301" lon="-122.9314511">
      </trkpt>
      <trkpt lat="50.14421024" lon="-122.93154691">
      </trkpt>
      <trkpt lat="50.14417996" lon="-122.93160171">
      </trkpt>
      <trkpt lat="50.144118" lon="-122.93166275">
      </trkpt>
      <trkpt lat="50.144077" lon="-122.93173066">
      </trkpt>
      <trkpt lat="50.14401803" lon="-122.93175867">
      </trkpt>
      <trkpt lat="50.14392827" lon="-122.93175881">
      </trkpt>
      <trkpt lat="50.1438411" lon="-122.93178287">
      </trkpt>
      <trkpt lat="50.14373597" lon="-122.93180296">
      </trkpt>
      <trkpt lat="50.1435499" lon="-122.93185065">
      </trkpt>
      <trkpt lat="50.14342213" lon="-122.93201152">
      </trkpt>
      <trkpt lat="50.14335337" lon="-122.93214171">
      </trkpt>
      <trkpt lat="50.14336332" lon="-122.93231769">
      </trkpt>
      <trkpt lat="50.14344211" lon="-122.93250888">
      </trkpt>
      <trkpt lat="50.14359466" lon="-122.93273057">
      </trkpt>
      <trkpt lat="50.1437275" lon="-122.93281456">
      </trkpt>
      <trkpt lat="50.14393901" lon="-122.93293668">
      </trkpt>
      <trkpt lat="50.14410628" lon="-122.93306654">
      </trkpt>
      <trkpt lat="50.14426266" lon="-122.93318483">
      </trkpt>
      <trkpt lat="50.14434739" lon="-122.93333403">
      </trkpt>
      <trkpt lat="50.14434748" lon="-122.93350238">
      </trkpt>
      <trkpt lat="50.14430337" lon="-122.93373965">
      </trkpt>
      <trkpt lat="50.14425929" lon="-122.93406875">
      </trkpt>
      <trkpt lat="50.14422992" lon="-122.93429071">
      </trkpt>
      <trkpt lat="50.14423109" lon="-122.93455087">
      </trkpt>
      <trkpt lat="50.14420071" lon="-122.93482639">
      </trkpt>
      <trkpt lat="50.14419594" lon="-122.93507127">
      </trkpt>
      <trkpt lat="50.14418132" lon="-122.9353238">
      </trkpt>
      <trkpt lat="50.14421589" lon="-122.93557628">
      </trkpt>
      <trkpt lat="50.14423179" lon="-122.93580075">
      </trkpt>
      <trkpt lat="50.14425366" lon="-122.93594425">
      </trkpt>
    </trkseg>
  </trk>
</gpx>