<?xml version="1.0" encoding="UTF-8"?>
<gpx xmlns="http://www.topografix.com/GPX/1/1" xmlns:xsi="http://www.w3.org/2001/XMLSchema-instance" xsi:schemaLocation="http://www.topografix.com/GPX/1/1 http://www.topografix.com/GPX/1/1/gpx.xsd" version="1.1" creator="gpx.py -- https://github.com/tkrajina/gpxpy">
  <trk>
    <name>Lord of the Squirrels</name>
    <trkseg>
      <trkpt lat="50.12129708" lon="-123.04586604">
      </trkpt>
      <trkpt lat="50.121349" lon="-123.046113">
      </trkpt>
      <trkpt lat="50.121359" lon="-123.04627399">
      </trkpt>
      <trkpt lat="50.12133" lon="-123.04655">
      </trkpt>
      <trkpt lat="50.121304" lon="-123.04665">
      </trkpt>
      <trkpt lat="50.121256" lon="-123.046688">
      </trkpt>
      <trkpt lat="50.121201" lon="-123.04669901">
      </trkpt>
      <trkpt lat="50.121139" lon="-123.046672">
      </trkpt>
      <trkpt lat="50.121056" lon="-123.04660801">
      </trkpt>
      <trkpt lat="50.12097" lon="-123.04661899">
      </trkpt>
      <trkpt lat="50.120867" lon="-123.04667299">
      </trkpt>
      <trkpt lat="50.12068" lon="-123.046941">
      </trkpt>
      <trkpt lat="50.120612" lon="-123.046989">
      </trkpt>
      <trkpt lat="50.12056" lon="-123.04697099">
      </trkpt>
      <trkpt lat="50.12049" lon="-123.046891">
      </trkpt>
      <trkpt lat="50.120471" lon="-123.046758">
      </trkpt>
      <trkpt lat="50.120433" lon="-123.046629">
      </trkpt>
      <trkpt lat="50.120381" lon="-123.046634">
      </trkpt>
      <trkpt lat="50.120305" lon="-123.04659099">
      </trkpt>
      <trkpt lat="50.120205" lon="-123.04649399">
      </trkpt>
      <trkpt lat="50.120143" lon="-123.04647801">
      </trkpt>
      <trkpt lat="50.120043" lon="-123.04646199">
      </trkpt>
      <trkpt lat="50.119927" lon="-123.046381">
      </trkpt>
      <trkpt lat="50.119869" lon="-123.046386">
      </trkpt>
      <trkpt lat="50.119855" lon="-123.046461">
      </trkpt>
      <trkpt lat="50.119862" lon="-123.0466">
      </trkpt>
      <trkpt lat="50.119899" lon="-123.046799">
      </trkpt>
      <trkpt lat="50.119889" lon="-123.04691699">
      </trkpt>
      <trkpt lat="50.119844" lon="-123.046997">
      </trkpt>
      <trkpt lat="50.119792" lon="-123.047051">
      </trkpt>
      <trkpt lat="50.119734" lon="-123.047062">
      </trkpt>
      <trkpt lat="50.119644" lon="-123.047346">
      </trkpt>
      <trkpt lat="50.119575" lon="-123.04748001">
      </trkpt>
      <trkpt lat="50.119468" lon="-123.047571">
      </trkpt>
      <trkpt lat="50.119396" lon="-123.04768901">
      </trkpt>
      <trkpt lat="50.119307" lon="-123.04783399">
      </trkpt>
      <trkpt lat="50.119198" lon="-123.047939">
      </trkpt>
      <trkpt lat="50.119118" lon="-123.048089">
      </trkpt>
      <trkpt lat="50.119058" lon="-123.048159">
      </trkpt>
      <trkpt lat="50.118942" lon="-123.04817201">
      </trkpt>
      <trkpt lat="50.11888" lon="-123.048226">
      </trkpt>
      <trkpt lat="50.118842" lon="-123.048296">
      </trkpt>
      <trkpt lat="50.118832" lon="-123.04842501">
      </trkpt>
      <trkpt lat="50.118884" lon="-123.048479">
      </trkpt>
      <trkpt lat="50.118908" lon="-123.0486">
      </trkpt>
      <trkpt lat="50.118868" lon="-123.04862001">
      </trkpt>
      <trkpt lat="50.118768" lon="-123.04859001">
      </trkpt>
      <trkpt lat="50.118688" lon="-123.04851">
      </trkpt>
      <trkpt lat="50.118547" lon="-123.048452">
      </trkpt>
      <trkpt lat="50.11843" lon="-123.04843599">
      </trkpt>
      <trkpt lat="50.118286" lon="-123.04844701">
      </trkpt>
      <trkpt lat="50.118149" lon="-123.04839">
      </trkpt>
      <trkpt lat="50.118069" lon="-123.04833999">
      </trkpt>
      <trkpt lat="50.117966" lon="-123.048157">
      </trkpt>
      <trkpt lat="50.117925" lon="-123.04805">
      </trkpt>
      <trkpt lat="50.117869" lon="-123.04796">
      </trkpt>
      <trkpt lat="50.117794" lon="-123.047878">
      </trkpt>
      <trkpt lat="50.117739" lon="-123.04776">
      </trkpt>
      <trkpt lat="50.117709" lon="-123.04754">
      </trkpt>
      <trkpt lat="50.117647" lon="-123.047465">
      </trkpt>
      <trkpt lat="50.117578" lon="-123.04741699">
      </trkpt>
      <trkpt lat="50.117509" lon="-123.04732">
      </trkpt>
      <trkpt lat="50.117419" lon="-123.04732">
      </trkpt>
      <trkpt lat="50.117359" lon="-123.04740999">
      </trkpt>
      <trkpt lat="50.117289" lon="-123.04745">
      </trkpt>
      <trkpt lat="50.117141" lon="-123.04744399">
      </trkpt>
      <trkpt lat="50.117055" lon="-123.047465">
      </trkpt>
      <trkpt lat="50.116879" lon="-123.047385">
      </trkpt>
      <trkpt lat="50.116799" lon="-123.04729">
      </trkpt>
      <trkpt lat="50.11669" lon="-123.047261">
      </trkpt>
      <trkpt lat="50.116508" lon="-123.047288">
      </trkpt>
      <trkpt lat="50.116422" lon="-123.047277">
      </trkpt>
      <trkpt lat="50.116329" lon="-123.047197">
      </trkpt>
      <trkpt lat="50.116229" lon="-123.04718101">
      </trkpt>
      <trkpt lat="50.116115" lon="-123.04715401">
      </trkpt>
      <trkpt lat="50.116008" lon="-123.04718">
      </trkpt>
      <trkpt lat="50.115915" lon="-123.047181">
      </trkpt>
      <trkpt lat="50.115828" lon="-123.04711">
      </trkpt>
      <trkpt lat="50.115748" lon="-123.04703">
      </trkpt>
      <trkpt lat="50.115678" lon="-123.04702">
      </trkpt>
      <trkpt lat="50.115528" lon="-123.04704">
      </trkpt>
      <trkpt lat="50.115428" lon="-123.04701001">
      </trkpt>
      <trkpt lat="50.115382" lon="-123.046966">
      </trkpt>
      <trkpt lat="50.115358" lon="-123.046875">
      </trkpt>
      <trkpt lat="50.115296" lon="-123.046795">
      </trkpt>
      <trkpt lat="50.115228" lon="-123.04674001">
      </trkpt>
      <trkpt lat="50.115103" lon="-123.04678401">
      </trkpt>
      <trkpt lat="50.114988" lon="-123.04678">
      </trkpt>
      <trkpt lat="50.114898" lon="-123.04673999">
      </trkpt>
      <trkpt lat="50.114811" lon="-123.046634">
      </trkpt>
      <trkpt lat="50.114758" lon="-123.04649">
      </trkpt>
      <trkpt lat="50.114698" lon="-123.04645">
      </trkpt>
      <trkpt lat="50.114615" lon="-123.04646199">
      </trkpt>
      <trkpt lat="50.114612" lon="-123.046564">
      </trkpt>
      <trkpt lat="50.114643" lon="-123.046709">
      </trkpt>
      <trkpt lat="50.114715" lon="-123.04686999">
      </trkpt>
      <trkpt lat="50.114748" lon="-123.04706001">
      </trkpt>
      <trkpt lat="50.114818" lon="-123.047202">
      </trkpt>
      <trkpt lat="50.114866" lon="-123.047406">
      </trkpt>
      <trkpt lat="50.114838" lon="-123.047583">
      </trkpt>
      <trkpt lat="50.114697" lon="-123.04764999">
      </trkpt>
      <trkpt lat="50.114627" lon="-123.04759001">
      </trkpt>
      <trkpt lat="50.11458" lon="-123.047449">
      </trkpt>
      <trkpt lat="50.114497" lon="-123.04738">
      </trkpt>
      <trkpt lat="50.114394" lon="-123.047234">
      </trkpt>
      <trkpt lat="50.114367" lon="-123.04708">
      </trkpt>
      <trkpt lat="50.114327" lon="-123.04699">
      </trkpt>
      <trkpt lat="50.114108" lon="-123.046805">
      </trkpt>
      <trkpt lat="50.114019" lon="-123.04673">
      </trkpt>
      <trkpt lat="50.113957" lon="-123.046628">
      </trkpt>
      <trkpt lat="50.113877" lon="-123.04656">
      </trkpt>
      <trkpt lat="50.113797" lon="-123.04641">
      </trkpt>
      <trkpt lat="50.113747" lon="-123.046312">
      </trkpt>
      <trkpt lat="50.113757" lon="-123.04618299">
      </trkpt>
      <trkpt lat="50.113817" lon="-123.04604999">
      </trkpt>
      <trkpt lat="50.113823" lon="-123.045942">
      </trkpt>
      <trkpt lat="50.11374" lon="-123.045786">
      </trkpt>
      <trkpt lat="50.113723" lon="-123.045604">
      </trkpt>
      <trkpt lat="50.113757" lon="-123.04541">
      </trkpt>
      <trkpt lat="50.113747" lon="-123.04525">
      </trkpt>
      <trkpt lat="50.113717" lon="-123.04524">
      </trkpt>
      <trkpt lat="50.113667" lon="-123.04528">
      </trkpt>
      <trkpt lat="50.113627" lon="-123.04538999">
      </trkpt>
      <trkpt lat="50.113607" lon="-123.04552">
      </trkpt>
      <trkpt lat="50.113557" lon="-123.04562">
      </trkpt>
      <trkpt lat="50.113497" lon="-123.04566">
      </trkpt>
      <trkpt lat="50.113396" lon="-123.045464">
      </trkpt>
      <trkpt lat="50.11331" lon="-123.045083">
      </trkpt>
      <trkpt lat="50.113247" lon="-123.04494001">
      </trkpt>
      <trkpt lat="50.113231" lon="-123.04467">
      </trkpt>
      <trkpt lat="50.113165" lon="-123.044407">
      </trkpt>
      <trkpt lat="50.113151" lon="-123.044187">
      </trkpt>
      <trkpt lat="50.113096" lon="-123.04415001">
      </trkpt>
      <trkpt lat="50.113034" lon="-123.04422001">
      </trkpt>
      <trkpt lat="50.112972" lon="-123.04420399">
      </trkpt>
      <trkpt lat="50.112926" lon="-123.04407">
      </trkpt>
      <trkpt lat="50.112893" lon="-123.043925">
      </trkpt>
      <trkpt lat="50.112836" lon="-123.04383">
      </trkpt>
      <trkpt lat="50.112814" lon="-123.043699">
      </trkpt>
      <trkpt lat="50.112742" lon="-123.043688">
      </trkpt>
      <trkpt lat="50.112697" lon="-123.043817">
      </trkpt>
      <trkpt lat="50.112714" lon="-123.043962">
      </trkpt>
      <trkpt lat="50.112625" lon="-123.04401001">
      </trkpt>
      <trkpt lat="50.112488" lon="-123.04371501">
      </trkpt>
      <trkpt lat="50.112395" lon="-123.04363999">
      </trkpt>
      <trkpt lat="50.112307" lon="-123.04368">
      </trkpt>
      <trkpt lat="50.112234" lon="-123.043774">
      </trkpt>
      <trkpt lat="50.112177" lon="-123.04379001">
      </trkpt>
      <trkpt lat="50.112097" lon="-123.0437">
      </trkpt>
      <trkpt lat="50.112072" lon="-123.04356">
      </trkpt>
      <trkpt lat="50.112138" lon="-123.04331">
      </trkpt>
      <trkpt lat="50.112128" lon="-123.0432">
      </trkpt>
      <trkpt lat="50.112087" lon="-123.04312499">
      </trkpt>
      <trkpt lat="50.111958" lon="-123.04316">
      </trkpt>
      <trkpt lat="50.111898" lon="-123.0431">
      </trkpt>
      <trkpt lat="50.111798" lon="-123.04305">
      </trkpt>
      <trkpt lat="50.111767" lon="-123.043093">
      </trkpt>
      <trkpt lat="50.111698" lon="-123.04313">
      </trkpt>
      <trkpt lat="50.111648" lon="-123.0431">
      </trkpt>
      <trkpt lat="50.111618" lon="-123.04299">
      </trkpt>
      <trkpt lat="50.111638" lon="-123.0429">
      </trkpt>
      <trkpt lat="50.111638" lon="-123.0428">
      </trkpt>
      <trkpt lat="50.111558" lon="-123.04271">
      </trkpt>
      <trkpt lat="50.111508" lon="-123.04271">
      </trkpt>
      <trkpt lat="50.111418" lon="-123.04276001">
      </trkpt>
      <trkpt lat="50.111348" lon="-123.04284">
      </trkpt>
      <trkpt lat="50.111318" lon="-123.04293">
      </trkpt>
      <trkpt lat="50.111328" lon="-123.04304">
      </trkpt>
      <trkpt lat="50.111288" lon="-123.04311">
      </trkpt>
      <trkpt lat="50.111258" lon="-123.04312">
      </trkpt>
      <trkpt lat="50.111178" lon="-123.04305001">
      </trkpt>
      <trkpt lat="50.111128" lon="-123.04306999">
      </trkpt>
      <trkpt lat="50.111118" lon="-123.04324">
      </trkpt>
      <trkpt lat="50.111138" lon="-123.0434">
      </trkpt>
      <trkpt lat="50.111208" lon="-123.04365">
      </trkpt>
      <trkpt lat="50.111188" lon="-123.04378">
      </trkpt>
      <trkpt lat="50.111128" lon="-123.04374">
      </trkpt>
      <trkpt lat="50.111068" lon="-123.043635">
      </trkpt>
      <trkpt lat="50.111048" lon="-123.04354001">
      </trkpt>
      <trkpt lat="50.110982" lon="-123.043388">
      </trkpt>
      <trkpt lat="50.110888" lon="-123.04328">
      </trkpt>
      <trkpt lat="50.110827" lon="-123.04313601">
      </trkpt>
      <trkpt lat="50.110778" lon="-123.04297">
      </trkpt>
      <trkpt lat="50.110707" lon="-123.042836">
      </trkpt>
      <trkpt lat="50.110598" lon="-123.04269999">
      </trkpt>
      <trkpt lat="50.110588" lon="-123.04255">
      </trkpt>
      <trkpt lat="50.110614" lon="-123.04235801">
      </trkpt>
      <trkpt lat="50.110662" lon="-123.04219701">
      </trkpt>
      <trkpt lat="50.1107" lon="-123.042068">
      </trkpt>
      <trkpt lat="50.110714" lon="-123.041939">
      </trkpt>
      <trkpt lat="50.110735" lon="-123.041682">
      </trkpt>
      <trkpt lat="50.110687" lon="-123.041323">
      </trkpt>
      <trkpt lat="50.110656" lon="-123.040685">
      </trkpt>
      <trkpt lat="50.110622" lon="-123.040444">
      </trkpt>
      <trkpt lat="50.110643" lon="-123.040288">
      </trkpt>
      <trkpt lat="50.110664" lon="-123.040143">
      </trkpt>
      <trkpt lat="50.110581" lon="-123.039961">
      </trkpt>
      <trkpt lat="50.110529" lon="-123.039891">
      </trkpt>
      <trkpt lat="50.110539" lon="-123.03973">
      </trkpt>
      <trkpt lat="50.110567" lon="-123.03960601">
      </trkpt>
      <trkpt lat="50.110598" lon="-123.039456">
      </trkpt>
      <trkpt lat="50.11055" lon="-123.039333">
      </trkpt>
      <trkpt lat="50.110412" lon="-123.03924701">
      </trkpt>
      <trkpt lat="50.110498" lon="-123.039059">
      </trkpt>
      <trkpt lat="50.110543" lon="-123.03879099">
      </trkpt>
      <trkpt lat="50.110569" lon="-123.03852999">
      </trkpt>
      <trkpt lat="50.110667" lon="-123.03841501">
      </trkpt>
      <trkpt lat="50.110829" lon="-123.03837001">
      </trkpt>
      <trkpt lat="50.110909" lon="-123.03831">
      </trkpt>
      <trkpt lat="50.110969" lon="-123.03822">
      </trkpt>
      <trkpt lat="50.110976" lon="-123.038077">
      </trkpt>
      <trkpt lat="50.110949" lon="-123.03791999">
      </trkpt>
      <trkpt lat="50.110959" lon="-123.03781001">
      </trkpt>
      <trkpt lat="50.111042" lon="-123.03772901">
      </trkpt>
      <trkpt lat="50.111131" lon="-123.037708">
      </trkpt>
      <trkpt lat="50.111169" lon="-123.03761101">
      </trkpt>
      <trkpt lat="50.111149" lon="-123.037531">
      </trkpt>
      <trkpt lat="50.111099" lon="-123.037481">
      </trkpt>
      <trkpt lat="50.111011" lon="-123.03748301">
      </trkpt>
      <trkpt lat="50.110815" lon="-123.037681">
      </trkpt>
      <trkpt lat="50.110691" lon="-123.03769701">
      </trkpt>
      <trkpt lat="50.110549" lon="-123.037621">
      </trkpt>
      <trkpt lat="50.110489" lon="-123.037551">
      </trkpt>
      <trkpt lat="50.110443" lon="-123.03735999">
      </trkpt>
      <trkpt lat="50.110385" lon="-123.037269">
      </trkpt>
      <trkpt lat="50.110279" lon="-123.037262">
      </trkpt>
      <trkpt lat="50.110179" lon="-123.037352">
      </trkpt>
      <trkpt lat="50.110119" lon="-123.03736199">
      </trkpt>
      <trkpt lat="50.110059" lon="-123.037342">
      </trkpt>
      <trkpt lat="50.109999" lon="-123.037292">
      </trkpt>
      <trkpt lat="50.109939" lon="-123.037222">
      </trkpt>
      <trkpt lat="50.109899" lon="-123.03713201">
      </trkpt>
      <trkpt lat="50.109879" lon="-123.037022">
      </trkpt>
      <trkpt lat="50.109937" lon="-123.036792">
      </trkpt>
      <trkpt lat="50.109975" lon="-123.036653">
      </trkpt>
      <trkpt lat="50.109965" lon="-123.03649701">
      </trkpt>
      <trkpt lat="50.109919" lon="-123.03633199">
      </trkpt>
      <trkpt lat="50.109889" lon="-123.036245">
      </trkpt>
      <trkpt lat="50.109851" lon="-123.03603">
      </trkpt>
      <trkpt lat="50.109758" lon="-123.035998">
      </trkpt>
      <trkpt lat="50.109755" lon="-123.036132">
      </trkpt>
      <trkpt lat="50.109628" lon="-123.036276">
      </trkpt>
      <trkpt lat="50.109573" lon="-123.03631899">
      </trkpt>
      <trkpt lat="50.10943" lon="-123.036721">
      </trkpt>
      <trkpt lat="50.109398" lon="-123.036823">
      </trkpt>
      <trkpt lat="50.10937" lon="-123.036951">
      </trkpt>
      <trkpt lat="50.10937" lon="-123.037051">
      </trkpt>
      <trkpt lat="50.109399" lon="-123.037327">
      </trkpt>
      <trkpt lat="50.109347" lon="-123.037472">
      </trkpt>
      <trkpt lat="50.109244" lon="-123.037638">
      </trkpt>
      <trkpt lat="50.109113" lon="-123.037756">
      </trkpt>
      <trkpt lat="50.109024" lon="-123.037917">
      </trkpt>
      <trkpt lat="50.108969" lon="-123.03806199">
      </trkpt>
      <trkpt lat="50.108931" lon="-123.038621">
      </trkpt>
      <trkpt lat="50.108911" lon="-123.038671">
      </trkpt>
      <trkpt lat="50.108881" lon="-123.038681">
      </trkpt>
      <trkpt lat="50.108851" lon="-123.038631">
      </trkpt>
      <trkpt lat="50.108841" lon="-123.038551">
      </trkpt>
      <trkpt lat="50.108851" lon="-123.038461">
      </trkpt>
      <trkpt lat="50.108841" lon="-123.03811099">
      </trkpt>
      <trkpt lat="50.108811" lon="-123.037981">
      </trkpt>
      <trkpt lat="50.108721" lon="-123.03783101">
      </trkpt>
      <trkpt lat="50.108721" lon="-123.037721">
      </trkpt>
      <trkpt lat="50.108761" lon="-123.037591">
      </trkpt>
      <trkpt lat="50.108891" lon="-123.037451">
      </trkpt>
      <trkpt lat="50.108841" lon="-123.037401">
      </trkpt>
      <trkpt lat="50.108811" lon="-123.037401">
      </trkpt>
      <trkpt lat="50.108751" lon="-123.03745101">
      </trkpt>
      <trkpt lat="50.108661" lon="-123.037631">
      </trkpt>
      <trkpt lat="50.108574" lon="-123.037858">
      </trkpt>
      <trkpt lat="50.108502" lon="-123.038115">
      </trkpt>
      <trkpt lat="50.108409" lon="-123.038206">
      </trkpt>
      <trkpt lat="50.108292" lon="-123.03826999">
      </trkpt>
      <trkpt lat="50.108141" lon="-123.038281">
      </trkpt>
      <trkpt lat="50.108055" lon="-123.038292">
      </trkpt>
      <trkpt lat="50.10801" lon="-123.038206">
      </trkpt>
      <trkpt lat="50.107902" lon="-123.03807">
      </trkpt>
      <trkpt lat="50.107773" lon="-123.038077">
      </trkpt>
      <trkpt lat="50.107662" lon="-123.03813">
      </trkpt>
      <trkpt lat="50.107602" lon="-123.03811">
      </trkpt>
      <trkpt lat="50.107542" lon="-123.03805999">
      </trkpt>
      <trkpt lat="50.107512" lon="-123.03795999">
      </trkpt>
      <trkpt lat="50.107522" lon="-123.03783001">
      </trkpt>
      <trkpt lat="50.107552" lon="-123.03776">
      </trkpt>
      <trkpt lat="50.107612" lon="-123.03771">
      </trkpt>
      <trkpt lat="50.107697" lon="-123.03770201">
      </trkpt>
      <trkpt lat="50.107772" lon="-123.03764">
      </trkpt>
      <trkpt lat="50.107802" lon="-123.0376">
      </trkpt>
      <trkpt lat="50.107812" lon="-123.03752">
      </trkpt>
      <trkpt lat="50.107732" lon="-123.03736">
      </trkpt>
      <trkpt lat="50.107612" lon="-123.03728">
      </trkpt>
      <trkpt lat="50.107512" lon="-123.03736">
      </trkpt>
      <trkpt lat="50.107446" lon="-123.037401">
      </trkpt>
      <trkpt lat="50.107352" lon="-123.03740999">
      </trkpt>
      <trkpt lat="50.107236" lon="-123.03746">
      </trkpt>
      <trkpt lat="50.107172" lon="-123.03757">
      </trkpt>
      <trkpt lat="50.107072" lon="-123.03762">
      </trkpt>
      <trkpt lat="50.106972" lon="-123.03758">
      </trkpt>
      <trkpt lat="50.106932" lon="-123.03752">
      </trkpt>
      <trkpt lat="50.106932" lon="-123.03742">
      </trkpt>
      <trkpt lat="50.106992" lon="-123.03733999">
      </trkpt>
      <trkpt lat="50.107122" lon="-123.03726">
      </trkpt>
      <trkpt lat="50.107212" lon="-123.03710601">
      </trkpt>
      <trkpt lat="50.107262" lon="-123.03695999">
      </trkpt>
      <trkpt lat="50.10736" lon="-123.03682201">
      </trkpt>
      <trkpt lat="50.107415" lon="-123.03665">
      </trkpt>
      <trkpt lat="50.107412" lon="-123.0365">
      </trkpt>
      <trkpt lat="50.107381" lon="-123.036425">
      </trkpt>
      <trkpt lat="50.107319" lon="-123.036382">
      </trkpt>
      <trkpt lat="50.107223" lon="-123.036371">
      </trkpt>
      <trkpt lat="50.107162" lon="-123.03627">
      </trkpt>
      <trkpt lat="50.107181" lon="-123.03616799">
      </trkpt>
      <trkpt lat="50.107239" lon="-123.036109">
      </trkpt>
      <trkpt lat="50.107304" lon="-123.036002">
      </trkpt>
      <trkpt lat="50.107381" lon="-123.03593101">
      </trkpt>
      <trkpt lat="50.107466" lon="-123.035766">
      </trkpt>
      <trkpt lat="50.107511" lon="-123.03561099">
      </trkpt>
      <trkpt lat="50.107531" lon="-123.035466">
      </trkpt>
      <trkpt lat="50.10751" lon="-123.03534299">
      </trkpt>
      <trkpt lat="50.1075" lon="-123.035182">
      </trkpt>
      <trkpt lat="50.107459" lon="-123.035048">
      </trkpt>
      <trkpt lat="50.107431" lon="-123.034817">
      </trkpt>
      <trkpt lat="50.107452" lon="-123.03456">
      </trkpt>
      <trkpt lat="50.107438" lon="-123.03438299">
      </trkpt>
      <trkpt lat="50.107471" lon="-123.034182">
      </trkpt>
      <trkpt lat="50.107473" lon="-123.03400799">
      </trkpt>
      <trkpt lat="50.107401" lon="-123.033803">
      </trkpt>
      <trkpt lat="50.107373" lon="-123.033692">
      </trkpt>
      <trkpt lat="50.107401" lon="-123.033543">
      </trkpt>
      <trkpt lat="50.107451" lon="-123.03342299">
      </trkpt>
      <trkpt lat="50.107451" lon="-123.03333301">
      </trkpt>
      <trkpt lat="50.107411" lon="-123.033263">
      </trkpt>
      <trkpt lat="50.107361" lon="-123.033263">
      </trkpt>
      <trkpt lat="50.107261" lon="-123.03332299">
      </trkpt>
      <trkpt lat="50.107221" lon="-123.033373">
      </trkpt>
      <trkpt lat="50.10718" lon="-123.033483">
      </trkpt>
      <trkpt lat="50.107146" lon="-123.03363301">
      </trkpt>
      <trkpt lat="50.107115" lon="-123.03381501">
      </trkpt>
      <trkpt lat="50.107094" lon="-123.03403">
      </trkpt>
      <trkpt lat="50.107042" lon="-123.03415301">
      </trkpt>
      <trkpt lat="50.107025" lon="-123.034298">
      </trkpt>
      <trkpt lat="50.107031" lon="-123.03457301">
      </trkpt>
      <trkpt lat="50.107005" lon="-123.034781">
      </trkpt>
      <trkpt lat="50.106909" lon="-123.03492001">
      </trkpt>
      <trkpt lat="50.106833" lon="-123.03495199">
      </trkpt>
      <trkpt lat="50.106699" lon="-123.034925">
      </trkpt>
      <trkpt lat="50.106644" lon="-123.034904">
      </trkpt>
      <trkpt lat="50.106581" lon="-123.034822">
      </trkpt>
      <trkpt lat="50.106531" lon="-123.034792">
      </trkpt>
      <trkpt lat="50.106471" lon="-123.034822">
      </trkpt>
      <trkpt lat="50.106451" lon="-123.03491199">
      </trkpt>
      <trkpt lat="50.106361" lon="-123.03508199">
      </trkpt>
      <trkpt lat="50.106337" lon="-123.035263">
      </trkpt>
      <trkpt lat="50.106248" lon="-123.03541299">
      </trkpt>
      <trkpt lat="50.106138" lon="-123.035488">
      </trkpt>
      <trkpt lat="50.106081" lon="-123.035622">
      </trkpt>
      <trkpt lat="50.106021" lon="-123.035722">
      </trkpt>
      <trkpt lat="50.105928" lon="-123.03574001">
      </trkpt>
      <trkpt lat="50.105794" lon="-123.035751">
      </trkpt>
      <trkpt lat="50.105708" lon="-123.035612">
      </trkpt>
      <trkpt lat="50.105611" lon="-123.035542">
      </trkpt>
      <trkpt lat="50.105511" lon="-123.03559201">
      </trkpt>
      <trkpt lat="50.105441" lon="-123.035722">
      </trkpt>
      <trkpt lat="50.105402" lon="-123.03586899">
      </trkpt>
      <trkpt lat="50.105368" lon="-123.036019">
      </trkpt>
      <trkpt lat="50.105303" lon="-123.036148">
      </trkpt>
      <trkpt lat="50.105279" lon="-123.036304">
      </trkpt>
      <trkpt lat="50.105293" lon="-123.03648599">
      </trkpt>
      <trkpt lat="50.105341" lon="-123.036674">
      </trkpt>
      <trkpt lat="50.105427" lon="-123.03684">
      </trkpt>
      <trkpt lat="50.105437" lon="-123.037017">
      </trkpt>
      <trkpt lat="50.105399" lon="-123.03714599">
      </trkpt>
      <trkpt lat="50.105323" lon="-123.037226">
      </trkpt>
      <trkpt lat="50.10532" lon="-123.03743001">
      </trkpt>
      <trkpt lat="50.105461" lon="-123.0378">
      </trkpt>
      <trkpt lat="50.105502" lon="-123.037891">
      </trkpt>
      <trkpt lat="50.105481" lon="-123.038004">
      </trkpt>
      <trkpt lat="50.105488" lon="-123.03819201">
      </trkpt>
      <trkpt lat="50.105563" lon="-123.038353">
      </trkpt>
      <trkpt lat="50.105646" lon="-123.03841199">
      </trkpt>
      <trkpt lat="50.105625" lon="-123.03855701">
      </trkpt>
      <trkpt lat="50.105642" lon="-123.038707">
      </trkpt>
      <trkpt lat="50.105608" lon="-123.03884599">
      </trkpt>
      <trkpt lat="50.105484" lon="-123.03895301">
      </trkpt>
      <trkpt lat="50.105484" lon="-123.03906599">
      </trkpt>
      <trkpt lat="50.105474" lon="-123.03923201">
      </trkpt>
      <trkpt lat="50.105367" lon="-123.039307">
      </trkpt>
      <trkpt lat="50.105278" lon="-123.03932299">
      </trkpt>
      <trkpt lat="50.105301" lon="-123.039491">
      </trkpt>
      <trkpt lat="50.105364" lon="-123.039543">
      </trkpt>
      <trkpt lat="50.105321" lon="-123.039651">
      </trkpt>
      <trkpt lat="50.105251" lon="-123.039601">
      </trkpt>
      <trkpt lat="50.105211" lon="-123.039601">
      </trkpt>
      <trkpt lat="50.105188" lon="-123.039688">
      </trkpt>
      <trkpt lat="50.105221" lon="-123.039761">
      </trkpt>
      <trkpt lat="50.105281" lon="-123.039801">
      </trkpt>
      <trkpt lat="50.105309" lon="-123.039886">
      </trkpt>
      <trkpt lat="50.105281" lon="-123.040015">
      </trkpt>
      <trkpt lat="50.105178" lon="-123.04010099">
      </trkpt>
      <trkpt lat="50.105113" lon="-123.040101">
      </trkpt>
      <trkpt lat="50.105042" lon="-123.040071">
      </trkpt>
      <trkpt lat="50.104932" lon="-123.039901">
      </trkpt>
      <trkpt lat="50.104802" lon="-123.039751">
      </trkpt>
      <trkpt lat="50.104697" lon="-123.03966101">
      </trkpt>
      <trkpt lat="50.104642" lon="-123.0395">
      </trkpt>
      <trkpt lat="50.104639" lon="-123.039296">
      </trkpt>
      <trkpt lat="50.104636" lon="-123.039092">
      </trkpt>
      <trkpt lat="50.104583" lon="-123.038931">
      </trkpt>
      <trkpt lat="50.104533" lon="-123.03878601">
      </trkpt>
      <trkpt lat="50.104523" lon="-123.038671">
      </trkpt>
      <trkpt lat="50.104483" lon="-123.038411">
      </trkpt>
      <trkpt lat="50.104475" lon="-123.03817">
      </trkpt>
      <trkpt lat="50.104513" lon="-123.037981">
      </trkpt>
      <trkpt lat="50.104503" lon="-123.037781">
      </trkpt>
      <trkpt lat="50.104453" lon="-123.03760101">
      </trkpt>
      <trkpt lat="50.104343" lon="-123.03744101">
      </trkpt>
      <trkpt lat="50.104296" lon="-123.037279">
      </trkpt>
      <trkpt lat="50.104303" lon="-123.037059">
      </trkpt>
      <trkpt lat="50.104355" lon="-123.03688701">
      </trkpt>
      <trkpt lat="50.104358" lon="-123.03667799">
      </trkpt>
      <trkpt lat="50.104313" lon="-123.036541">
      </trkpt>
      <trkpt lat="50.104302" lon="-123.036389">
      </trkpt>
      <trkpt lat="50.104313" lon="-123.036301">
      </trkpt>
      <trkpt lat="50.104296" lon="-123.036051">
      </trkpt>
      <trkpt lat="50.104327" lon="-123.035842">
      </trkpt>
      <trkpt lat="50.104313" lon="-123.03568601">
      </trkpt>
      <trkpt lat="50.104303" lon="-123.03549299">
      </trkpt>
      <trkpt lat="50.104324" lon="-123.03529499">
      </trkpt>
      <trkpt lat="50.104362" lon="-123.035043">
      </trkpt>
      <trkpt lat="50.104424" lon="-123.034792">
      </trkpt>
      <trkpt lat="50.104458" lon="-123.03456">
      </trkpt>
      <trkpt lat="50.104448" lon="-123.03434499">
      </trkpt>
      <trkpt lat="50.104424" lon="-123.034147">
      </trkpt>
      <trkpt lat="50.104341" lon="-123.034115">
      </trkpt>
      <trkpt lat="50.104269" lon="-123.034142">
      </trkpt>
      <trkpt lat="50.104194" lon="-123.034202">
      </trkpt>
      <trkpt lat="50.104174" lon="-123.03418199">
      </trkpt>
      <trkpt lat="50.104164" lon="-123.03409201">
      </trkpt>
      <trkpt lat="50.104074" lon="-123.03405199">
      </trkpt>
      <trkpt lat="50.103984" lon="-123.033822">
      </trkpt>
      <trkpt lat="50.103939" lon="-123.033681">
      </trkpt>
      <trkpt lat="50.103987" lon="-123.03349301">
      </trkpt>
      <trkpt lat="50.104045" lon="-123.033402">
      </trkpt>
      <trkpt lat="50.104164" lon="-123.03334201">
      </trkpt>
      <trkpt lat="50.104204" lon="-123.033352">
      </trkpt>
      <trkpt lat="50.104214" lon="-123.03331201">
      </trkpt>
      <trkpt lat="50.104284" lon="-123.033232">
      </trkpt>
      <trkpt lat="50.104364" lon="-123.033272">
      </trkpt>
      <trkpt lat="50.104414" lon="-123.033182">
      </trkpt>
      <trkpt lat="50.104486" lon="-123.03307999">
      </trkpt>
      <trkpt lat="50.104538" lon="-123.032957">
      </trkpt>
      <trkpt lat="50.104473" lon="-123.03286">
      </trkpt>
      <trkpt lat="50.104505" lon="-123.032772">
      </trkpt>
      <trkpt lat="50.104535" lon="-123.032732">
      </trkpt>
      <trkpt lat="50.104665" lon="-123.03271199">
      </trkpt>
      <trkpt lat="50.104759" lon="-123.032693">
      </trkpt>
      <trkpt lat="50.104855" lon="-123.032562">
      </trkpt>
      <trkpt lat="50.104875" lon="-123.032432">
      </trkpt>
      <trkpt lat="50.104972" lon="-123.032425">
      </trkpt>
      <trkpt lat="50.105045" lon="-123.032392">
      </trkpt>
      <trkpt lat="50.105105" lon="-123.032332">
      </trkpt>
      <trkpt lat="50.105115" lon="-123.03229201">
      </trkpt>
      <trkpt lat="50.104995" lon="-123.03222199">
      </trkpt>
      <trkpt lat="50.104905" lon="-123.032032">
      </trkpt>
      <trkpt lat="50.104915" lon="-123.031922">
      </trkpt>
      <trkpt lat="50.104985" lon="-123.031842">
      </trkpt>
      <trkpt lat="50.105165" lon="-123.031882">
      </trkpt>
      <trkpt lat="50.105195" lon="-123.031852">
      </trkpt>
      <trkpt lat="50.105295" lon="-123.031642">
      </trkpt>
      <trkpt lat="50.105309" lon="-123.03142199">
      </trkpt>
      <trkpt lat="50.105361" lon="-123.031272">
      </trkpt>
      <trkpt lat="50.105205" lon="-123.030782">
      </trkpt>
      <trkpt lat="50.105205" lon="-123.03065199">
      </trkpt>
      <trkpt lat="50.105235" lon="-123.030442">
      </trkpt>
      <trkpt lat="50.105345" lon="-123.03034201">
      </trkpt>
      <trkpt lat="50.105392" lon="-123.030226">
      </trkpt>
      <trkpt lat="50.105415" lon="-123.030082">
      </trkpt>
      <trkpt lat="50.105425" lon="-123.029992">
      </trkpt>
      <trkpt lat="50.105365" lon="-123.029762">
      </trkpt>
      <trkpt lat="50.105375" lon="-123.029662">
      </trkpt>
      <trkpt lat="50.105415" lon="-123.02957199">
      </trkpt>
      <trkpt lat="50.105425" lon="-123.029482">
      </trkpt>
      <trkpt lat="50.105375" lon="-123.029292">
      </trkpt>
      <trkpt lat="50.105435" lon="-123.029272">
      </trkpt>
      <trkpt lat="50.105445" lon="-123.029222">
      </trkpt>
      <trkpt lat="50.105385" lon="-123.029152">
      </trkpt>
      <trkpt lat="50.105365" lon="-123.029062">
      </trkpt>
      <trkpt lat="50.105395" lon="-123.02904201">
      </trkpt>
      <trkpt lat="50.105395" lon="-123.029002">
      </trkpt>
      <trkpt lat="50.105415" lon="-123.028982">
      </trkpt>
      <trkpt lat="50.105495" lon="-123.029012">
      </trkpt>
      <trkpt lat="50.105505" lon="-123.02896201">
      </trkpt>
      <trkpt lat="50.105435" lon="-123.02885199">
      </trkpt>
      <trkpt lat="50.105425" lon="-123.02880199">
      </trkpt>
      <trkpt lat="50.105575" lon="-123.02868201">
      </trkpt>
      <trkpt lat="50.105605" lon="-123.028632">
      </trkpt>
      <trkpt lat="50.105615" lon="-123.028562">
      </trkpt>
      <trkpt lat="50.105585" lon="-123.028452">
      </trkpt>
      <trkpt lat="50.105515" lon="-123.028332">
      </trkpt>
      <trkpt lat="50.105535" lon="-123.028252">
      </trkpt>
      <trkpt lat="50.105585" lon="-123.02819199">
      </trkpt>
      <trkpt lat="50.105655" lon="-123.028162">
      </trkpt>
      <trkpt lat="50.105625" lon="-123.028082">
      </trkpt>
      <trkpt lat="50.105635" lon="-123.027942">
      </trkpt>
      <trkpt lat="50.10566" lon="-123.027801">
      </trkpt>
      <trkpt lat="50.105591" lon="-123.02731801">
      </trkpt>
      <trkpt lat="50.105539" lon="-123.027259">
      </trkpt>
      <trkpt lat="50.105564" lon="-123.027092">
      </trkpt>
      <trkpt lat="50.105611" lon="-123.027007">
      </trkpt>
      <trkpt lat="50.105601" lon="-123.02691601">
      </trkpt>
      <trkpt lat="50.105514" lon="-123.026922">
      </trkpt>
      <trkpt lat="50.105374" lon="-123.02710901">
      </trkpt>
      <trkpt lat="50.105316" lon="-123.027291">
      </trkpt>
      <trkpt lat="50.105285" lon="-123.027495">
      </trkpt>
      <trkpt lat="50.105196" lon="-123.027586">
      </trkpt>
      <trkpt lat="50.105131" lon="-123.02754301">
      </trkpt>
      <trkpt lat="50.105106" lon="-123.027471">
      </trkpt>
      <trkpt lat="50.105186" lon="-123.027271">
      </trkpt>
      <trkpt lat="50.105146" lon="-123.027121">
      </trkpt>
      <trkpt lat="50.105106" lon="-123.02709099">
      </trkpt>
      <trkpt lat="50.105046" lon="-123.027121">
      </trkpt>
      <trkpt lat="50.104966" lon="-123.02725099">
      </trkpt>
      <trkpt lat="50.104946" lon="-123.027371">
      </trkpt>
      <trkpt lat="50.104906" lon="-123.027421">
      </trkpt>
      <trkpt lat="50.104866" lon="-123.02740101">
      </trkpt>
      <trkpt lat="50.104766" lon="-123.02725099">
      </trkpt>
      <trkpt lat="50.104746" lon="-123.027151">
      </trkpt>
      <trkpt lat="50.104676" lon="-123.027001">
      </trkpt>
      <trkpt lat="50.104676" lon="-123.026881">
      </trkpt>
      <trkpt lat="50.104696" lon="-123.026771">
      </trkpt>
      <trkpt lat="50.104756" lon="-123.02670601">
      </trkpt>
      <trkpt lat="50.104773" lon="-123.02655">
      </trkpt>
      <trkpt lat="50.104725" lon="-123.026459">
      </trkpt>
      <trkpt lat="50.104622" lon="-123.026491">
      </trkpt>
      <trkpt lat="50.10455" lon="-123.026598">
      </trkpt>
      <trkpt lat="50.104516" lon="-123.02679099">
      </trkpt>
      <trkpt lat="50.104481" lon="-123.026985">
      </trkpt>
      <trkpt lat="50.104433" lon="-123.02701701">
      </trkpt>
      <trkpt lat="50.104386" lon="-123.026931">
      </trkpt>
      <trkpt lat="50.104386" lon="-123.026861">
      </trkpt>
      <trkpt lat="50.104336" lon="-123.026751">
      </trkpt>
      <trkpt lat="50.104346" lon="-123.026671">
      </trkpt>
      <trkpt lat="50.104299" lon="-123.02654501">
      </trkpt>
      <trkpt lat="50.104268" lon="-123.026448">
      </trkpt>
      <trkpt lat="50.104296" lon="-123.026311">
      </trkpt>
      <trkpt lat="50.104376" lon="-123.026241">
      </trkpt>
      <trkpt lat="50.104336" lon="-123.02612101">
      </trkpt>
      <trkpt lat="50.104296" lon="-123.026111">
      </trkpt>
      <trkpt lat="50.104286" lon="-123.026061">
      </trkpt>
      <trkpt lat="50.104306" lon="-123.02602101">
      </trkpt>
      <trkpt lat="50.104366" lon="-123.02597099">
      </trkpt>
      <trkpt lat="50.104406" lon="-123.025891">
      </trkpt>
      <trkpt lat="50.104306" lon="-123.025811">
      </trkpt>
      <trkpt lat="50.104246" lon="-123.025811">
      </trkpt>
      <trkpt lat="50.104126" lon="-123.025741">
      </trkpt>
      <trkpt lat="50.104026" lon="-123.025751">
      </trkpt>
      <trkpt lat="50.103966" lon="-123.02581101">
      </trkpt>
      <trkpt lat="50.103906" lon="-123.02580101">
      </trkpt>
      <trkpt lat="50.103866" lon="-123.025751">
      </trkpt>
      <trkpt lat="50.103856" lon="-123.025661">
      </trkpt>
      <trkpt lat="50.103866" lon="-123.02554101">
      </trkpt>
      <trkpt lat="50.103956" lon="-123.025291">
      </trkpt>
      <trkpt lat="50.10413162" lon="-123.02511376">
      </trkpt>
      <trkpt lat="50.10434951" lon="-123.02500032">
      </trkpt>
      <trkpt lat="50.10455902" lon="-123.02474845">
      </trkpt>
      <trkpt lat="50.10467708" lon="-123.02441673">
      </trkpt>
      <trkpt lat="50.10472159" lon="-123.02403386">
      </trkpt>
      <trkpt lat="50.10449835" lon="-123.02399924">
      </trkpt>
      <trkpt lat="50.10427517" lon="-123.02413865">
      </trkpt>
      <trkpt lat="50.10409653" lon="-123.02396478">
      </trkpt>
      <trkpt lat="50.10394028" lon="-123.02399973">
      </trkpt>
      <trkpt lat="50.10382852" lon="-123.02358218">
      </trkpt>
      <trkpt lat="50.10367221" lon="-123.0234431">
      </trkpt>
      <trkpt lat="50.10364145" lon="-123.02329841">
      </trkpt>
      <trkpt lat="50.10369585" lon="-123.02322411">
      </trkpt>
      <trkpt lat="50.10375707" lon="-123.02318162">
      </trkpt>
      <trkpt lat="50.1038183" lon="-123.02314974">
      </trkpt>
      <trkpt lat="50.10371619" lon="-123.02302254">
      </trkpt>
      <trkpt lat="50.10362093" lon="-123.02302261">
      </trkpt>
      <trkpt lat="50.10354606" lon="-123.02294843">
      </trkpt>
      <trkpt lat="50.1034848" lon="-123.02288483">
      </trkpt>
      <trkpt lat="50.10346434" lon="-123.02273634">
      </trkpt>
      <trkpt lat="50.1034847" lon="-123.02260903">
      </trkpt>
      <trkpt lat="50.10352548" lon="-123.0224923">
      </trkpt>
      <trkpt lat="50.10353905" lon="-123.0223756">
      </trkpt>
      <trkpt lat="50.10353899" lon="-123.02221649">
      </trkpt>
      <trkpt lat="50.10345048" lon="-123.02206805">
      </trkpt>
      <trkpt lat="50.10331439" lon="-123.02204696">
      </trkpt>
      <trkpt lat="50.10320554" lon="-123.02206827">
      </trkpt>
      <trkpt lat="50.10308986" lon="-123.02206837">
      </trkpt>
      <trkpt lat="50.10301503" lon="-123.02206844">
      </trkpt>
      <trkpt lat="50.10291983" lon="-123.02222764">
      </trkpt>
      <trkpt lat="50.10281776" lon="-123.02219592">
      </trkpt>
      <trkpt lat="50.10273607" lon="-123.02211112">
      </trkpt>
      <trkpt lat="50.10265441" lon="-123.02206876">
      </trkpt>
      <trkpt lat="50.10259314" lon="-123.02200517">
      </trkpt>
      <trkpt lat="50.1025931" lon="-123.02187787">
      </trkpt>
      <trkpt lat="50.10256583" lon="-123.02173999">
      </trkpt>
      <trkpt lat="50.10253176" lon="-123.02160213">
      </trkpt>
      <trkpt lat="50.10248409" lon="-123.0215067">
      </trkpt>
      <trkpt lat="50.10242286" lon="-123.02151736">
      </trkpt>
      <trkpt lat="50.10236166" lon="-123.02161288">
      </trkpt>
      <trkpt lat="50.10235486" lon="-123.0216129">
      </trkpt>
      <trkpt lat="50.10228686" lon="-123.02170843">
      </trkpt>
      <trkpt lat="50.10218479" lon="-123.02171913">
      </trkpt>
      <trkpt lat="50.10220517" lon="-123.02161303">
      </trkpt>
      <trkpt lat="50.1021507" lon="-123.02151762">
      </trkpt>
      <trkpt lat="50.10202818" lon="-123.02140103">
      </trkpt>
      <trkpt lat="50.1019601" lon="-123.02131623">
      </trkpt>
      <trkpt lat="50.10195326" lon="-123.02119956">
      </trkpt>
      <trkpt lat="50.10196001" lon="-123.02108286">
      </trkpt>
      <trkpt lat="50.10197358" lon="-123.02095556">
      </trkpt>
      <trkpt lat="50.1020484" lon="-123.02091305">
      </trkpt>
      <trkpt lat="50.10215048" lon="-123.02093419">
      </trkpt>
      <trkpt lat="50.10219126" lon="-123.02083867">
      </trkpt>
      <trkpt lat="50.10220482" lon="-123.02070076">
      </trkpt>
      <trkpt lat="50.10221155" lon="-123.02052042">
      </trkpt>
      <trkpt lat="50.10216385" lon="-123.02034013">
      </trkpt>
      <trkpt lat="50.10210936" lon="-123.02020228">
      </trkpt>
      <trkpt lat="50.10204129" lon="-123.02011747">
      </trkpt>
      <trkpt lat="50.10194603" lon="-123.02010695">
      </trkpt>
      <trkpt lat="50.10184396" lon="-123.02009644">
      </trkpt>
      <trkpt lat="50.10172146" lon="-123.0200329">
      </trkpt>
      <trkpt lat="50.10165337" lon="-123.0199375">
      </trkpt>
      <trkpt lat="50.10161047" lon="-123.01983844">
      </trkpt>
      <trkpt lat="50.10133594" lon="-123.01948791">
      </trkpt>
      <trkpt lat="50.10122617" lon="-123.0194538">
      </trkpt>
      <trkpt lat="50.10122067" lon="-123.01944525">
      </trkpt>
      <trkpt lat="50.10105598" lon="-123.01930851">
      </trkpt>
      <trkpt lat="50.10103952" lon="-123.01932564">
      </trkpt>
      <trkpt lat="50.10084747" lon="-123.01939427">
      </trkpt>
      <trkpt lat="50.10069934" lon="-123.01949708">
      </trkpt>
      <trkpt lat="50.10063902" lon="-123.01962547">
      </trkpt>
      <trkpt lat="50.10051832" lon="-123.01971114">
      </trkpt>
      <trkpt lat="50.10050734" lon="-123.01971971">
      </trkpt>
      <trkpt lat="50.1004854" lon="-123.01974541">
      </trkpt>
      <trkpt lat="50.10043599" lon="-123.01971123">
      </trkpt>
      <trkpt lat="50.10033721" lon="-123.01971132">
      </trkpt>
      <trkpt lat="50.10026587" lon="-123.01971139">
      </trkpt>
      <trkpt lat="50.10022194" lon="-123.01964298">
      </trkpt>
      <trkpt lat="50.10016707" lon="-123.01968581">
      </trkpt>
      <trkpt lat="50.10009024" lon="-123.01969444">
      </trkpt>
      <trkpt lat="50.10000792" lon="-123.01968596">
      </trkpt>
      <trkpt lat="50.09996947" lon="-123.01959189">
      </trkpt>
      <trkpt lat="50.09995297" lon="-123.01950634">
      </trkpt>
      <trkpt lat="50.09994743" lon="-123.01938658">
      </trkpt>
      <trkpt lat="50.09994743" lon="-123.0193609">
      </trkpt>
      <trkpt lat="50.09991997" lon="-123.01931816">
      </trkpt>
      <trkpt lat="50.09988152" lon="-123.0192583">
      </trkpt>
      <trkpt lat="50.09986506" lon="-123.01924976">
      </trkpt>
      <trkpt lat="50.09975528" lon="-123.01919852">
      </trkpt>
      <trkpt lat="50.09975528" lon="-123.01918998">
      </trkpt>
      <trkpt lat="50.09968392" lon="-123.01915583">
      </trkpt>
      <trkpt lat="50.09962353" lon="-123.01909599">
      </trkpt>
      <trkpt lat="50.09963997" lon="-123.01904464">
      </trkpt>
      <trkpt lat="50.09968385" lon="-123.01897615">
      </trkpt>
      <trkpt lat="50.0997332" lon="-123.01888199">
      </trkpt>
      <trkpt lat="50.09975512" lon="-123.01880497">
      </trkpt>
      <trkpt lat="50.09976057" lon="-123.01868518">
      </trkpt>
      <trkpt lat="50.09976056" lon="-123.01867663">
      </trkpt>
      <trkpt lat="50.09973858" lon="-123.0186082">
      </trkpt>
      <trkpt lat="50.09968918" lon="-123.01860825">
      </trkpt>
      <trkpt lat="50.09967273" lon="-123.01862537">
      </trkpt>
      <trkpt lat="50.09960686" lon="-123.01859978">
      </trkpt>
      <trkpt lat="50.09959589" lon="-123.01860834">
      </trkpt>
      <trkpt lat="50.09951387" lon="-123.0185768">
      </trkpt>
    </trkseg>
    <trkseg>
      <trkpt lat="50.106501" lon="-123.051683">
      </trkpt>
      <trkpt lat="50.10661" lon="-123.05142">
      </trkpt>
      <trkpt lat="50.10669" lon="-123.05135">
      </trkpt>
      <trkpt lat="50.10679" lon="-123.05108999">
      </trkpt>
      <trkpt lat="50.10692" lon="-123.05088">
      </trkpt>
      <trkpt lat="50.10694" lon="-123.05073001">
      </trkpt>
      <trkpt lat="50.10704" lon="-123.05045001">
      </trkpt>
      <trkpt lat="50.10723" lon="-123.05036">
      </trkpt>
      <trkpt lat="50.10743" lon="-123.05005">
      </trkpt>
      <trkpt lat="50.10748" lon="-123.04992">
      </trkpt>
      <trkpt lat="50.10755" lon="-123.04983">
      </trkpt>
      <trkpt lat="50.10762" lon="-123.04970999">
      </trkpt>
      <trkpt lat="50.10771" lon="-123.04966">
      </trkpt>
      <trkpt lat="50.10779" lon="-123.04956">
      </trkpt>
      <trkpt lat="50.10789" lon="-123.04955001">
      </trkpt>
      <trkpt lat="50.10796" lon="-123.04945001">
      </trkpt>
      <trkpt lat="50.10805" lon="-123.04942">
      </trkpt>
      <trkpt lat="50.10814" lon="-123.04935001">
      </trkpt>
      <trkpt lat="50.10819" lon="-123.04923">
      </trkpt>
      <trkpt lat="50.10827" lon="-123.04914">
      </trkpt>
      <trkpt lat="50.10837" lon="-123.04916">
      </trkpt>
      <trkpt lat="50.10853" lon="-123.04862">
      </trkpt>
      <trkpt lat="50.10861" lon="-123.04855999">
      </trkpt>
      <trkpt lat="50.10882" lon="-123.04825999">
      </trkpt>
      <trkpt lat="50.10891" lon="-123.0482">
      </trkpt>
      <trkpt lat="50.10898" lon="-123.04811">
      </trkpt>
      <trkpt lat="50.10897" lon="-123.04796">
      </trkpt>
      <trkpt lat="50.109" lon="-123.04781">
      </trkpt>
      <trkpt lat="50.10904" lon="-123.04707001">
      </trkpt>
      <trkpt lat="50.10898" lon="-123.04695999">
      </trkpt>
      <trkpt lat="50.10889" lon="-123.04696999">
      </trkpt>
      <trkpt lat="50.10889" lon="-123.04680999">
      </trkpt>
      <trkpt lat="50.10892" lon="-123.04668001">
      </trkpt>
      <trkpt lat="50.10883" lon="-123.04663">
      </trkpt>
      <trkpt lat="50.10875" lon="-123.04671">
      </trkpt>
      <trkpt lat="50.10873" lon="-123.04698999">
      </trkpt>
      <trkpt lat="50.10866" lon="-123.04691">
      </trkpt>
      <trkpt lat="50.10862" lon="-123.04660001">
      </trkpt>
      <trkpt lat="50.10869" lon="-123.04631">
      </trkpt>
      <trkpt lat="50.1087" lon="-123.04617">
      </trkpt>
      <trkpt lat="50.10861" lon="-123.04625">
      </trkpt>
      <trkpt lat="50.10856" lon="-123.04637">
      </trkpt>
      <trkpt lat="50.10849" lon="-123.04628">
      </trkpt>
      <trkpt lat="50.10843" lon="-123.04639">
      </trkpt>
      <trkpt lat="50.10836" lon="-123.04626999">
      </trkpt>
      <trkpt lat="50.1084" lon="-123.04614999">
      </trkpt>
      <trkpt lat="50.10833" lon="-123.04594">
      </trkpt>
      <trkpt lat="50.10841" lon="-123.04586001">
      </trkpt>
      <trkpt lat="50.1085" lon="-123.04589">
      </trkpt>
      <trkpt lat="50.10855" lon="-123.04577001">
      </trkpt>
      <trkpt lat="50.10855" lon="-123.04559">
      </trkpt>
      <trkpt lat="50.10857" lon="-123.04544">
      </trkpt>
      <trkpt lat="50.10855" lon="-123.0453">
      </trkpt>
      <trkpt lat="50.108581" lon="-123.045263">
      </trkpt>
      <trkpt lat="50.108572" lon="-123.045209">
      </trkpt>
      <trkpt lat="50.108519" lon="-123.04525">
      </trkpt>
      <trkpt lat="50.108505" lon="-123.04514">
      </trkpt>
      <trkpt lat="50.108565" lon="-123.045132">
      </trkpt>
      <trkpt lat="50.108559" lon="-123.04495">
      </trkpt>
      <trkpt lat="50.108449" lon="-123.04469">
      </trkpt>
      <trkpt lat="50.108389" lon="-123.04458">
      </trkpt>
      <trkpt lat="50.108309" lon="-123.0445">
      </trkpt>
      <trkpt lat="50.108269" lon="-123.04437">
      </trkpt>
      <trkpt lat="50.108169" lon="-123.04439999">
      </trkpt>
      <trkpt lat="50.108079" lon="-123.04446">
      </trkpt>
      <trkpt lat="50.108009" lon="-123.04435">
      </trkpt>
      <trkpt lat="50.107949" lon="-123.04464">
      </trkpt>
      <trkpt lat="50.107859" lon="-123.04458001">
      </trkpt>
      <trkpt lat="50.107739" lon="-123.04435001">
      </trkpt>
      <trkpt lat="50.107659" lon="-123.04427">
      </trkpt>
      <trkpt lat="50.107469" lon="-123.04393">
      </trkpt>
      <trkpt lat="50.107429" lon="-123.0438">
      </trkpt>
      <trkpt lat="50.107369" lon="-123.04369">
      </trkpt>
      <trkpt lat="50.107349" lon="-123.04355">
      </trkpt>
      <trkpt lat="50.107289" lon="-123.04343001">
      </trkpt>
      <trkpt lat="50.107199" lon="-123.04347">
      </trkpt>
      <trkpt lat="50.107169" lon="-123.04361999">
      </trkpt>
      <trkpt lat="50.107129" lon="-123.04347">
      </trkpt>
      <trkpt lat="50.107139" lon="-123.04333">
      </trkpt>
      <trkpt lat="50.107189" lon="-123.04321">
      </trkpt>
      <trkpt lat="50.107219" lon="-123.04305">
      </trkpt>
      <trkpt lat="50.107149" lon="-123.04278">
      </trkpt>
      <trkpt lat="50.107169" lon="-123.04264">
      </trkpt>
      <trkpt lat="50.107129" lon="-123.0425">
      </trkpt>
      <trkpt lat="50.107049" lon="-123.04257">
      </trkpt>
      <trkpt lat="50.106969" lon="-123.04243">
      </trkpt>
      <trkpt lat="50.107049" lon="-123.04211999">
      </trkpt>
      <trkpt lat="50.107049" lon="-123.04198">
      </trkpt>
      <trkpt lat="50.106969" lon="-123.04189">
      </trkpt>
      <trkpt lat="50.106919" lon="-123.04216">
      </trkpt>
      <trkpt lat="50.106829" lon="-123.04210999">
      </trkpt>
      <trkpt lat="50.106779" lon="-123.04177">
      </trkpt>
      <trkpt lat="50.106819" lon="-123.04163001">
      </trkpt>
      <trkpt lat="50.106719" lon="-123.04159">
      </trkpt>
      <trkpt lat="50.106719" lon="-123.04145">
      </trkpt>
      <trkpt lat="50.106689" lon="-123.0413">
      </trkpt>
      <trkpt lat="50.106749" lon="-123.04101001">
      </trkpt>
      <trkpt lat="50.106689" lon="-123.04089999">
      </trkpt>
      <trkpt lat="50.106619" lon="-123.04046">
      </trkpt>
      <trkpt lat="50.106529" lon="-123.04040999">
      </trkpt>
      <trkpt lat="50.106349" lon="-123.04035001">
      </trkpt>
      <trkpt lat="50.106379" lon="-123.0402">
      </trkpt>
      <trkpt lat="50.106335" lon="-123.040164">
      </trkpt>
      <trkpt lat="50.106299" lon="-123.04030999">
      </trkpt>
      <trkpt lat="50.106289" lon="-123.04017">
      </trkpt>
      <trkpt lat="50.106239" lon="-123.04005">
      </trkpt>
      <trkpt lat="50.106259" lon="-123.03991">
      </trkpt>
      <trkpt lat="50.106259" lon="-123.03975">
      </trkpt>
      <trkpt lat="50.106179" lon="-123.03965001">
      </trkpt>
      <trkpt lat="50.106159" lon="-123.03951">
      </trkpt>
      <trkpt lat="50.106079" lon="-123.03943">
      </trkpt>
      <trkpt lat="50.106069" lon="-123.03927">
      </trkpt>
      <trkpt lat="50.105989" lon="-123.03897999">
      </trkpt>
      <trkpt lat="50.106029" lon="-123.03869">
      </trkpt>
      <trkpt lat="50.105969" lon="-123.03858">
      </trkpt>
      <trkpt lat="50.106019" lon="-123.03847">
      </trkpt>
      <trkpt lat="50.106019" lon="-123.03833">
      </trkpt>
      <trkpt lat="50.105939" lon="-123.03823">
      </trkpt>
      <trkpt lat="50.105849" lon="-123.03819">
      </trkpt>
      <trkpt lat="50.105859" lon="-123.03801">
      </trkpt>
      <trkpt lat="50.105809" lon="-123.03787999">
      </trkpt>
      <trkpt lat="50.105709" lon="-123.03765">
      </trkpt>
      <trkpt lat="50.105609" lon="-123.03764">
      </trkpt>
      <trkpt lat="50.105509" lon="-123.03769">
      </trkpt>
      <trkpt lat="50.10545972" lon="-123.03779663">
      </trkpt>
    </trkseg>
  </trk>
</gpx>