<?xml version="1.0" encoding="UTF-8"?>
<gpx xmlns="http://www.topografix.com/GPX/1/1" xmlns:xsi="http://www.w3.org/2001/XMLSchema-instance" xsi:schemaLocation="http://www.topografix.com/GPX/1/1 http://www.topografix.com/GPX/1/1/gpx.xsd" version="1.1" creator="gpx.py -- https://github.com/tkrajina/gpxpy">
  <trk>
    <name>Ski tour near Big Buck Mountain</name>
    <trkseg>
      <trkpt lat="49.1423944" lon="-120.8057202">
      </trkpt>
      <trkpt lat="49.1431909" lon="-120.8047599">
      </trkpt>
      <trkpt lat="49.1438226" lon="-120.8040089">
      </trkpt>
      <trkpt lat="49.1449666" lon="-120.8026518">
      </trkpt>
      <trkpt lat="49.1455596" lon="-120.8016754">
      </trkpt>
      <trkpt lat="49.1465176" lon="-120.8007044">
      </trkpt>
      <trkpt lat="49.1474019" lon="-120.7998676">
      </trkpt>
      <trkpt lat="49.1480194" lon="-120.7992453">
      </trkpt>
      <trkpt lat="49.1485668" lon="-120.7987732">
      </trkpt>
      <trkpt lat="49.1491423" lon="-120.7977218">
      </trkpt>
      <trkpt lat="49.1497037" lon="-120.796885">
      </trkpt>
      <trkpt lat="49.1497879" lon="-120.7965416">
      </trkpt>
      <trkpt lat="49.1497458" lon="-120.7955975">
      </trkpt>
      <trkpt lat="49.1499002" lon="-120.7947821">
      </trkpt>
      <trkpt lat="49.1498721" lon="-120.7944388">
      </trkpt>
      <trkpt lat="49.1502089" lon="-120.7928295">
      </trkpt>
      <trkpt lat="49.1502931" lon="-120.7911772">
      </trkpt>
      <trkpt lat="49.1504896" lon="-120.7891602">
      </trkpt>
      <trkpt lat="49.1504545" lon="-120.7876689">
      </trkpt>
      <trkpt lat="49.1501949" lon="-120.786993">
      </trkpt>
      <trkpt lat="49.1498791" lon="-120.7857806">
      </trkpt>
      <trkpt lat="49.1498581" lon="-120.7853407">
      </trkpt>
      <trkpt lat="49.1499524" lon="-120.7832948">
      </trkpt>
      <trkpt lat="49.1501239" lon="-120.7827749">
      </trkpt>
      <trkpt lat="49.1503524" lon="-120.7820824">
      </trkpt>
      <trkpt lat="49.1513879" lon="-120.7801373">
      </trkpt>
      <trkpt lat="49.1515422" lon="-120.7796008">
      </trkpt>
      <trkpt lat="49.151777" lon="-120.7785526">
      </trkpt>
      <trkpt lat="49.1519703" lon="-120.7774658">
      </trkpt>
      <trkpt lat="49.1527282" lon="-120.7760603">
      </trkpt>
      <trkpt lat="49.1532015" lon="-120.7754091">
      </trkpt>
      <trkpt lat="49.1539944" lon="-120.7751945">
      </trkpt>
      <trkpt lat="49.1544645" lon="-120.775291">
      </trkpt>
      <trkpt lat="49.1552893" lon="-120.7745797">
      </trkpt>
      <trkpt lat="49.1559559" lon="-120.7739896">
      </trkpt>
      <trkpt lat="49.1561945" lon="-120.7734317">
      </trkpt>
      <trkpt lat="49.1565313" lon="-120.7730026">
      </trkpt>
      <trkpt lat="49.1565904" lon="-120.772917">
      </trkpt>
      <trkpt lat="49.1567979" lon="-120.7725412">
      </trkpt>
      <trkpt lat="49.1569183" lon="-120.7724451">
      </trkpt>
    </trkseg>
  </trk>
</gpx>