<?xml version="1.0" encoding="UTF-8"?>
<gpx xmlns="http://www.topografix.com/GPX/1/1" xmlns:xsi="http://www.w3.org/2001/XMLSchema-instance" xsi:schemaLocation="http://www.topografix.com/GPX/1/1 http://www.topografix.com/GPX/1/1/gpx.xsd" version="1.1" creator="gpx.py -- https://github.com/tkrajina/gpxpy">
  <trk>
    <name>Lake McArthur High Level Trail</name>
    <trkseg>
      <trkpt lat="51.345603" lon="-116.353971">
      </trkpt>
      <trkpt lat="51.3455625" lon="-116.3537562">
      </trkpt>
      <trkpt lat="51.3454493" lon="-116.3536527">
      </trkpt>
      <trkpt lat="51.3452799" lon="-116.3536295">
      </trkpt>
      <trkpt lat="51.3451451" lon="-116.353518">
      </trkpt>
      <trkpt lat="51.3449707" lon="-116.3532403">
      </trkpt>
      <trkpt lat="51.3448149" lon="-116.3530246">
      </trkpt>
      <trkpt lat="51.3446998" lon="-116.3527757">
      </trkpt>
      <trkpt lat="51.3445903" lon="-116.3527054">
      </trkpt>
      <trkpt lat="51.3444916" lon="-116.3525273">
      </trkpt>
      <trkpt lat="51.3444712" lon="-116.3524542">
      </trkpt>
      <trkpt lat="51.3443316" lon="-116.3524252">
      </trkpt>
      <trkpt lat="51.3442243" lon="-116.3522677">
      </trkpt>
      <trkpt lat="51.344238" lon="-116.352177">
      </trkpt>
      <trkpt lat="51.3441488" lon="-116.3521664">
      </trkpt>
    </trkseg>
    <trkseg>
      <trkpt lat="51.3428049" lon="-116.3527891">
      </trkpt>
      <trkpt lat="51.3427627" lon="-116.3528774">
      </trkpt>
      <trkpt lat="51.3425825" lon="-116.3528831">
      </trkpt>
      <trkpt lat="51.342446" lon="-116.3528706">
      </trkpt>
      <trkpt lat="51.3423621" lon="-116.3528">
      </trkpt>
      <trkpt lat="51.3422448" lon="-116.3528013">
      </trkpt>
      <trkpt lat="51.3420411" lon="-116.3527791">
      </trkpt>
      <trkpt lat="51.3418592" lon="-116.3526699">
      </trkpt>
      <trkpt lat="51.3415665" lon="-116.3526347">
      </trkpt>
      <trkpt lat="51.3415243" lon="-116.3527339">
      </trkpt>
      <trkpt lat="51.3414536" lon="-116.3528035">
      </trkpt>
      <trkpt lat="51.3411582" lon="-116.3530016">
      </trkpt>
      <trkpt lat="51.3412079" lon="-116.3528099">
      </trkpt>
      <trkpt lat="51.3414203" lon="-116.3526652">
      </trkpt>
      <trkpt lat="51.341364" lon="-116.3525246">
      </trkpt>
      <trkpt lat="51.3412965" lon="-116.3523036">
      </trkpt>
      <trkpt lat="51.3412406" lon="-116.3522334">
      </trkpt>
      <trkpt lat="51.3411579" lon="-116.3521428">
      </trkpt>
      <trkpt lat="51.3410239" lon="-116.3519606">
      </trkpt>
      <trkpt lat="51.3409571" lon="-116.3518875">
      </trkpt>
      <trkpt lat="51.34095" lon="-116.3517777">
      </trkpt>
      <trkpt lat="51.340942" lon="-116.3515788">
      </trkpt>
      <trkpt lat="51.3408275" lon="-116.3512875">
      </trkpt>
      <trkpt lat="51.3407905" lon="-116.3510837">
      </trkpt>
      <trkpt lat="51.3407443" lon="-116.3508327">
      </trkpt>
      <trkpt lat="51.3406106" lon="-116.350459">
      </trkpt>
      <trkpt lat="51.3406521" lon="-116.3503755">
      </trkpt>
      <trkpt lat="51.3405459" lon="-116.3501766">
      </trkpt>
      <trkpt lat="51.3403873" lon="-116.3502432">
      </trkpt>
      <trkpt lat="51.3403266" lon="-116.3502087">
      </trkpt>
      <trkpt lat="51.3402083" lon="-116.3500611">
      </trkpt>
      <trkpt lat="51.3401511" lon="-116.3499894">
      </trkpt>
      <trkpt lat="51.34009" lon="-116.3499412">
      </trkpt>
      <trkpt lat="51.3399973" lon="-116.3497013">
      </trkpt>
      <trkpt lat="51.3398427" lon="-116.3495124">
      </trkpt>
      <trkpt lat="51.3397889" lon="-116.3492687">
      </trkpt>
      <trkpt lat="51.3396852" lon="-116.3490696">
      </trkpt>
      <trkpt lat="51.3396119" lon="-116.3488185">
      </trkpt>
      <trkpt lat="51.3394947" lon="-116.3484792">
      </trkpt>
      <trkpt lat="51.3392342" lon="-116.3483059">
      </trkpt>
      <trkpt lat="51.3389154" lon="-116.3478021">
      </trkpt>
      <trkpt lat="51.338725" lon="-116.3475198">
      </trkpt>
      <trkpt lat="51.338419" lon="-116.347312">
      </trkpt>
      <trkpt lat="51.3383622" lon="-116.3470802">
      </trkpt>
      <trkpt lat="51.3381542" lon="-116.3469757">
      </trkpt>
      <trkpt lat="51.3381416" lon="-116.3466843">
      </trkpt>
      <trkpt lat="51.3380028" lon="-116.3466504">
      </trkpt>
      <trkpt lat="51.3378841" lon="-116.3464804">
      </trkpt>
      <trkpt lat="51.3377365" lon="-116.3462884">
      </trkpt>
    </trkseg>
    <trkseg>
      <trkpt lat="51.3377365" lon="-116.3462884">
      </trkpt>
      <trkpt lat="51.3376513" lon="-116.3463515">
      </trkpt>
      <trkpt lat="51.3375586" lon="-116.3464057">
      </trkpt>
      <trkpt lat="51.3374253" lon="-116.3464709">
      </trkpt>
      <trkpt lat="51.3373394" lon="-116.3465287">
      </trkpt>
      <trkpt lat="51.3372807" lon="-116.34663">
      </trkpt>
      <trkpt lat="51.3372272" lon="-116.3466206">
      </trkpt>
    </trkseg>
  </trk>
</gpx>