<?xml version="1.0" encoding="UTF-8"?>
<gpx xmlns="http://www.topografix.com/GPX/1/1" xmlns:xsi="http://www.w3.org/2001/XMLSchema-instance" xsi:schemaLocation="http://www.topografix.com/GPX/1/1 http://www.topografix.com/GPX/1/1/gpx.xsd" version="1.1" creator="gpx.py -- https://github.com/tkrajina/gpxpy">
  <trk>
    <name>Yukness Ledges Alpine Route</name>
    <trkseg>
      <trkpt lat="51.3566444" lon="-116.3162388">
      </trkpt>
      <trkpt lat="51.3564632" lon="-116.316537">
      </trkpt>
      <trkpt lat="51.3564111" lon="-116.316533">
      </trkpt>
      <trkpt lat="51.3563515" lon="-116.3166443">
      </trkpt>
      <trkpt lat="51.356277" lon="-116.3165608">
      </trkpt>
      <trkpt lat="51.3561753" lon="-116.316684">
      </trkpt>
      <trkpt lat="51.356138" lon="-116.3165529">
      </trkpt>
      <trkpt lat="51.3560611" lon="-116.3164098">
      </trkpt>
      <trkpt lat="51.3559841" lon="-116.3161156">
      </trkpt>
      <trkpt lat="51.3558675" lon="-116.3159447">
      </trkpt>
      <trkpt lat="51.3557979" lon="-116.3156545">
      </trkpt>
      <trkpt lat="51.3557533" lon="-116.3153564">
      </trkpt>
      <trkpt lat="51.3556763" lon="-116.3148873">
      </trkpt>
      <trkpt lat="51.3556565" lon="-116.3145415">
      </trkpt>
      <trkpt lat="51.3555869" lon="-116.3143308">
      </trkpt>
      <trkpt lat="51.3554678" lon="-116.3140803">
      </trkpt>
      <trkpt lat="51.3554852" lon="-116.31381">
      </trkpt>
      <trkpt lat="51.3554181" lon="-116.3134284">
      </trkpt>
      <trkpt lat="51.355361" lon="-116.3132336">
      </trkpt>
      <trkpt lat="51.3552841" lon="-116.3129077">
      </trkpt>
      <trkpt lat="51.355232" lon="-116.3126175">
      </trkpt>
      <trkpt lat="51.3551649" lon="-116.3123631">
      </trkpt>
      <trkpt lat="51.3550462" lon="-116.3119815">
      </trkpt>
      <trkpt lat="51.354798" lon="-116.311417">
      </trkpt>
      <trkpt lat="51.3546391" lon="-116.3107969">
      </trkpt>
      <trkpt lat="51.3545299" lon="-116.3102404">
      </trkpt>
      <trkpt lat="51.3545795" lon="-116.3099383">
      </trkpt>
      <trkpt lat="51.3547185" lon="-116.3097793">
      </trkpt>
      <trkpt lat="51.3548377" lon="-116.309827">
      </trkpt>
      <trkpt lat="51.3547533" lon="-116.3094533">
      </trkpt>
      <trkpt lat="51.3546441" lon="-116.3091989">
      </trkpt>
      <trkpt lat="51.3546788" lon="-116.3089922">
      </trkpt>
    </trkseg>
    <trkseg>
      <trkpt lat="51.343953" lon="-116.3172007">
      </trkpt>
      <trkpt lat="51.3440349" lon="-116.3170998">
      </trkpt>
      <trkpt lat="51.3440563" lon="-116.3169871">
      </trkpt>
      <trkpt lat="51.3440893" lon="-116.3168858">
      </trkpt>
      <trkpt lat="51.3441321" lon="-116.3168792">
      </trkpt>
      <trkpt lat="51.3441924" lon="-116.3168899">
      </trkpt>
      <trkpt lat="51.3442832" lon="-116.3169348">
      </trkpt>
      <trkpt lat="51.3443175" lon="-116.3169307">
      </trkpt>
      <trkpt lat="51.3443913" lon="-116.3169279">
      </trkpt>
      <trkpt lat="51.3444043" lon="-116.3168564">
      </trkpt>
      <trkpt lat="51.3444062" lon="-116.316782">
      </trkpt>
      <trkpt lat="51.3443817" lon="-116.3167142">
      </trkpt>
      <trkpt lat="51.3444236" lon="-116.316733">
      </trkpt>
      <trkpt lat="51.3444663" lon="-116.316792">
      </trkpt>
      <trkpt lat="51.3445526" lon="-116.316843">
      </trkpt>
      <trkpt lat="51.3447044" lon="-116.3168831">
      </trkpt>
      <trkpt lat="51.3447585" lon="-116.3169143">
      </trkpt>
      <trkpt lat="51.344876" lon="-116.3170401">
      </trkpt>
      <trkpt lat="51.3449723" lon="-116.3170884">
      </trkpt>
      <trkpt lat="51.3450237" lon="-116.3171715">
      </trkpt>
      <trkpt lat="51.3451382" lon="-116.3171863">
      </trkpt>
      <trkpt lat="51.3451823" lon="-116.3172173">
      </trkpt>
      <trkpt lat="51.3452496" lon="-116.317197">
      </trkpt>
      <trkpt lat="51.3453623" lon="-116.3172221">
      </trkpt>
      <trkpt lat="51.3454484" lon="-116.3171903">
      </trkpt>
      <trkpt lat="51.3455553" lon="-116.3172359">
      </trkpt>
      <trkpt lat="51.3456712" lon="-116.317268">
      </trkpt>
      <trkpt lat="51.3457291" lon="-116.3174564">
      </trkpt>
      <trkpt lat="51.3458871" lon="-116.3175744">
      </trkpt>
      <trkpt lat="51.346118" lon="-116.317884">
      </trkpt>
      <trkpt lat="51.3461584" lon="-116.3180037">
      </trkpt>
      <trkpt lat="51.3462522" lon="-116.3180796">
      </trkpt>
      <trkpt lat="51.3463662" lon="-116.3181767">
      </trkpt>
      <trkpt lat="51.3464792" lon="-116.3182281">
      </trkpt>
      <trkpt lat="51.3465304" lon="-116.3181901">
      </trkpt>
      <trkpt lat="51.3466473" lon="-116.318235">
      </trkpt>
      <trkpt lat="51.3469142" lon="-116.3183615">
      </trkpt>
      <trkpt lat="51.3471916" lon="-116.3185442">
      </trkpt>
      <trkpt lat="51.3475866" lon="-116.3189545">
      </trkpt>
      <trkpt lat="51.3478183" lon="-116.3191551">
      </trkpt>
      <trkpt lat="51.3479996" lon="-116.3191839">
      </trkpt>
      <trkpt lat="51.3484888" lon="-116.3196023">
      </trkpt>
      <trkpt lat="51.3488205" lon="-116.3198759">
      </trkpt>
      <trkpt lat="51.34894" lon="-116.3199963">
      </trkpt>
      <trkpt lat="51.3499593" lon="-116.3203189">
      </trkpt>
      <trkpt lat="51.3500367" lon="-116.3203721">
      </trkpt>
      <trkpt lat="51.3505644" lon="-116.3204499">
      </trkpt>
      <trkpt lat="51.3507797" lon="-116.3205319">
      </trkpt>
      <trkpt lat="51.3509212" lon="-116.3206081">
      </trkpt>
      <trkpt lat="51.3511071" lon="-116.3207261">
      </trkpt>
      <trkpt lat="51.3512964" lon="-116.3210426">
      </trkpt>
      <trkpt lat="51.3515643" lon="-116.3212793">
      </trkpt>
      <trkpt lat="51.3517455" lon="-116.3213235">
      </trkpt>
      <trkpt lat="51.3519548" lon="-116.3212572">
      </trkpt>
      <trkpt lat="51.352" lon="-116.3212814">
      </trkpt>
      <trkpt lat="51.3523081" lon="-116.321214">
      </trkpt>
      <trkpt lat="51.3524523" lon="-116.3212706">
      </trkpt>
      <trkpt lat="51.3525176" lon="-116.3212626">
      </trkpt>
      <trkpt lat="51.3526231" lon="-116.3211338">
      </trkpt>
      <trkpt lat="51.3529565" lon="-116.3210936">
      </trkpt>
      <trkpt lat="51.353312" lon="-116.3209613">
      </trkpt>
      <trkpt lat="51.3535495" lon="-116.3207208">
      </trkpt>
      <trkpt lat="51.3536591" lon="-116.320476">
      </trkpt>
      <trkpt lat="51.3539173" lon="-116.3196572">
      </trkpt>
      <trkpt lat="51.3541341" lon="-116.3192147">
      </trkpt>
      <trkpt lat="51.3543745" lon="-116.318926">
      </trkpt>
      <trkpt lat="51.3544624" lon="-116.3188097">
      </trkpt>
      <trkpt lat="51.3546456" lon="-116.3187777">
      </trkpt>
      <trkpt lat="51.3547337" lon="-116.3188553">
      </trkpt>
      <trkpt lat="51.3549331" lon="-116.3188718">
      </trkpt>
      <trkpt lat="51.355029" lon="-116.318767">
      </trkpt>
      <trkpt lat="51.3551192" lon="-116.3185285">
      </trkpt>
      <trkpt lat="51.3553575" lon="-116.3183065">
      </trkpt>
      <trkpt lat="51.3554866" lon="-116.3182105">
      </trkpt>
      <trkpt lat="51.3555065" lon="-116.3180197">
      </trkpt>
      <trkpt lat="51.3557409" lon="-116.3179004">
      </trkpt>
      <trkpt lat="51.355784" lon="-116.3178066">
      </trkpt>
      <trkpt lat="51.3559394" lon="-116.3179402">
      </trkpt>
      <trkpt lat="51.3560457" lon="-116.3178414">
      </trkpt>
      <trkpt lat="51.3562694" lon="-116.3175634">
      </trkpt>
      <trkpt lat="51.3565101" lon="-116.3174081">
      </trkpt>
      <trkpt lat="51.3567462" lon="-116.3171372">
      </trkpt>
      <trkpt lat="51.3567019" lon="-116.3171119">
      </trkpt>
      <trkpt lat="51.3567717" lon="-116.3169016">
      </trkpt>
      <trkpt lat="51.3567672" lon="-116.3166425">
      </trkpt>
      <trkpt lat="51.3567239" lon="-116.3164654">
      </trkpt>
      <trkpt lat="51.3567035" lon="-116.3163126">
      </trkpt>
      <trkpt lat="51.3566444" lon="-116.3162388">
      </trkpt>
    </trkseg>
  </trk>
</gpx>