<?xml version="1.0" encoding="UTF-8"?>
<gpx xmlns="http://www.topografix.com/GPX/1/1" xmlns:xsi="http://www.w3.org/2001/XMLSchema-instance" xsi:schemaLocation="http://www.topografix.com/GPX/1/1 http://www.topografix.com/GPX/1/1/gpx.xsd" version="1.1" creator="gpx.py -- https://github.com/tkrajina/gpxpy">
  <trk>
    <name>Bullmoose Marshes</name>
    <trkseg>
      <trkpt lat="55.21732398" lon="-121.25237549">
      </trkpt>
      <trkpt lat="55.2173316" lon="-121.25239431">
      </trkpt>
      <trkpt lat="55.21733656" lon="-121.25239902">
      </trkpt>
      <trkpt lat="55.2173492" lon="-121.25242719">
      </trkpt>
      <trkpt lat="55.21736671" lon="-121.25245534">
      </trkpt>
      <trkpt lat="55.21738419" lon="-121.25248345">
      </trkpt>
      <trkpt lat="55.21739678" lon="-121.25251154">
      </trkpt>
      <trkpt lat="55.21740185" lon="-121.25252557">
      </trkpt>
      <trkpt lat="55.21740935" lon="-121.25253959">
      </trkpt>
      <trkpt lat="55.21742184" lon="-121.25256294">
      </trkpt>
      <trkpt lat="55.21743183" lon="-121.25258159">
      </trkpt>
      <trkpt lat="55.21744425" lon="-121.25260025">
      </trkpt>
      <trkpt lat="55.21745677" lon="-121.25262819">
      </trkpt>
      <trkpt lat="55.21747146" lon="-121.25265012">
      </trkpt>
      <trkpt lat="55.21748374" lon="-121.25266801">
      </trkpt>
      <trkpt lat="55.21749603" lon="-121.2526902">
      </trkpt>
      <trkpt lat="55.21751054" lon="-121.25271089">
      </trkpt>
      <trkpt lat="55.21752265" lon="-121.25271902">
      </trkpt>
      <trkpt lat="55.21753959" lon="-121.25274387">
      </trkpt>
      <trkpt lat="55.21755655" lon="-121.25275612">
      </trkpt>
      <trkpt lat="55.2175735" lon="-121.25278097">
      </trkpt>
      <trkpt lat="55.21759045" lon="-121.25280586">
      </trkpt>
      <trkpt lat="55.21760742" lon="-121.25283073">
      </trkpt>
      <trkpt lat="55.21761711" lon="-121.25284736">
      </trkpt>
      <trkpt lat="55.21763893" lon="-121.25287638">
      </trkpt>
      <trkpt lat="55.21764863" lon="-121.25289723">
      </trkpt>
      <trkpt lat="55.21766319" lon="-121.25291799">
      </trkpt>
      <trkpt lat="55.21767531" lon="-121.25293881">
      </trkpt>
      <trkpt lat="55.21768503" lon="-121.25295546">
      </trkpt>
      <trkpt lat="55.21769472" lon="-121.25298055">
      </trkpt>
      <trkpt lat="55.21770686" lon="-121.25300983">
      </trkpt>
      <trkpt lat="55.21771655" lon="-121.25304337">
      </trkpt>
      <trkpt lat="55.21772383" lon="-121.25306432">
      </trkpt>
      <trkpt lat="55.21773597" lon="-121.25310206">
      </trkpt>
      <trkpt lat="55.2177384" lon="-121.25310622">
      </trkpt>
      <trkpt lat="55.21775539" lon="-121.25315656">
      </trkpt>
      <trkpt lat="55.21777247" lon="-121.25319065">
      </trkpt>
      <trkpt lat="55.21779687" lon="-121.25324199">
      </trkpt>
      <trkpt lat="55.21781152" lon="-121.25327621">
      </trkpt>
      <trkpt lat="55.21782126" lon="-121.25329735">
      </trkpt>
      <trkpt lat="55.21783091" lon="-121.25332973">
      </trkpt>
      <trkpt lat="55.21783334" lon="-121.25333385">
      </trkpt>
      <trkpt lat="55.21784552" lon="-121.25336314">
      </trkpt>
      <trkpt lat="55.21786748" lon="-121.25341419">
      </trkpt>
      <trkpt lat="55.21787969" lon="-121.25343964">
      </trkpt>
      <trkpt lat="55.21789922" lon="-121.25348211">
      </trkpt>
      <trkpt lat="55.21790655" lon="-121.25349915">
      </trkpt>
      <trkpt lat="55.21791387" lon="-121.2535118">
      </trkpt>
      <trkpt lat="55.21791878" lon="-121.25352927">
      </trkpt>
      <trkpt lat="55.21793105" lon="-121.25357399">
      </trkpt>
      <trkpt lat="55.21794576" lon="-121.25361864">
      </trkpt>
      <trkpt lat="55.21796529" lon="-121.25368729">
      </trkpt>
      <trkpt lat="55.21798235" lon="-121.25372907">
      </trkpt>
      <trkpt lat="55.21799455" lon="-121.2537583">
      </trkpt>
      <trkpt lat="55.21800431" lon="-121.25377912">
      </trkpt>
      <trkpt lat="55.21801164" lon="-121.25379583">
      </trkpt>
      <trkpt lat="55.21803118" lon="-121.25383323">
      </trkpt>
      <trkpt lat="55.2180434" lon="-121.25385396">
      </trkpt>
      <trkpt lat="55.21805318" lon="-121.25387483">
      </trkpt>
      <trkpt lat="55.21806296" lon="-121.253892">
      </trkpt>
      <trkpt lat="55.21807274" lon="-121.25391802">
      </trkpt>
      <trkpt lat="55.21808496" lon="-121.25393962">
      </trkpt>
      <trkpt lat="55.21809961" lon="-121.25397425">
      </trkpt>
      <trkpt lat="55.21810936" lon="-121.25399669">
      </trkpt>
      <trkpt lat="55.21811666" lon="-121.25401479">
      </trkpt>
      <trkpt lat="55.21812394" lon="-121.25403288">
      </trkpt>
      <trkpt lat="55.21812879" lon="-121.25405095">
      </trkpt>
      <trkpt lat="55.218141" lon="-121.25408063">
      </trkpt>
      <trkpt lat="55.2181459" lon="-121.25410176">
      </trkpt>
      <trkpt lat="55.21816294" lon="-121.25415798">
      </trkpt>
      <trkpt lat="55.21817265" lon="-121.25419321">
      </trkpt>
      <trkpt lat="55.21819453" lon="-121.25423691">
      </trkpt>
      <trkpt lat="55.21821636" lon="-121.25428942">
      </trkpt>
      <trkpt lat="55.21823091" lon="-121.25432439">
      </trkpt>
      <trkpt lat="55.21824062" lon="-121.2543418">
      </trkpt>
      <trkpt lat="55.21825519" lon="-121.2543679">
      </trkpt>
      <trkpt lat="55.21825758" lon="-121.25438108">
      </trkpt>
      <trkpt lat="55.21826971" lon="-121.25440282">
      </trkpt>
      <trkpt lat="55.21827943" lon="-121.25441578">
      </trkpt>
      <trkpt lat="55.2182891" lon="-121.25443757">
      </trkpt>
      <trkpt lat="55.21831092" lon="-121.25447224">
      </trkpt>
      <trkpt lat="55.21834239" lon="-121.25453291">
      </trkpt>
      <trkpt lat="55.21836653" lon="-121.25460637">
      </trkpt>
      <trkpt lat="55.21839845" lon="-121.25467719">
      </trkpt>
      <trkpt lat="55.21841073" lon="-121.25470645">
      </trkpt>
      <trkpt lat="55.21841811" lon="-121.25472317">
      </trkpt>
      <trkpt lat="55.21842303" lon="-121.25473574">
      </trkpt>
      <trkpt lat="55.21842793" lon="-121.25475266">
      </trkpt>
      <trkpt lat="55.21844271" lon="-121.25478178">
      </trkpt>
      <trkpt lat="55.21845997" lon="-121.25481075">
      </trkpt>
      <trkpt lat="55.21846735" lon="-121.25483183">
      </trkpt>
      <trkpt lat="55.21848462" lon="-121.25487381">
      </trkpt>
      <trkpt lat="55.21848699" lon="-121.25490825">
      </trkpt>
      <trkpt lat="55.21849662" lon="-121.25496419">
      </trkpt>
      <trkpt lat="55.21850376" lon="-121.25502881">
      </trkpt>
      <trkpt lat="55.21852801" lon="-121.25510597">
      </trkpt>
      <trkpt lat="55.21853283" lon="-121.25513174">
      </trkpt>
      <trkpt lat="55.21853281" lon="-121.25513605">
      </trkpt>
      <trkpt lat="55.21853992" lon="-121.25519633">
      </trkpt>
      <trkpt lat="55.21854893" lon="-121.25526212">
      </trkpt>
      <trkpt lat="55.21855811" lon="-121.25531025">
      </trkpt>
      <trkpt lat="55.21856762" lon="-121.25535746">
      </trkpt>
      <trkpt lat="55.21857243" lon="-121.25537034">
      </trkpt>
      <trkpt lat="55.21857963" lon="-121.25538329">
      </trkpt>
      <trkpt lat="55.21859401" lon="-121.25541341">
      </trkpt>
      <trkpt lat="55.21861318" lon="-121.25545214">
      </trkpt>
      <trkpt lat="55.21862994" lon="-121.25547801">
      </trkpt>
      <trkpt lat="55.21864908" lon="-121.25550818">
      </trkpt>
      <trkpt lat="55.21865625" lon="-121.25552107">
      </trkpt>
      <trkpt lat="55.21866349" lon="-121.2555466">
      </trkpt>
      <trkpt lat="55.21867552" lon="-121.25557221">
      </trkpt>
      <trkpt lat="55.21868029" lon="-121.25558932">
      </trkpt>
      <trkpt lat="55.21869872" lon="-121.25564575">
      </trkpt>
      <trkpt lat="55.21871495" lon="-121.25568476">
      </trkpt>
      <trkpt lat="55.21873114" lon="-121.25573639">
      </trkpt>
      <trkpt lat="55.21875046" lon="-121.25578295">
      </trkpt>
      <trkpt lat="55.21876012" lon="-121.25580834">
      </trkpt>
      <trkpt lat="55.21876494" lon="-121.25582103">
      </trkpt>
      <trkpt lat="55.21878908" lon="-121.25587603">
      </trkpt>
      <trkpt lat="55.21882783" lon="-121.2559394">
      </trkpt>
      <trkpt lat="55.21883765" lon="-121.25595623">
      </trkpt>
      <trkpt lat="55.21884269" lon="-121.25597302">
      </trkpt>
      <trkpt lat="55.21884772" lon="-121.25598981">
      </trkpt>
      <trkpt lat="55.21885046" lon="-121.25601078">
      </trkpt>
      <trkpt lat="55.21885572" lon="-121.25604019">
      </trkpt>
      <trkpt lat="55.21885839" lon="-121.25605699">
      </trkpt>
      <trkpt lat="55.21886871" lon="-121.25610332">
      </trkpt>
      <trkpt lat="55.21888061" lon="-121.25614159">
      </trkpt>
      <trkpt lat="55.21888536" lon="-121.25616285">
      </trkpt>
      <trkpt lat="55.2188901" lon="-121.25618833">
      </trkpt>
      <trkpt lat="55.21889011" lon="-121.25620955">
      </trkpt>
      <trkpt lat="55.21889011" lon="-121.25623076">
      </trkpt>
      <trkpt lat="55.21889489" lon="-121.25625623">
      </trkpt>
      <trkpt lat="55.21889977" lon="-121.25628166">
      </trkpt>
      <trkpt lat="55.21890465" lon="-121.25630285">
      </trkpt>
      <trkpt lat="55.21891193" lon="-121.2563283">
      </trkpt>
      <trkpt lat="55.21891919" lon="-121.2563495">
      </trkpt>
      <trkpt lat="55.21892642" lon="-121.25636647">
      </trkpt>
      <trkpt lat="55.21894808" lon="-121.25641315">
      </trkpt>
      <trkpt lat="55.21896494" lon="-121.25645133">
      </trkpt>
      <trkpt lat="55.21896985" lon="-121.25647677">
      </trkpt>
      <trkpt lat="55.2189723" lon="-121.25648949">
      </trkpt>
      <trkpt lat="55.21898915" lon="-121.25652766">
      </trkpt>
      <trkpt lat="55.21900844" lon="-121.25657431">
      </trkpt>
      <trkpt lat="55.21902281" lon="-121.25659549">
      </trkpt>
      <trkpt lat="55.2190276" lon="-121.25660398">
      </trkpt>
      <trkpt lat="55.21904675" lon="-121.2566294">
      </trkpt>
      <trkpt lat="55.21904912" lon="-121.25662938">
      </trkpt>
      <trkpt lat="55.2190658" lon="-121.25664208">
      </trkpt>
      <trkpt lat="55.2190825" lon="-121.256659">
      </trkpt>
      <trkpt lat="55.21909442" lon="-121.25667169">
      </trkpt>
      <trkpt lat="55.21911116" lon="-121.25669708">
      </trkpt>
      <trkpt lat="55.21913275" lon="-121.2567394">
      </trkpt>
      <trkpt lat="55.2191352" lon="-121.25675211">
      </trkpt>
      <trkpt lat="55.21913537" lon="-121.25677756">
      </trkpt>
      <trkpt lat="55.21913564" lon="-121.25681575">
      </trkpt>
      <trkpt lat="55.21913603" lon="-121.25687095">
      </trkpt>
      <trkpt lat="55.21913854" lon="-121.25689218">
      </trkpt>
      <trkpt lat="55.21913863" lon="-121.25690493">
      </trkpt>
      <trkpt lat="55.21914111" lon="-121.25692191">
      </trkpt>
      <trkpt lat="55.21914604" lon="-121.25694736">
      </trkpt>
      <trkpt lat="55.21915331" lon="-121.25697281">
      </trkpt>
      <trkpt lat="55.21916297" lon="-121.25700254">
      </trkpt>
      <trkpt lat="55.2191703" lon="-121.25703221">
      </trkpt>
      <trkpt lat="55.21917765" lon="-121.25706614">
      </trkpt>
      <trkpt lat="55.21918253" lon="-121.25708737">
      </trkpt>
      <trkpt lat="55.21918505" lon="-121.25710861">
      </trkpt>
      <trkpt lat="55.21918751" lon="-121.25712136">
      </trkpt>
      <trkpt lat="55.21919007" lon="-121.25714689">
      </trkpt>
      <trkpt lat="55.21919264" lon="-121.25717242">
      </trkpt>
      <trkpt lat="55.21919615" lon="-121.25721972">
      </trkpt>
      <trkpt lat="55.21919647" lon="-121.25724541">
      </trkpt>
      <trkpt lat="55.21919647" lon="-121.2572624">
      </trkpt>
      <trkpt lat="55.21919889" lon="-121.25730487">
      </trkpt>
      <trkpt lat="55.21920067" lon="-121.25733415">
      </trkpt>
      <trkpt lat="55.21920611" lon="-121.25736853">
      </trkpt>
      <trkpt lat="55.21920915" lon="-121.25739871">
      </trkpt>
      <trkpt lat="55.21921459" lon="-121.25743317">
      </trkpt>
      <trkpt lat="55.21922025" lon="-121.25747632">
      </trkpt>
      <trkpt lat="55.21922208" lon="-121.2574971">
      </trkpt>
      <trkpt lat="55.21922367" lon="-121.25752617">
      </trkpt>
      <trkpt lat="55.21922316" lon="-121.25754699">
      </trkpt>
      <trkpt lat="55.21922232" lon="-121.25758022">
      </trkpt>
      <trkpt lat="55.21922105" lon="-121.25762149">
      </trkpt>
      <trkpt lat="55.21921964" lon="-121.25766679">
      </trkpt>
      <trkpt lat="55.21921939" lon="-121.25767502">
      </trkpt>
      <trkpt lat="55.21921838" lon="-121.25770789">
      </trkpt>
      <trkpt lat="55.21921749" lon="-121.25773658">
      </trkpt>
      <trkpt lat="55.2192166" lon="-121.25776525">
      </trkpt>
      <trkpt lat="55.21921534" lon="-121.25780614">
      </trkpt>
      <trkpt lat="55.21921491" lon="-121.25783519">
      </trkpt>
      <trkpt lat="55.21921491" lon="-121.25786472">
      </trkpt>
      <trkpt lat="55.2192126" lon="-121.25787747">
      </trkpt>
      <trkpt lat="55.2192126" lon="-121.25789435">
      </trkpt>
      <trkpt lat="55.21921259" lon="-121.25791544">
      </trkpt>
      <trkpt lat="55.21921027" lon="-121.25794928">
      </trkpt>
      <trkpt lat="55.21920796" lon="-121.25797471">
      </trkpt>
      <trkpt lat="55.21920564" lon="-121.25800014">
      </trkpt>
      <trkpt lat="55.21920564" lon="-121.25802123">
      </trkpt>
      <trkpt lat="55.21920158" lon="-121.25804329">
      </trkpt>
      <trkpt lat="55.21919736" lon="-121.25805675">
      </trkpt>
      <trkpt lat="55.21919305" lon="-121.25806585">
      </trkpt>
      <trkpt lat="55.21917739" lon="-121.25807596">
      </trkpt>
      <trkpt lat="55.21917295" lon="-121.25808071">
      </trkpt>
      <trkpt lat="55.21916397" lon="-121.25808586">
      </trkpt>
      <trkpt lat="55.21914608" lon="-121.25810057">
      </trkpt>
      <trkpt lat="55.21913042" lon="-121.25811513">
      </trkpt>
      <trkpt lat="55.21912158" lon="-121.2581291">
      </trkpt>
      <trkpt lat="55.21910825" lon="-121.2581479">
      </trkpt>
      <trkpt lat="55.21909474" lon="-121.25816655">
      </trkpt>
      <trkpt lat="55.21908066" lon="-121.25818008">
      </trkpt>
      <trkpt lat="55.21906657" lon="-121.25819362">
      </trkpt>
      <trkpt lat="55.21905947" lon="-121.25820246">
      </trkpt>
      <trkpt lat="55.21905007" lon="-121.25821151">
      </trkpt>
      <trkpt lat="55.21903578" lon="-121.25823333">
      </trkpt>
      <trkpt lat="55.21901172" lon="-121.25828071">
      </trkpt>
      <trkpt lat="55.2189918" lon="-121.25832253">
      </trkpt>
      <trkpt lat="55.21898435" lon="-121.25834354">
      </trkpt>
      <trkpt lat="55.21897738" lon="-121.258374">
      </trkpt>
      <trkpt lat="55.21896782" lon="-121.25839995">
      </trkpt>
      <trkpt lat="55.21896313" lon="-121.25843016">
      </trkpt>
      <trkpt lat="55.21895368" lon="-121.25847768">
      </trkpt>
      <trkpt lat="55.21894882" lon="-121.25850757">
      </trkpt>
      <trkpt lat="55.2189463" lon="-121.25853724">
      </trkpt>
      <trkpt lat="55.21894385" lon="-121.25855426">
      </trkpt>
      <trkpt lat="55.21894134" lon="-121.25857971">
      </trkpt>
      <trkpt lat="55.21893887" lon="-121.25860096">
      </trkpt>
      <trkpt lat="55.21893871" lon="-121.25862619">
      </trkpt>
      <trkpt lat="55.21893384" lon="-121.25865604">
      </trkpt>
      <trkpt lat="55.21892178" lon="-121.25871174">
      </trkpt>
      <trkpt lat="55.21891451" lon="-121.25875021">
      </trkpt>
      <trkpt lat="55.21891214" lon="-121.25875463">
      </trkpt>
      <trkpt lat="55.21890732" lon="-121.25877609">
      </trkpt>
      <trkpt lat="55.21890479" lon="-121.25880572">
      </trkpt>
      <trkpt lat="55.21889743" lon="-121.25885674">
      </trkpt>
      <trkpt lat="55.21889481" lon="-121.25888613">
      </trkpt>
      <trkpt lat="55.21888989" lon="-121.25891156">
      </trkpt>
      <trkpt lat="55.21888733" lon="-121.25893676">
      </trkpt>
      <trkpt lat="55.21888238" lon="-121.25896635">
      </trkpt>
      <trkpt lat="55.21888226" lon="-121.25897884">
      </trkpt>
      <trkpt lat="55.21888182" lon="-121.25902871">
      </trkpt>
      <trkpt lat="55.21888131" lon="-121.25908681">
      </trkpt>
      <trkpt lat="55.21888127" lon="-121.25913355">
      </trkpt>
      <trkpt lat="55.21888355" lon="-121.25914585">
      </trkpt>
      <trkpt lat="55.21888547" lon="-121.25916983">
      </trkpt>
      <trkpt lat="55.21888746" lon="-121.25918974">
      </trkpt>
      <trkpt lat="55.21888963" lon="-121.25921022">
      </trkpt>
      <trkpt lat="55.21889189" lon="-121.25922247">
      </trkpt>
      <trkpt lat="55.21890092" lon="-121.25927561">
      </trkpt>
      <trkpt lat="55.21890316" lon="-121.25929202">
      </trkpt>
      <trkpt lat="55.2189116" lon="-121.259356">
      </trkpt>
      <trkpt lat="55.21891783" lon="-121.25940355">
      </trkpt>
      <trkpt lat="55.21891998" lon="-121.25941539">
      </trkpt>
      <trkpt lat="55.21893482" lon="-121.25950599">
      </trkpt>
      <trkpt lat="55.21893566" lon="-121.2595852">
      </trkpt>
      <trkpt lat="55.21893741" lon="-121.25961671">
      </trkpt>
      <trkpt lat="55.21893716" lon="-121.25964535">
      </trkpt>
      <trkpt lat="55.21893716" lon="-121.25967063">
      </trkpt>
      <trkpt lat="55.21893935" lon="-121.25971623">
      </trkpt>
      <trkpt lat="55.21893882" lon="-121.25974384">
      </trkpt>
      <trkpt lat="55.21893837" lon="-121.25976748">
      </trkpt>
      <trkpt lat="55.21893778" lon="-121.25981169">
      </trkpt>
      <trkpt lat="55.21893744" lon="-121.25985249">
      </trkpt>
      <trkpt lat="55.21893728" lon="-121.2598729">
      </trkpt>
      <trkpt lat="55.21893456" lon="-121.25991793">
      </trkpt>
      <trkpt lat="55.21893208" lon="-121.25993442">
      </trkpt>
      <trkpt lat="55.21892477" lon="-121.25996759">
      </trkpt>
      <trkpt lat="55.21888985" lon="-121.2599338">
      </trkpt>
      <trkpt lat="55.21888048" lon="-121.25993048">
      </trkpt>
      <trkpt lat="55.21887352" lon="-121.25991881">
      </trkpt>
      <trkpt lat="55.21885953" lon="-121.25990363">
      </trkpt>
      <trkpt lat="55.21885023" lon="-121.25988806">
      </trkpt>
      <trkpt lat="55.21884086" lon="-121.25988063">
      </trkpt>
      <trkpt lat="55.21883391" lon="-121.25986486">
      </trkpt>
      <trkpt lat="55.2188246" lon="-121.25984924">
      </trkpt>
      <trkpt lat="55.2188223" lon="-121.25984125">
      </trkpt>
      <trkpt lat="55.21881078" lon="-121.25981806">
      </trkpt>
      <trkpt lat="55.21880173" lon="-121.2597952">
      </trkpt>
      <trkpt lat="55.21879491" lon="-121.25978003">
      </trkpt>
      <trkpt lat="55.21878578" lon="-121.25976107">
      </trkpt>
      <trkpt lat="55.21877452" lon="-121.25972646">
      </trkpt>
      <trkpt lat="55.21876998" lon="-121.25971496">
      </trkpt>
      <trkpt lat="55.21876535" lon="-121.25969044">
      </trkpt>
      <trkpt lat="55.21876062" lon="-121.25966546">
      </trkpt>
      <trkpt lat="55.21875353" lon="-121.25964492">
      </trkpt>
      <trkpt lat="55.21874405" lon="-121.25960341">
      </trkpt>
      <trkpt lat="55.21874405" lon="-121.25959916">
      </trkpt>
      <trkpt lat="55.21873715" lon="-121.25954978">
      </trkpt>
      <trkpt lat="55.2187353" lon="-121.25951405">
      </trkpt>
      <trkpt lat="55.21873094" lon="-121.25948639">
      </trkpt>
      <trkpt lat="55.21873153" lon="-121.25944641">
      </trkpt>
      <trkpt lat="55.21873207" lon="-121.25941036">
      </trkpt>
      <trkpt lat="55.21873231" lon="-121.25939434">
      </trkpt>
      <trkpt lat="55.21873291" lon="-121.25935419">
      </trkpt>
      <trkpt lat="55.21873328" lon="-121.25933007">
      </trkpt>
      <trkpt lat="55.21873375" lon="-121.25929788">
      </trkpt>
      <trkpt lat="55.21873387" lon="-121.25925574">
      </trkpt>
      <trkpt lat="55.21873388" lon="-121.25924722">
      </trkpt>
      <trkpt lat="55.21873388" lon="-121.25921738">
      </trkpt>
      <trkpt lat="55.21873147" lon="-121.25919189">
      </trkpt>
      <trkpt lat="55.21873153" lon="-121.25918786">
      </trkpt>
      <trkpt lat="55.21872021" lon="-121.25913131">
      </trkpt>
      <trkpt lat="55.21871349" lon="-121.25909084">
      </trkpt>
      <trkpt lat="55.21870899" lon="-121.25905806">
      </trkpt>
      <trkpt lat="55.2187066" lon="-121.25905395">
      </trkpt>
      <trkpt lat="55.21869957" lon="-121.25902082">
      </trkpt>
      <trkpt lat="55.21869254" lon="-121.25898339">
      </trkpt>
      <trkpt lat="55.2186901" lon="-121.25896628">
      </trkpt>
      <trkpt lat="55.2186901" lon="-121.25895772">
      </trkpt>
      <trkpt lat="55.2186779" lon="-121.25891066">
      </trkpt>
      <trkpt lat="55.21867302" lon="-121.25889355">
      </trkpt>
      <trkpt lat="55.21866326" lon="-121.25885504">
      </trkpt>
      <trkpt lat="55.21866326" lon="-121.25884648">
      </trkpt>
      <trkpt lat="55.2186559" lon="-121.25882496">
      </trkpt>
      <trkpt lat="55.21864849" lon="-121.25879466">
      </trkpt>
      <trkpt lat="55.21864849" lon="-121.25876899">
      </trkpt>
      <trkpt lat="55.21864354" lon="-121.25872599">
      </trkpt>
      <trkpt lat="55.21863613" lon="-121.25869142">
      </trkpt>
      <trkpt lat="55.21863355" lon="-121.25866954">
      </trkpt>
      <trkpt lat="55.21863341" lon="-121.25864341">
      </trkpt>
      <trkpt lat="55.21863029" lon="-121.25858124">
      </trkpt>
      <trkpt lat="55.21862457" lon="-121.25851435">
      </trkpt>
      <trkpt lat="55.21862157" lon="-121.25846135">
      </trkpt>
      <trkpt lat="55.21861911" lon="-121.25843995">
      </trkpt>
      <trkpt lat="55.21861911" lon="-121.25841867">
      </trkpt>
      <trkpt lat="55.21861911" lon="-121.2583931">
      </trkpt>
      <trkpt lat="55.21861665" lon="-121.25836319">
      </trkpt>
      <trkpt lat="55.21861419" lon="-121.2583418">
      </trkpt>
      <trkpt lat="55.21861419" lon="-121.25830348">
      </trkpt>
      <trkpt lat="55.21860927" lon="-121.25825219">
      </trkpt>
      <trkpt lat="55.21860928" lon="-121.25823515">
      </trkpt>
      <trkpt lat="55.21860923" lon="-121.25820949">
      </trkpt>
      <trkpt lat="55.2186063" lon="-121.25817398">
      </trkpt>
      <trkpt lat="55.21860352" lon="-121.25815172">
      </trkpt>
      <trkpt lat="55.21860064" lon="-121.25812071">
      </trkpt>
      <trkpt lat="55.21859807" lon="-121.25808627">
      </trkpt>
      <trkpt lat="55.21859564" lon="-121.25806504">
      </trkpt>
      <trkpt lat="55.21859321" lon="-121.2580438">
      </trkpt>
      <trkpt lat="55.2185908" lon="-121.25802682">
      </trkpt>
      <trkpt lat="55.21858837" lon="-121.25800133">
      </trkpt>
      <trkpt lat="55.21858353" lon="-121.25796736">
      </trkpt>
      <trkpt lat="55.21858352" lon="-121.25794188">
      </trkpt>
      <trkpt lat="55.21858111" lon="-121.25792064">
      </trkpt>
      <trkpt lat="55.2185811" lon="-121.25788243">
      </trkpt>
      <trkpt lat="55.2185811" lon="-121.25786544">
      </trkpt>
      <trkpt lat="55.21857868" lon="-121.25783996">
      </trkpt>
      <trkpt lat="55.21857869" lon="-121.25781447">
      </trkpt>
      <trkpt lat="55.21857869" lon="-121.25779324">
      </trkpt>
      <trkpt lat="55.21857869" lon="-121.25776351">
      </trkpt>
      <trkpt lat="55.21857869" lon="-121.25772528">
      </trkpt>
      <trkpt lat="55.21857142" lon="-121.25767857">
      </trkpt>
      <trkpt lat="55.21856656" lon="-121.25765309">
      </trkpt>
      <trkpt lat="55.21856657" lon="-121.2576276">
      </trkpt>
      <trkpt lat="55.2185593" lon="-121.25760212">
      </trkpt>
      <trkpt lat="55.21855204" lon="-121.2575724">
      </trkpt>
      <trkpt lat="55.2185472" lon="-121.25755966">
      </trkpt>
      <trkpt lat="55.21853992" lon="-121.25753418">
      </trkpt>
      <trkpt lat="55.21853265" lon="-121.2575087">
      </trkpt>
      <trkpt lat="55.21852539" lon="-121.25748321">
      </trkpt>
      <trkpt lat="55.21851808" lon="-121.2574619">
      </trkpt>
      <trkpt lat="55.21851076" lon="-121.25744056">
      </trkpt>
      <trkpt lat="55.21849858" lon="-121.25741071">
      </trkpt>
      <trkpt lat="55.2184937" lon="-121.25739791">
      </trkpt>
      <trkpt lat="55.21848882" lon="-121.25738085">
      </trkpt>
      <trkpt lat="55.21848395" lon="-121.25737231">
      </trkpt>
      <trkpt lat="55.2184742" lon="-121.25734673">
      </trkpt>
      <trkpt lat="55.21846934" lon="-121.25733821">
      </trkpt>
      <trkpt lat="55.21846205" lon="-121.25732117">
      </trkpt>
      <trkpt lat="55.21845473" lon="-121.25730411">
      </trkpt>
      <trkpt lat="55.218445" lon="-121.25727856">
      </trkpt>
      <trkpt lat="55.21844013" lon="-121.25726577">
      </trkpt>
      <trkpt lat="55.21844011" lon="-121.25725302">
      </trkpt>
    </trkseg>
  </trk>
</gpx>