<?xml version="1.0" encoding="UTF-8"?>
<gpx xmlns="http://www.topografix.com/GPX/1/1" xmlns:xsi="http://www.w3.org/2001/XMLSchema-instance" xsi:schemaLocation="http://www.topografix.com/GPX/1/1 http://www.topografix.com/GPX/1/1/gpx.xsd" version="1.1" creator="gpx.py -- https://github.com/tkrajina/gpxpy">
  <trk>
    <name>Tele Globe Trail</name>
    <trkseg>
      <trkpt lat="49.2160942" lon="-124.7923712">
      </trkpt>
      <trkpt lat="49.2161272" lon="-124.7921354">
      </trkpt>
      <trkpt lat="49.2161334" lon="-124.7916151">
      </trkpt>
      <trkpt lat="49.216113" lon="-124.7866369">
      </trkpt>
      <trkpt lat="49.2161088" lon="-124.7856049">
      </trkpt>
      <trkpt lat="49.2161079" lon="-124.7853829">
      </trkpt>
      <trkpt lat="49.2161163" lon="-124.7826458">
      </trkpt>
      <trkpt lat="49.2161027" lon="-124.7825043">
      </trkpt>
      <trkpt lat="49.2160507" lon="-124.7823884">
      </trkpt>
      <trkpt lat="49.2150851" lon="-124.7798103">
      </trkpt>
      <trkpt lat="49.2151631" lon="-124.779637">
      </trkpt>
      <trkpt lat="49.2152883" lon="-124.7795176">
      </trkpt>
      <trkpt lat="49.2165205" lon="-124.7801657">
      </trkpt>
      <trkpt lat="49.2167425" lon="-124.780134">
      </trkpt>
      <trkpt lat="49.2169474" lon="-124.7794853">
      </trkpt>
      <trkpt lat="49.2171147" lon="-124.7787073">
      </trkpt>
      <trkpt lat="49.2174846" lon="-124.7777678">
      </trkpt>
    </trkseg>
    <trkseg>
      <trkpt lat="49.2143645" lon="-124.7899781">
      </trkpt>
      <trkpt lat="49.2145584" lon="-124.7889325">
      </trkpt>
      <trkpt lat="49.2146327" lon="-124.7878325">
      </trkpt>
      <trkpt lat="49.2147779" lon="-124.7877732">
      </trkpt>
      <trkpt lat="49.2148079" lon="-124.7877467">
      </trkpt>
      <trkpt lat="49.2147974" lon="-124.7874597">
      </trkpt>
      <trkpt lat="49.2147255" lon="-124.7870493">
      </trkpt>
      <trkpt lat="49.2146992" lon="-124.786883">
      </trkpt>
      <trkpt lat="49.2147682" lon="-124.7866901">
      </trkpt>
      <trkpt lat="49.2161079" lon="-124.7853829">
      </trkpt>
    </trkseg>
    <trkseg>
      <trkpt lat="49.2169176" lon="-124.792617">
      </trkpt>
      <trkpt lat="49.2168705" lon="-124.7925249">
      </trkpt>
      <trkpt lat="49.2168121" lon="-124.7925039">
      </trkpt>
      <trkpt lat="49.2166885" lon="-124.7924408">
      </trkpt>
      <trkpt lat="49.2166095" lon="-124.7923199">
      </trkpt>
      <trkpt lat="49.2165443" lon="-124.792199">
      </trkpt>
      <trkpt lat="49.2164859" lon="-124.7920676">
      </trkpt>
      <trkpt lat="49.2164241" lon="-124.7919415">
      </trkpt>
      <trkpt lat="49.2163554" lon="-124.7918521">
      </trkpt>
      <trkpt lat="49.2162627" lon="-124.7917575">
      </trkpt>
      <trkpt lat="49.2161872" lon="-124.7916839">
      </trkpt>
      <trkpt lat="49.2161334" lon="-124.7916151">
      </trkpt>
    </trkseg>
  </trk>
</gpx>