<?xml version="1.0" encoding="UTF-8"?>
<gpx xmlns="http://www.topografix.com/GPX/1/1" xmlns:xsi="http://www.w3.org/2001/XMLSchema-instance" xsi:schemaLocation="http://www.topografix.com/GPX/1/1 http://www.topografix.com/GPX/1/1/gpx.xsd" version="1.1" creator="gpx.py -- https://github.com/tkrajina/gpxpy">
  <trk>
    <name>Ski tour near Sentry Mountain</name>
    <trkseg>
      <trkpt lat="51.6350003" lon="-117.6175851">
      </trkpt>
      <trkpt lat="51.634967" lon="-117.6178157">
      </trkpt>
      <trkpt lat="51.6349637" lon="-117.6181269">
      </trkpt>
      <trkpt lat="51.6350736" lon="-117.618438">
      </trkpt>
      <trkpt lat="51.6354764" lon="-117.6195055">
      </trkpt>
      <trkpt lat="51.6359326" lon="-117.6205033">
      </trkpt>
      <trkpt lat="51.6360757" lon="-117.6209217">
      </trkpt>
      <trkpt lat="51.6362123" lon="-117.6214099">
      </trkpt>
      <trkpt lat="51.6363321" lon="-117.6215977">
      </trkpt>
      <trkpt lat="51.6366884" lon="-117.6220214">
      </trkpt>
      <trkpt lat="51.636978" lon="-117.6224077">
      </trkpt>
      <trkpt lat="51.6371445" lon="-117.6229817">
      </trkpt>
      <trkpt lat="51.6371711" lon="-117.6234323">
      </trkpt>
      <trkpt lat="51.6371511" lon="-117.6238453">
      </trkpt>
      <trkpt lat="51.6371645" lon="-117.6241779">
      </trkpt>
      <trkpt lat="51.6372843" lon="-117.6245856">
      </trkpt>
      <trkpt lat="51.6374907" lon="-117.6250792">
      </trkpt>
      <trkpt lat="51.6375507" lon="-117.6254547">
      </trkpt>
      <trkpt lat="51.6377904" lon="-117.6260233">
      </trkpt>
      <trkpt lat="51.6379968" lon="-117.626549">
      </trkpt>
      <trkpt lat="51.6380168" lon="-117.6269889">
      </trkpt>
      <trkpt lat="51.6380501" lon="-117.6273322">
      </trkpt>
      <trkpt lat="51.6381433" lon="-117.6274288">
      </trkpt>
      <trkpt lat="51.6382698" lon="-117.6274502">
      </trkpt>
      <trkpt lat="51.6383031" lon="-117.627579">
      </trkpt>
      <trkpt lat="51.6382765" lon="-117.627815">
      </trkpt>
      <trkpt lat="51.6382898" lon="-117.6279438">
      </trkpt>
      <trkpt lat="51.6384895" lon="-117.6281583">
      </trkpt>
      <trkpt lat="51.6386693" lon="-117.6284266">
      </trkpt>
      <trkpt lat="51.6387625" lon="-117.6286948">
      </trkpt>
      <trkpt lat="51.6388624" lon="-117.6290274">
      </trkpt>
      <trkpt lat="51.6389956" lon="-117.6290703">
      </trkpt>
      <trkpt lat="51.6391021" lon="-117.6288986">
      </trkpt>
      <trkpt lat="51.639222" lon="-117.6291132">
      </trkpt>
      <trkpt lat="51.6393818" lon="-117.629199">
      </trkpt>
      <trkpt lat="51.6395682" lon="-117.6292634">
      </trkpt>
      <trkpt lat="51.6398212" lon="-117.6292205">
      </trkpt>
      <trkpt lat="51.6400742" lon="-117.6290703">
      </trkpt>
      <trkpt lat="51.6401208" lon="-117.62936">
      </trkpt>
      <trkpt lat="51.6404871" lon="-117.6301003">
      </trkpt>
      <trkpt lat="51.6406136" lon="-117.630508">
      </trkpt>
      <trkpt lat="51.6407134" lon="-117.630862">
      </trkpt>
    </trkseg>
  </trk>
</gpx>