<?xml version="1.0" encoding="UTF-8"?>
<gpx xmlns="http://www.topografix.com/GPX/1/1" xmlns:xsi="http://www.w3.org/2001/XMLSchema-instance" xsi:schemaLocation="http://www.topografix.com/GPX/1/1 http://www.topografix.com/GPX/1/1/gpx.xsd" version="1.1" creator="gpx.py -- https://github.com/tkrajina/gpxpy">
  <trk>
    <name>Ski tour near Esplanade Range</name>
    <trkseg>
      <trkpt lat="51.5960581" lon="-117.6099649">
      </trkpt>
      <trkpt lat="51.5962581" lon="-117.6099622">
      </trkpt>
      <trkpt lat="51.5964613" lon="-117.6099193">
      </trkpt>
      <trkpt lat="51.5966079" lon="-117.6098979">
      </trkpt>
      <trkpt lat="51.5967679" lon="-117.6096618">
      </trkpt>
      <trkpt lat="51.5969512" lon="-117.6095599">
      </trkpt>
      <trkpt lat="51.5971678" lon="-117.6093668">
      </trkpt>
      <trkpt lat="51.5973677" lon="-117.6090717">
      </trkpt>
      <trkpt lat="51.5974977" lon="-117.6090235">
      </trkpt>
      <trkpt lat="51.5976943" lon="-117.6089966">
      </trkpt>
      <trkpt lat="51.5978542" lon="-117.6088464">
      </trkpt>
      <trkpt lat="51.5979242" lon="-117.6086479">
      </trkpt>
      <trkpt lat="51.5979009" lon="-117.6084495">
      </trkpt>
      <trkpt lat="51.5979975" lon="-117.6081115">
      </trkpt>
      <trkpt lat="51.5981775" lon="-117.6075">
      </trkpt>
      <trkpt lat="51.5983474" lon="-117.6070118">
      </trkpt>
      <trkpt lat="51.5983807" lon="-117.6066953">
      </trkpt>
      <trkpt lat="51.5983241" lon="-117.6063144">
      </trkpt>
      <trkpt lat="51.5982474" lon="-117.6059121">
      </trkpt>
      <trkpt lat="51.5981541" lon="-117.6055741">
      </trkpt>
      <trkpt lat="51.5982541" lon="-117.6053327">
      </trkpt>
      <trkpt lat="51.5982974" lon="-117.6050055">
      </trkpt>
      <trkpt lat="51.598404" lon="-117.60463">
      </trkpt>
      <trkpt lat="51.598514" lon="-117.6039594">
      </trkpt>
      <trkpt lat="51.5984907" lon="-117.603718">
      </trkpt>
      <trkpt lat="51.5984174" lon="-117.6033801">
      </trkpt>
      <trkpt lat="51.598504" lon="-117.6028436">
      </trkpt>
      <trkpt lat="51.5985607" lon="-117.6025432">
      </trkpt>
      <trkpt lat="51.5986506" lon="-117.6022482">
      </trkpt>
      <trkpt lat="51.5987173" lon="-117.6013416">
      </trkpt>
      <trkpt lat="51.5988206" lon="-117.6008588">
      </trkpt>
      <trkpt lat="51.5987473" lon="-117.6003063">
      </trkpt>
      <trkpt lat="51.598644" lon="-117.5997752">
      </trkpt>
      <trkpt lat="51.5985873" lon="-117.5994211">
      </trkpt>
      <trkpt lat="51.5986473" lon="-117.5990886">
      </trkpt>
      <trkpt lat="51.5986573" lon="-117.5986809">
      </trkpt>
      <trkpt lat="51.5986273" lon="-117.5981391">
      </trkpt>
      <trkpt lat="51.598524" lon="-117.5977314">
      </trkpt>
      <trkpt lat="51.5984574" lon="-117.5972271">
      </trkpt>
      <trkpt lat="51.5983041" lon="-117.5968355">
      </trkpt>
      <trkpt lat="51.5982441" lon="-117.5964385">
      </trkpt>
      <trkpt lat="51.5981075" lon="-117.5959879">
      </trkpt>
      <trkpt lat="51.5979742" lon="-117.5954998">
      </trkpt>
      <trkpt lat="51.5979175" lon="-117.595017">
      </trkpt>
      <trkpt lat="51.5976243" lon="-117.594325">
      </trkpt>
      <trkpt lat="51.597571" lon="-117.5938153">
      </trkpt>
      <trkpt lat="51.5976276" lon="-117.5933915">
      </trkpt>
      <trkpt lat="51.5978409" lon="-117.5925118">
      </trkpt>
      <trkpt lat="51.5979009" lon="-117.5916374">
      </trkpt>
      <trkpt lat="51.5977709" lon="-117.591117">
      </trkpt>
      <trkpt lat="51.5977309" lon="-117.5904089">
      </trkpt>
      <trkpt lat="51.5976976" lon="-117.5895238">
      </trkpt>
      <trkpt lat="51.5977276" lon="-117.5888586">
      </trkpt>
    </trkseg>
  </trk>
</gpx>