<?xml version="1.0" encoding="UTF-8"?>
<gpx xmlns="http://www.topografix.com/GPX/1/1" xmlns:xsi="http://www.w3.org/2001/XMLSchema-instance" xsi:schemaLocation="http://www.topografix.com/GPX/1/1 http://www.topografix.com/GPX/1/1/gpx.xsd" version="1.1" creator="gpx.py -- https://github.com/tkrajina/gpxpy">
  <trk>
    <name>Ski tour near Esplanade Range</name>
    <trkseg>
      <trkpt lat="51.5908093" lon="-117.5949258">
      </trkpt>
      <trkpt lat="51.5910226" lon="-117.5950009">
      </trkpt>
      <trkpt lat="51.5912126" lon="-117.5951243">
      </trkpt>
      <trkpt lat="51.5915125" lon="-117.5952852">
      </trkpt>
      <trkpt lat="51.5916758" lon="-117.5955051">
      </trkpt>
      <trkpt lat="51.5918058" lon="-117.5955856">
      </trkpt>
      <trkpt lat="51.5919824" lon="-117.5956178">
      </trkpt>
      <trkpt lat="51.5920791" lon="-117.5956607">
      </trkpt>
      <trkpt lat="51.5923623" lon="-117.5956607">
      </trkpt>
      <trkpt lat="51.5924956" lon="-117.5956768">
      </trkpt>
      <trkpt lat="51.5926556" lon="-117.5956231">
      </trkpt>
      <trkpt lat="51.5928089" lon="-117.595591">
      </trkpt>
      <trkpt lat="51.5929656" lon="-117.5955641">
      </trkpt>
      <trkpt lat="51.5930322" lon="-117.5955051">
      </trkpt>
      <trkpt lat="51.5931055" lon="-117.5955159">
      </trkpt>
      <trkpt lat="51.5931755" lon="-117.5956821">
      </trkpt>
      <trkpt lat="51.5932555" lon="-117.5957197">
      </trkpt>
      <trkpt lat="51.5933055" lon="-117.5956982">
      </trkpt>
      <trkpt lat="51.5933955" lon="-117.5957573">
      </trkpt>
      <trkpt lat="51.5934621" lon="-117.5957626">
      </trkpt>
      <trkpt lat="51.5935121" lon="-117.5957465">
      </trkpt>
      <trkpt lat="51.5935354" lon="-117.5958055">
      </trkpt>
      <trkpt lat="51.5935421" lon="-117.5958753">
      </trkpt>
      <trkpt lat="51.5936221" lon="-117.5958914">
      </trkpt>
      <trkpt lat="51.5937154" lon="-117.5958163">
      </trkpt>
      <trkpt lat="51.593872" lon="-117.5956446">
      </trkpt>
      <trkpt lat="51.593972" lon="-117.5956446">
      </trkpt>
      <trkpt lat="51.594082" lon="-117.5955963">
      </trkpt>
      <trkpt lat="51.5941819" lon="-117.5954998">
      </trkpt>
      <trkpt lat="51.5942319" lon="-117.595548">
      </trkpt>
      <trkpt lat="51.5942486" lon="-117.5956607">
      </trkpt>
      <trkpt lat="51.5943519" lon="-117.5956714">
      </trkpt>
      <trkpt lat="51.5944619" lon="-117.5956982">
      </trkpt>
      <trkpt lat="51.5944852" lon="-117.5957948">
      </trkpt>
      <trkpt lat="51.5945119" lon="-117.5959235">
      </trkpt>
      <trkpt lat="51.5945785" lon="-117.5959772">
      </trkpt>
      <trkpt lat="51.5946352" lon="-117.5959933">
      </trkpt>
      <trkpt lat="51.5947185" lon="-117.5961435">
      </trkpt>
      <trkpt lat="51.5948018" lon="-117.5961596">
      </trkpt>
      <trkpt lat="51.5949151" lon="-117.5963098">
      </trkpt>
      <trkpt lat="51.5950584" lon="-117.5963312">
      </trkpt>
      <trkpt lat="51.5951784" lon="-117.5965244">
      </trkpt>
      <trkpt lat="51.5952517" lon="-117.5965244">
      </trkpt>
      <trkpt lat="51.595425" lon="-117.5965565">
      </trkpt>
      <trkpt lat="51.5955083" lon="-117.5966424">
      </trkpt>
      <trkpt lat="51.5955749" lon="-117.5967068">
      </trkpt>
      <trkpt lat="51.5956716" lon="-117.5967979">
      </trkpt>
      <trkpt lat="51.5957882" lon="-117.596814">
      </trkpt>
      <trkpt lat="51.5959281" lon="-117.5967979">
      </trkpt>
      <trkpt lat="51.5961448" lon="-117.5969052">
      </trkpt>
      <trkpt lat="51.5964147" lon="-117.5970447">
      </trkpt>
      <trkpt lat="51.5965746" lon="-117.5972003">
      </trkpt>
      <trkpt lat="51.5965979" lon="-117.5971842">
      </trkpt>
      <trkpt lat="51.596588" lon="-117.5971037">
      </trkpt>
      <trkpt lat="51.5966071" lon="-117.5970635">
      </trkpt>
      <trkpt lat="51.5966513" lon="-117.5970943">
      </trkpt>
      <trkpt lat="51.5967246" lon="-117.5971144">
      </trkpt>
      <trkpt lat="51.5967579" lon="-117.5970903">
      </trkpt>
      <trkpt lat="51.5967287" lon="-117.5969736">
      </trkpt>
      <trkpt lat="51.5967071" lon="-117.5968663">
      </trkpt>
      <trkpt lat="51.5967063" lon="-117.5968006">
      </trkpt>
      <trkpt lat="51.5967246" lon="-117.5967309">
      </trkpt>
      <trkpt lat="51.5967729" lon="-117.5967202">
      </trkpt>
      <trkpt lat="51.5968595" lon="-117.5967711">
      </trkpt>
      <trkpt lat="51.5969029" lon="-117.5967175">
      </trkpt>
      <trkpt lat="51.5968929" lon="-117.5966021">
      </trkpt>
      <trkpt lat="51.5968395" lon="-117.5964171">
      </trkpt>
      <trkpt lat="51.5968179" lon="-117.596283">
      </trkpt>
      <trkpt lat="51.5968362" lon="-117.5961784">
      </trkpt>
      <trkpt lat="51.5968679" lon="-117.596173">
      </trkpt>
      <trkpt lat="51.5969112" lon="-117.5962266">
      </trkpt>
      <trkpt lat="51.5969612" lon="-117.5962669">
      </trkpt>
      <trkpt lat="51.5970062" lon="-117.5961864">
      </trkpt>
      <trkpt lat="51.5970595" lon="-117.5961542">
      </trkpt>
      <trkpt lat="51.5971078" lon="-117.5962132">
      </trkpt>
      <trkpt lat="51.5972561" lon="-117.5963205">
      </trkpt>
      <trkpt lat="51.597486" lon="-117.5964814">
      </trkpt>
      <trkpt lat="51.597671" lon="-117.5965512">
      </trkpt>
      <trkpt lat="51.5978542" lon="-117.5965887">
      </trkpt>
      <trkpt lat="51.5980608" lon="-117.5967228">
      </trkpt>
      <trkpt lat="51.5981975" lon="-117.5968248">
      </trkpt>
      <trkpt lat="51.5983041" lon="-117.5968355">
      </trkpt>
    </trkseg>
  </trk>
</gpx>