<?xml version="1.0" encoding="UTF-8"?>
<gpx xmlns="http://www.topografix.com/GPX/1/1" xmlns:xsi="http://www.w3.org/2001/XMLSchema-instance" xsi:schemaLocation="http://www.topografix.com/GPX/1/1 http://www.topografix.com/GPX/1/1/gpx.xsd" version="1.1" creator="gpx.py -- https://github.com/tkrajina/gpxpy">
  <trk>
    <name>Ski tour near Sentry Mountain</name>
    <trkseg>
      <trkpt lat="51.6351701" lon="-117.6301056">
      </trkpt>
      <trkpt lat="51.6348938" lon="-117.6304704">
      </trkpt>
      <trkpt lat="51.634664" lon="-117.6305884">
      </trkpt>
      <trkpt lat="51.6344709" lon="-117.6307601">
      </trkpt>
      <trkpt lat="51.6343677" lon="-117.6308835">
      </trkpt>
      <trkpt lat="51.6342379" lon="-117.6308566">
      </trkpt>
      <trkpt lat="51.634098" lon="-117.6309747">
      </trkpt>
      <trkpt lat="51.6339515" lon="-117.6308942">
      </trkpt>
      <trkpt lat="51.6339082" lon="-117.6307976">
      </trkpt>
      <trkpt lat="51.6339149" lon="-117.6306716">
      </trkpt>
      <trkpt lat="51.6339815" lon="-117.6304838">
      </trkpt>
      <trkpt lat="51.6339548" lon="-117.6302987">
      </trkpt>
      <trkpt lat="51.633835" lon="-117.6301834">
      </trkpt>
      <trkpt lat="51.6337068" lon="-117.6300547">
      </trkpt>
      <trkpt lat="51.6336269" lon="-117.6298481">
      </trkpt>
      <trkpt lat="51.6336202" lon="-117.6296845">
      </trkpt>
      <trkpt lat="51.6337068" lon="-117.6294324">
      </trkpt>
      <trkpt lat="51.6337484" lon="-117.6292768">
      </trkpt>
      <trkpt lat="51.6336618" lon="-117.6290837">
      </trkpt>
      <trkpt lat="51.6334504" lon="-117.6287404">
      </trkpt>
      <trkpt lat="51.6336835" lon="-117.6288316">
      </trkpt>
      <trkpt lat="51.6338" lon="-117.6287538">
      </trkpt>
      <trkpt lat="51.6339149" lon="-117.6287001">
      </trkpt>
      <trkpt lat="51.6340048" lon="-117.6286384">
      </trkpt>
      <trkpt lat="51.6339948" lon="-117.6285097">
      </trkpt>
      <trkpt lat="51.6339249" lon="-117.6284373">
      </trkpt>
      <trkpt lat="51.63382" lon="-117.6284641">
      </trkpt>
      <trkpt lat="51.6337467" lon="-117.628389">
      </trkpt>
      <trkpt lat="51.6337151" lon="-117.6280376">
      </trkpt>
      <trkpt lat="51.6336002" lon="-117.6279625">
      </trkpt>
      <trkpt lat="51.6335203" lon="-117.6279357">
      </trkpt>
      <trkpt lat="51.6335203" lon="-117.6278338">
      </trkpt>
      <trkpt lat="51.6334005" lon="-117.627748">
      </trkpt>
      <trkpt lat="51.6333372" lon="-117.6274824">
      </trkpt>
      <trkpt lat="51.6331774" lon="-117.627351">
      </trkpt>
      <trkpt lat="51.6328927" lon="-117.627072">
      </trkpt>
      <trkpt lat="51.6327878" lon="-117.6269379">
      </trkpt>
      <trkpt lat="51.6325431" lon="-117.6269165">
      </trkpt>
      <trkpt lat="51.6324681" lon="-117.6268145">
      </trkpt>
      <trkpt lat="51.6323982" lon="-117.6265061">
      </trkpt>
      <trkpt lat="51.6323749" lon="-117.6264739">
      </trkpt>
      <trkpt lat="51.6322967" lon="-117.6265222">
      </trkpt>
      <trkpt lat="51.6322234" lon="-117.6263934">
      </trkpt>
      <trkpt lat="51.6320186" lon="-117.626093">
      </trkpt>
      <trkpt lat="51.6318105" lon="-117.6256612">
      </trkpt>
      <trkpt lat="51.6317041" lon="-117.6253667">
      </trkpt>
      <trkpt lat="51.6316807" lon="-117.6253018">
      </trkpt>
      <trkpt lat="51.6315724" lon="-117.6251543">
      </trkpt>
      <trkpt lat="51.631351" lon="-117.6248699">
      </trkpt>
      <trkpt lat="51.6312311" lon="-117.6247734">
      </trkpt>
      <trkpt lat="51.6310347" lon="-117.6245105">
      </trkpt>
      <trkpt lat="51.6310114" lon="-117.624304">
      </trkpt>
      <trkpt lat="51.6309081" lon="-117.624127">
      </trkpt>
      <trkpt lat="51.6308166" lon="-117.6240948">
      </trkpt>
      <trkpt lat="51.6306867" lon="-117.6240733">
      </trkpt>
      <trkpt lat="51.6305718" lon="-117.623958">
      </trkpt>
      <trkpt lat="51.630397" lon="-117.6238373">
      </trkpt>
      <trkpt lat="51.6302938" lon="-117.6236147">
      </trkpt>
      <trkpt lat="51.6303071" lon="-117.6235691">
      </trkpt>
      <trkpt lat="51.6304237" lon="-117.6235637">
      </trkpt>
      <trkpt lat="51.6304753" lon="-117.6235127">
      </trkpt>
      <trkpt lat="51.6305052" lon="-117.6234162">
      </trkpt>
      <trkpt lat="51.6305635" lon="-117.6233974">
      </trkpt>
      <trkpt lat="51.6306967" lon="-117.6234162">
      </trkpt>
      <trkpt lat="51.6307783" lon="-117.6234055">
      </trkpt>
      <trkpt lat="51.6307916" lon="-117.6233786">
      </trkpt>
      <trkpt lat="51.6307217" lon="-117.6232606">
      </trkpt>
      <trkpt lat="51.6307084" lon="-117.623148">
      </trkpt>
      <trkpt lat="51.6307383" lon="-117.6229978">
      </trkpt>
      <trkpt lat="51.6307134" lon="-117.6228797">
      </trkpt>
      <trkpt lat="51.6306318" lon="-117.622751">
      </trkpt>
      <trkpt lat="51.6306318" lon="-117.6226115">
      </trkpt>
      <trkpt lat="51.6305152" lon="-117.622515">
      </trkpt>
      <trkpt lat="51.630407" lon="-117.6225096">
      </trkpt>
      <trkpt lat="51.630367" lon="-117.6223889">
      </trkpt>
      <trkpt lat="51.630437" lon="-117.6223165">
      </trkpt>
      <trkpt lat="51.6304669" lon="-117.6222011">
      </trkpt>
      <trkpt lat="51.6304203" lon="-117.6221341">
      </trkpt>
      <trkpt lat="51.6303238" lon="-117.6220751">
      </trkpt>
    </trkseg>
  </trk>
</gpx>