<?xml version="1.0" encoding="UTF-8"?>
<gpx xmlns="http://www.topografix.com/GPX/1/1" xmlns:xsi="http://www.w3.org/2001/XMLSchema-instance" xsi:schemaLocation="http://www.topografix.com/GPX/1/1 http://www.topografix.com/GPX/1/1/gpx.xsd" version="1.1" creator="gpx.py -- https://github.com/tkrajina/gpxpy">
  <trk>
    <name>Ski tour near Cupola Mountain</name>
    <trkseg>
      <trkpt lat="51.5804565" lon="-117.5505138">
      </trkpt>
      <trkpt lat="51.5804699" lon="-117.5516617">
      </trkpt>
      <trkpt lat="51.5803565" lon="-117.5516939">
      </trkpt>
      <trkpt lat="51.5803699" lon="-117.5520265">
      </trkpt>
      <trkpt lat="51.5803632" lon="-117.5528848">
      </trkpt>
      <trkpt lat="51.5803032" lon="-117.5534535">
      </trkpt>
      <trkpt lat="51.5801565" lon="-117.5542367">
      </trkpt>
      <trkpt lat="51.5799565" lon="-117.5551808">
      </trkpt>
      <trkpt lat="51.5796698" lon="-117.5561142">
      </trkpt>
      <trkpt lat="51.5796765" lon="-117.5565112">
      </trkpt>
      <trkpt lat="51.5796765" lon="-117.557112">
      </trkpt>
      <trkpt lat="51.5795098" lon="-117.5580776">
      </trkpt>
      <trkpt lat="51.5795098" lon="-117.5583243">
      </trkpt>
      <trkpt lat="51.5795698" lon="-117.5583565">
      </trkpt>
      <trkpt lat="51.5797032" lon="-117.5583351">
      </trkpt>
      <trkpt lat="51.5797832" lon="-117.5584316">
      </trkpt>
      <trkpt lat="51.5797698" lon="-117.5587535">
      </trkpt>
      <trkpt lat="51.5796898" lon="-117.5593865">
      </trkpt>
      <trkpt lat="51.5794698" lon="-117.5598586">
      </trkpt>
      <trkpt lat="51.5789964" lon="-117.5608671">
      </trkpt>
      <trkpt lat="51.5789031" lon="-117.5612855">
      </trkpt>
      <trkpt lat="51.5789098" lon="-117.5616932">
      </trkpt>
      <trkpt lat="51.5789164" lon="-117.5619936">
      </trkpt>
      <trkpt lat="51.5788497" lon="-117.5622189">
      </trkpt>
      <trkpt lat="51.5786031" lon="-117.5624871">
      </trkpt>
      <trkpt lat="51.5780163" lon="-117.5632918">
      </trkpt>
      <trkpt lat="51.5777296" lon="-117.5637746">
      </trkpt>
      <trkpt lat="51.5775763" lon="-117.5639677">
      </trkpt>
      <trkpt lat="51.5773729" lon="-117.564016">
      </trkpt>
      <trkpt lat="51.5771796" lon="-117.564016">
      </trkpt>
      <trkpt lat="51.5771062" lon="-117.5638551">
      </trkpt>
      <trkpt lat="51.5770029" lon="-117.5637907">
      </trkpt>
      <trkpt lat="51.5769195" lon="-117.5637263">
      </trkpt>
      <trkpt lat="51.5768995" lon="-117.5635761">
      </trkpt>
      <trkpt lat="51.5768795" lon="-117.5633133">
      </trkpt>
      <trkpt lat="51.5768162" lon="-117.5632006">
      </trkpt>
      <trkpt lat="51.5767428" lon="-117.5631791">
      </trkpt>
      <trkpt lat="51.5766995" lon="-117.563265">
      </trkpt>
      <trkpt lat="51.5766428" lon="-117.5633937">
      </trkpt>
      <trkpt lat="51.5765695" lon="-117.5633401">
      </trkpt>
      <trkpt lat="51.5765595" lon="-117.5632811">
      </trkpt>
      <trkpt lat="51.5764728" lon="-117.5632489">
      </trkpt>
      <trkpt lat="51.5764194" lon="-117.5632972">
      </trkpt>
      <trkpt lat="51.5763628" lon="-117.5633991">
      </trkpt>
      <trkpt lat="51.5763061" lon="-117.5634956">
      </trkpt>
      <trkpt lat="51.5762494" lon="-117.5634259">
      </trkpt>
      <trkpt lat="51.5761961" lon="-117.5633401">
      </trkpt>
      <trkpt lat="51.5761694" lon="-117.5632918">
      </trkpt>
      <trkpt lat="51.5761127" lon="-117.5633133">
      </trkpt>
      <trkpt lat="51.5760627" lon="-117.5634152">
      </trkpt>
      <trkpt lat="51.5760227" lon="-117.5634581">
      </trkpt>
      <trkpt lat="51.575926" lon="-117.5634152">
      </trkpt>
      <trkpt lat="51.5759127" lon="-117.5632811">
      </trkpt>
      <trkpt lat="51.5759094" lon="-117.5631684">
      </trkpt>
      <trkpt lat="51.575856" lon="-117.5631309">
      </trkpt>
      <trkpt lat="51.5756993" lon="-117.5632381">
      </trkpt>
      <trkpt lat="51.575446" lon="-117.5636083">
      </trkpt>
      <trkpt lat="51.5753326" lon="-117.5638658">
      </trkpt>
      <trkpt lat="51.5752326" lon="-117.5640804">
      </trkpt>
      <trkpt lat="51.5751226" lon="-117.5640911">
      </trkpt>
      <trkpt lat="51.5750726" lon="-117.5639999">
      </trkpt>
      <trkpt lat="51.5750259" lon="-117.563898">
      </trkpt>
      <trkpt lat="51.5749859" lon="-117.5638712">
      </trkpt>
      <trkpt lat="51.5749159" lon="-117.5638926">
      </trkpt>
      <trkpt lat="51.5748425" lon="-117.5639838">
      </trkpt>
      <trkpt lat="51.5747258" lon="-117.5642306">
      </trkpt>
      <trkpt lat="51.5746725" lon="-117.5644559">
      </trkpt>
      <trkpt lat="51.5745458" lon="-117.564944">
      </trkpt>
      <trkpt lat="51.5744991" lon="-117.5650299">
      </trkpt>
      <trkpt lat="51.5744491" lon="-117.5652874">
      </trkpt>
      <trkpt lat="51.5744858" lon="-117.56562">
      </trkpt>
      <trkpt lat="51.5744991" lon="-117.5659901">
      </trkpt>
      <trkpt lat="51.5745591" lon="-117.5663495">
      </trkpt>
      <trkpt lat="51.5745458" lon="-117.5669342">
      </trkpt>
      <trkpt lat="51.5745725" lon="-117.5676316">
      </trkpt>
      <trkpt lat="51.5745925" lon="-117.5682807">
      </trkpt>
      <trkpt lat="51.5746692" lon="-117.5686133">
      </trkpt>
      <trkpt lat="51.5746858" lon="-117.569021">
      </trkpt>
      <trkpt lat="51.5745958" lon="-117.569595">
      </trkpt>
      <trkpt lat="51.5745158" lon="-117.5701207">
      </trkpt>
      <trkpt lat="51.5745458" lon="-117.5704318">
      </trkpt>
      <trkpt lat="51.5746958" lon="-117.5707269">
      </trkpt>
      <trkpt lat="51.5747725" lon="-117.5712097">
      </trkpt>
      <trkpt lat="51.5748459" lon="-117.5713921">
      </trkpt>
      <trkpt lat="51.5748625" lon="-117.5715637">
      </trkpt>
      <trkpt lat="51.5749425" lon="-117.5717139">
      </trkpt>
      <trkpt lat="51.5749659" lon="-117.5718051">
      </trkpt>
      <trkpt lat="51.5749292" lon="-117.5718212">
      </trkpt>
      <trkpt lat="51.5748725" lon="-117.5717783">
      </trkpt>
      <trkpt lat="51.5748592" lon="-117.571848">
      </trkpt>
      <trkpt lat="51.5748692" lon="-117.5721055">
      </trkpt>
      <trkpt lat="51.5748959" lon="-117.5724167">
      </trkpt>
      <trkpt lat="51.5748625" lon="-117.572819">
      </trkpt>
      <trkpt lat="51.5747392" lon="-117.5733447">
      </trkpt>
      <trkpt lat="51.5746792" lon="-117.5735968">
      </trkpt>
      <trkpt lat="51.5746492" lon="-117.5737202">
      </trkpt>
      <trkpt lat="51.5745925" lon="-117.5738114">
      </trkpt>
      <trkpt lat="51.5745425" lon="-117.5737685">
      </trkpt>
      <trkpt lat="51.5744958" lon="-117.5738007">
      </trkpt>
      <trkpt lat="51.5744825" lon="-117.5739241">
      </trkpt>
      <trkpt lat="51.5744991" lon="-117.5740367">
      </trkpt>
      <trkpt lat="51.5745325" lon="-117.5742835">
      </trkpt>
      <trkpt lat="51.5745291" lon="-117.5745678">
      </trkpt>
      <trkpt lat="51.5745058" lon="-117.5747287">
      </trkpt>
      <trkpt lat="51.5744658" lon="-117.5749379">
      </trkpt>
      <trkpt lat="51.5743991" lon="-117.5751525">
      </trkpt>
      <trkpt lat="51.5742991" lon="-117.5752544">
      </trkpt>
      <trkpt lat="51.5742057" lon="-117.5752491">
      </trkpt>
    </trkseg>
  </trk>
</gpx>