<?xml version="1.0" encoding="UTF-8"?>
<gpx xmlns="http://www.topografix.com/GPX/1/1" xmlns:xsi="http://www.w3.org/2001/XMLSchema-instance" xsi:schemaLocation="http://www.topografix.com/GPX/1/1 http://www.topografix.com/GPX/1/1/gpx.xsd" version="1.1" creator="gpx.py -- https://github.com/tkrajina/gpxpy">
  <trk>
    <name>Ski tour near Cupola Mountain</name>
    <trkseg>
      <trkpt lat="51.5481231" lon="-117.5127697">
      </trkpt>
      <trkpt lat="51.5480631" lon="-117.5131291">
      </trkpt>
      <trkpt lat="51.547923" lon="-117.5134349">
      </trkpt>
      <trkpt lat="51.5478629" lon="-117.5137138">
      </trkpt>
      <trkpt lat="51.5479096" lon="-117.5138158">
      </trkpt>
      <trkpt lat="51.5480731" lon="-117.5138372">
      </trkpt>
      <trkpt lat="51.5482933" lon="-117.5137836">
      </trkpt>
      <trkpt lat="51.5484701" lon="-117.5138211">
      </trkpt>
      <trkpt lat="51.5487069" lon="-117.5137031">
      </trkpt>
      <trkpt lat="51.548807" lon="-117.5138694">
      </trkpt>
      <trkpt lat="51.5487303" lon="-117.5140464">
      </trkpt>
      <trkpt lat="51.5485601" lon="-117.5142235">
      </trkpt>
      <trkpt lat="51.5484901" lon="-117.514438">
      </trkpt>
      <trkpt lat="51.5485835" lon="-117.5147063">
      </trkpt>
      <trkpt lat="51.548877" lon="-117.5150442">
      </trkpt>
      <trkpt lat="51.5491272" lon="-117.5151461">
      </trkpt>
      <trkpt lat="51.549314" lon="-117.5153017">
      </trkpt>
      <trkpt lat="51.5493741" lon="-117.515704">
      </trkpt>
      <trkpt lat="51.5494808" lon="-117.5161547">
      </trkpt>
      <trkpt lat="51.5494641" lon="-117.5165838">
      </trkpt>
      <trkpt lat="51.5494475" lon="-117.5170881">
      </trkpt>
      <trkpt lat="51.5494208" lon="-117.5186437">
      </trkpt>
      <trkpt lat="51.5495876" lon="-117.5195825">
      </trkpt>
      <trkpt lat="51.5498378" lon="-117.52087">
      </trkpt>
      <trkpt lat="51.5502681" lon="-117.522313">
      </trkpt>
      <trkpt lat="51.5511987" lon="-117.5243569">
      </trkpt>
      <trkpt lat="51.5517725" lon="-117.5261164">
      </trkpt>
      <trkpt lat="51.5518992" lon="-117.5274468">
      </trkpt>
      <trkpt lat="51.552086" lon="-117.5289381">
      </trkpt>
      <trkpt lat="51.552086" lon="-117.5300002">
      </trkpt>
      <trkpt lat="51.552026" lon="-117.5304616">
      </trkpt>
      <trkpt lat="51.5521427" lon="-117.5307512">
      </trkpt>
      <trkpt lat="51.5519659" lon="-117.5311214">
      </trkpt>
      <trkpt lat="51.5520827" lon="-117.5315505">
      </trkpt>
      <trkpt lat="51.5519959" lon="-117.5316525">
      </trkpt>
      <trkpt lat="51.5519693" lon="-117.5318939">
      </trkpt>
      <trkpt lat="51.5517524" lon="-117.5317866">
      </trkpt>
      <trkpt lat="51.5516991" lon="-117.5324518">
      </trkpt>
      <trkpt lat="51.551659" lon="-117.5332993">
      </trkpt>
      <trkpt lat="51.5515723" lon="-117.5335193">
      </trkpt>
      <trkpt lat="51.5514589" lon="-117.533471">
      </trkpt>
      <trkpt lat="51.5512688" lon="-117.5330633">
      </trkpt>
      <trkpt lat="51.5511654" lon="-117.5330901">
      </trkpt>
      <trkpt lat="51.5510419" lon="-117.533648">
      </trkpt>
      <trkpt lat="51.5508451" lon="-117.534163">
      </trkpt>
      <trkpt lat="51.550705" lon="-117.5345385">
      </trkpt>
      <trkpt lat="51.5505916" lon="-117.5344849">
      </trkpt>
      <trkpt lat="51.5504816" lon="-117.5346297">
      </trkpt>
      <trkpt lat="51.5503781" lon="-117.535091">
      </trkpt>
      <trkpt lat="51.550208" lon="-117.5354612">
      </trkpt>
      <trkpt lat="51.5501546" lon="-117.5357938">
      </trkpt>
      <trkpt lat="51.5498611" lon="-117.5361961">
      </trkpt>
    </trkseg>
    <trkseg>
      <trkpt lat="51.5498611" lon="-117.5361961">
      </trkpt>
      <trkpt lat="51.5495409" lon="-117.5364268">
      </trkpt>
      <trkpt lat="51.5492773" lon="-117.5366467">
      </trkpt>
      <trkpt lat="51.5490972" lon="-117.5369632">
      </trkpt>
      <trkpt lat="51.5489838" lon="-117.5372958">
      </trkpt>
      <trkpt lat="51.5488437" lon="-117.5376123">
      </trkpt>
      <trkpt lat="51.5487603" lon="-117.5380093">
      </trkpt>
      <trkpt lat="51.5487069" lon="-117.5384814">
      </trkpt>
      <trkpt lat="51.5486769" lon="-117.5389105">
      </trkpt>
      <trkpt lat="51.5486735" lon="-117.5392485">
      </trkpt>
      <trkpt lat="51.5487002" lon="-117.5395596">
      </trkpt>
      <trkpt lat="51.5486469" lon="-117.5398117">
      </trkpt>
      <trkpt lat="51.5485435" lon="-117.539978">
      </trkpt>
      <trkpt lat="51.5484667" lon="-117.5402033">
      </trkpt>
      <trkpt lat="51.5483867" lon="-117.5402623">
      </trkpt>
      <trkpt lat="51.54839" lon="-117.5404394">
      </trkpt>
      <trkpt lat="51.54842" lon="-117.5405628">
      </trkpt>
      <trkpt lat="51.5485068" lon="-117.5407559">
      </trkpt>
      <trkpt lat="51.5485568" lon="-117.5408202">
      </trkpt>
      <trkpt lat="51.5485401" lon="-117.5409061">
      </trkpt>
      <trkpt lat="51.5484601" lon="-117.5410724">
      </trkpt>
      <trkpt lat="51.5484267" lon="-117.5413245">
      </trkpt>
      <trkpt lat="51.5484" lon="-117.5414318">
      </trkpt>
      <trkpt lat="51.5484067" lon="-117.5416303">
      </trkpt>
      <trkpt lat="51.5484767" lon="-117.5417751">
      </trkpt>
      <trkpt lat="51.5484567" lon="-117.5420219">
      </trkpt>
      <trkpt lat="51.5484534" lon="-117.5424135">
      </trkpt>
      <trkpt lat="51.5484701" lon="-117.54251">
      </trkpt>
      <trkpt lat="51.5485568" lon="-117.5427836">
      </trkpt>
      <trkpt lat="51.5486402" lon="-117.543143">
      </trkpt>
      <trkpt lat="51.5486735" lon="-117.5434005">
      </trkpt>
      <trkpt lat="51.5486869" lon="-117.543819">
      </trkpt>
      <trkpt lat="51.5486802" lon="-117.544055">
      </trkpt>
      <trkpt lat="51.5486268" lon="-117.5443125">
      </trkpt>
      <trkpt lat="51.5485268" lon="-117.5444627">
      </trkpt>
      <trkpt lat="51.5484467" lon="-117.54457">
      </trkpt>
      <trkpt lat="51.5483733" lon="-117.5446612">
      </trkpt>
      <trkpt lat="51.5483433" lon="-117.544747">
      </trkpt>
      <trkpt lat="51.54836" lon="-117.5448382">
      </trkpt>
      <trkpt lat="51.54838" lon="-117.5449026">
      </trkpt>
      <trkpt lat="51.54835" lon="-117.5449455">
      </trkpt>
      <trkpt lat="51.5482999" lon="-117.544983">
      </trkpt>
      <trkpt lat="51.5482432" lon="-117.5449616">
      </trkpt>
      <trkpt lat="51.5481965" lon="-117.5449616">
      </trkpt>
      <trkpt lat="51.5481465" lon="-117.5449723">
      </trkpt>
      <trkpt lat="51.5481131" lon="-117.5450367">
      </trkpt>
      <trkpt lat="51.548114" lon="-117.5451641">
      </trkpt>
      <trkpt lat="51.5480998" lon="-117.5452244">
      </trkpt>
      <trkpt lat="51.5480431" lon="-117.545262">
      </trkpt>
      <trkpt lat="51.5479889" lon="-117.5452258">
      </trkpt>
      <trkpt lat="51.5479021" lon="-117.5452405">
      </trkpt>
      <trkpt lat="51.5478346" lon="-117.5452808">
      </trkpt>
      <trkpt lat="51.5477929" lon="-117.5453612">
      </trkpt>
      <trkpt lat="51.5477912" lon="-117.5454685">
      </trkpt>
      <trkpt lat="51.5477445" lon="-117.5455436">
      </trkpt>
      <trkpt lat="51.5476628" lon="-117.5455597">
      </trkpt>
      <trkpt lat="51.5476227" lon="-117.5455838">
      </trkpt>
      <trkpt lat="51.547576" lon="-117.5456938">
      </trkpt>
      <trkpt lat="51.5474426" lon="-117.5459218">
      </trkpt>
      <trkpt lat="51.5472291" lon="-117.5461578">
      </trkpt>
      <trkpt lat="51.5471257" lon="-117.5463671">
      </trkpt>
      <trkpt lat="51.547099" lon="-117.5464797">
      </trkpt>
      <trkpt lat="51.5470156" lon="-117.5465548">
      </trkpt>
      <trkpt lat="51.5468588" lon="-117.5465816">
      </trkpt>
      <trkpt lat="51.5466687" lon="-117.5465655">
      </trkpt>
    </trkseg>
  </trk>
</gpx>