<?xml version="1.0" encoding="UTF-8"?>
<gpx xmlns="http://www.topografix.com/GPX/1/1" xmlns:xsi="http://www.w3.org/2001/XMLSchema-instance" xsi:schemaLocation="http://www.topografix.com/GPX/1/1 http://www.topografix.com/GPX/1/1/gpx.xsd" version="1.1" creator="gpx.py -- https://github.com/tkrajina/gpxpy">
  <trk>
    <name>Ski tour near Cupola Mountain</name>
    <trkseg>
      <trkpt lat="51.5752426" lon="-117.5783283">
      </trkpt>
      <trkpt lat="51.5750459" lon="-117.5778079">
      </trkpt>
      <trkpt lat="51.5748559" lon="-117.5771964">
      </trkpt>
      <trkpt lat="51.5747425" lon="-117.5767511">
      </trkpt>
      <trkpt lat="51.5746258" lon="-117.5762951">
      </trkpt>
      <trkpt lat="51.5745525" lon="-117.5762039">
      </trkpt>
      <trkpt lat="51.5743958" lon="-117.5761342">
      </trkpt>
      <trkpt lat="51.5742991" lon="-117.5760055">
      </trkpt>
      <trkpt lat="51.5742091" lon="-117.575807">
      </trkpt>
      <trkpt lat="51.5741924" lon="-117.5755924">
      </trkpt>
      <trkpt lat="51.5741957" lon="-117.575351">
      </trkpt>
      <trkpt lat="51.5742057" lon="-117.5752491">
      </trkpt>
      <trkpt lat="51.5741391" lon="-117.5751203">
      </trkpt>
      <trkpt lat="51.5741357" lon="-117.5750238">
      </trkpt>
      <trkpt lat="51.574099" lon="-117.5748575">
      </trkpt>
      <trkpt lat="51.574059" lon="-117.5747824">
      </trkpt>
      <trkpt lat="51.574059" lon="-117.5745571">
      </trkpt>
      <trkpt lat="51.574039" lon="-117.5744176">
      </trkpt>
      <trkpt lat="51.573979" lon="-117.5743693">
      </trkpt>
      <trkpt lat="51.5739223" lon="-117.5744444">
      </trkpt>
      <trkpt lat="51.5738923" lon="-117.574482">
      </trkpt>
      <trkpt lat="51.5738523" lon="-117.5744337">
      </trkpt>
      <trkpt lat="51.5737957" lon="-117.5741386">
      </trkpt>
      <trkpt lat="51.5737723" lon="-117.5733823">
      </trkpt>
      <trkpt lat="51.5737356" lon="-117.573275">
      </trkpt>
      <trkpt lat="51.5736523" lon="-117.5732589">
      </trkpt>
      <trkpt lat="51.5734989" lon="-117.5732535">
      </trkpt>
      <trkpt lat="51.5734022" lon="-117.5732696">
      </trkpt>
      <trkpt lat="51.5733089" lon="-117.5733179">
      </trkpt>
      <trkpt lat="51.5732055" lon="-117.5733608">
      </trkpt>
      <trkpt lat="51.5730055" lon="-117.5734735">
      </trkpt>
      <trkpt lat="51.5729355" lon="-117.5735217">
      </trkpt>
      <trkpt lat="51.5726154" lon="-117.5737953">
      </trkpt>
      <trkpt lat="51.572452" lon="-117.5739777">
      </trkpt>
      <trkpt lat="51.5723153" lon="-117.5741762">
      </trkpt>
      <trkpt lat="51.5721953" lon="-117.574262">
      </trkpt>
      <trkpt lat="51.5721319" lon="-117.5742728">
      </trkpt>
      <trkpt lat="51.5721686" lon="-117.5743854">
      </trkpt>
      <trkpt lat="51.572272" lon="-117.5744981">
      </trkpt>
      <trkpt lat="51.572392" lon="-117.5745195">
      </trkpt>
      <trkpt lat="51.5725554" lon="-117.5746">
      </trkpt>
      <trkpt lat="51.572542" lon="-117.5747824">
      </trkpt>
      <trkpt lat="51.5724454" lon="-117.574895">
      </trkpt>
      <trkpt lat="51.572362" lon="-117.5749648">
      </trkpt>
      <trkpt lat="51.5722453" lon="-117.5749648">
      </trkpt>
      <trkpt lat="51.5721553" lon="-117.5749219">
      </trkpt>
      <trkpt lat="51.5720953" lon="-117.5749594">
      </trkpt>
      <trkpt lat="51.5720886" lon="-117.5750989">
      </trkpt>
      <trkpt lat="51.5721186" lon="-117.5753081">
      </trkpt>
      <trkpt lat="51.5721453" lon="-117.57541">
      </trkpt>
      <trkpt lat="51.5721319" lon="-117.5756031">
      </trkpt>
      <trkpt lat="51.5721253" lon="-117.5758177">
      </trkpt>
      <trkpt lat="51.5720286" lon="-117.5760859">
      </trkpt>
      <trkpt lat="51.5715885" lon="-117.5767779">
      </trkpt>
      <trkpt lat="51.5714718" lon="-117.5771213">
      </trkpt>
      <trkpt lat="51.5713551" lon="-117.5775451">
      </trkpt>
      <trkpt lat="51.5713417" lon="-117.5777113">
      </trkpt>
      <trkpt lat="51.5714284" lon="-117.5781405">
      </trkpt>
      <trkpt lat="51.5715485" lon="-117.5784999">
      </trkpt>
      <trkpt lat="51.5715918" lon="-117.5785965">
      </trkpt>
      <trkpt lat="51.5717085" lon="-117.5786179">
      </trkpt>
      <trkpt lat="51.5717585" lon="-117.5787091">
      </trkpt>
      <trkpt lat="51.5717719" lon="-117.5789022">
      </trkpt>
      <trkpt lat="51.5718519" lon="-117.5791276">
      </trkpt>
      <trkpt lat="51.5720086" lon="-117.5793743">
      </trkpt>
      <trkpt lat="51.5720286" lon="-117.5796586">
      </trkpt>
      <trkpt lat="51.5720219" lon="-117.5798625">
      </trkpt>
      <trkpt lat="51.5719119" lon="-117.5802702">
      </trkpt>
      <trkpt lat="51.5718385" lon="-117.5806886">
      </trkpt>
      <trkpt lat="51.5716652" lon="-117.5815067">
      </trkpt>
    </trkseg>
  </trk>
</gpx>