<?xml version="1.0" encoding="UTF-8"?>
<gpx xmlns="http://www.topografix.com/GPX/1/1" xmlns:xsi="http://www.w3.org/2001/XMLSchema-instance" xsi:schemaLocation="http://www.topografix.com/GPX/1/1 http://www.topografix.com/GPX/1/1/gpx.xsd" version="1.1" creator="gpx.py -- https://github.com/tkrajina/gpxpy">
  <trk>
    <name>Ski tour near Sentry Mountain</name>
    <trkseg>
      <trkpt lat="51.6459665" lon="-117.6063252">
      </trkpt>
      <trkpt lat="51.6456935" lon="-117.6073337">
      </trkpt>
      <trkpt lat="51.6455337" lon="-117.6082456">
      </trkpt>
      <trkpt lat="51.6455371" lon="-117.6085246">
      </trkpt>
      <trkpt lat="51.6455054" lon="-117.6087499">
      </trkpt>
      <trkpt lat="51.6455321" lon="-117.6089618">
      </trkpt>
      <trkpt lat="51.6455287" lon="-117.6090449">
      </trkpt>
      <trkpt lat="51.6454006" lon="-117.609002">
      </trkpt>
      <trkpt lat="51.6453473" lon="-117.609053">
      </trkpt>
      <trkpt lat="51.6454272" lon="-117.6097423">
      </trkpt>
      <trkpt lat="51.6453673" lon="-117.60993">
      </trkpt>
      <trkpt lat="51.6453873" lon="-117.61015">
      </trkpt>
      <trkpt lat="51.645329" lon="-117.6103753">
      </trkpt>
      <trkpt lat="51.6453773" lon="-117.6106864">
      </trkpt>
      <trkpt lat="51.6453257" lon="-117.6106945">
      </trkpt>
      <trkpt lat="51.6452075" lon="-117.6105416">
      </trkpt>
      <trkpt lat="51.6449978" lon="-117.6102331">
      </trkpt>
      <trkpt lat="51.6446433" lon="-117.6099247">
      </trkpt>
      <trkpt lat="51.6445301" lon="-117.6096913">
      </trkpt>
      <trkpt lat="51.6444818" lon="-117.6097047">
      </trkpt>
      <trkpt lat="51.644382" lon="-117.6099086">
      </trkpt>
      <trkpt lat="51.6443553" lon="-117.6101983">
      </trkpt>
      <trkpt lat="51.6444286" lon="-117.6105738">
      </trkpt>
      <trkpt lat="51.6445617" lon="-117.6110029">
      </trkpt>
      <trkpt lat="51.6446017" lon="-117.6112926">
      </trkpt>
      <trkpt lat="51.6446083" lon="-117.6117432">
      </trkpt>
      <trkpt lat="51.644382" lon="-117.6120865">
      </trkpt>
      <trkpt lat="51.6442089" lon="-117.6121295">
      </trkpt>
      <trkpt lat="51.6439825" lon="-117.6122367">
      </trkpt>
      <trkpt lat="51.643836" lon="-117.6122582">
      </trkpt>
      <trkpt lat="51.6437428" lon="-117.6122046">
      </trkpt>
      <trkpt lat="51.643603" lon="-117.6121509">
      </trkpt>
      <trkpt lat="51.6435364" lon="-117.6121938">
      </trkpt>
      <trkpt lat="51.6435031" lon="-117.612387">
      </trkpt>
      <trkpt lat="51.6434715" lon="-117.6124969">
      </trkpt>
      <trkpt lat="51.6434149" lon="-117.6124996">
      </trkpt>
      <trkpt lat="51.64337" lon="-117.6124621">
      </trkpt>
      <trkpt lat="51.6432668" lon="-117.6125103">
      </trkpt>
      <trkpt lat="51.6432035" lon="-117.6126552">
      </trkpt>
      <trkpt lat="51.6431702" lon="-117.6128697">
      </trkpt>
      <trkpt lat="51.6431935" lon="-117.6131916">
      </trkpt>
      <trkpt lat="51.6432002" lon="-117.6133901">
      </trkpt>
      <trkpt lat="51.6431403" lon="-117.6133847">
      </trkpt>
      <trkpt lat="51.6430904" lon="-117.6133043">
      </trkpt>
      <trkpt lat="51.6430204" lon="-117.6133472">
      </trkpt>
      <trkpt lat="51.6430304" lon="-117.6134598">
      </trkpt>
      <trkpt lat="51.6429639" lon="-117.6134062">
      </trkpt>
      <trkpt lat="51.6429272" lon="-117.6133418">
      </trkpt>
      <trkpt lat="51.6428773" lon="-117.6135027">
      </trkpt>
      <trkpt lat="51.6428307" lon="-117.6135135">
      </trkpt>
      <trkpt lat="51.6427441" lon="-117.6133418">
      </trkpt>
      <trkpt lat="51.6426476" lon="-117.6132238">
      </trkpt>
      <trkpt lat="51.6425411" lon="-117.6131111">
      </trkpt>
      <trkpt lat="51.6424645" lon="-117.6131541">
      </trkpt>
      <trkpt lat="51.6423879" lon="-117.6133364">
      </trkpt>
      <trkpt lat="51.6423147" lon="-117.6134223">
      </trkpt>
      <trkpt lat="51.6422282" lon="-117.6134437">
      </trkpt>
      <trkpt lat="51.642085" lon="-117.6133686">
      </trkpt>
      <trkpt lat="51.6419152" lon="-117.6132882">
      </trkpt>
      <trkpt lat="51.641852" lon="-117.6132238">
      </trkpt>
      <trkpt lat="51.641802" lon="-117.6130575">
      </trkpt>
      <trkpt lat="51.6417521" lon="-117.6128912">
      </trkpt>
      <trkpt lat="51.6416922" lon="-117.6129073">
      </trkpt>
      <trkpt lat="51.6416356" lon="-117.6129556">
      </trkpt>
      <trkpt lat="51.6415757" lon="-117.6128966">
      </trkpt>
      <trkpt lat="51.6415524" lon="-117.6127732">
      </trkpt>
      <trkpt lat="51.6415124" lon="-117.6126176">
      </trkpt>
      <trkpt lat="51.6414691" lon="-117.6125425">
      </trkpt>
      <trkpt lat="51.6413959" lon="-117.6125318">
      </trkpt>
      <trkpt lat="51.6412927" lon="-117.6126391">
      </trkpt>
      <trkpt lat="51.6412261" lon="-117.6126283">
      </trkpt>
      <trkpt lat="51.6411928" lon="-117.6125425">
      </trkpt>
      <trkpt lat="51.6411495" lon="-117.6122904">
      </trkpt>
      <trkpt lat="51.6410996" lon="-117.6120919">
      </trkpt>
      <trkpt lat="51.641073" lon="-117.6121509">
      </trkpt>
      <trkpt lat="51.6409997" lon="-117.6122689">
      </trkpt>
      <trkpt lat="51.6409365" lon="-117.6123011">
      </trkpt>
      <trkpt lat="51.6409265" lon="-117.6122207">
      </trkpt>
      <trkpt lat="51.6409298" lon="-117.6121509">
      </trkpt>
      <trkpt lat="51.6408599" lon="-117.6121295">
      </trkpt>
      <trkpt lat="51.6408166" lon="-117.6121563">
      </trkpt>
      <trkpt lat="51.64077" lon="-117.6119256">
      </trkpt>
      <trkpt lat="51.6407634" lon="-117.6117969">
      </trkpt>
      <trkpt lat="51.6407667" lon="-117.6116145">
      </trkpt>
      <trkpt lat="51.6406968" lon="-117.6115286">
      </trkpt>
      <trkpt lat="51.6405836" lon="-117.6115501">
      </trkpt>
      <trkpt lat="51.6404904" lon="-117.6115179">
      </trkpt>
      <trkpt lat="51.6404404" lon="-117.6113838">
      </trkpt>
      <trkpt lat="51.6403439" lon="-117.6112336">
      </trkpt>
      <trkpt lat="51.6402673" lon="-117.6112068">
      </trkpt>
      <trkpt lat="51.6401841" lon="-117.6112497">
      </trkpt>
      <trkpt lat="51.6401142" lon="-117.6113463">
      </trkpt>
      <trkpt lat="51.6401142" lon="-117.6114482">
      </trkpt>
      <trkpt lat="51.6401541" lon="-117.6115823">
      </trkpt>
      <trkpt lat="51.6401608" lon="-117.6116896">
      </trkpt>
      <trkpt lat="51.6401075" lon="-117.6117539">
      </trkpt>
      <trkpt lat="51.6400776" lon="-117.611829">
      </trkpt>
      <trkpt lat="51.6400776" lon="-117.6119202">
      </trkpt>
      <trkpt lat="51.6401009" lon="-117.6120061">
      </trkpt>
      <trkpt lat="51.6400909" lon="-117.6120919">
      </trkpt>
      <trkpt lat="51.6400509" lon="-117.6121402">
      </trkpt>
      <trkpt lat="51.639991" lon="-117.6121187">
      </trkpt>
      <trkpt lat="51.6399444" lon="-117.6120436">
      </trkpt>
      <trkpt lat="51.6398845" lon="-117.6120758">
      </trkpt>
      <trkpt lat="51.6398012" lon="-117.6121402">
      </trkpt>
      <trkpt lat="51.6397546" lon="-117.6120865">
      </trkpt>
      <trkpt lat="51.6397114" lon="-117.6119793">
      </trkpt>
      <trkpt lat="51.6396215" lon="-117.6118934">
      </trkpt>
      <trkpt lat="51.6394783" lon="-117.6118773">
      </trkpt>
      <trkpt lat="51.6394051" lon="-117.6118612">
      </trkpt>
      <trkpt lat="51.6393119" lon="-117.6119363">
      </trkpt>
      <trkpt lat="51.6392353" lon="-117.6118827">
      </trkpt>
      <trkpt lat="51.6390888" lon="-117.6118022">
      </trkpt>
      <trkpt lat="51.6390222" lon="-117.6117432">
      </trkpt>
      <trkpt lat="51.6389157" lon="-117.6117218">
      </trkpt>
      <trkpt lat="51.6387692" lon="-117.6117218">
      </trkpt>
      <trkpt lat="51.6385894" lon="-117.6116735">
      </trkpt>
      <trkpt lat="51.6384929" lon="-117.6116198">
      </trkpt>
      <trkpt lat="51.6384729" lon="-117.611534">
      </trkpt>
      <trkpt lat="51.638383" lon="-117.6114857">
      </trkpt>
      <trkpt lat="51.6383331" lon="-117.6114857">
      </trkpt>
      <trkpt lat="51.6382931" lon="-117.611416">
      </trkpt>
      <trkpt lat="51.6382665" lon="-117.6112497">
      </trkpt>
      <trkpt lat="51.6381999" lon="-117.6112068">
      </trkpt>
      <trkpt lat="51.6381266" lon="-117.6112068">
      </trkpt>
      <trkpt lat="51.6380601" lon="-117.6113087">
      </trkpt>
      <trkpt lat="51.6380534" lon="-117.6114374">
      </trkpt>
      <trkpt lat="51.6380334" lon="-117.6115447">
      </trkpt>
      <trkpt lat="51.6379236" lon="-117.6116037">
      </trkpt>
      <trkpt lat="51.6378104" lon="-117.6115769">
      </trkpt>
      <trkpt lat="51.6376605" lon="-117.6116091">
      </trkpt>
      <trkpt lat="51.6375107" lon="-117.6115769">
      </trkpt>
      <trkpt lat="51.6373775" lon="-117.6116198">
      </trkpt>
      <trkpt lat="51.6371811" lon="-117.6116681">
      </trkpt>
      <trkpt lat="51.6370912" lon="-117.6117754">
      </trkpt>
      <trkpt lat="51.6370379" lon="-117.6119202">
      </trkpt>
      <trkpt lat="51.6369247" lon="-117.6120436">
      </trkpt>
      <trkpt lat="51.6368582" lon="-117.6120758">
      </trkpt>
      <trkpt lat="51.6367416" lon="-117.6120597">
      </trkpt>
      <trkpt lat="51.6365951" lon="-117.6120704">
      </trkpt>
      <trkpt lat="51.6364353" lon="-117.6121348">
      </trkpt>
      <trkpt lat="51.6362455" lon="-117.6121295">
      </trkpt>
      <trkpt lat="51.6359792" lon="-117.6121402">
      </trkpt>
      <trkpt lat="51.6357927" lon="-117.6120651">
      </trkpt>
      <trkpt lat="51.6356196" lon="-117.611931">
      </trkpt>
      <trkpt lat="51.6354698" lon="-117.611829">
      </trkpt>
      <trkpt lat="51.6353632" lon="-117.6118076">
      </trkpt>
      <trkpt lat="51.63527" lon="-117.611872">
      </trkpt>
      <trkpt lat="51.6351502" lon="-117.6120383">
      </trkpt>
      <trkpt lat="51.6350336" lon="-117.6120597">
      </trkpt>
      <trkpt lat="51.6349171" lon="-117.6120436">
      </trkpt>
      <trkpt lat="51.6348172" lon="-117.6121134">
      </trkpt>
      <trkpt lat="51.6346374" lon="-117.6120704">
      </trkpt>
      <trkpt lat="51.6344177" lon="-117.6120383">
      </trkpt>
      <trkpt lat="51.6342478" lon="-117.6121509">
      </trkpt>
      <trkpt lat="51.634088" lon="-117.6122743">
      </trkpt>
      <trkpt lat="51.6340514" lon="-117.6123548">
      </trkpt>
      <trkpt lat="51.6340547" lon="-117.6124942">
      </trkpt>
      <trkpt lat="51.6340148" lon="-117.6126874">
      </trkpt>
      <trkpt lat="51.6339282" lon="-117.6128429">
      </trkpt>
      <trkpt lat="51.6338783" lon="-117.6129395">
      </trkpt>
      <trkpt lat="51.633795" lon="-117.6131916">
      </trkpt>
      <trkpt lat="51.6336652" lon="-117.6133686">
      </trkpt>
      <trkpt lat="51.6335619" lon="-117.6135618">
      </trkpt>
      <trkpt lat="51.6334321" lon="-117.6137441">
      </trkpt>
      <trkpt lat="51.6333089" lon="-117.6138085">
      </trkpt>
      <trkpt lat="51.6331857" lon="-117.6140016">
      </trkpt>
      <trkpt lat="51.6331757" lon="-117.6141787">
      </trkpt>
      <trkpt lat="51.6331191" lon="-117.6143664">
      </trkpt>
      <trkpt lat="51.6330925" lon="-117.6144952">
      </trkpt>
      <trkpt lat="51.6331158" lon="-117.614581">
      </trkpt>
      <trkpt lat="51.633239" lon="-117.6147258">
      </trkpt>
    </trkseg>
  </trk>
</gpx>