<?xml version="1.0" encoding="UTF-8"?>
<gpx xmlns="http://www.topografix.com/GPX/1/1" xmlns:xsi="http://www.w3.org/2001/XMLSchema-instance" xsi:schemaLocation="http://www.topografix.com/GPX/1/1 http://www.topografix.com/GPX/1/1/gpx.xsd" version="1.1" creator="gpx.py -- https://github.com/tkrajina/gpxpy">
  <trk>
    <name>Ski tour near Mount Athelstan</name>
    <trkseg>
      <trkpt lat="50.7320586" lon="-123.4662458">
      </trkpt>
      <trkpt lat="50.7317612" lon="-123.4664497">
      </trkpt>
      <trkpt lat="50.7310468" lon="-123.4673096">
      </trkpt>
      <trkpt lat="50.7302759" lon="-123.46774">
      </trkpt>
      <trkpt lat="50.7291611" lon="-123.4684572">
      </trkpt>
      <trkpt lat="50.7282655" lon="-123.4687919">
      </trkpt>
      <trkpt lat="50.7279288" lon="-123.4691637">
      </trkpt>
      <trkpt lat="50.7275574" lon="-123.4693531">
      </trkpt>
      <trkpt lat="50.727064" lon="-123.4693983">
      </trkpt>
      <trkpt lat="50.7263045" lon="-123.4701094">
      </trkpt>
      <trkpt lat="50.7259347" lon="-123.4707874">
      </trkpt>
      <trkpt lat="50.7258247" lon="-123.4709362">
      </trkpt>
      <trkpt lat="50.7253384" lon="-123.4715935">
      </trkpt>
      <trkpt lat="50.7249421" lon="-123.4718581">
      </trkpt>
      <trkpt lat="50.7240783" lon="-123.4719552">
      </trkpt>
      <trkpt lat="50.7236088" lon="-123.471629">
      </trkpt>
      <trkpt lat="50.7227761" lon="-123.4704188">
      </trkpt>
      <trkpt lat="50.7221963" lon="-123.4703584">
      </trkpt>
      <trkpt lat="50.7216368" lon="-123.4707135">
      </trkpt>
      <trkpt lat="50.7213667" lon="-123.4709575">
      </trkpt>
      <trkpt lat="50.72058" lon="-123.4707548">
      </trkpt>
      <trkpt lat="50.7198663" lon="-123.470796">
      </trkpt>
      <trkpt lat="50.7190865" lon="-123.4710482">
      </trkpt>
      <trkpt lat="50.7182454" lon="-123.4710818">
      </trkpt>
      <trkpt lat="50.7172369" lon="-123.4708953">
      </trkpt>
      <trkpt lat="50.7167687" lon="-123.4711617">
      </trkpt>
      <trkpt lat="50.7164819" lon="-123.4711019">
      </trkpt>
      <trkpt lat="50.7156397" lon="-123.4702464">
      </trkpt>
      <trkpt lat="50.714985" lon="-123.4698663">
      </trkpt>
      <trkpt lat="50.714548" lon="-123.4697886">
      </trkpt>
      <trkpt lat="50.7140724" lon="-123.4699173">
      </trkpt>
      <trkpt lat="50.7137328" lon="-123.4697671">
      </trkpt>
      <trkpt lat="50.7136621" lon="-123.4695132">
      </trkpt>
      <trkpt lat="50.7135833" lon="-123.4692307">
      </trkpt>
      <trkpt lat="50.7135833" lon="-123.4684797">
      </trkpt>
      <trkpt lat="50.7133659" lon="-123.4672995">
      </trkpt>
      <trkpt lat="50.7132571" lon="-123.4669791">
      </trkpt>
      <trkpt lat="50.7131349" lon="-123.4666343">
      </trkpt>
      <trkpt lat="50.7125779" lon="-123.4661193">
      </trkpt>
      <trkpt lat="50.7120208" lon="-123.4664197">
      </trkpt>
      <trkpt lat="50.7117762" lon="-123.4668918">
      </trkpt>
      <trkpt lat="50.7115996" lon="-123.4680076">
      </trkpt>
      <trkpt lat="50.7113278" lon="-123.468308">
      </trkpt>
      <trkpt lat="50.7110425" lon="-123.4682436">
      </trkpt>
      <trkpt lat="50.7109296" lon="-123.4679668">
      </trkpt>
      <trkpt lat="50.7107707" lon="-123.4675784">
      </trkpt>
      <trkpt lat="50.7105125" lon="-123.467042">
      </trkpt>
      <trkpt lat="50.710037" lon="-123.4664197">
      </trkpt>
      <trkpt lat="50.7098332" lon="-123.4665485">
      </trkpt>
      <trkpt lat="50.709575" lon="-123.4672995">
      </trkpt>
      <trkpt lat="50.7093168" lon="-123.4674068">
      </trkpt>
      <trkpt lat="50.7090179" lon="-123.4675355">
      </trkpt>
      <trkpt lat="50.7090722" lon="-123.4679432">
      </trkpt>
      <trkpt lat="50.7093712" lon="-123.4681578">
      </trkpt>
      <trkpt lat="50.7096022" lon="-123.4686728">
      </trkpt>
      <trkpt lat="50.7096022" lon="-123.4700031">
      </trkpt>
      <trkpt lat="50.7093576" lon="-123.4716983">
      </trkpt>
      <trkpt lat="50.7093576" lon="-123.4724279">
      </trkpt>
      <trkpt lat="50.7089907" lon="-123.4727068">
      </trkpt>
      <trkpt lat="50.7082705" lon="-123.4730287">
      </trkpt>
      <trkpt lat="50.7081074" lon="-123.4724922">
      </trkpt>
      <trkpt lat="50.7078221" lon="-123.4715696">
      </trkpt>
      <trkpt lat="50.706735" lon="-123.4702821">
      </trkpt>
      <trkpt lat="50.705675" lon="-123.4695525">
      </trkpt>
      <trkpt lat="50.7045879" lon="-123.4702821">
      </trkpt>
      <trkpt lat="50.7043569" lon="-123.4701534">
      </trkpt>
      <trkpt lat="50.7039356" lon="-123.4687371">
      </trkpt>
      <trkpt lat="50.7036704" lon="-123.4683331">
      </trkpt>
      <trkpt lat="50.7034463" lon="-123.468308">
      </trkpt>
      <trkpt lat="50.7028348" lon="-123.4684797">
      </trkpt>
      <trkpt lat="50.7003206" lon="-123.4702177">
      </trkpt>
      <trkpt lat="50.6993864" lon="-123.4703106">
      </trkpt>
      <trkpt lat="50.6990838" lon="-123.4703679">
      </trkpt>
      <trkpt lat="50.6984994" lon="-123.4702821">
      </trkpt>
      <trkpt lat="50.6983082" lon="-123.470299">
      </trkpt>
      <trkpt lat="50.697779" lon="-123.4708829">
      </trkpt>
      <trkpt lat="50.6973441" lon="-123.4711404">
      </trkpt>
      <trkpt lat="50.6969422" lon="-123.4711052">
      </trkpt>
      <trkpt lat="50.6968225" lon="-123.4710218">
      </trkpt>
      <trkpt lat="50.6965558" lon="-123.4707971">
      </trkpt>
      <trkpt lat="50.6961072" lon="-123.4697457">
      </trkpt>
      <trkpt lat="50.6959668" lon="-123.4696111">
      </trkpt>
      <trkpt lat="50.6956315" lon="-123.4692307">
      </trkpt>
      <trkpt lat="50.6949519" lon="-123.469338">
      </trkpt>
      <trkpt lat="50.6939461" lon="-123.469338">
      </trkpt>
      <trkpt lat="50.6932392" lon="-123.4690376">
      </trkpt>
      <trkpt lat="50.6927499" lon="-123.4694667">
      </trkpt>
      <trkpt lat="50.6919071" lon="-123.4698315">
      </trkpt>
      <trkpt lat="50.691377" lon="-123.4697027">
      </trkpt>
      <trkpt lat="50.6910235" lon="-123.4694238">
      </trkpt>
      <trkpt lat="50.6908414" lon="-123.4689861">
      </trkpt>
      <trkpt lat="50.6905492" lon="-123.4682859">
      </trkpt>
      <trkpt lat="50.6902487" lon="-123.4675784">
      </trkpt>
      <trkpt lat="50.6895011" lon="-123.4662481">
      </trkpt>
      <trkpt lat="50.688631" lon="-123.4657545">
      </trkpt>
      <trkpt lat="50.6878562" lon="-123.46554">
      </trkpt>
      <trkpt lat="50.6876371" lon="-123.4653797">
      </trkpt>
      <trkpt lat="50.6873171" lon="-123.4649284">
      </trkpt>
      <trkpt lat="50.6864423" lon="-123.4643383">
      </trkpt>
      <trkpt lat="50.6863371" lon="-123.4637128">
      </trkpt>
      <trkpt lat="50.6862656" lon="-123.4623428">
      </trkpt>
      <trkpt lat="50.6861693" lon="-123.4621391">
      </trkpt>
      <trkpt lat="50.6860617" lon="-123.4619351">
      </trkpt>
      <trkpt lat="50.685555" lon="-123.4614663">
      </trkpt>
      <trkpt lat="50.6852867" lon="-123.4612055">
      </trkpt>
      <trkpt lat="50.6837369" lon="-123.4603257">
      </trkpt>
      <trkpt lat="50.6830979" lon="-123.4604545">
      </trkpt>
      <trkpt lat="50.6828668" lon="-123.4603257">
      </trkpt>
      <trkpt lat="50.6824259" lon="-123.4600598">
      </trkpt>
      <trkpt lat="50.6822006" lon="-123.4599395">
      </trkpt>
      <trkpt lat="50.6817111" lon="-123.4602184">
      </trkpt>
      <trkpt lat="50.6813168" lon="-123.4601326">
      </trkpt>
      <trkpt lat="50.6808001" lon="-123.4596391">
      </trkpt>
      <trkpt lat="50.6806566" lon="-123.4594847">
      </trkpt>
      <trkpt lat="50.6805277" lon="-123.4593465">
      </trkpt>
      <trkpt lat="50.6804666" lon="-123.4592722">
      </trkpt>
      <trkpt lat="50.6801339" lon="-123.4588881">
      </trkpt>
      <trkpt lat="50.6793045" lon="-123.4576864">
      </trkpt>
      <trkpt lat="50.6786383" lon="-123.457429">
      </trkpt>
      <trkpt lat="50.6778632" lon="-123.457429">
      </trkpt>
      <trkpt lat="50.6772105" lon="-123.457429">
      </trkpt>
      <trkpt lat="50.6771488" lon="-123.4574484">
      </trkpt>
      <trkpt lat="50.6768706" lon="-123.4575362">
      </trkpt>
      <trkpt lat="50.676789" lon="-123.45818">
      </trkpt>
      <trkpt lat="50.6768298" lon="-123.4590168">
      </trkpt>
      <trkpt lat="50.6773193" lon="-123.4602399">
      </trkpt>
      <trkpt lat="50.6776457" lon="-123.4613986">
      </trkpt>
      <trkpt lat="50.6775981" lon="-123.4619542">
      </trkpt>
      <trkpt lat="50.6775777" lon="-123.4621926">
      </trkpt>
      <trkpt lat="50.6775773" lon="-123.4624029">
      </trkpt>
      <trkpt lat="50.6775097" lon="-123.4633513">
      </trkpt>
      <trkpt lat="50.6772785" lon="-123.4639521">
      </trkpt>
      <trkpt lat="50.6768842" lon="-123.463995">
      </trkpt>
      <trkpt lat="50.6764491" lon="-123.4639306">
      </trkpt>
      <trkpt lat="50.6757692" lon="-123.4635015">
      </trkpt>
      <trkpt lat="50.6752425" lon="-123.4631887">
      </trkpt>
    </trkseg>
  </trk>
</gpx>