<?xml version="1.0" encoding="UTF-8"?>
<gpx xmlns="http://www.topografix.com/GPX/1/1" xmlns:xsi="http://www.w3.org/2001/XMLSchema-instance" xsi:schemaLocation="http://www.topografix.com/GPX/1/1 http://www.topografix.com/GPX/1/1/gpx.xsd" version="1.1" creator="gpx.py -- https://github.com/tkrajina/gpxpy">
  <trk>
    <name>Roger Creek Canyon Trail</name>
    <trkseg>
      <trkpt lat="49.2569158" lon="-124.7894875">
      </trkpt>
      <trkpt lat="49.2571767" lon="-124.7895147">
      </trkpt>
    </trkseg>
    <trkseg>
      <trkpt lat="49.2571767" lon="-124.7895147">
      </trkpt>
      <trkpt lat="49.2571323" lon="-124.7890786">
      </trkpt>
      <trkpt lat="49.2570552" lon="-124.7885517">
      </trkpt>
      <trkpt lat="49.2569959" lon="-124.7880385">
      </trkpt>
      <trkpt lat="49.2569753" lon="-124.7876337">
      </trkpt>
      <trkpt lat="49.2569481" lon="-124.7875075">
      </trkpt>
      <trkpt lat="49.2569069" lon="-124.7872844">
      </trkpt>
      <trkpt lat="49.2569366" lon="-124.7870846">
      </trkpt>
      <trkpt lat="49.2570315" lon="-124.7867802">
      </trkpt>
      <trkpt lat="49.2572746" lon="-124.7863714">
      </trkpt>
      <trkpt lat="49.2575918" lon="-124.7859671">
      </trkpt>
      <trkpt lat="49.2580424" lon="-124.7853539">
      </trkpt>
      <trkpt lat="49.2582262" lon="-124.7852767">
      </trkpt>
      <trkpt lat="49.2585108" lon="-124.7851813">
      </trkpt>
      <trkpt lat="49.2586827" lon="-124.7850814">
      </trkpt>
      <trkpt lat="49.2587414" lon="-124.7849883">
      </trkpt>
      <trkpt lat="49.2587758" lon="-124.7847918">
      </trkpt>
      <trkpt lat="49.2588278" lon="-124.7841964">
      </trkpt>
      <trkpt lat="49.2588234" lon="-124.783925">
      </trkpt>
      <trkpt lat="49.2585493" lon="-124.7833281">
      </trkpt>
      <trkpt lat="49.2583014" lon="-124.7829323">
      </trkpt>
      <trkpt lat="49.2581547" lon="-124.7827948">
      </trkpt>
      <trkpt lat="49.2580811" lon="-124.7826308">
      </trkpt>
      <trkpt lat="49.2579416" lon="-124.7822879">
      </trkpt>
      <trkpt lat="49.2578363" lon="-124.7818729">
      </trkpt>
    </trkseg>
    <trkseg>
      <trkpt lat="49.255766" lon="-124.7823526">
      </trkpt>
      <trkpt lat="49.2563568" lon="-124.7816099">
      </trkpt>
      <trkpt lat="49.2568049" lon="-124.7812559">
      </trkpt>
      <trkpt lat="49.2572899" lon="-124.7809689">
      </trkpt>
      <trkpt lat="49.257668" lon="-124.7808831">
      </trkpt>
      <trkpt lat="49.2579603" lon="-124.7806551">
      </trkpt>
      <trkpt lat="49.2581424" lon="-124.7805907">
      </trkpt>
      <trkpt lat="49.2582454" lon="-124.780356">
      </trkpt>
    </trkseg>
    <trkseg>
      <trkpt lat="49.2582262" lon="-124.7852767">
      </trkpt>
      <trkpt lat="49.258298" lon="-124.7855525">
      </trkpt>
      <trkpt lat="49.2584225" lon="-124.7859977">
      </trkpt>
    </trkseg>
    <trkseg>
      <trkpt lat="49.2599071" lon="-124.7866117">
      </trkpt>
      <trkpt lat="49.2598196" lon="-124.7868536">
      </trkpt>
      <trkpt lat="49.2597842" lon="-124.7870165">
      </trkpt>
    </trkseg>
    <trkseg>
      <trkpt lat="49.2585108" lon="-124.7851813">
      </trkpt>
      <trkpt lat="49.2586604" lon="-124.7854115">
      </trkpt>
      <trkpt lat="49.258696" lon="-124.7855913">
      </trkpt>
      <trkpt lat="49.2588045" lon="-124.7856537">
      </trkpt>
      <trkpt lat="49.2588029" lon="-124.7858868">
      </trkpt>
      <trkpt lat="49.2588176" lon="-124.7860217">
      </trkpt>
      <trkpt lat="49.2589287" lon="-124.7860988">
      </trkpt>
      <trkpt lat="49.2592201" lon="-124.7862562">
      </trkpt>
      <trkpt lat="49.2594003" lon="-124.7863044">
      </trkpt>
      <trkpt lat="49.2595911" lon="-124.7862337">
      </trkpt>
      <trkpt lat="49.2598133" lon="-124.7862498">
      </trkpt>
      <trkpt lat="49.259894" lon="-124.7863874">
      </trkpt>
      <trkpt lat="49.2599071" lon="-124.7866117">
      </trkpt>
      <trkpt lat="49.2601107" lon="-124.7870947">
      </trkpt>
    </trkseg>
    <trkseg>
      <trkpt lat="49.2588045" lon="-124.7856537">
      </trkpt>
      <trkpt lat="49.2589416" lon="-124.7856463">
      </trkpt>
      <trkpt lat="49.2594276" lon="-124.7851942">
      </trkpt>
      <trkpt lat="49.2596977" lon="-124.7852056">
      </trkpt>
      <trkpt lat="49.2597743" lon="-124.7850154">
      </trkpt>
      <trkpt lat="49.2597711" lon="-124.7847435">
      </trkpt>
      <trkpt lat="49.259951" lon="-124.7844318">
      </trkpt>
      <trkpt lat="49.2602297" lon="-124.7840941">
      </trkpt>
      <trkpt lat="49.2602892" lon="-124.7838285">
      </trkpt>
      <trkpt lat="49.2601342" lon="-124.783406">
      </trkpt>
      <trkpt lat="49.2601369" lon="-124.7826558">
      </trkpt>
      <trkpt lat="49.2600923" lon="-124.782543">
      </trkpt>
      <trkpt lat="49.2600706" lon="-124.7821886">
      </trkpt>
      <trkpt lat="49.2602335" lon="-124.7816449">
      </trkpt>
      <trkpt lat="49.2602662" lon="-124.7814507">
      </trkpt>
      <trkpt lat="49.2602416" lon="-124.7812429">
      </trkpt>
    </trkseg>
    <trkseg>
      <trkpt lat="49.2610966" lon="-124.7809275">
      </trkpt>
      <trkpt lat="49.2610832" lon="-124.780843">
      </trkpt>
      <trkpt lat="49.2610749" lon="-124.7807914">
      </trkpt>
      <trkpt lat="49.2616011" lon="-124.78025">
      </trkpt>
      <trkpt lat="49.2618314" lon="-124.7804211">
      </trkpt>
      <trkpt lat="49.2620561" lon="-124.7802457">
      </trkpt>
      <trkpt lat="49.261847" lon="-124.7801449">
      </trkpt>
      <trkpt lat="49.261802" lon="-124.7800389">
      </trkpt>
      <trkpt lat="49.262005" lon="-124.7799376">
      </trkpt>
      <trkpt lat="49.2620619" lon="-124.779768">
      </trkpt>
      <trkpt lat="49.2619956" lon="-124.7797612">
      </trkpt>
      <trkpt lat="49.2620119" lon="-124.7796507">
      </trkpt>
      <trkpt lat="49.2618284" lon="-124.779747">
      </trkpt>
      <trkpt lat="49.2619039" lon="-124.7795379">
      </trkpt>
      <trkpt lat="49.2610476" lon="-124.7798369">
      </trkpt>
      <trkpt lat="49.2618856" lon="-124.779071">
      </trkpt>
      <trkpt lat="49.26165" lon="-124.7785333">
      </trkpt>
      <trkpt lat="49.2617247" lon="-124.7780085">
      </trkpt>
      <trkpt lat="49.2615604" lon="-124.7775343">
      </trkpt>
    </trkseg>
    <trkseg>
      <trkpt lat="49.2597472" lon="-124.777654">
      </trkpt>
      <trkpt lat="49.2596665" lon="-124.7772231">
      </trkpt>
      <trkpt lat="49.2596639" lon="-124.7769432">
      </trkpt>
      <trkpt lat="49.2596182" lon="-124.7767086">
      </trkpt>
      <trkpt lat="49.2595511" lon="-124.7765276">
      </trkpt>
      <trkpt lat="49.2595511" lon="-124.7762889">
      </trkpt>
      <trkpt lat="49.2595806" lon="-124.7760296">
      </trkpt>
      <trkpt lat="49.2596079" lon="-124.7756386">
      </trkpt>
      <trkpt lat="49.2596069" lon="-124.7755062">
      </trkpt>
    </trkseg>
    <trkseg>
      <trkpt lat="49.2596069" lon="-124.7755062">
      </trkpt>
      <trkpt lat="49.2596339" lon="-124.7753467">
      </trkpt>
      <trkpt lat="49.2596097" lon="-124.7750875">
      </trkpt>
      <trkpt lat="49.2597835" lon="-124.7749053">
      </trkpt>
      <trkpt lat="49.2601478" lon="-124.7750833">
      </trkpt>
      <trkpt lat="49.2603653" lon="-124.7749722">
      </trkpt>
      <trkpt lat="49.2602166" lon="-124.7754336">
      </trkpt>
      <trkpt lat="49.2601301" lon="-124.7754948">
      </trkpt>
      <trkpt lat="49.2599192" lon="-124.7754877">
      </trkpt>
      <trkpt lat="49.2597668" lon="-124.775623">
      </trkpt>
      <trkpt lat="49.2597575" lon="-124.7757184">
      </trkpt>
      <trkpt lat="49.2596079" lon="-124.7756386">
      </trkpt>
    </trkseg>
    <trkseg>
      <trkpt lat="49.2588692" lon="-124.7815551">
      </trkpt>
      <trkpt lat="49.2586572" lon="-124.781256">
      </trkpt>
      <trkpt lat="49.2584373" lon="-124.7809524">
      </trkpt>
      <trkpt lat="49.2583569" lon="-124.7806511">
      </trkpt>
      <trkpt lat="49.2583228" lon="-124.7804928">
      </trkpt>
      <trkpt lat="49.2582454" lon="-124.780356">
      </trkpt>
    </trkseg>
    <trkseg>
      <trkpt lat="49.2582454" lon="-124.780356">
      </trkpt>
      <trkpt lat="49.2583209" lon="-124.7802326">
      </trkpt>
      <trkpt lat="49.2584975" lon="-124.7800083">
      </trkpt>
      <trkpt lat="49.2587745" lon="-124.7797099">
      </trkpt>
      <trkpt lat="49.2591297" lon="-124.779297">
      </trkpt>
      <trkpt lat="49.259306" lon="-124.7790663">
      </trkpt>
      <trkpt lat="49.2594493" lon="-124.7788975">
      </trkpt>
      <trkpt lat="49.2596281" lon="-124.7785339">
      </trkpt>
      <trkpt lat="49.2597191" lon="-124.7780555">
      </trkpt>
      <trkpt lat="49.2597472" lon="-124.777654">
      </trkpt>
      <trkpt lat="49.2615604" lon="-124.7775343">
      </trkpt>
    </trkseg>
    <trkseg>
      <trkpt lat="49.2584975" lon="-124.7800083">
      </trkpt>
      <trkpt lat="49.2583753" lon="-124.7798821">
      </trkpt>
      <trkpt lat="49.2582411" lon="-124.7799271">
      </trkpt>
      <trkpt lat="49.2581089" lon="-124.7798711">
      </trkpt>
      <trkpt lat="49.2579867" lon="-124.7796748">
      </trkpt>
      <trkpt lat="49.2579116" lon="-124.7795773">
      </trkpt>
      <trkpt lat="49.2577045" lon="-124.7794839">
      </trkpt>
      <trkpt lat="49.2575852" lon="-124.7793851">
      </trkpt>
      <trkpt lat="49.2575032" lon="-124.7792205">
      </trkpt>
      <trkpt lat="49.2573649" lon="-124.7789635">
      </trkpt>
      <trkpt lat="49.2573664" lon="-124.7788477">
      </trkpt>
      <trkpt lat="49.2573367" lon="-124.7787092">
      </trkpt>
      <trkpt lat="49.2572369" lon="-124.7785815">
      </trkpt>
    </trkseg>
    <trkseg>
      <trkpt lat="49.2506338" lon="-124.7841699">
      </trkpt>
      <trkpt lat="49.2509681" lon="-124.7840786">
      </trkpt>
      <trkpt lat="49.251213" lon="-124.7840181">
      </trkpt>
      <trkpt lat="49.251325" lon="-124.7839811">
      </trkpt>
      <trkpt lat="49.2515534" lon="-124.7838785">
      </trkpt>
      <trkpt lat="49.2518948" lon="-124.7837549">
      </trkpt>
      <trkpt lat="49.2521884" lon="-124.7836473">
      </trkpt>
      <trkpt lat="49.2524612" lon="-124.7835733">
      </trkpt>
      <trkpt lat="49.2526577" lon="-124.7834993">
      </trkpt>
      <trkpt lat="49.2528314" lon="-124.7834253">
      </trkpt>
      <trkpt lat="49.2529514" lon="-124.7833496">
      </trkpt>
      <trkpt lat="49.253345" lon="-124.783263">
      </trkpt>
      <trkpt lat="49.2535426" lon="-124.783247">
      </trkpt>
      <trkpt lat="49.2539147" lon="-124.7831772">
      </trkpt>
      <trkpt lat="49.2541167" lon="-124.7831226">
      </trkpt>
      <trkpt lat="49.2542462" lon="-124.7830301">
      </trkpt>
      <trkpt lat="49.2545004" lon="-124.782808">
      </trkpt>
      <trkpt lat="49.2546678" lon="-124.7827038">
      </trkpt>
      <trkpt lat="49.2548214" lon="-124.7826592">
      </trkpt>
      <trkpt lat="49.2551178" lon="-124.7826516">
      </trkpt>
      <trkpt lat="49.25521" lon="-124.7826298">
      </trkpt>
      <trkpt lat="49.2555174" lon="-124.782475">
      </trkpt>
      <trkpt lat="49.255766" lon="-124.7823526">
      </trkpt>
      <trkpt lat="49.2559384" lon="-124.7822959">
      </trkpt>
      <trkpt lat="49.2560778" lon="-124.7823136">
      </trkpt>
      <trkpt lat="49.2564598" lon="-124.7824195">
      </trkpt>
      <trkpt lat="49.2566327" lon="-124.7824389">
      </trkpt>
      <trkpt lat="49.2568122" lon="-124.7824086">
      </trkpt>
      <trkpt lat="49.2574159" lon="-124.7821959">
      </trkpt>
      <trkpt lat="49.2575652" lon="-124.7820949">
      </trkpt>
      <trkpt lat="49.2578363" lon="-124.7818729">
      </trkpt>
      <trkpt lat="49.2579581" lon="-124.7817956">
      </trkpt>
      <trkpt lat="49.25817" lon="-124.7817249">
      </trkpt>
      <trkpt lat="49.2588692" lon="-124.7815551">
      </trkpt>
      <trkpt lat="49.2594924" lon="-124.7813616">
      </trkpt>
      <trkpt lat="49.2602416" lon="-124.7812429">
      </trkpt>
      <trkpt lat="49.260598" lon="-124.7810648">
      </trkpt>
      <trkpt lat="49.2610966" lon="-124.7809275">
      </trkpt>
      <trkpt lat="49.2612011" lon="-124.7808674">
      </trkpt>
    </trkseg>
  </trk>
</gpx>