<?xml version="1.0" encoding="UTF-8"?>
<gpx xmlns="http://www.topografix.com/GPX/1/1" xmlns:xsi="http://www.w3.org/2001/XMLSchema-instance" xsi:schemaLocation="http://www.topografix.com/GPX/1/1 http://www.topografix.com/GPX/1/1/gpx.xsd" version="1.1" creator="gpx.py -- https://github.com/tkrajina/gpxpy">
  <trk>
    <name>Dry Creek Ship Creek Trail</name>
    <trkseg>
      <trkpt lat="49.2314481" lon="-124.7825393">
      </trkpt>
      <trkpt lat="49.2317503" lon="-124.7822082">
      </trkpt>
      <trkpt lat="49.2319679" lon="-124.7819212">
      </trkpt>
      <trkpt lat="49.2320062" lon="-124.7818629">
      </trkpt>
      <trkpt lat="49.2320435" lon="-124.7818157">
      </trkpt>
      <trkpt lat="49.2320695" lon="-124.7817609">
      </trkpt>
    </trkseg>
    <trkseg>
      <trkpt lat="49.2289971" lon="-124.7872722">
      </trkpt>
      <trkpt lat="49.2292353" lon="-124.7867351">
      </trkpt>
      <trkpt lat="49.2294636" lon="-124.7859465">
      </trkpt>
      <trkpt lat="49.2295246" lon="-124.7857356">
      </trkpt>
      <trkpt lat="49.2295675" lon="-124.7855875">
      </trkpt>
      <trkpt lat="49.2297914" lon="-124.7852526">
      </trkpt>
      <trkpt lat="49.2301498" lon="-124.784269">
      </trkpt>
      <trkpt lat="49.2305657" lon="-124.7835953">
      </trkpt>
      <trkpt lat="49.2312286" lon="-124.7828157">
      </trkpt>
      <trkpt lat="49.2314481" lon="-124.7825393">
      </trkpt>
    </trkseg>
    <trkseg>
      <trkpt lat="49.2289971" lon="-124.7872722">
      </trkpt>
      <trkpt lat="49.2289126" lon="-124.7870555">
      </trkpt>
      <trkpt lat="49.2288387" lon="-124.7867609">
      </trkpt>
      <trkpt lat="49.2287586" lon="-124.786653">
      </trkpt>
      <trkpt lat="49.2286091" lon="-124.7865335">
      </trkpt>
      <trkpt lat="49.2284357" lon="-124.7862185">
      </trkpt>
      <trkpt lat="49.2283376" lon="-124.78611">
      </trkpt>
      <trkpt lat="49.2282003" lon="-124.7859582">
      </trkpt>
      <trkpt lat="49.2281064" lon="-124.785925">
      </trkpt>
      <trkpt lat="49.2279905" lon="-124.786011">
      </trkpt>
      <trkpt lat="49.2278121" lon="-124.7861658">
      </trkpt>
      <trkpt lat="49.2276193" lon="-124.7862616">
      </trkpt>
      <trkpt lat="49.2274678" lon="-124.7862628">
      </trkpt>
      <trkpt lat="49.2273167" lon="-124.7861899">
      </trkpt>
      <trkpt lat="49.2268486" lon="-124.7860236">
      </trkpt>
      <trkpt lat="49.2267052" lon="-124.7859172">
      </trkpt>
      <trkpt lat="49.2265179" lon="-124.785758">
      </trkpt>
      <trkpt lat="49.2263932" lon="-124.7857291">
      </trkpt>
      <trkpt lat="49.2258002" lon="-124.7857278">
      </trkpt>
      <trkpt lat="49.2257738" lon="-124.7857229">
      </trkpt>
      <trkpt lat="49.2253421" lon="-124.7855906">
      </trkpt>
      <trkpt lat="49.2251141" lon="-124.7856112">
      </trkpt>
      <trkpt lat="49.2248736" lon="-124.7856805">
      </trkpt>
      <trkpt lat="49.2246973" lon="-124.7857049">
      </trkpt>
      <trkpt lat="49.2244657" lon="-124.7856687">
      </trkpt>
      <trkpt lat="49.2242634" lon="-124.7857035">
      </trkpt>
      <trkpt lat="49.2241218" lon="-124.7857791">
      </trkpt>
      <trkpt lat="49.2240141" lon="-124.7859468">
      </trkpt>
      <trkpt lat="49.2238678" lon="-124.7862384">
      </trkpt>
      <trkpt lat="49.223791" lon="-124.7863897">
      </trkpt>
      <trkpt lat="49.2236688" lon="-124.7865222">
      </trkpt>
      <trkpt lat="49.2235604" lon="-124.7867136">
      </trkpt>
      <trkpt lat="49.2234376" lon="-124.7868288">
      </trkpt>
      <trkpt lat="49.2233052" lon="-124.7871356">
      </trkpt>
      <trkpt lat="49.2232064" lon="-124.78726">
      </trkpt>
      <trkpt lat="49.2230522" lon="-124.787286">
      </trkpt>
      <trkpt lat="49.2228898" lon="-124.7873">
      </trkpt>
      <trkpt lat="49.2227982" lon="-124.7874002">
      </trkpt>
      <trkpt lat="49.2227328" lon="-124.7876606">
      </trkpt>
      <trkpt lat="49.2226265" lon="-124.7878723">
      </trkpt>
      <trkpt lat="49.2224457" lon="-124.7880959">
      </trkpt>
      <trkpt lat="49.2222028" lon="-124.7880666">
      </trkpt>
      <trkpt lat="49.221905" lon="-124.7879122">
      </trkpt>
      <trkpt lat="49.221392" lon="-124.7879309">
      </trkpt>
      <trkpt lat="49.2209809" lon="-124.7880493">
      </trkpt>
      <trkpt lat="49.2207314" lon="-124.7881212">
      </trkpt>
      <trkpt lat="49.2199596" lon="-124.7879409">
      </trkpt>
      <trkpt lat="49.2195672" lon="-124.7876706">
      </trkpt>
      <trkpt lat="49.2191004" lon="-124.7878078">
      </trkpt>
      <trkpt lat="49.2189297" lon="-124.7878217">
      </trkpt>
      <trkpt lat="49.2181282" lon="-124.7876105">
      </trkpt>
      <trkpt lat="49.217618" lon="-124.7876205">
      </trkpt>
      <trkpt lat="49.217461" lon="-124.7878708">
      </trkpt>
      <trkpt lat="49.2172386" lon="-124.7879209">
      </trkpt>
      <trkpt lat="49.2171039" lon="-124.7878748">
      </trkpt>
      <trkpt lat="49.2169126" lon="-124.7878673">
      </trkpt>
      <trkpt lat="49.2168684" lon="-124.7878895">
      </trkpt>
      <trkpt lat="49.216807" lon="-124.7879205">
      </trkpt>
      <trkpt lat="49.2166309" lon="-124.7880222">
      </trkpt>
      <trkpt lat="49.2164209" lon="-124.7880811">
      </trkpt>
      <trkpt lat="49.2161913" lon="-124.788097">
      </trkpt>
      <trkpt lat="49.2161394" lon="-124.7882053">
      </trkpt>
      <trkpt lat="49.2161224" lon="-124.7883265">
      </trkpt>
      <trkpt lat="49.2162836" lon="-124.7886119">
      </trkpt>
      <trkpt lat="49.2164281" lon="-124.789108">
      </trkpt>
      <trkpt lat="49.2168919" lon="-124.7906648">
      </trkpt>
    </trkseg>
    <trkseg>
      <trkpt lat="49.2168919" lon="-124.7906648">
      </trkpt>
      <trkpt lat="49.2170936" lon="-124.7910216">
      </trkpt>
      <trkpt lat="49.2172688" lon="-124.7912476">
      </trkpt>
      <trkpt lat="49.2172774" lon="-124.7914233">
      </trkpt>
      <trkpt lat="49.2172989" lon="-124.7917909">
      </trkpt>
      <trkpt lat="49.2173924" lon="-124.7919572">
      </trkpt>
      <trkpt lat="49.2173769" lon="-124.7922197">
      </trkpt>
      <trkpt lat="49.2175162" lon="-124.7929685">
      </trkpt>
    </trkseg>
    <trkseg>
      <trkpt lat="49.2175162" lon="-124.7929685">
      </trkpt>
      <trkpt lat="49.2169176" lon="-124.792617">
      </trkpt>
      <trkpt lat="49.2166388" lon="-124.7927166">
      </trkpt>
      <trkpt lat="49.2166192" lon="-124.7927603">
      </trkpt>
      <trkpt lat="49.2165305" lon="-124.7928562">
      </trkpt>
    </trkseg>
    <trkseg>
      <trkpt lat="49.2159292" lon="-124.7928979">
      </trkpt>
      <trkpt lat="49.2160842" lon="-124.7928093">
      </trkpt>
      <trkpt lat="49.2162209" lon="-124.7927772">
      </trkpt>
      <trkpt lat="49.2163418" lon="-124.7927731">
      </trkpt>
      <trkpt lat="49.2164557" lon="-124.792808">
      </trkpt>
      <trkpt lat="49.2165305" lon="-124.7928562">
      </trkpt>
    </trkseg>
    <trkseg>
      <trkpt lat="49.2156375" lon="-124.7931259">
      </trkpt>
      <trkpt lat="49.2159292" lon="-124.7928979">
      </trkpt>
    </trkseg>
    <trkseg>
      <trkpt lat="49.2156375" lon="-124.7931259">
      </trkpt>
      <trkpt lat="49.215408" lon="-124.7933909">
      </trkpt>
      <trkpt lat="49.2153299" lon="-124.793439">
      </trkpt>
      <trkpt lat="49.2152772" lon="-124.7933625">
      </trkpt>
    </trkseg>
    <trkseg>
      <trkpt lat="49.2152772" lon="-124.7933625">
      </trkpt>
      <trkpt lat="49.2152376" lon="-124.7933164">
      </trkpt>
      <trkpt lat="49.2151823" lon="-124.7933604">
      </trkpt>
      <trkpt lat="49.2149607" lon="-124.793057">
      </trkpt>
      <trkpt lat="49.2148775" lon="-124.7931244">
      </trkpt>
    </trkseg>
    <trkseg>
      <trkpt lat="49.2382613" lon="-124.7827484">
      </trkpt>
      <trkpt lat="49.2381831" lon="-124.7828458">
      </trkpt>
      <trkpt lat="49.2382118" lon="-124.7829179">
      </trkpt>
      <trkpt lat="49.238234" lon="-124.7831851">
      </trkpt>
      <trkpt lat="49.2383103" lon="-124.7832676">
      </trkpt>
      <trkpt lat="49.2384591" lon="-124.7832561">
      </trkpt>
    </trkseg>
    <trkseg>
      <trkpt lat="49.2380417" lon="-124.7822324">
      </trkpt>
      <trkpt lat="49.2381741" lon="-124.7824561">
      </trkpt>
      <trkpt lat="49.2382613" lon="-124.7827484">
      </trkpt>
    </trkseg>
    <trkseg>
      <trkpt lat="49.2375739" lon="-124.7817798">
      </trkpt>
      <trkpt lat="49.2377101" lon="-124.7818234">
      </trkpt>
      <trkpt lat="49.2379287" lon="-124.7819999">
      </trkpt>
      <trkpt lat="49.2380417" lon="-124.7822324">
      </trkpt>
    </trkseg>
    <trkseg>
      <trkpt lat="49.2369797" lon="-124.7829112">
      </trkpt>
      <trkpt lat="49.2370276" lon="-124.7826945">
      </trkpt>
      <trkpt lat="49.2372446" lon="-124.7820916">
      </trkpt>
      <trkpt lat="49.2375739" lon="-124.7817798">
      </trkpt>
      <trkpt lat="49.2377206" lon="-124.781679">
      </trkpt>
      <trkpt lat="49.2377855" lon="-124.781543">
      </trkpt>
    </trkseg>
    <trkseg>
      <trkpt lat="49.2411411" lon="-124.7832712">
      </trkpt>
      <trkpt lat="49.2409378" lon="-124.7832333">
      </trkpt>
      <trkpt lat="49.2390794" lon="-124.7832103">
      </trkpt>
      <trkpt lat="49.2389968" lon="-124.7832044">
      </trkpt>
      <trkpt lat="49.2388829" lon="-124.7831961">
      </trkpt>
    </trkseg>
    <trkseg>
      <trkpt lat="49.2168919" lon="-124.7906648">
      </trkpt>
      <trkpt lat="49.2170284" lon="-124.7906273">
      </trkpt>
      <trkpt lat="49.2171555" lon="-124.7904539">
      </trkpt>
      <trkpt lat="49.2172691" lon="-124.7904367">
      </trkpt>
      <trkpt lat="49.2173512" lon="-124.7906431">
      </trkpt>
      <trkpt lat="49.2174217" lon="-124.790835">
      </trkpt>
      <trkpt lat="49.2177488" lon="-124.7912055">
      </trkpt>
      <trkpt lat="49.2177854" lon="-124.7912443">
      </trkpt>
      <trkpt lat="49.2177828" lon="-124.7913811">
      </trkpt>
      <trkpt lat="49.2177846" lon="-124.7916372">
      </trkpt>
      <trkpt lat="49.2177679" lon="-124.7920888">
      </trkpt>
      <trkpt lat="49.2178049" lon="-124.792243">
      </trkpt>
      <trkpt lat="49.2178636" lon="-124.7924758">
      </trkpt>
      <trkpt lat="49.2178927" lon="-124.7928679">
      </trkpt>
      <trkpt lat="49.2179294" lon="-124.7930492">
      </trkpt>
      <trkpt lat="49.2181356" lon="-124.79323">
      </trkpt>
      <trkpt lat="49.2182778" lon="-124.7933846">
      </trkpt>
      <trkpt lat="49.2183755" lon="-124.7934062">
      </trkpt>
    </trkseg>
    <trkseg>
      <trkpt lat="49.2175162" lon="-124.7929685">
      </trkpt>
      <trkpt lat="49.2176062" lon="-124.7929436">
      </trkpt>
      <trkpt lat="49.2177504" lon="-124.7929391">
      </trkpt>
      <trkpt lat="49.2179294" lon="-124.7930492">
      </trkpt>
    </trkseg>
    <trkseg>
      <trkpt lat="49.2215383" lon="-124.7889921">
      </trkpt>
      <trkpt lat="49.2213877" lon="-124.7891124">
      </trkpt>
      <trkpt lat="49.2209986" lon="-124.7890242">
      </trkpt>
      <trkpt lat="49.2207441" lon="-124.7887521">
      </trkpt>
      <trkpt lat="49.2204301" lon="-124.7886672">
      </trkpt>
      <trkpt lat="49.2202253" lon="-124.7885682">
      </trkpt>
      <trkpt lat="49.219817" lon="-124.788127">
      </trkpt>
      <trkpt lat="49.2193036" lon="-124.7880371">
      </trkpt>
      <trkpt lat="49.2191004" lon="-124.7878078">
      </trkpt>
    </trkseg>
    <trkseg>
      <trkpt lat="49.2213564" lon="-124.7908953">
      </trkpt>
      <trkpt lat="49.2215725" lon="-124.7897278">
      </trkpt>
      <trkpt lat="49.2215842" lon="-124.7894589">
      </trkpt>
      <trkpt lat="49.2216739" lon="-124.7891866">
      </trkpt>
      <trkpt lat="49.2215651" lon="-124.7890853">
      </trkpt>
      <trkpt lat="49.2215383" lon="-124.7889921">
      </trkpt>
      <trkpt lat="49.2214806" lon="-124.7888805">
      </trkpt>
      <trkpt lat="49.2214659" lon="-124.7883729">
      </trkpt>
      <trkpt lat="49.2214481" lon="-124.7882662">
      </trkpt>
      <trkpt lat="49.221392" lon="-124.7879309">
      </trkpt>
    </trkseg>
    <trkseg>
      <trkpt lat="49.2185321" lon="-124.778779">
      </trkpt>
      <trkpt lat="49.218459" lon="-124.7790112">
      </trkpt>
      <trkpt lat="49.2184741" lon="-124.7793935">
      </trkpt>
      <trkpt lat="49.2189584" lon="-124.7799496">
      </trkpt>
      <trkpt lat="49.2192989" lon="-124.7804478">
      </trkpt>
      <trkpt lat="49.2194295" lon="-124.78043">
      </trkpt>
    </trkseg>
    <trkseg>
      <trkpt lat="49.2194295" lon="-124.78043">
      </trkpt>
      <trkpt lat="49.2196064" lon="-124.780398">
      </trkpt>
      <trkpt lat="49.2197258" lon="-124.7803831">
      </trkpt>
      <trkpt lat="49.2198534" lon="-124.780439">
      </trkpt>
      <trkpt lat="49.2201011" lon="-124.7811198">
      </trkpt>
      <trkpt lat="49.2203584" lon="-124.781421">
      </trkpt>
      <trkpt lat="49.2204688" lon="-124.7815855">
      </trkpt>
      <trkpt lat="49.2203281" lon="-124.7819076">
      </trkpt>
      <trkpt lat="49.220086" lon="-124.7823595">
      </trkpt>
      <trkpt lat="49.2200778" lon="-124.7825253">
      </trkpt>
      <trkpt lat="49.2202566" lon="-124.783784">
      </trkpt>
      <trkpt lat="49.2201467" lon="-124.7844321">
      </trkpt>
    </trkseg>
    <trkseg>
      <trkpt lat="49.2201467" lon="-124.7844321">
      </trkpt>
      <trkpt lat="49.2201044" lon="-124.7846427">
      </trkpt>
      <trkpt lat="49.2201914" lon="-124.7853065">
      </trkpt>
      <trkpt lat="49.2201138" lon="-124.7854745">
      </trkpt>
      <trkpt lat="49.220134" lon="-124.7860245">
      </trkpt>
      <trkpt lat="49.2199988" lon="-124.786392">
      </trkpt>
      <trkpt lat="49.2200574" lon="-124.7865392">
      </trkpt>
      <trkpt lat="49.2201673" lon="-124.7865722">
      </trkpt>
      <trkpt lat="49.2205641" lon="-124.786497">
      </trkpt>
      <trkpt lat="49.2206114" lon="-124.7865845">
      </trkpt>
      <trkpt lat="49.2206141" lon="-124.7869573">
      </trkpt>
      <trkpt lat="49.2206913" lon="-124.7874109">
      </trkpt>
      <trkpt lat="49.2209809" lon="-124.7880493">
      </trkpt>
    </trkseg>
    <trkseg>
      <trkpt lat="49.2320695" lon="-124.7817609">
      </trkpt>
      <trkpt lat="49.2322922" lon="-124.7817433">
      </trkpt>
      <trkpt lat="49.2325802" lon="-124.7819773">
      </trkpt>
      <trkpt lat="49.232833" lon="-124.7819053">
      </trkpt>
      <trkpt lat="49.2337677" lon="-124.7822744">
      </trkpt>
      <trkpt lat="49.2339392" lon="-124.7822707">
      </trkpt>
      <trkpt lat="49.2343117" lon="-124.7825645">
      </trkpt>
      <trkpt lat="49.2347583" lon="-124.7827886">
      </trkpt>
    </trkseg>
    <trkseg>
      <trkpt lat="49.2347583" lon="-124.7827886">
      </trkpt>
      <trkpt lat="49.2354907" lon="-124.7827434">
      </trkpt>
    </trkseg>
    <trkseg>
      <trkpt lat="49.2363912" lon="-124.7881072">
      </trkpt>
      <trkpt lat="49.2366171" lon="-124.7876682">
      </trkpt>
      <trkpt lat="49.2367861" lon="-124.787324">
      </trkpt>
      <trkpt lat="49.2369247" lon="-124.7869462">
      </trkpt>
      <trkpt lat="49.2369722" lon="-124.7866238">
      </trkpt>
      <trkpt lat="49.2369383" lon="-124.7864678">
      </trkpt>
      <trkpt lat="49.2369673" lon="-124.7860339">
      </trkpt>
      <trkpt lat="49.2370142" lon="-124.7855289">
      </trkpt>
      <trkpt lat="49.2370469" lon="-124.7851262">
      </trkpt>
      <trkpt lat="49.2371216" lon="-124.784731">
      </trkpt>
      <trkpt lat="49.2372371" lon="-124.7840861">
      </trkpt>
      <trkpt lat="49.2372642" lon="-124.7838365">
      </trkpt>
      <trkpt lat="49.2373865" lon="-124.7829421">
      </trkpt>
      <trkpt lat="49.2371352" lon="-124.7829213">
      </trkpt>
      <trkpt lat="49.2369797" lon="-124.7829112">
      </trkpt>
      <trkpt lat="49.2360536" lon="-124.7828015">
      </trkpt>
      <trkpt lat="49.2355767" lon="-124.7827752">
      </trkpt>
      <trkpt lat="49.2354907" lon="-124.7827434">
      </trkpt>
    </trkseg>
    <trkseg>
      <trkpt lat="49.2362942" lon="-124.7881635">
      </trkpt>
      <trkpt lat="49.2363912" lon="-124.7881072">
      </trkpt>
    </trkseg>
    <trkseg>
      <trkpt lat="49.2403389" lon="-124.7842077">
      </trkpt>
      <trkpt lat="49.240102" lon="-124.7842939">
      </trkpt>
      <trkpt lat="49.2399257" lon="-124.7843816">
      </trkpt>
      <trkpt lat="49.2397467" lon="-124.7844152">
      </trkpt>
      <trkpt lat="49.239389" lon="-124.7845155">
      </trkpt>
      <trkpt lat="49.2391298" lon="-124.7845163">
      </trkpt>
      <trkpt lat="49.2388747" lon="-124.7844487">
      </trkpt>
      <trkpt lat="49.2388376" lon="-124.7844319">
      </trkpt>
      <trkpt lat="49.2387495" lon="-124.7843915">
      </trkpt>
      <trkpt lat="49.2386748" lon="-124.7842563">
      </trkpt>
      <trkpt lat="49.2386341" lon="-124.7839858">
      </trkpt>
      <trkpt lat="49.2386884" lon="-124.783757">
      </trkpt>
      <trkpt lat="49.2389028" lon="-124.7836119">
      </trkpt>
      <trkpt lat="49.2390125" lon="-124.7834401">
      </trkpt>
      <trkpt lat="49.2390794" lon="-124.7832103">
      </trkpt>
      <trkpt lat="49.2391262" lon="-124.7829978">
      </trkpt>
      <trkpt lat="49.239126" lon="-124.7826691">
      </trkpt>
      <trkpt lat="49.2392502" lon="-124.7824114">
      </trkpt>
      <trkpt lat="49.2393432" lon="-124.7821687">
      </trkpt>
      <trkpt lat="49.2393845" lon="-124.7820078">
      </trkpt>
      <trkpt lat="49.2394283" lon="-124.7818587">
      </trkpt>
      <trkpt lat="49.2394774" lon="-124.7816433">
      </trkpt>
      <trkpt lat="49.2394614" lon="-124.7815269">
      </trkpt>
      <trkpt lat="49.2394183" lon="-124.7814037">
      </trkpt>
    </trkseg>
    <trkseg>
      <trkpt lat="49.2380699" lon="-124.7880564">
      </trkpt>
      <trkpt lat="49.2381182" lon="-124.7880712">
      </trkpt>
      <trkpt lat="49.2381487" lon="-124.7880425">
      </trkpt>
      <trkpt lat="49.2382086" lon="-124.7880013">
      </trkpt>
      <trkpt lat="49.2382818" lon="-124.7880079">
      </trkpt>
      <trkpt lat="49.2384333" lon="-124.7881068">
      </trkpt>
      <trkpt lat="49.2387134" lon="-124.7881768">
      </trkpt>
      <trkpt lat="49.2388622" lon="-124.7880896">
      </trkpt>
      <trkpt lat="49.2389956" lon="-124.7879511">
      </trkpt>
      <trkpt lat="49.2390439" lon="-124.7877902">
      </trkpt>
      <trkpt lat="49.2390542" lon="-124.7876201">
      </trkpt>
      <trkpt lat="49.2390938" lon="-124.7873761">
      </trkpt>
      <trkpt lat="49.239167" lon="-124.7873273">
      </trkpt>
      <trkpt lat="49.2392196" lon="-124.7873681">
      </trkpt>
      <trkpt lat="49.2393132" lon="-124.7872596">
      </trkpt>
      <trkpt lat="49.2393619" lon="-124.7871813">
      </trkpt>
      <trkpt lat="49.2393978" lon="-124.7870886">
      </trkpt>
      <trkpt lat="49.2394228" lon="-124.7869612">
      </trkpt>
      <trkpt lat="49.2393984" lon="-124.7868063">
      </trkpt>
      <trkpt lat="49.2393194" lon="-124.7865534">
      </trkpt>
      <trkpt lat="49.2392159" lon="-124.7863876">
      </trkpt>
      <trkpt lat="49.2391751" lon="-124.7862626">
      </trkpt>
      <trkpt lat="49.2391432" lon="-124.7861554">
      </trkpt>
      <trkpt lat="49.2391221" lon="-124.7859132">
      </trkpt>
      <trkpt lat="49.2391221" lon="-124.7858774">
      </trkpt>
      <trkpt lat="49.2391116" lon="-124.7858187">
      </trkpt>
      <trkpt lat="49.2391354" lon="-124.7855455">
      </trkpt>
      <trkpt lat="49.2392451" lon="-124.7853361">
      </trkpt>
      <trkpt lat="49.2393826" lon="-124.7852545">
      </trkpt>
      <trkpt lat="49.2395248" lon="-124.7851961">
      </trkpt>
      <trkpt lat="49.239842" lon="-124.7850989">
      </trkpt>
      <trkpt lat="49.2399257" lon="-124.7850698">
      </trkpt>
      <trkpt lat="49.2399872" lon="-124.7850014">
      </trkpt>
      <trkpt lat="49.2401357" lon="-124.7847435">
      </trkpt>
      <trkpt lat="49.2402046" lon="-124.7846147">
      </trkpt>
      <trkpt lat="49.2402934" lon="-124.7844859">
      </trkpt>
      <trkpt lat="49.2403215" lon="-124.7843387">
      </trkpt>
      <trkpt lat="49.2403389" lon="-124.7842077">
      </trkpt>
    </trkseg>
    <trkseg>
      <trkpt lat="49.2378719" lon="-124.7878297">
      </trkpt>
      <trkpt lat="49.2380699" lon="-124.7880564">
      </trkpt>
    </trkseg>
    <trkseg>
      <trkpt lat="49.2363912" lon="-124.7881072">
      </trkpt>
      <trkpt lat="49.2366218" lon="-124.7881124">
      </trkpt>
      <trkpt lat="49.2366613" lon="-124.7880538">
      </trkpt>
      <trkpt lat="49.2366871" lon="-124.7879668">
      </trkpt>
      <trkpt lat="49.2367526" lon="-124.7878454">
      </trkpt>
      <trkpt lat="49.2369162" lon="-124.7876212">
      </trkpt>
      <trkpt lat="49.2369954" lon="-124.7874498">
      </trkpt>
      <trkpt lat="49.2370953" lon="-124.7873495">
      </trkpt>
      <trkpt lat="49.2371201" lon="-124.7872889">
      </trkpt>
      <trkpt lat="49.2371539" lon="-124.7871807">
      </trkpt>
      <trkpt lat="49.2371694" lon="-124.7870752">
      </trkpt>
      <trkpt lat="49.2372038" lon="-124.7869776">
      </trkpt>
      <trkpt lat="49.2372675" lon="-124.7868272">
      </trkpt>
      <trkpt lat="49.2373489" lon="-124.7867144">
      </trkpt>
      <trkpt lat="49.2374363" lon="-124.786669">
      </trkpt>
      <trkpt lat="49.2375233" lon="-124.7866714">
      </trkpt>
      <trkpt lat="49.2375948" lon="-124.7867191">
      </trkpt>
      <trkpt lat="49.2376323" lon="-124.7868093">
      </trkpt>
      <trkpt lat="49.2376671" lon="-124.7870699">
      </trkpt>
      <trkpt lat="49.2377067" lon="-124.787186">
      </trkpt>
      <trkpt lat="49.2377012" lon="-124.7873038">
      </trkpt>
      <trkpt lat="49.2376843" lon="-124.7874287">
      </trkpt>
      <trkpt lat="49.237693" lon="-124.7875395">
      </trkpt>
      <trkpt lat="49.2377601" lon="-124.787645">
      </trkpt>
      <trkpt lat="49.237787" lon="-124.7876592">
      </trkpt>
      <trkpt lat="49.2378469" lon="-124.7877441">
      </trkpt>
      <trkpt lat="49.2378719" lon="-124.7878297">
      </trkpt>
    </trkseg>
    <trkseg>
      <trkpt lat="49.2392196" lon="-124.7873681">
      </trkpt>
      <trkpt lat="49.2393435" lon="-124.7875788">
      </trkpt>
      <trkpt lat="49.2394778" lon="-124.787726">
      </trkpt>
      <trkpt lat="49.2395101" lon="-124.7877622">
      </trkpt>
      <trkpt lat="49.2395494" lon="-124.787799">
      </trkpt>
      <trkpt lat="49.2395774" lon="-124.7878214">
      </trkpt>
      <trkpt lat="49.2396111" lon="-124.7878414">
      </trkpt>
      <trkpt lat="49.2396386" lon="-124.7878741">
      </trkpt>
      <trkpt lat="49.239665" lon="-124.7879118">
      </trkpt>
      <trkpt lat="49.239719" lon="-124.7880593">
      </trkpt>
    </trkseg>
    <trkseg>
      <trkpt lat="49.2393194" lon="-124.7865534">
      </trkpt>
      <trkpt lat="49.2394288" lon="-124.786451">
      </trkpt>
      <trkpt lat="49.2396631" lon="-124.786451">
      </trkpt>
      <trkpt lat="49.2398491" lon="-124.7864299">
      </trkpt>
      <trkpt lat="49.2399455" lon="-124.7863771">
      </trkpt>
      <trkpt lat="49.2399626" lon="-124.7863097">
      </trkpt>
      <trkpt lat="49.2399675" lon="-124.7861847">
      </trkpt>
    </trkseg>
    <trkseg>
      <trkpt lat="49.2399675" lon="-124.7861847">
      </trkpt>
      <trkpt lat="49.2399663" lon="-124.7860803">
      </trkpt>
    </trkseg>
    <trkseg>
      <trkpt lat="49.2399663" lon="-124.7860803">
      </trkpt>
      <trkpt lat="49.2398766" lon="-124.7855752">
      </trkpt>
      <trkpt lat="49.2399042" lon="-124.7853537">
      </trkpt>
      <trkpt lat="49.239842" lon="-124.7850989">
      </trkpt>
    </trkseg>
  </trk>
</gpx>