<?xml version="1.0" encoding="UTF-8"?>
<gpx xmlns="http://www.topografix.com/GPX/1/1" xmlns:xsi="http://www.w3.org/2001/XMLSchema-instance" xsi:schemaLocation="http://www.topografix.com/GPX/1/1 http://www.topografix.com/GPX/1/1/gpx.xsd" version="1.1" creator="gpx.py -- https://github.com/tkrajina/gpxpy">
  <trk>
    <name>Rosseau Chute</name>
    <trkseg>
      <trkpt lat="49.2502304" lon="-124.6032837">
      </trkpt>
      <trkpt lat="49.2500263" lon="-124.6032751">
      </trkpt>
      <trkpt lat="49.2498197" lon="-124.6030819">
      </trkpt>
      <trkpt lat="49.2497566" lon="-124.6027601">
      </trkpt>
      <trkpt lat="49.2496306" lon="-124.6019501">
      </trkpt>
      <trkpt lat="49.2496236" lon="-124.6016496">
      </trkpt>
      <trkpt lat="49.249585" lon="-124.6015424">
      </trkpt>
      <trkpt lat="49.2493819" lon="-124.6013922">
      </trkpt>
      <trkpt lat="49.2491999" lon="-124.6012473">
      </trkpt>
      <trkpt lat="49.2490668" lon="-124.6009952">
      </trkpt>
      <trkpt lat="49.2489442" lon="-124.600507">
      </trkpt>
      <trkpt lat="49.2488322" lon="-124.6002388">
      </trkpt>
      <trkpt lat="49.2485485" lon="-124.5999545">
      </trkpt>
      <trkpt lat="49.2482999" lon="-124.5995897">
      </trkpt>
      <trkpt lat="49.2483034" lon="-124.5992464">
      </trkpt>
      <trkpt lat="49.2482299" lon="-124.5990157">
      </trkpt>
      <trkpt lat="49.2479707" lon="-124.598769">
      </trkpt>
      <trkpt lat="49.2478692" lon="-124.5984846">
      </trkpt>
      <trkpt lat="49.2477501" lon="-124.5980555">
      </trkpt>
      <trkpt lat="49.2475365" lon="-124.5975298">
      </trkpt>
      <trkpt lat="49.2473999" lon="-124.5972723">
      </trkpt>
      <trkpt lat="49.2473054" lon="-124.5968539">
      </trkpt>
      <trkpt lat="49.2471198" lon="-124.5966232">
      </trkpt>
      <trkpt lat="49.2467626" lon="-124.5963711">
      </trkpt>
      <trkpt lat="49.2466015" lon="-124.5961082">
      </trkpt>
      <trkpt lat="49.2465139" lon="-124.5958668">
      </trkpt>
      <trkpt lat="49.2463809" lon="-124.5958078">
      </trkpt>
      <trkpt lat="49.2462268" lon="-124.59584">
      </trkpt>
      <trkpt lat="49.2461252" lon="-124.5957434">
      </trkpt>
      <trkpt lat="49.2460552" lon="-124.5955449">
      </trkpt>
      <trkpt lat="49.2459817" lon="-124.5953679">
      </trkpt>
      <trkpt lat="49.2458171" lon="-124.5953035">
      </trkpt>
      <trkpt lat="49.2455474" lon="-124.5953411">
      </trkpt>
      <trkpt lat="49.2453163" lon="-124.5952445">
      </trkpt>
      <trkpt lat="49.244917" lon="-124.5949388">
      </trkpt>
      <trkpt lat="49.2445914" lon="-124.5946062">
      </trkpt>
      <trkpt lat="49.2444128" lon="-124.5943755">
      </trkpt>
      <trkpt lat="49.2443392" lon="-124.5942146">
      </trkpt>
      <trkpt lat="49.2441921" lon="-124.5940912">
      </trkpt>
      <trkpt lat="49.2435933" lon="-124.593823">
      </trkpt>
      <trkpt lat="49.2432886" lon="-124.5937103">
      </trkpt>
      <trkpt lat="49.243103" lon="-124.5935118">
      </trkpt>
      <trkpt lat="49.2428823" lon="-124.5931685">
      </trkpt>
      <trkpt lat="49.2427002" lon="-124.5927286">
      </trkpt>
      <trkpt lat="49.2427072" lon="-124.5923585">
      </trkpt>
      <trkpt lat="49.2427913" lon="-124.5918381">
      </trkpt>
      <trkpt lat="49.2429349" lon="-124.5911515">
      </trkpt>
      <trkpt lat="49.2429173" lon="-124.590658">
      </trkpt>
      <trkpt lat="49.2427072" lon="-124.5901322">
      </trkpt>
      <trkpt lat="49.2425286" lon="-124.5898908">
      </trkpt>
      <trkpt lat="49.2424516" lon="-124.5893759">
      </trkpt>
      <trkpt lat="49.242441" lon="-124.5888233">
      </trkpt>
      <trkpt lat="49.242378" lon="-124.5886087">
      </trkpt>
      <trkpt lat="49.242343" lon="-124.5881742">
      </trkpt>
      <trkpt lat="49.2422659" lon="-124.5878524">
      </trkpt>
      <trkpt lat="49.2422293" lon="-124.5872856">
      </trkpt>
    </trkseg>
  </trk>
</gpx>