<?xml version="1.0" encoding="UTF-8"?>
<gpx xmlns="http://www.topografix.com/GPX/1/1" xmlns:xsi="http://www.w3.org/2001/XMLSchema-instance" xsi:schemaLocation="http://www.topografix.com/GPX/1/1 http://www.topografix.com/GPX/1/1/gpx.xsd" version="1.1" creator="gpx.py -- https://github.com/tkrajina/gpxpy">
  <trk>
    <name>Renshaw Snowmobile Access</name>
    <trkseg>
      <trkpt lat="53.40512035" lon="-120.30451935">
      </trkpt>
      <trkpt lat="53.40528177" lon="-120.30450794">
      </trkpt>
      <trkpt lat="53.40550308" lon="-120.3044465">
      </trkpt>
      <trkpt lat="53.40567019" lon="-120.30442384">
      </trkpt>
      <trkpt lat="53.40585217" lon="-120.30445154">
      </trkpt>
      <trkpt lat="53.40606709" lon="-120.30451669">
      </trkpt>
      <trkpt lat="53.40632364" lon="-120.30467051">
      </trkpt>
      <trkpt lat="53.40654655" lon="-120.30490225">
      </trkpt>
      <trkpt lat="53.40672562" lon="-120.30512945">
      </trkpt>
      <trkpt lat="53.40687007" lon="-120.30541375">
      </trkpt>
      <trkpt lat="53.40698656" lon="-120.30576471">
      </trkpt>
      <trkpt lat="53.40709686" lon="-120.30611651">
      </trkpt>
      <trkpt lat="53.40724769" lon="-120.30627419">
      </trkpt>
      <trkpt lat="53.40745443" lon="-120.30629855">
      </trkpt>
      <trkpt lat="53.40767425" lon="-120.30620587">
      </trkpt>
      <trkpt lat="53.4078708" lon="-120.30614779">
      </trkpt>
      <trkpt lat="53.40813865" lon="-120.30606227">
      </trkpt>
      <trkpt lat="53.40833257" lon="-120.30604534">
      </trkpt>
      <trkpt lat="53.40851198" lon="-120.30600846">
      </trkpt>
      <trkpt lat="53.40876523" lon="-120.30596364">
      </trkpt>
      <trkpt lat="53.40898385" lon="-120.3059759">
      </trkpt>
      <trkpt lat="53.40926116" lon="-120.3060431">
      </trkpt>
      <trkpt lat="53.40949914" lon="-120.30619946">
      </trkpt>
      <trkpt lat="53.40978344" lon="-120.30641242">
      </trkpt>
      <trkpt lat="53.40959357" lon="-120.30648007">
      </trkpt>
      <trkpt lat="53.40941508" lon="-120.30652524">
      </trkpt>
      <trkpt lat="53.40918907" lon="-120.30661876">
      </trkpt>
      <trkpt lat="53.40898682" lon="-120.30668809">
      </trkpt>
      <trkpt lat="53.40876601" lon="-120.30675994">
      </trkpt>
      <trkpt lat="53.40855907" lon="-120.30686135">
      </trkpt>
      <trkpt lat="53.40843529" lon="-120.30687814">
      </trkpt>
      <trkpt lat="53.40831708" lon="-120.30694127">
      </trkpt>
      <trkpt lat="53.40822756" lon="-120.307047">
      </trkpt>
      <trkpt lat="53.40816359" lon="-120.3071633">
      </trkpt>
      <trkpt lat="53.40812658" lon="-120.30726191">
      </trkpt>
      <trkpt lat="53.40804294" lon="-120.30743236">
      </trkpt>
    </trkseg>
    <trkseg>
      <trkpt lat="53.40978344" lon="-120.30641242">
      </trkpt>
      <trkpt lat="53.41001713" lon="-120.30634928">
      </trkpt>
      <trkpt lat="53.41039167" lon="-120.30623562">
      </trkpt>
      <trkpt lat="53.41065112" lon="-120.30618996">
      </trkpt>
      <trkpt lat="53.41082341" lon="-120.30614565">
      </trkpt>
      <trkpt lat="53.41101897" lon="-120.30606672">
      </trkpt>
      <trkpt lat="53.41117271" lon="-120.30602492">
      </trkpt>
      <trkpt lat="53.41134001" lon="-120.30587647">
      </trkpt>
      <trkpt lat="53.41158948" lon="-120.30562256">
      </trkpt>
      <trkpt lat="53.41177606" lon="-120.30535622">
      </trkpt>
      <trkpt lat="53.41196433" lon="-120.30499533">
      </trkpt>
      <trkpt lat="53.41211817" lon="-120.30456575">
      </trkpt>
      <trkpt lat="53.41225962" lon="-120.30413783">
      </trkpt>
      <trkpt lat="53.41243821" lon="-120.30370489">
      </trkpt>
      <trkpt lat="53.41262519" lon="-120.30318695">
      </trkpt>
      <trkpt lat="53.4127842" lon="-120.30273569">
      </trkpt>
      <trkpt lat="53.41301969" lon="-120.3021902">
      </trkpt>
      <trkpt lat="53.41316113" lon="-120.30176229">
      </trkpt>
      <trkpt lat="53.41330976" lon="-120.30135434">
      </trkpt>
      <trkpt lat="53.41343234" lon="-120.30079272">
      </trkpt>
      <trkpt lat="53.41347645" lon="-120.30028367">
      </trkpt>
      <trkpt lat="53.41348911" lon="-120.29976841">
      </trkpt>
      <trkpt lat="53.41349458" lon="-120.29923318">
      </trkpt>
      <trkpt lat="53.41349556" lon="-120.29860422">
      </trkpt>
      <trkpt lat="53.41348965" lon="-120.29809148">
      </trkpt>
      <trkpt lat="53.41349642" lon="-120.29771327">
      </trkpt>
      <trkpt lat="53.41347275" lon="-120.29734967">
      </trkpt>
      <trkpt lat="53.41340544" lon="-120.29685574">
      </trkpt>
      <trkpt lat="53.41338076" lon="-120.29647133">
      </trkpt>
      <trkpt lat="53.41335946" lon="-120.2958978">
      </trkpt>
      <trkpt lat="53.41335653" lon="-120.29544754">
      </trkpt>
      <trkpt lat="53.41340312" lon="-120.29499055">
      </trkpt>
      <trkpt lat="53.41343633" lon="-120.29451441">
      </trkpt>
      <trkpt lat="53.41346285" lon="-120.29402872">
      </trkpt>
      <trkpt lat="53.4134703" lon="-120.29353513">
      </trkpt>
      <trkpt lat="53.41353276" lon="-120.29314934">
      </trkpt>
      <trkpt lat="53.41364772" lon="-120.2928193">
      </trkpt>
      <trkpt lat="53.41383615" lon="-120.29233254">
      </trkpt>
      <trkpt lat="53.41397268" lon="-120.29206244">
      </trkpt>
      <trkpt lat="53.41412428" lon="-120.29171693">
      </trkpt>
      <trkpt lat="53.4142565" lon="-120.29122732">
      </trkpt>
      <trkpt lat="53.41433751" lon="-120.290839">
      </trkpt>
      <trkpt lat="53.41443829" lon="-120.29034319">
      </trkpt>
      <trkpt lat="53.41448904" lon="-120.28984369">
      </trkpt>
      <trkpt lat="53.41458981" lon="-120.28934786">
      </trkpt>
      <trkpt lat="53.41465812" lon="-120.28882501">
      </trkpt>
      <trkpt lat="53.41470887" lon="-120.28832551">
      </trkpt>
      <trkpt lat="53.41483188" lon="-120.28777425">
      </trkpt>
      <trkpt lat="53.41499471" lon="-120.2871442">
      </trkpt>
      <trkpt lat="53.4150809" lon="-120.2867342">
      </trkpt>
      <trkpt lat="53.41515472" lon="-120.28632589">
      </trkpt>
      <trkpt lat="53.41518071" lon="-120.28582973">
      </trkpt>
      <trkpt lat="53.41519349" lon="-120.28518865">
      </trkpt>
      <trkpt lat="53.41521527" lon="-120.284735">
      </trkpt>
      <trkpt lat="53.41522169" lon="-120.28422057">
      </trkpt>
      <trkpt lat="53.41520233" lon="-120.28368867">
      </trkpt>
      <trkpt lat="53.41517997" lon="-120.28309429">
      </trkpt>
      <trkpt lat="53.4151735" lon="-120.28257113">
      </trkpt>
      <trkpt lat="53.41514376" lon="-120.28208256">
      </trkpt>
      <trkpt lat="53.41512708" lon="-120.28147694">
      </trkpt>
      <trkpt lat="53.41511308" lon="-120.28079759">
      </trkpt>
      <trkpt lat="53.41510927" lon="-120.28020068">
      </trkpt>
      <trkpt lat="53.41513154" lon="-120.27975744">
      </trkpt>
      <trkpt lat="53.41523177" lon="-120.27925118">
      </trkpt>
      <trkpt lat="53.4153835" lon="-120.27877982">
      </trkpt>
      <trkpt lat="53.41551968" lon="-120.27837346">
      </trkpt>
      <trkpt lat="53.4156306" lon="-120.27796005">
      </trkpt>
      <trkpt lat="53.41578734" lon="-120.27759282">
      </trkpt>
      <trkpt lat="53.4159394" lon="-120.27725765">
      </trkpt>
      <trkpt lat="53.41603792" lon="-120.27723374">
      </trkpt>
      <trkpt lat="53.41615233" lon="-120.27728103">
      </trkpt>
      <trkpt lat="53.41631257" lon="-120.27737448">
      </trkpt>
      <trkpt lat="53.41648151" lon="-120.27751915">
      </trkpt>
      <trkpt lat="53.41661749" lon="-120.27762639">
      </trkpt>
      <trkpt lat="53.41676502" lon="-120.27758533">
      </trkpt>
      <trkpt lat="53.41688413" lon="-120.27721272">
      </trkpt>
      <trkpt lat="53.41698835" lon="-120.27678974">
      </trkpt>
      <trkpt lat="53.41709057" lon="-120.27632509">
      </trkpt>
      <trkpt lat="53.41716936" lon="-120.27602087">
      </trkpt>
      <trkpt lat="53.41727358" lon="-120.27559787">
      </trkpt>
      <trkpt lat="53.41739301" lon="-120.27536147">
      </trkpt>
      <trkpt lat="53.41747782" lon="-120.2751822">
      </trkpt>
      <trkpt lat="53.41760244" lon="-120.27492413">
      </trkpt>
      <trkpt lat="53.4178465" lon="-120.27442965">
      </trkpt>
      <trkpt lat="53.41802179" lon="-120.27405985">
      </trkpt>
      <trkpt lat="53.41816247" lon="-120.27374716">
      </trkpt>
      <trkpt lat="53.41827337" lon="-120.27333373">
      </trkpt>
      <trkpt lat="53.41833158" lon="-120.27299036">
      </trkpt>
      <trkpt lat="53.41837189" lon="-120.27253414">
      </trkpt>
      <trkpt lat="53.41841906" lon="-120.27196168">
      </trkpt>
      <trkpt lat="53.41844615" lon="-120.2713605">
      </trkpt>
      <trkpt lat="53.41848445" lon="-120.27086263">
      </trkpt>
      <trkpt lat="53.41859484" lon="-120.27043876">
      </trkpt>
      <trkpt lat="53.41875474" lon="-120.27000814">
      </trkpt>
      <trkpt lat="53.41892434" lon="-120.26964956">
      </trkpt>
      <trkpt lat="53.41913124" lon="-120.2691601">
      </trkpt>
      <trkpt lat="53.41933328" lon="-120.26882854">
      </trkpt>
      <trkpt lat="53.4194987" lon="-120.26851246">
      </trkpt>
      <trkpt lat="53.41964338" lon="-120.26828305">
      </trkpt>
      <trkpt lat="53.4197464" lon="-120.267965">
      </trkpt>
      <trkpt lat="53.41980828" lon="-120.26756871">
      </trkpt>
      <trkpt lat="53.41986295" lon="-120.26715242">
      </trkpt>
      <trkpt lat="53.41999407" lon="-120.26664184">
      </trkpt>
      <trkpt lat="53.42010176" lon="-120.26629171">
      </trkpt>
      <trkpt lat="53.42028791" lon="-120.2658889">
      </trkpt>
      <trkpt lat="53.42046102" lon="-120.2656032">
      </trkpt>
      <trkpt lat="53.42074184" lon="-120.26535519">
      </trkpt>
      <trkpt lat="53.42101297" lon="-120.26503511">
      </trkpt>
      <trkpt lat="53.42127003" lon="-120.2648113">
      </trkpt>
      <trkpt lat="53.42149985" lon="-120.2645388">
      </trkpt>
      <trkpt lat="53.42171577" lon="-120.26423674">
      </trkpt>
      <trkpt lat="53.42190693" lon="-120.26393807">
      </trkpt>
      <trkpt lat="53.42209743" lon="-120.26375479">
      </trkpt>
      <trkpt lat="53.4222876" lon="-120.26343528">
      </trkpt>
      <trkpt lat="53.42249748" lon="-120.26300824">
      </trkpt>
      <trkpt lat="53.42261705" lon="-120.26264596">
      </trkpt>
      <trkpt lat="53.42277424" lon="-120.26228901">
      </trkpt>
      <trkpt lat="53.42290936" lon="-120.26186169">
      </trkpt>
      <trkpt lat="53.42298591" lon="-120.26125369">
      </trkpt>
      <trkpt lat="53.42307317" lon="-120.26073857">
      </trkpt>
      <trkpt lat="53.42319807" lon="-120.26022876">
      </trkpt>
      <trkpt lat="53.42331477" lon="-120.25967817">
      </trkpt>
      <trkpt lat="53.42350054" lon="-120.25913908">
      </trkpt>
      <trkpt lat="53.42364218" lon="-120.25884713">
      </trkpt>
      <trkpt lat="53.4238596" lon="-120.25857628">
      </trkpt>
      <trkpt lat="53.42406146" lon="-120.25837045">
      </trkpt>
      <trkpt lat="53.42418957" lon="-120.25818518">
      </trkpt>
      <trkpt lat="53.42430328" lon="-120.25795996">
      </trkpt>
      <trkpt lat="53.42440728" lon="-120.25766267">
      </trkpt>
      <trkpt lat="53.4245531" lon="-120.25732821">
      </trkpt>
      <trkpt lat="53.42470258" lon="-120.25694083">
      </trkpt>
      <trkpt lat="53.42484019" lon="-120.25656556">
      </trkpt>
      <trkpt lat="53.42497327" lon="-120.25609655">
      </trkpt>
      <trkpt lat="53.42508648" lon="-120.25586089">
      </trkpt>
      <trkpt lat="53.42527395" lon="-120.25561508">
      </trkpt>
      <trkpt lat="53.4255223" lon="-120.25533995">
      </trkpt>
      <trkpt lat="53.42574438" lon="-120.25503698">
      </trkpt>
      <trkpt lat="53.42599641" lon="-120.25470892">
      </trkpt>
      <trkpt lat="53.42623972" lon="-120.25432965">
      </trkpt>
      <trkpt lat="53.42646764" lon="-120.25388956">
      </trkpt>
      <trkpt lat="53.4266872" lon="-120.25353449">
      </trkpt>
      <trkpt lat="53.42685409" lon="-120.25324953">
      </trkpt>
      <trkpt lat="53.42702314" lon="-120.25288041">
      </trkpt>
      <trkpt lat="53.42719737" lon="-120.2524896">
      </trkpt>
      <trkpt lat="53.42732777" lon="-120.25209431">
      </trkpt>
      <trkpt lat="53.42750263" lon="-120.25158807">
      </trkpt>
      <trkpt lat="53.42759425" lon="-120.25129245">
      </trkpt>
      <trkpt lat="53.42765757" lon="-120.25092729">
      </trkpt>
      <trkpt lat="53.42774213" lon="-120.25048584">
      </trkpt>
      <trkpt lat="53.42790066" lon="-120.25028589">
      </trkpt>
      <trkpt lat="53.42815137" lon="-120.25018864">
      </trkpt>
      <trkpt lat="53.42840827" lon="-120.25009054">
      </trkpt>
      <trkpt lat="53.42864661" lon="-120.24999497">
      </trkpt>
      <trkpt lat="53.4288376" lon="-120.24982202">
      </trkpt>
      <trkpt lat="53.42898275" lon="-120.24960292">
      </trkpt>
      <trkpt lat="53.42920899" lon="-120.24925737">
      </trkpt>
      <trkpt lat="53.42941515" lon="-120.24888313">
      </trkpt>
      <trkpt lat="53.42962851" lon="-120.24852885">
      </trkpt>
      <trkpt lat="53.42980525" lon="-120.24819008">
      </trkpt>
      <trkpt lat="53.42992564" lon="-120.24797436">
      </trkpt>
      <trkpt lat="53.42999766" lon="-120.24766042">
      </trkpt>
      <trkpt lat="53.43001463" lon="-120.24723868">
      </trkpt>
      <trkpt lat="53.43004348" lon="-120.24680484">
      </trkpt>
      <trkpt lat="53.43013168" lon="-120.24631044">
      </trkpt>
      <trkpt lat="53.43023277" lon="-120.24582474">
      </trkpt>
      <trkpt lat="53.43034623" lon="-120.24533734">
      </trkpt>
      <trkpt lat="53.43046322" lon="-120.24492287">
      </trkpt>
      <trkpt lat="53.43060029" lon="-120.24453707">
      </trkpt>
      <trkpt lat="53.43070958" lon="-120.24409219">
      </trkpt>
      <trkpt lat="53.43088909" lon="-120.24355378">
      </trkpt>
      <trkpt lat="53.43101643" lon="-120.24309593">
      </trkpt>
      <trkpt lat="53.43114466" lon="-120.24278475">
      </trkpt>
      <trkpt lat="53.43128474" lon="-120.24246146">
      </trkpt>
      <trkpt lat="53.43141952" lon="-120.24228567">
      </trkpt>
      <trkpt lat="53.43161667" lon="-120.24211182">
      </trkpt>
      <trkpt lat="53.43179275" lon="-120.24188845">
      </trkpt>
      <trkpt lat="53.43197515" lon="-120.24153836">
      </trkpt>
      <trkpt lat="53.43220315" lon="-120.2409723">
      </trkpt>
      <trkpt lat="53.43238568" lon="-120.24049636">
      </trkpt>
      <trkpt lat="53.43249279" lon="-120.24013563">
      </trkpt>
      <trkpt lat="53.43260321" lon="-120.23958569">
      </trkpt>
      <trkpt lat="53.43271361" lon="-120.23903576">
      </trkpt>
      <trkpt lat="53.4327961" lon="-120.23855257">
      </trkpt>
      <trkpt lat="53.43291826" lon="-120.23811636">
      </trkpt>
      <trkpt lat="53.43309091" lon="-120.23769418">
      </trkpt>
      <trkpt lat="53.43328151" lon="-120.23738488">
      </trkpt>
      <trkpt lat="53.43358716" lon="-120.23700736">
      </trkpt>
      <trkpt lat="53.43392779" lon="-120.23670891">
      </trkpt>
      <trkpt lat="53.43432879" lon="-120.2363707">
      </trkpt>
      <trkpt lat="53.43458366" lon="-120.23623084">
      </trkpt>
      <trkpt lat="53.43481088" lon="-120.235906">
      </trkpt>
      <trkpt lat="53.43504213" lon="-120.23566451">
      </trkpt>
      <trkpt lat="53.43535396" lon="-120.2352861">
      </trkpt>
      <trkpt lat="53.4355837" lon="-120.23501335">
      </trkpt>
      <trkpt lat="53.4359852" lon="-120.23468553">
      </trkpt>
      <trkpt lat="53.43624639" lon="-120.23441893">
      </trkpt>
      <trkpt lat="53.43658537" lon="-120.23421505">
      </trkpt>
      <trkpt lat="53.43688103" lon="-120.23401712">
      </trkpt>
      <trkpt lat="53.43717202" lon="-120.23385129">
      </trkpt>
      <trkpt lat="53.43738559" lon="-120.23375902">
      </trkpt>
      <trkpt lat="53.43757036" lon="-120.2335868">
      </trkpt>
      <trkpt lat="53.4377804" lon="-120.2334216">
      </trkpt>
      <trkpt lat="53.43801871" lon="-120.23332593">
      </trkpt>
      <trkpt lat="53.43822268" lon="-120.23303571">
      </trkpt>
      <trkpt lat="53.4384437" lon="-120.23271169">
      </trkpt>
      <trkpt lat="53.43883483" lon="-120.23242719">
      </trkpt>
      <trkpt lat="53.4391656" lon="-120.23218246">
      </trkpt>
      <trkpt lat="53.43945142" lon="-120.2320383">
      </trkpt>
      <trkpt lat="53.43975477" lon="-120.23187074">
      </trkpt>
      <trkpt lat="53.43993538" lon="-120.23174104">
      </trkpt>
      <trkpt lat="53.4400935" lon="-120.23140467">
      </trkpt>
      <trkpt lat="53.44028773" lon="-120.23104235">
      </trkpt>
      <trkpt lat="53.44044232" lon="-120.23063304">
      </trkpt>
      <trkpt lat="53.44058236" lon="-120.23030963">
      </trkpt>
      <trkpt lat="53.44074503" lon="-120.23006701">
      </trkpt>
      <trkpt lat="53.44091956" lon="-120.22981227">
      </trkpt>
      <trkpt lat="53.44120662" lon="-120.22943717">
      </trkpt>
      <trkpt lat="53.4413915" lon="-120.22913906">
      </trkpt>
      <trkpt lat="53.44149695" lon="-120.22887284">
      </trkpt>
      <trkpt lat="53.44164546" lon="-120.22833848">
      </trkpt>
      <trkpt lat="53.44183362" lon="-120.22785111">
      </trkpt>
      <trkpt lat="53.44200005" lon="-120.22742965">
      </trkpt>
      <trkpt lat="53.44214854" lon="-120.22689528">
      </trkpt>
      <trkpt lat="53.44224022" lon="-120.22647363">
      </trkpt>
      <trkpt lat="53.44236282" lon="-120.2260477">
      </trkpt>
      <trkpt lat="53.44248909" lon="-120.22556882">
      </trkpt>
      <trkpt lat="53.44259363" lon="-120.22515588">
      </trkpt>
      <trkpt lat="53.44270638" lon="-120.22478374">
      </trkpt>
      <trkpt lat="53.44278049" lon="-120.22438546">
      </trkpt>
      <trkpt lat="53.44281797" lon="-120.22400271">
      </trkpt>
      <trkpt lat="53.44286062" lon="-120.22359828">
      </trkpt>
      <trkpt lat="53.44291514" lon="-120.22318171">
      </trkpt>
      <trkpt lat="53.4430145" lon="-120.22279044">
      </trkpt>
      <trkpt lat="53.44317046" lon="-120.22253822">
      </trkpt>
      <trkpt lat="53.44335938" lon="-120.2223234">
      </trkpt>
      <trkpt lat="53.44361272" lon="-120.22215216">
      </trkpt>
      <trkpt lat="53.44387122" lon="-120.22195922">
      </trkpt>
      <trkpt lat="53.44406734" lon="-120.22176439">
      </trkpt>
      <trkpt lat="53.44422684" lon="-120.22158508">
      </trkpt>
      <trkpt lat="53.44438656" lon="-120.22115401">
      </trkpt>
      <trkpt lat="53.44450547" lon="-120.22081744">
      </trkpt>
      <trkpt lat="53.44462422" lon="-120.22028213">
      </trkpt>
      <trkpt lat="53.44476314" lon="-120.21968113">
      </trkpt>
      <trkpt lat="53.4449492" lon="-120.21908936">
      </trkpt>
      <trkpt lat="53.4450935" lon="-120.21850333">
      </trkpt>
      <trkpt lat="53.44522845" lon="-120.21801295">
      </trkpt>
      <trkpt lat="53.44538195" lon="-120.21752001">
      </trkpt>
      <trkpt lat="53.44553362" lon="-120.21689364">
      </trkpt>
      <trkpt lat="53.44566949" lon="-120.21623012">
      </trkpt>
      <trkpt lat="53.44573073" lon="-120.21556905">
      </trkpt>
      <trkpt lat="53.44584195" lon="-120.2147831">
      </trkpt>
      <trkpt lat="53.44590585" lon="-120.21417669">
      </trkpt>
      <trkpt lat="53.4459528" lon="-120.2135097">
      </trkpt>
      <trkpt lat="53.44598748" lon="-120.21316679">
      </trkpt>
      <trkpt lat="53.44598407" lon="-120.21261685">
      </trkpt>
      <trkpt lat="53.44602401" lon="-120.211998">
      </trkpt>
      <trkpt lat="53.44607383" lon="-120.21158222">
      </trkpt>
      <trkpt lat="53.44616059" lon="-120.21135008">
      </trkpt>
      <trkpt lat="53.44629908" lon="-120.21122089">
      </trkpt>
      <trkpt lat="53.44652769" lon="-120.21102421">
      </trkpt>
      <trkpt lat="53.44665537" lon="-120.21086506">
      </trkpt>
      <trkpt lat="53.44680435" lon="-120.21066363">
      </trkpt>
      <trkpt lat="53.44701098" lon="-120.21039921">
      </trkpt>
      <trkpt lat="53.44717859" lon="-120.21010085">
      </trkpt>
      <trkpt lat="53.4473183" lon="-120.20990072">
      </trkpt>
      <trkpt lat="53.44746187" lon="-120.2096843">
      </trkpt>
      <trkpt lat="53.44764294" lon="-120.20947058">
      </trkpt>
      <trkpt lat="53.44785649" lon="-120.20925238">
      </trkpt>
      <trkpt lat="53.44804646" lon="-120.20902956">
      </trkpt>
      <trkpt lat="53.44820858" lon="-120.20881059">
      </trkpt>
      <trkpt lat="53.44834137" lon="-120.2085642">
      </trkpt>
      <trkpt lat="53.44845528" lon="-120.2082182">
      </trkpt>
      <trkpt lat="53.44854379" lon="-120.20773416">
      </trkpt>
      <trkpt lat="53.44860416" lon="-120.20715176">
      </trkpt>
      <trkpt lat="53.44861509" lon="-120.20651328">
      </trkpt>
      <trkpt lat="53.44859843" lon="-120.20607521">
      </trkpt>
      <trkpt lat="53.44850791" lon="-120.20565521">
      </trkpt>
      <trkpt lat="53.44844439" lon="-120.2053101">
      </trkpt>
      <trkpt lat="53.44844697" lon="-120.20497948">
      </trkpt>
      <trkpt lat="53.44845646" lon="-120.20469506">
      </trkpt>
      <trkpt lat="53.44840412" lon="-120.20438773">
      </trkpt>
      <trkpt lat="53.44833132" lon="-120.20404393">
      </trkpt>
      <trkpt lat="53.448272" lon="-120.20378475">
      </trkpt>
      <trkpt lat="53.44821928" lon="-120.20346962">
      </trkpt>
      <trkpt lat="53.44816382" lon="-120.2031942">
      </trkpt>
      <trkpt lat="53.44811376" lon="-120.20293374">
      </trkpt>
      <trkpt lat="53.44801032" lon="-120.20272785">
      </trkpt>
      <trkpt lat="53.44789069" lon="-120.20247701">
      </trkpt>
      <trkpt lat="53.4477629" lon="-120.20225091">
      </trkpt>
      <trkpt lat="53.44766684" lon="-120.20200469">
      </trkpt>
      <trkpt lat="53.44756271" lon="-120.2016888">
      </trkpt>
      <trkpt lat="53.44745477" lon="-120.20129481">
      </trkpt>
      <trkpt lat="53.44741481" lon="-120.20095434">
      </trkpt>
      <trkpt lat="53.44738922" lon="-120.20052536">
      </trkpt>
      <trkpt lat="53.4473555" lon="-120.20012112">
      </trkpt>
      <trkpt lat="53.4473477" lon="-120.19967397">
      </trkpt>
      <trkpt lat="53.44739672" lon="-120.19924256">
      </trkpt>
      <trkpt lat="53.44743531" lon="-120.19878899">
      </trkpt>
      <trkpt lat="53.44746697" lon="-120.19828921">
      </trkpt>
      <trkpt lat="53.44750054" lon="-120.19782846">
      </trkpt>
      <trkpt lat="53.4475519" lon="-120.19734954">
      </trkpt>
      <trkpt lat="53.44754339" lon="-120.19679239">
      </trkpt>
      <trkpt lat="53.44751791" lon="-120.19617469">
      </trkpt>
      <trkpt lat="53.44749931" lon="-120.19569757">
      </trkpt>
      <trkpt lat="53.4474838" lon="-120.19518858">
      </trkpt>
      <trkpt lat="53.4474779" lon="-120.19478048">
      </trkpt>
      <trkpt lat="53.44744561" lon="-120.19450186">
      </trkpt>
      <trkpt lat="53.44736122" lon="-120.19411249">
      </trkpt>
      <trkpt lat="53.44731858" lon="-120.19371734">
      </trkpt>
      <trkpt lat="53.44729437" lon="-120.19350837">
      </trkpt>
      <trkpt lat="53.44721957" lon="-120.19321991">
      </trkpt>
      <trkpt lat="53.44717915" lon="-120.192966">
      </trkpt>
      <trkpt lat="53.4471245" lon="-120.19261184">
      </trkpt>
      <trkpt lat="53.44707251" lon="-120.19231235">
      </trkpt>
      <trkpt lat="53.44702014" lon="-120.19200506">
      </trkpt>
      <trkpt lat="53.44698169" lon="-120.19169584">
      </trkpt>
      <trkpt lat="53.44698886" lon="-120.19136456">
      </trkpt>
      <trkpt lat="53.44701535" lon="-120.19104635">
      </trkpt>
      <trkpt lat="53.44704692" lon="-120.19064094">
      </trkpt>
      <trkpt lat="53.44709012" lon="-120.19018673">
      </trkpt>
      <trkpt lat="53.44712861" lon="-120.18982752">
      </trkpt>
      <trkpt lat="53.44717257" lon="-120.18938894">
      </trkpt>
      <trkpt lat="53.44716544" lon="-120.18905178">
      </trkpt>
      <trkpt lat="53.44711006" lon="-120.18858764">
      </trkpt>
      <trkpt lat="53.44705551" lon="-120.18804473">
      </trkpt>
      <trkpt lat="53.44702829" lon="-120.1876789">
      </trkpt>
      <trkpt lat="53.44699961" lon="-120.18718747">
      </trkpt>
      <trkpt lat="53.44696393" lon="-120.18674418">
      </trkpt>
      <trkpt lat="53.44693028" lon="-120.18615121">
      </trkpt>
      <trkpt lat="53.44691855" lon="-120.18572033">
      </trkpt>
      <trkpt lat="53.44690486" lon="-120.18534477">
      </trkpt>
      <trkpt lat="53.44690426" lon="-120.18504603">
      </trkpt>
      <trkpt lat="53.44687551" lon="-120.18464897">
      </trkpt>
      <trkpt lat="53.44683207" lon="-120.18423821">
      </trkpt>
      <trkpt lat="53.44681265" lon="-120.18374549">
      </trkpt>
      <trkpt lat="53.44679508" lon="-120.1833862">
      </trkpt>
      <trkpt lat="53.44675671" lon="-120.18288824">
      </trkpt>
      <trkpt lat="53.44669203" lon="-120.18242539">
      </trkpt>
      <trkpt lat="53.44663347" lon="-120.18208751">
      </trkpt>
      <trkpt lat="53.44652312" lon="-120.18174109">
      </trkpt>
      <trkpt lat="53.44637374" lon="-120.18136076">
      </trkpt>
      <trkpt lat="53.44624211" lon="-120.18105661">
      </trkpt>
      <trkpt lat="53.44613513" lon="-120.18087486">
      </trkpt>
      <trkpt lat="53.44586711" lon="-120.18045595">
      </trkpt>
      <trkpt lat="53.44570071" lon="-120.18010945">
      </trkpt>
      <trkpt lat="53.44551743" lon="-120.17951367">
      </trkpt>
      <trkpt lat="53.44536766" lon="-120.17912554">
      </trkpt>
      <trkpt lat="53.44517499" lon="-120.17871979">
      </trkpt>
      <trkpt lat="53.44499047" lon="-120.17828932">
      </trkpt>
      <trkpt lat="53.44482176" lon="-120.17789597">
      </trkpt>
      <trkpt lat="53.44462904" lon="-120.17758459">
      </trkpt>
      <trkpt lat="53.44451786" lon="-120.17731695">
      </trkpt>
      <trkpt lat="53.44434877" lon="-120.1769158">
      </trkpt>
      <trkpt lat="53.44417585" lon="-120.17643655">
      </trkpt>
      <trkpt lat="53.44405855" lon="-120.17604394">
      </trkpt>
      <trkpt lat="53.44394133" lon="-120.17546261">
      </trkpt>
      <trkpt lat="53.443816" lon="-120.174906">
      </trkpt>
      <trkpt lat="53.44369448" lon="-120.1744275">
      </trkpt>
      <trkpt lat="53.44355435" lon="-120.17404593">
      </trkpt>
      <trkpt lat="53.44349692" lon="-120.17373152">
      </trkpt>
      <trkpt lat="53.44344646" lon="-120.17336895">
      </trkpt>
      <trkpt lat="53.44341929" lon="-120.17281444">
      </trkpt>
      <trkpt lat="53.44337552" lon="-120.17220719">
      </trkpt>
      <trkpt lat="53.44334695" lon="-120.17133835">
      </trkpt>
      <trkpt lat="53.4433291" lon="-120.1706882">
      </trkpt>
      <trkpt lat="53.44333476" lon="-120.17013699">
      </trkpt>
      <trkpt lat="53.44332375" lon="-120.16972177">
      </trkpt>
      <trkpt lat="53.44328949" lon="-120.16940414">
      </trkpt>
      <trkpt lat="53.4432317" lon="-120.16898756">
      </trkpt>
      <trkpt lat="53.44311289" lon="-120.16846938">
      </trkpt>
      <trkpt lat="53.44297135" lon="-120.16777351">
      </trkpt>
      <trkpt lat="53.44282558" lon="-120.16699175">
      </trkpt>
      <trkpt lat="53.44276817" lon="-120.16658298">
      </trkpt>
      <trkpt lat="53.44271233" lon="-120.16611109">
      </trkpt>
      <trkpt lat="53.44265571" lon="-120.16562359">
      </trkpt>
      <trkpt lat="53.44259216" lon="-120.16508989">
      </trkpt>
      <trkpt lat="53.44248955" lon="-120.16461665">
      </trkpt>
      <trkpt lat="53.44240506" lon="-120.16422738">
      </trkpt>
      <trkpt lat="53.44231286" lon="-120.16377629">
      </trkpt>
      <trkpt lat="53.44222879" lon="-120.16330047">
      </trkpt>
      <trkpt lat="53.44217908" lon="-120.16295356">
      </trkpt>
      <trkpt lat="53.44211275" lon="-120.1625539">
      </trkpt>
      <trkpt lat="53.44200008" lon="-120.16206636">
      </trkpt>
      <trkpt lat="53.44195193" lon="-120.16165632">
      </trkpt>
      <trkpt lat="53.441869" lon="-120.16120394">
      </trkpt>
      <trkpt lat="53.44184365" lon="-120.16078287">
      </trkpt>
      <trkpt lat="53.44182451" lon="-120.16029802">
      </trkpt>
      <trkpt lat="53.44179494" lon="-120.15979105">
      </trkpt>
      <trkpt lat="53.44174601" lon="-120.1593654">
      </trkpt>
      <trkpt lat="53.44167316" lon="-120.15883301">
      </trkpt>
      <trkpt lat="53.44160721" lon="-120.15844118">
      </trkpt>
      <trkpt lat="53.44149099" lon="-120.15807208">
      </trkpt>
      <trkpt lat="53.441376" lon="-120.15753768">
      </trkpt>
      <trkpt lat="53.4412919" lon="-120.15706189">
      </trkpt>
      <trkpt lat="53.44119741" lon="-120.1564696">
      </trkpt>
      <trkpt lat="53.44111297" lon="-120.15589166">
      </trkpt>
      <trkpt lat="53.4410177" lon="-120.15528377">
      </trkpt>
      <trkpt lat="53.44092512" lon="-120.15473053">
      </trkpt>
      <trkpt lat="53.44089898" lon="-120.15429385">
      </trkpt>
      <trkpt lat="53.44086046" lon="-120.15389035">
      </trkpt>
      <trkpt lat="53.44078064" lon="-120.15331176">
      </trkpt>
      <trkpt lat="53.44074874" lon="-120.15275795">
      </trkpt>
      <trkpt lat="53.44069706" lon="-120.15237201">
      </trkpt>
      <trkpt lat="53.44056228" lon="-120.15200551">
      </trkpt>
      <trkpt lat="53.44039694" lon="-120.1516826">
      </trkpt>
      <trkpt lat="53.4401999" lon="-120.15137983">
      </trkpt>
      <trkpt lat="53.43978104" lon="-120.15093501">
      </trkpt>
      <trkpt lat="53.43952061" lon="-120.15057819">
      </trkpt>
      <trkpt lat="53.43933134" lon="-120.15014854">
      </trkpt>
      <trkpt lat="53.43909151" lon="-120.14945077">
      </trkpt>
      <trkpt lat="53.43893316" lon="-120.14898537">
      </trkpt>
      <trkpt lat="53.4387895" lon="-120.14853366">
      </trkpt>
      <trkpt lat="53.43867169" lon="-120.14822771">
      </trkpt>
      <trkpt lat="53.43857592" lon="-120.14789512">
      </trkpt>
      <trkpt lat="53.43847126" lon="-120.14757163">
      </trkpt>
      <trkpt lat="53.43833992" lon="-120.14727547">
      </trkpt>
      <trkpt lat="53.43817767" lon="-120.1469207">
      </trkpt>
      <trkpt lat="53.43801658" lon="-120.14658936">
      </trkpt>
      <trkpt lat="53.43789143" lon="-120.14622942">
      </trkpt>
      <trkpt lat="53.43774617" lon="-120.14593521">
      </trkpt>
      <trkpt lat="53.43761139" lon="-120.14547441">
      </trkpt>
      <trkpt lat="53.4374832" lon="-120.14495766">
      </trkpt>
      <trkpt lat="53.43736466" lon="-120.14444742">
      </trkpt>
      <trkpt lat="53.43728553" lon="-120.14397888">
      </trkpt>
      <trkpt lat="53.43722028" lon="-120.14369707">
      </trkpt>
      <trkpt lat="53.43707852" lon="-120.14328444">
      </trkpt>
      <trkpt lat="53.43694604" lon="-120.1428705">
      </trkpt>
      <trkpt lat="53.43685799" lon="-120.14250542">
      </trkpt>
      <trkpt lat="53.43678771" lon="-120.14221647">
      </trkpt>
      <trkpt lat="53.43677621" lon="-120.14179351">
      </trkpt>
      <trkpt lat="53.43677438" lon="-120.14137707">
      </trkpt>
      <trkpt lat="53.43672656" lon="-120.14088056">
      </trkpt>
      <trkpt lat="53.43664276" lon="-120.14050701">
      </trkpt>
      <trkpt lat="53.4365574" lon="-120.14019659">
      </trkpt>
      <trkpt lat="53.4364307" lon="-120.13980545">
      </trkpt>
      <trkpt lat="53.43627153" lon="-120.13941886">
      </trkpt>
      <trkpt lat="53.43619468" lon="-120.13909152">
      </trkpt>
      <trkpt lat="53.43613638" lon="-120.13876159">
      </trkpt>
      <trkpt lat="53.43602861" lon="-120.13837568">
      </trkpt>
      <trkpt lat="53.43591118" lon="-120.13798326">
      </trkpt>
      <trkpt lat="53.43577441" lon="-120.13767215">
      </trkpt>
      <trkpt lat="53.43560054" lon="-120.1372719">
      </trkpt>
      <trkpt lat="53.43539192" lon="-120.13673499">
      </trkpt>
      <trkpt lat="53.43521958" lon="-120.13636597">
      </trkpt>
      <trkpt lat="53.435038" lon="-120.1359039">
      </trkpt>
      <trkpt lat="53.43489775" lon="-120.13552256">
      </trkpt>
      <trkpt lat="53.43469876" lon="-120.13508652">
      </trkpt>
      <trkpt lat="53.43455309" lon="-120.13478454">
      </trkpt>
      <trkpt lat="53.43436416" lon="-120.13426848">
      </trkpt>
      <trkpt lat="53.43412344" lon="-120.1336496">
      </trkpt>
      <trkpt lat="53.43392677" lon="-120.13316608">
      </trkpt>
      <trkpt lat="53.43376371" lon="-120.1327958">
      </trkpt>
      <trkpt lat="53.43365011" lon="-120.13248149">
      </trkpt>
      <trkpt lat="53.43350791" lon="-120.13215546">
      </trkpt>
      <trkpt lat="53.43330543" lon="-120.13174352">
      </trkpt>
      <trkpt lat="53.43311764" lon="-120.13125092">
      </trkpt>
      <trkpt lat="53.43293564" lon="-120.1307811">
      </trkpt>
      <trkpt lat="53.43275752" lon="-120.13029502">
      </trkpt>
      <trkpt lat="53.43257319" lon="-120.12987269">
      </trkpt>
      <trkpt lat="53.43237613" lon="-120.12928706">
      </trkpt>
      <trkpt lat="53.43222081" lon="-120.12878993">
      </trkpt>
      <trkpt lat="53.43206819" lon="-120.12825312">
      </trkpt>
      <trkpt lat="53.43196195" lon="-120.12770983">
      </trkpt>
      <trkpt lat="53.43191908" lon="-120.12740924">
      </trkpt>
      <trkpt lat="53.43194191" lon="-120.1272095">
      </trkpt>
      <trkpt lat="53.43204243" lon="-120.12697531">
      </trkpt>
      <trkpt lat="53.43222762" lon="-120.12665851">
      </trkpt>
      <trkpt lat="53.43240932" lon="-120.1263658">
      </trkpt>
      <trkpt lat="53.43251488" lon="-120.12604441">
      </trkpt>
      <trkpt lat="53.4325354" lon="-120.12570349">
      </trkpt>
      <trkpt lat="53.43254935" lon="-120.1253242">
      </trkpt>
      <trkpt lat="53.43260196" lon="-120.12487658">
      </trkpt>
      <trkpt lat="53.43259968" lon="-120.12445237">
      </trkpt>
      <trkpt lat="53.43257806" lon="-120.12410949">
      </trkpt>
      <trkpt lat="53.43249808" lon="-120.12371975">
      </trkpt>
      <trkpt lat="53.4323605" lon="-120.12329877">
      </trkpt>
      <trkpt lat="53.43216882" lon="-120.12282249">
      </trkpt>
      <trkpt lat="53.43193422" lon="-120.12232862">
      </trkpt>
      <trkpt lat="53.43176494" lon="-120.12192781">
      </trkpt>
      <trkpt lat="53.43161769" lon="-120.12159467">
      </trkpt>
      <trkpt lat="53.4315516" lon="-120.12139167">
      </trkpt>
      <trkpt lat="53.43139701" lon="-120.12100454">
      </trkpt>
      <trkpt lat="53.4312285" lon="-120.12061936">
      </trkpt>
      <trkpt lat="53.43106694" lon="-120.12028037">
      </trkpt>
      <trkpt lat="53.43093205" lon="-120.1200084">
      </trkpt>
      <trkpt lat="53.43087486" lon="-120.11970196">
      </trkpt>
      <trkpt lat="53.43078558" lon="-120.11931354">
      </trkpt>
      <trkpt lat="53.43061591" lon="-120.11890496">
      </trkpt>
      <trkpt lat="53.43038439" lon="-120.11847359">
      </trkpt>
      <trkpt lat="53.43023983" lon="-120.11800645">
      </trkpt>
      <trkpt lat="53.43008988" lon="-120.11743002">
      </trkpt>
      <trkpt lat="53.4299805" lon="-120.117013">
      </trkpt>
      <trkpt lat="53.42982086" lon="-120.11652441">
      </trkpt>
      <trkpt lat="53.42966161" lon="-120.11623229">
      </trkpt>
      <trkpt lat="53.42950043" lon="-120.11599547">
      </trkpt>
      <trkpt lat="53.42938254" lon="-120.11578403">
      </trkpt>
      <trkpt lat="53.42929943" lon="-120.11552054">
      </trkpt>
      <trkpt lat="53.42920087" lon="-120.11513346">
      </trkpt>
      <trkpt lat="53.42911081" lon="-120.11472945">
      </trkpt>
      <trkpt lat="53.429042" lon="-120.11456616">
      </trkpt>
      <trkpt lat="53.4287923" lon="-120.11414524">
      </trkpt>
      <trkpt lat="53.42857931" lon="-120.11380565">
      </trkpt>
      <trkpt lat="53.42836401" lon="-120.11341922">
      </trkpt>
      <trkpt lat="53.42825268" lon="-120.11296319">
      </trkpt>
      <trkpt lat="53.42823604" lon="-120.11243884">
      </trkpt>
      <trkpt lat="53.42820782" lon="-120.11196329">
      </trkpt>
      <trkpt lat="53.42810808" lon="-120.11136414">
      </trkpt>
      <trkpt lat="53.42800564" lon="-120.11099333">
      </trkpt>
      <trkpt lat="53.4278773" lon="-120.11066547">
      </trkpt>
      <trkpt lat="53.42769832" lon="-120.11044689">
      </trkpt>
      <trkpt lat="53.42732916" lon="-120.10997204">
      </trkpt>
      <trkpt lat="53.42707712" lon="-120.10959865">
      </trkpt>
      <trkpt lat="53.42687108" lon="-120.10921097">
      </trkpt>
      <trkpt lat="53.42676746" lon="-120.10881676">
      </trkpt>
      <trkpt lat="53.42662365" lon="-120.10845963">
      </trkpt>
      <trkpt lat="53.42651967" lon="-120.10834059">
      </trkpt>
      <trkpt lat="53.42636814" lon="-120.10820466">
      </trkpt>
      <trkpt lat="53.42612654" lon="-120.10804207">
      </trkpt>
      <trkpt lat="53.42593017" lon="-120.10784955">
      </trkpt>
      <trkpt lat="53.42573766" lon="-120.10764075">
      </trkpt>
      <trkpt lat="53.4254717" lon="-120.10736368">
      </trkpt>
      <trkpt lat="53.42527842" lon="-120.10713929">
      </trkpt>
      <trkpt lat="53.42509402" lon="-120.10690579">
      </trkpt>
      <trkpt lat="53.42494325" lon="-120.10669115">
      </trkpt>
      <trkpt lat="53.42483618" lon="-120.10650967">
      </trkpt>
      <trkpt lat="53.42479866" lon="-120.10622412">
      </trkpt>
      <trkpt lat="53.42478047" lon="-120.10595156">
      </trkpt>
      <trkpt lat="53.42474373" lon="-120.10558728">
      </trkpt>
      <trkpt lat="53.42465015" lon="-120.10520742">
      </trkpt>
      <trkpt lat="53.42455813" lon="-120.10485877">
      </trkpt>
      <trkpt lat="53.42450437" lon="-120.10452833">
      </trkpt>
      <trkpt lat="53.4244738" lon="-120.10410031">
      </trkpt>
      <trkpt lat="53.42445674" lon="-120.1035682">
      </trkpt>
      <trkpt lat="53.42451042" lon="-120.10304974">
      </trkpt>
      <trkpt lat="53.42458229" lon="-120.1026152">
      </trkpt>
      <trkpt lat="53.42466572" lon="-120.10203753">
      </trkpt>
      <trkpt lat="53.42481564" lon="-120.10148196">
      </trkpt>
      <trkpt lat="53.42493154" lon="-120.10089972">
      </trkpt>
      <trkpt lat="53.4250575" lon="-120.10042612">
      </trkpt>
      <trkpt lat="53.42512159" lon="-120.09983543">
      </trkpt>
      <trkpt lat="53.42518183" lon="-120.09935534">
      </trkpt>
      <trkpt lat="53.42518873" lon="-120.0989299">
      </trkpt>
      <trkpt lat="53.42517553" lon="-120.09847586">
      </trkpt>
      <trkpt lat="53.4251434" lon="-120.09811093">
      </trkpt>
      <trkpt lat="53.4250668" lon="-120.09760292">
      </trkpt>
      <trkpt lat="53.42497006" lon="-120.09687765">
      </trkpt>
      <trkpt lat="53.42488878" lon="-120.09618165">
      </trkpt>
      <trkpt lat="53.42482993" lon="-120.09556109">
      </trkpt>
      <trkpt lat="53.4247792" lon="-120.09501014">
      </trkpt>
      <trkpt lat="53.42473623" lon="-120.0946153">
      </trkpt>
      <trkpt lat="53.42469055" lon="-120.09416584">
      </trkpt>
      <trkpt lat="53.42465684" lon="-120.09367538">
      </trkpt>
      <trkpt lat="53.42465518" lon="-120.09307823">
      </trkpt>
      <trkpt lat="53.42466438" lon="-120.0926053">
      </trkpt>
      <trkpt lat="53.42468323" lon="-120.09213889">
      </trkpt>
      <trkpt lat="53.42472487" lon="-120.09156707">
      </trkpt>
      <trkpt lat="53.42470894" lon="-120.09115271">
      </trkpt>
      <trkpt lat="53.42467213" lon="-120.09069414">
      </trkpt>
      <trkpt lat="53.42467322" lon="-120.09034026">
      </trkpt>
      <trkpt lat="53.42473268" lon="-120.09003319">
      </trkpt>
      <trkpt lat="53.4248335" lon="-120.08971245">
      </trkpt>
      <trkpt lat="53.42492042" lon="-120.08939364">
      </trkpt>
      <trkpt lat="53.4249679" lon="-120.08912756">
      </trkpt>
      <trkpt lat="53.42497559" lon="-120.08890639">
      </trkpt>
      <trkpt lat="53.42495119" lon="-120.08869759">
      </trkpt>
      <trkpt lat="53.42487346" lon="-120.08854347">
      </trkpt>
      <trkpt lat="53.42464033" lon="-120.08836407">
      </trkpt>
      <trkpt lat="53.42440877" lon="-120.08821589">
      </trkpt>
      <trkpt lat="53.42416211" lon="-120.08804628">
      </trkpt>
      <trkpt lat="53.42407628" lon="-120.08791688">
      </trkpt>
      <trkpt lat="53.42400279" lon="-120.0877543">
      </trkpt>
      <trkpt lat="53.42392854" lon="-120.08757612">
      </trkpt>
      <trkpt lat="53.42389831" lon="-120.08725025">
      </trkpt>
      <trkpt lat="53.42388084" lon="-120.08689899">
      </trkpt>
      <trkpt lat="53.42388503" lon="-120.08660757">
      </trkpt>
      <trkpt lat="53.42387022" lon="-120.08612231">
      </trkpt>
      <trkpt lat="53.4239443" lon="-120.08554594">
      </trkpt>
      <trkpt lat="53.42402192" lon="-120.08522844">
      </trkpt>
      <trkpt lat="53.42409378" lon="-120.08507684">
      </trkpt>
      <trkpt lat="53.42420818" lon="-120.08502926">
      </trkpt>
      <trkpt lat="53.42432686" lon="-120.08506756">
      </trkpt>
      <trkpt lat="53.42444981" lon="-120.08519171">
      </trkpt>
      <trkpt lat="53.42459248" lon="-120.08533668">
      </trkpt>
      <trkpt lat="53.42480975" lon="-120.08547899">
      </trkpt>
      <trkpt lat="53.42499881" lon="-120.08561742">
      </trkpt>
      <trkpt lat="53.42518244" lon="-120.08574089">
      </trkpt>
      <trkpt lat="53.42526518" lon="-120.08580784">
      </trkpt>
      <trkpt lat="53.42550139" lon="-120.08595534">
      </trkpt>
      <trkpt lat="53.42567461" lon="-120.08615104">
      </trkpt>
      <trkpt lat="53.42580761" lon="-120.0862895">
      </trkpt>
      <trkpt lat="53.42594137" lon="-120.08634927">
      </trkpt>
      <trkpt lat="53.42609985" lon="-120.08634264">
      </trkpt>
      <trkpt lat="53.42624517" lon="-120.0862593">
      </trkpt>
      <trkpt lat="53.42633789" lon="-120.08605757">
      </trkpt>
      <trkpt lat="53.42641049" lon="-120.0857329">
      </trkpt>
      <trkpt lat="53.42641931" lon="-120.08544081">
      </trkpt>
      <trkpt lat="53.42643041" lon="-120.0850069">
      </trkpt>
      <trkpt lat="53.42646161" lon="-120.0846016">
      </trkpt>
      <trkpt lat="53.42648085" lon="-120.08423729">
      </trkpt>
      <trkpt lat="53.42649234" lon="-120.08381119">
      </trkpt>
      <trkpt lat="53.42649343" lon="-120.08355163">
      </trkpt>
      <trkpt lat="53.42647093" lon="-120.08319321">
      </trkpt>
      <trkpt lat="53.42645574" lon="-120.08279445">
      </trkpt>
      <trkpt lat="53.42646531" lon="-120.08242364">
      </trkpt>
      <trkpt lat="53.42646635" lon="-120.08197543">
      </trkpt>
      <trkpt lat="53.42644419" lon="-120.08153049">
      </trkpt>
      <trkpt lat="53.42641625" lon="-120.08115711">
      </trkpt>
      <trkpt lat="53.42638791" lon="-120.08068159">
      </trkpt>
      <trkpt lat="53.42634947" lon="-120.08009746">
      </trkpt>
      <trkpt lat="53.4263219" lon="-120.07963756">
      </trkpt>
      <trkpt lat="53.42632489" lon="-120.0793227">
      </trkpt>
      <trkpt lat="53.42635106" lon="-120.07891025">
      </trkpt>
      <trkpt lat="53.4264491" lon="-120.07844047">
      </trkpt>
      <trkpt lat="53.42650582" lon="-120.07807874">
      </trkpt>
      <trkpt lat="53.4265718" lon="-120.07771569">
      </trkpt>
      <trkpt lat="53.42663314" lon="-120.07735328">
      </trkpt>
      <trkpt lat="53.42669755" lon="-120.07686469">
      </trkpt>
      <trkpt lat="53.4267612" lon="-120.07645479">
      </trkpt>
      <trkpt lat="53.42678658" lon="-120.07602672">
      </trkpt>
      <trkpt lat="53.426827" lon="-120.07552578">
      </trkpt>
      <trkpt lat="53.42691151" lon="-120.07506577">
      </trkpt>
      <trkpt lat="53.42701067" lon="-120.07452508">
      </trkpt>
      <trkpt lat="53.42708164" lon="-120.07407484">
      </trkpt>
      <trkpt lat="53.42711131" lon="-120.07382697">
      </trkpt>
      <trkpt lat="53.42710152" lon="-120.07344316">
      </trkpt>
      <trkpt lat="53.42708595" lon="-120.07313091">
      </trkpt>
      <trkpt lat="53.42713259" lon="-120.07275486">
      </trkpt>
      <trkpt lat="53.42726003" lon="-120.07240669">
      </trkpt>
      <trkpt lat="53.42732905" lon="-120.07191741">
      </trkpt>
      <trkpt lat="53.42740536" lon="-120.07129348">
      </trkpt>
      <trkpt lat="53.42751144" lon="-120.07070463">
      </trkpt>
      <trkpt lat="53.42760286" lon="-120.07019645">
      </trkpt>
      <trkpt lat="53.42771022" lon="-120.06991401">
      </trkpt>
      <trkpt lat="53.42786116" lon="-120.0693817">
      </trkpt>
      <trkpt lat="53.42800017" lon="-120.06898471">
      </trkpt>
      <trkpt lat="53.42809976" lon="-120.06864047">
      </trkpt>
      <trkpt lat="53.42816923" lon="-120.06834764">
      </trkpt>
      <trkpt lat="53.42828776" lon="-120.06800857">
      </trkpt>
      <trkpt lat="53.42842641" lon="-120.0676981">
      </trkpt>
      <trkpt lat="53.428625" lon="-120.06746564">
      </trkpt>
      <trkpt lat="53.42878072" lon="-120.06730998">
      </trkpt>
      <trkpt lat="53.42893141" lon="-120.06714717">
      </trkpt>
      <trkpt lat="53.42904035" lon="-120.06699025">
      </trkpt>
      <trkpt lat="53.4290886" lon="-120.06683407">
      </trkpt>
      <trkpt lat="53.42910782" lon="-120.06656407">
      </trkpt>
      <trkpt lat="53.42913784" lon="-120.06622963">
      </trkpt>
      <trkpt lat="53.42915585" lon="-120.06584188">
      </trkpt>
      <trkpt lat="53.42918703" lon="-120.06553087">
      </trkpt>
      <trkpt lat="53.42918496" lon="-120.06520883">
      </trkpt>
      <trkpt lat="53.42918095" lon="-120.06484777">
      </trkpt>
      <trkpt lat="53.42920789" lon="-120.06454523">
      </trkpt>
      <trkpt lat="53.4292796" lon="-120.06411056">
      </trkpt>
      <trkpt lat="53.42935716" lon="-120.06379299">
      </trkpt>
      <trkpt lat="53.4294443" lon="-120.06329325">
      </trkpt>
      <trkpt lat="53.4295265" lon="-120.06297503">
      </trkpt>
      <trkpt lat="53.42964814" lon="-120.06269837">
      </trkpt>
      <trkpt lat="53.42975318" lon="-120.06246339">
      </trkpt>
      <trkpt lat="53.42981106" lon="-120.06221935">
      </trkpt>
      <trkpt lat="53.42986967" lon="-120.06189659">
      </trkpt>
      <trkpt lat="53.42989503" lon="-120.06156282">
      </trkpt>
      <trkpt lat="53.4300178" lon="-120.06121525">
      </trkpt>
      <trkpt lat="53.43016376" lon="-120.0608644">
      </trkpt>
      <trkpt lat="53.43032791" lon="-120.06059745">
      </trkpt>
      <trkpt lat="53.43050135" lon="-120.06032919">
      </trkpt>
      <trkpt lat="53.43068484" lon="-120.06007522">
      </trkpt>
      <trkpt lat="53.43088532" lon="-120.0597874">
      </trkpt>
      <trkpt lat="53.43105642" lon="-120.05947229">
      </trkpt>
      <trkpt lat="53.43118811" lon="-120.05920993">
      </trkpt>
      <trkpt lat="53.43133332" lon="-120.05893779">
      </trkpt>
      <trkpt lat="53.43149128" lon="-120.05864025">
      </trkpt>
      <trkpt lat="53.43158552" lon="-120.05846967">
      </trkpt>
      <trkpt lat="53.43166657" lon="-120.05822234">
      </trkpt>
      <trkpt lat="53.43174178" lon="-120.05785789">
      </trkpt>
      <trkpt lat="53.43179305" lon="-120.05757546">
      </trkpt>
      <trkpt lat="53.43185278" lon="-120.05718176">
      </trkpt>
      <trkpt lat="53.43190362" lon="-120.05679717">
      </trkpt>
      <trkpt lat="53.4319591" lon="-120.05641193">
      </trkpt>
      <trkpt lat="53.43201768" lon="-120.05608916">
      </trkpt>
      <trkpt lat="53.43209752" lon="-120.05572405">
      </trkpt>
      <trkpt lat="53.43218009" lon="-120.05541359">
      </trkpt>
      <trkpt lat="53.43230289" lon="-120.05516033">
      </trkpt>
      <trkpt lat="53.43245195" lon="-120.05487189">
      </trkpt>
      <trkpt lat="53.4325616" lon="-120.05463622">
      </trkpt>
      <trkpt lat="53.43263455" lon="-120.0544136">
      </trkpt>
      <trkpt lat="53.43267073" lon="-120.05410971">
      </trkpt>
      <trkpt lat="53.43271038" lon="-120.05378174">
      </trkpt>
      <trkpt lat="53.43277859" lon="-120.0533711">
      </trkpt>
      <trkpt lat="53.43285729" lon="-120.0530769">
      </trkpt>
      <trkpt lat="53.43294376" lon="-120.05284449">
      </trkpt>
      <trkpt lat="53.43298736" lon="-120.05268893">
      </trkpt>
      <trkpt lat="53.43308046" lon="-120.05258925">
      </trkpt>
      <trkpt lat="53.4332157" lon="-120.05249145">
      </trkpt>
      <trkpt lat="53.4333691" lon="-120.05238322">
      </trkpt>
      <trkpt lat="53.43349779" lon="-120.0523414">
      </trkpt>
      <trkpt lat="53.43360829" lon="-120.05221566">
      </trkpt>
      <trkpt lat="53.43369401" lon="-120.05206198">
      </trkpt>
      <trkpt lat="53.43373683" lon="-120.05189081">
      </trkpt>
      <trkpt lat="53.43375104" lon="-120.05170795">
      </trkpt>
      <trkpt lat="53.43373697" lon="-120.0514269">
      </trkpt>
      <trkpt lat="53.43373141" lon="-120.05112892">
      </trkpt>
      <trkpt lat="53.43374322" lon="-120.05080488">
      </trkpt>
      <trkpt lat="53.43376508" lon="-120.05049514">
      </trkpt>
      <trkpt lat="53.43382367" lon="-120.05017233">
      </trkpt>
      <trkpt lat="53.43391125" lon="-120.049869">
      </trkpt>
      <trkpt lat="53.43404247" lon="-120.04950445">
      </trkpt>
      <trkpt lat="53.43415788" lon="-120.04919716">
      </trkpt>
      <trkpt lat="53.43426982" lon="-120.04891395">
      </trkpt>
      <trkpt lat="53.43434773" lon="-120.04860412">
      </trkpt>
      <trkpt lat="53.43441095" lon="-120.04828064">
      </trkpt>
      <trkpt lat="53.43446952" lon="-120.04795784">
      </trkpt>
      <trkpt lat="53.43453195" lon="-120.04761875">
      </trkpt>
      <trkpt lat="53.43463188" lon="-120.0472822">
      </trkpt>
      <trkpt lat="53.43473683" lon="-120.0469528">
      </trkpt>
      <trkpt lat="53.4348291" lon="-120.04674315">
      </trkpt>
      <trkpt lat="53.43492795" lon="-120.04657187">
      </trkpt>
      <trkpt lat="53.43500239" lon="-120.04628611">
      </trkpt>
      <trkpt lat="53.4350632" lon="-120.04582143">
      </trkpt>
      <trkpt lat="53.43517111" lon="-120.04527145">
      </trkpt>
      <trkpt lat="53.43526175" lon="-120.04493621">
      </trkpt>
      <trkpt lat="53.43526472" lon="-120.04471564">
      </trkpt>
      <trkpt lat="53.43522902" lon="-120.04446909">
      </trkpt>
      <trkpt lat="53.43515352" lon="-120.04426751">
      </trkpt>
      <trkpt lat="53.43504595" lon="-120.04407834">
      </trkpt>
      <trkpt lat="53.43494805" lon="-120.04389568">
      </trkpt>
      <trkpt lat="53.43487568" lon="-120.04375656">
      </trkpt>
      <trkpt lat="53.43483305" lon="-120.04355817">
      </trkpt>
      <trkpt lat="53.43482092" lon="-120.04331616">
      </trkpt>
      <trkpt lat="53.43483662" lon="-120.04307017">
      </trkpt>
      <trkpt lat="53.4349257" lon="-120.04270371">
      </trkpt>
      <trkpt lat="53.43500789" lon="-120.04247975">
      </trkpt>
      <trkpt lat="53.43510786" lon="-120.04223753">
      </trkpt>
      <trkpt lat="53.43523716" lon="-120.04192823">
      </trkpt>
      <trkpt lat="53.43535373" lon="-120.04164435">
      </trkpt>
      <trkpt lat="53.43542468" lon="-120.04138266">
      </trkpt>
      <trkpt lat="53.43550526" lon="-120.04103311">
      </trkpt>
      <trkpt lat="53.43559857" lon="-120.04065816">
      </trkpt>
      <trkpt lat="53.43572513" lon="-120.04029422">
      </trkpt>
      <trkpt lat="53.43581185" lon="-120.03988089">
      </trkpt>
      <trkpt lat="53.43595259" lon="-120.03933407">
      </trkpt>
      <trkpt lat="53.4360849" lon="-120.03889854">
      </trkpt>
      <trkpt lat="53.43622995" lon="-120.0384376">
      </trkpt>
      <trkpt lat="53.43634487" lon="-120.03802812">
      </trkpt>
      <trkpt lat="53.43642309" lon="-120.0376317">
      </trkpt>
      <trkpt lat="53.43648196" lon="-120.03722233">
      </trkpt>
      <trkpt lat="53.43648982" lon="-120.03682019">
      </trkpt>
      <trkpt lat="53.43645946" lon="-120.03649425">
      </trkpt>
      <trkpt lat="53.43643262" lon="-120.03623858">
      </trkpt>
      <trkpt lat="53.43644668" lon="-120.03586702">
      </trkpt>
      <trkpt lat="53.43651672" lon="-120.035401">
      </trkpt>
      <trkpt lat="53.43660459" lon="-120.03501107">
      </trkpt>
      <trkpt lat="53.43666889" lon="-120.03461663">
      </trkpt>
      <trkpt lat="53.43675989" lon="-120.03428918">
      </trkpt>
      <trkpt lat="53.43685011" lon="-120.03394609">
      </trkpt>
      <trkpt lat="53.43698854" lon="-120.03344674">
      </trkpt>
      <trkpt lat="53.43711892" lon="-120.03306648">
      </trkpt>
      <trkpt lat="53.43724782" lon="-120.03274935">
      </trkpt>
      <trkpt lat="53.43734463" lon="-120.03244464">
      </trkpt>
      <trkpt lat="53.4374453" lon="-120.03212365">
      </trkpt>
      <trkpt lat="53.43757614" lon="-120.03184555">
      </trkpt>
      <trkpt lat="53.43765061" lon="-120.0316541">
      </trkpt>
      <trkpt lat="53.43765857" lon="-120.03144066">
      </trkpt>
      <trkpt lat="53.43762859" lon="-120.03112252">
      </trkpt>
      <trkpt lat="53.43760671" lon="-120.03077964">
      </trkpt>
      <trkpt lat="53.43764668" lon="-120.03045941">
      </trkpt>
      <trkpt lat="53.43775897" lon="-120.03018394">
      </trkpt>
      <trkpt lat="53.4378693" lon="-120.02986943">
      </trkpt>
      <trkpt lat="53.43797068" lon="-120.0294697">
      </trkpt>
      <trkpt lat="53.43811811" lon="-120.02914991">
      </trkpt>
      <trkpt lat="53.43828408" lon="-120.02882747">
      </trkpt>
      <trkpt lat="53.43850611" lon="-120.02850491">
      </trkpt>
      <trkpt lat="53.43862461" lon="-120.02826001">
      </trkpt>
      <trkpt lat="53.43882194" lon="-120.02800387">
      </trkpt>
      <trkpt lat="53.4389718" lon="-120.02782527">
      </trkpt>
      <trkpt lat="53.43907605" lon="-120.02766888">
      </trkpt>
      <trkpt lat="53.43912621" lon="-120.02755165">
      </trkpt>
      <trkpt lat="53.4391863" lon="-120.02725999">
      </trkpt>
      <trkpt lat="53.43923593" lon="-120.02694624">
      </trkpt>
      <trkpt lat="53.4392531" lon="-120.02663712">
      </trkpt>
      <trkpt lat="53.43930587" lon="-120.02638582">
      </trkpt>
      <trkpt lat="53.4393687" lon="-120.02614882">
      </trkpt>
      <trkpt lat="53.43940984" lon="-120.02585201">
      </trkpt>
      <trkpt lat="53.4394594" lon="-120.0254439">
      </trkpt>
      <trkpt lat="53.43952516" lon="-120.0249863">
      </trkpt>
      <trkpt lat="53.43961214" lon="-120.02448635">
      </trkpt>
      <trkpt lat="53.43971421" lon="-120.02400785">
      </trkpt>
      <trkpt lat="53.43980975" lon="-120.02358532">
      </trkpt>
      <trkpt lat="53.43992399" lon="-120.02334886">
      </trkpt>
      <trkpt lat="53.44014183" lon="-120.02312909">
      </trkpt>
      <trkpt lat="53.44028389" lon="-120.02288865">
      </trkpt>
      <trkpt lat="53.44042942" lon="-120.02262414">
      </trkpt>
      <trkpt lat="53.44056755" lon="-120.02230562">
      </trkpt>
      <trkpt lat="53.44070066" lon="-120.02197995">
      </trkpt>
      <trkpt lat="53.44080365" lon="-120.02170576">
      </trkpt>
      <trkpt lat="53.44088919" lon="-120.02136328">
      </trkpt>
      <trkpt lat="53.4409635" lon="-120.02098307">
      </trkpt>
      <trkpt lat="53.44108001" lon="-120.02069909">
      </trkpt>
      <trkpt lat="53.44117797" lon="-120.02041774">
      </trkpt>
      <trkpt lat="53.44129951" lon="-120.0201409">
      </trkpt>
      <trkpt lat="53.44138638" lon="-120.02001055">
      </trkpt>
      <trkpt lat="53.44146633" lon="-120.01992838">
      </trkpt>
      <trkpt lat="53.44152569" lon="-120.01971546">
      </trkpt>
      <trkpt lat="53.44162482" lon="-120.01945753">
      </trkpt>
      <trkpt lat="53.44175296" lon="-120.01921906">
      </trkpt>
      <trkpt lat="53.44185634" lon="-120.01895266">
      </trkpt>
      <trkpt lat="53.44192184" lon="-120.01867593">
      </trkpt>
      <trkpt lat="53.44197027" lon="-120.01833873">
      </trkpt>
      <trkpt lat="53.44209786" lon="-120.01790372">
      </trkpt>
      <trkpt lat="53.44223402" lon="-120.01754614">
      </trkpt>
      <trkpt lat="53.44238071" lon="-120.01730502">
      </trkpt>
      <trkpt lat="53.44250075" lon="-120.01709129">
      </trkpt>
      <trkpt lat="53.44262424" lon="-120.01685346">
      </trkpt>
      <trkpt lat="53.44273108" lon="-120.01656297">
      </trkpt>
      <trkpt lat="53.44277566" lon="-120.01624204">
      </trkpt>
      <trkpt lat="53.4428067" lon="-120.01593089">
      </trkpt>
      <trkpt lat="53.44280985" lon="-120.01552935">
      </trkpt>
      <trkpt lat="53.44283163" lon="-120.01521953">
      </trkpt>
      <trkpt lat="53.44289035" lon="-120.01500094">
      </trkpt>
      <trkpt lat="53.44296098" lon="-120.01478502">
      </trkpt>
      <trkpt lat="53.44304903" lon="-120.01460356">
      </trkpt>
      <trkpt lat="53.44314848" lon="-120.01439936">
      </trkpt>
      <trkpt lat="53.44327334" lon="-120.0142021">
      </trkpt>
      <trkpt lat="53.44342259" lon="-120.01399079">
      </trkpt>
      <trkpt lat="53.4436009" lon="-120.01379645">
      </trkpt>
      <trkpt lat="53.4437341" lon="-120.0136402">
      </trkpt>
      <trkpt lat="53.44386235" lon="-120.01344772">
      </trkpt>
      <trkpt lat="53.44393515" lon="-120.01333706">
      </trkpt>
      <trkpt lat="53.44400563" lon="-120.01324254">
      </trkpt>
      <trkpt lat="53.44413493" lon="-120.01307103">
      </trkpt>
      <trkpt lat="53.44423959" lon="-120.01290829">
      </trkpt>
      <trkpt lat="53.44438778" lon="-120.01267602">
      </trkpt>
      <trkpt lat="53.44452795" lon="-120.01247128">
      </trkpt>
      <trkpt lat="53.44471606" lon="-120.01222273">
      </trkpt>
      <trkpt lat="53.44487828" lon="-120.01202011">
      </trkpt>
      <trkpt lat="53.44504931" lon="-120.01180568">
      </trkpt>
      <trkpt lat="53.44517728" lon="-120.01160796">
      </trkpt>
      <trkpt lat="53.44533449" lon="-120.01130576">
      </trkpt>
      <trkpt lat="53.44546035" lon="-120.0110661">
      </trkpt>
      <trkpt lat="53.44558986" lon="-120.01083648">
      </trkpt>
      <trkpt lat="53.44573884" lon="-120.0106199">
      </trkpt>
      <trkpt lat="53.44584845" lon="-120.01049341">
      </trkpt>
      <trkpt lat="53.44594694" lon="-120.01039489">
      </trkpt>
      <trkpt lat="53.4460773" lon="-120.01024432">
      </trkpt>
      <trkpt lat="53.44615162" lon="-120.01010174">
      </trkpt>
      <trkpt lat="53.44624383" lon="-120.00994077">
      </trkpt>
      <trkpt lat="53.44631426" lon="-120.00978292">
      </trkpt>
      <trkpt lat="53.44638389" lon="-120.00960935">
      </trkpt>
      <trkpt lat="53.44646623" lon="-120.00943923">
      </trkpt>
      <trkpt lat="53.44656671" lon="-120.00925597">
      </trkpt>
      <trkpt lat="53.44668203" lon="-120.0091181">
      </trkpt>
      <trkpt lat="53.44679244" lon="-120.00900732">
      </trkpt>
      <trkpt lat="53.4469008" lon="-120.00891794">
      </trkpt>
      <trkpt lat="53.44702962" lon="-120.00879924">
      </trkpt>
      <trkpt lat="53.44714547" lon="-120.00867185">
      </trkpt>
      <trkpt lat="53.44724885" lon="-120.00854623">
      </trkpt>
      <trkpt lat="53.44735483" lon="-120.00840968">
      </trkpt>
      <trkpt lat="53.44745817" lon="-120.00822073">
      </trkpt>
      <trkpt lat="53.44754985" lon="-120.00804927">
      </trkpt>
      <trkpt lat="53.44763762" lon="-120.00786254">
      </trkpt>
      <trkpt lat="53.44769971" lon="-120.00766364">
      </trkpt>
      <trkpt lat="53.44775688" lon="-120.00749183">
      </trkpt>
      <trkpt lat="53.44780081" lon="-120.00730608">
      </trkpt>
      <trkpt lat="53.44790979" lon="-120.00704242">
      </trkpt>
      <trkpt lat="53.44802452" lon="-120.0068307">
      </trkpt>
      <trkpt lat="53.44815818" lon="-120.00662157">
      </trkpt>
      <trkpt lat="53.44829032" lon="-120.00644434">
      </trkpt>
      <trkpt lat="53.44842035" lon="-120.00622517">
      </trkpt>
      <trkpt lat="53.44853718" lon="-120.00605539">
      </trkpt>
      <trkpt lat="53.44866204" lon="-120.00585806">
      </trkpt>
      <trkpt lat="53.44876174" lon="-120.00565905">
      </trkpt>
      <trkpt lat="53.44886818" lon="-120.00546964">
      </trkpt>
      <trkpt lat="53.44896165" lon="-120.00527153">
      </trkpt>
      <trkpt lat="53.44904267" lon="-120.00507518">
      </trkpt>
      <trkpt lat="53.44912938" lon="-120.00486748">
      </trkpt>
      <trkpt lat="53.44921714" lon="-120.00468072">
      </trkpt>
      <trkpt lat="53.44930649" lon="-120.00452542">
      </trkpt>
      <trkpt lat="53.44938889" lon="-120.00441862">
      </trkpt>
      <trkpt lat="53.44947102" lon="-120.00430659">
      </trkpt>
      <trkpt lat="53.44961123" lon="-120.00416513">
      </trkpt>
      <trkpt lat="53.44970217" lon="-120.00404127">
      </trkpt>
      <trkpt lat="53.44982497" lon="-120.00386536">
      </trkpt>
      <trkpt lat="53.44995399" lon="-120.00368854">
      </trkpt>
      <trkpt lat="53.45008818" lon="-120.00348986">
      </trkpt>
      <trkpt lat="53.45020965" lon="-120.00328774">
      </trkpt>
      <trkpt lat="53.45034279" lon="-120.0030681">
      </trkpt>
      <trkpt lat="53.4504832" lon="-120.00286854">
      </trkpt>
      <trkpt lat="53.45061064" lon="-120.00266027">
      </trkpt>
      <trkpt lat="53.45071085" lon="-120.00247173">
      </trkpt>
      <trkpt lat="53.45083828" lon="-120.00226346">
      </trkpt>
      <trkpt lat="53.45096029" lon="-120.0020718">
      </trkpt>
      <trkpt lat="53.45106461" lon="-120.00184045">
      </trkpt>
      <trkpt lat="53.45116894" lon="-120.00160908">
      </trkpt>
      <trkpt lat="53.45125881" lon="-120.00146424">
      </trkpt>
      <trkpt lat="53.45135777" lon="-120.00131284">
      </trkpt>
      <trkpt lat="53.45143466" lon="-120.0011593">
      </trkpt>
      <trkpt lat="53.45149859" lon="-120.00099707">
      </trkpt>
      <trkpt lat="53.45157774" lon="-120.00076401">
      </trkpt>
      <trkpt lat="53.45170285" lon="-120.0005719">
      </trkpt>
      <trkpt lat="53.45180982" lon="-120.00039295">
      </trkpt>
      <trkpt lat="53.45193308" lon="-120.00016415">
      </trkpt>
      <trkpt lat="53.45205892" lon="-119.99992441">
      </trkpt>
      <trkpt lat="53.45217443" lon="-119.99972839">
      </trkpt>
      <trkpt lat="53.45230213" lon="-119.99952535">
      </trkpt>
      <trkpt lat="53.45242233" lon="-119.99936032">
      </trkpt>
      <trkpt lat="53.45261823" lon="-119.99914224">
      </trkpt>
      <trkpt lat="53.45279625" lon="-119.99894255">
      </trkpt>
      <trkpt lat="53.45294838" lon="-119.9987888">
      </trkpt>
      <trkpt lat="53.45305699" lon="-119.99870463">
      </trkpt>
      <trkpt lat="53.45321798" lon="-119.9986024">
      </trkpt>
      <trkpt lat="53.45342428" lon="-119.99840394">
      </trkpt>
      <trkpt lat="53.45362304" lon="-119.99818015">
      </trkpt>
      <trkpt lat="53.45380264" lon="-119.9980119">
      </trkpt>
      <trkpt lat="53.45403052" lon="-119.99786842">
      </trkpt>
      <trkpt lat="53.45422622" lon="-119.99770842">
      </trkpt>
      <trkpt lat="53.45438926" lon="-119.99758477">
      </trkpt>
      <trkpt lat="53.4545847" lon="-119.99741953">
      </trkpt>
      <trkpt lat="53.45483437" lon="-119.99727292">
      </trkpt>
      <trkpt lat="53.45496993" lon="-119.99716376">
      </trkpt>
      <trkpt lat="53.45519602" lon="-119.99704692">
      </trkpt>
      <trkpt lat="53.45543377" lon="-119.99691259">
      </trkpt>
      <trkpt lat="53.45564841" lon="-119.99675514">
      </trkpt>
      <trkpt lat="53.45582907" lon="-119.99660783">
      </trkpt>
      <trkpt lat="53.45594284" lon="-119.9965018">
      </trkpt>
      <trkpt lat="53.45615469" lon="-119.99641339">
      </trkpt>
      <trkpt lat="53.45638927" lon="-119.99621614">
      </trkpt>
      <trkpt lat="53.45663165" lon="-119.99604944">
      </trkpt>
      <trkpt lat="53.45678873" lon="-119.99593191">
      </trkpt>
      <trkpt lat="53.45691185" lon="-119.99582451">
      </trkpt>
      <trkpt lat="53.45708761" lon="-119.99570431">
      </trkpt>
      <trkpt lat="53.45731257" lon="-119.99550315">
      </trkpt>
      <trkpt lat="53.45749919" lon="-119.9953497">
      </trkpt>
      <trkpt lat="53.45768972" lon="-119.99521155">
      </trkpt>
      <trkpt lat="53.45788958" lon="-119.99507204">
      </trkpt>
      <trkpt lat="53.45813118" lon="-119.99488961">
      </trkpt>
      <trkpt lat="53.45840421" lon="-119.9947713">
      </trkpt>
      <trkpt lat="53.45862169" lon="-119.99460814">
      </trkpt>
      <trkpt lat="53.4588091" lon="-119.99447043">
      </trkpt>
      <trkpt lat="53.45900042" lon="-119.99434799">
      </trkpt>
      <trkpt lat="53.45923857" lon="-119.99409739">
      </trkpt>
      <trkpt lat="53.45945155" lon="-119.99384512">
      </trkpt>
      <trkpt lat="53.45965082" lon="-119.99363176">
      </trkpt>
      <trkpt lat="53.45987525" lon="-119.99342008">
      </trkpt>
      <trkpt lat="53.46006836" lon="-119.99327098">
      </trkpt>
      <trkpt lat="53.46031021" lon="-119.99309376">
      </trkpt>
      <trkpt lat="53.46050849" lon="-119.99292279">
      </trkpt>
      <trkpt lat="53.46066245" lon="-119.99280568">
      </trkpt>
      <trkpt lat="53.46083636" lon="-119.99264876">
      </trkpt>
      <trkpt lat="53.46106728" lon="-119.99244142">
      </trkpt>
      <trkpt lat="53.46127615" lon="-119.99223196">
      </trkpt>
      <trkpt lat="53.46146038" lon="-119.99203129">
      </trkpt>
      <trkpt lat="53.46170528" lon="-119.99179027">
      </trkpt>
      <trkpt lat="53.46194394" lon="-119.99155013">
      </trkpt>
      <trkpt lat="53.46214798" lon="-119.99143112">
      </trkpt>
      <trkpt lat="53.46251769" lon="-119.99124084">
      </trkpt>
      <trkpt lat="53.46267326" lon="-119.99115518">
      </trkpt>
      <trkpt lat="53.46289874" lon="-119.99096444">
      </trkpt>
      <trkpt lat="53.46313827" lon="-119.99080338">
      </trkpt>
      <trkpt lat="53.46340786" lon="-119.99061687">
      </trkpt>
      <trkpt lat="53.46365487" lon="-119.99041777">
      </trkpt>
      <trkpt lat="53.4638991" lon="-119.99028771">
      </trkpt>
      <trkpt lat="53.46423021" lon="-119.9901399">
      </trkpt>
      <trkpt lat="53.46435828" lon="-119.99006874">
      </trkpt>
      <trkpt lat="53.46450397" lon="-119.98997392">
      </trkpt>
      <trkpt lat="53.46470562" lon="-119.98980772">
      </trkpt>
      <trkpt lat="53.46487641" lon="-119.98965121">
      </trkpt>
      <trkpt lat="53.46509745" lon="-119.98943468">
      </trkpt>
      <trkpt lat="53.46528963" lon="-119.98914309">
      </trkpt>
      <trkpt lat="53.4654922" lon="-119.98887112">
      </trkpt>
      <trkpt lat="53.46571709" lon="-119.98860651">
      </trkpt>
      <trkpt lat="53.46599177" lon="-119.98833475">
      </trkpt>
      <trkpt lat="53.46617303" lon="-119.98826123">
      </trkpt>
      <trkpt lat="53.46627335" lon="-119.98819931">
      </trkpt>
      <trkpt lat="53.46651836" lon="-119.98808497">
      </trkpt>
      <trkpt lat="53.46685027" lon="-119.98795287">
      </trkpt>
      <trkpt lat="53.46709946" lon="-119.98785904">
      </trkpt>
      <trkpt lat="53.46737283" lon="-119.98780928">
      </trkpt>
      <trkpt lat="53.46762467" lon="-119.98776787">
      </trkpt>
      <trkpt lat="53.46786876" lon="-119.98775927">
      </trkpt>
      <trkpt lat="53.46813955" lon="-119.98772044">
      </trkpt>
      <trkpt lat="53.46835298" lon="-119.98766342">
      </trkpt>
      <trkpt lat="53.46858203" lon="-119.98766754">
      </trkpt>
      <trkpt lat="53.46886249" lon="-119.98769598">
      </trkpt>
      <trkpt lat="53.46918135" lon="-119.98774003">
      </trkpt>
      <trkpt lat="53.4694561" lon="-119.98777984">
      </trkpt>
      <trkpt lat="53.46980059" lon="-119.98777269">
      </trkpt>
      <trkpt lat="53.47006601" lon="-119.98781384">
      </trkpt>
      <trkpt lat="53.47016951" lon="-119.98781485">
      </trkpt>
      <trkpt lat="53.47029686" lon="-119.98779129">
      </trkpt>
      <trkpt lat="53.47050512" lon="-119.98775615">
      </trkpt>
      <trkpt lat="53.47072147" lon="-119.98775681">
      </trkpt>
      <trkpt lat="53.47086775" lon="-119.98773582">
      </trkpt>
      <trkpt lat="53.4709929" lon="-119.98760695">
      </trkpt>
      <trkpt lat="53.47112025" lon="-119.98758341">
      </trkpt>
      <trkpt lat="53.4712031" lon="-119.98767188">
      </trkpt>
      <trkpt lat="53.47127455" lon="-119.98778311">
      </trkpt>
    </trkseg>
  </trk>
</gpx>