<?xml version="1.0" encoding="UTF-8"?>
<gpx xmlns="http://www.topografix.com/GPX/1/1" xmlns:xsi="http://www.w3.org/2001/XMLSchema-instance" xsi:schemaLocation="http://www.topografix.com/GPX/1/1 http://www.topografix.com/GPX/1/1/gpx.xsd" version="1.1" creator="gpx.py -- https://github.com/tkrajina/gpxpy">
  <trk>
    <name>Tacheeda Lookout Trail</name>
    <trkseg>
      <trkpt lat="54.70144825" lon="-122.53039606">
      </trkpt>
      <trkpt lat="54.70146426" lon="-122.53012275">
      </trkpt>
      <trkpt lat="54.70146746" lon="-122.52989999">
      </trkpt>
      <trkpt lat="54.70150162" lon="-122.52976522">
      </trkpt>
      <trkpt lat="54.70151801" lon="-122.52967318">
      </trkpt>
      <trkpt lat="54.70154558" lon="-122.52947306">
      </trkpt>
      <trkpt lat="54.70158781" lon="-122.52928818">
      </trkpt>
      <trkpt lat="54.70162532" lon="-122.52910368">
      </trkpt>
      <trkpt lat="54.70163892" lon="-122.52891299">
      </trkpt>
      <trkpt lat="54.70169675" lon="-122.5287762">
      </trkpt>
      <trkpt lat="54.70173564" lon="-122.52864105">
      </trkpt>
      <trkpt lat="54.70180838" lon="-122.52852771">
      </trkpt>
      <trkpt lat="54.70188563" lon="-122.52840577">
      </trkpt>
      <trkpt lat="54.7019631" lon="-122.52829204">
      </trkpt>
      <trkpt lat="54.70203607" lon="-122.52818693">
      </trkpt>
      <trkpt lat="54.70213132" lon="-122.52803048">
      </trkpt>
      <trkpt lat="54.70225048" lon="-122.52788023">
      </trkpt>
      <trkpt lat="54.70234977" lon="-122.52769871">
      </trkpt>
      <trkpt lat="54.70242088" lon="-122.52752784">
      </trkpt>
      <trkpt lat="54.70252295" lon="-122.52744498">
      </trkpt>
      <trkpt lat="54.70264824" lon="-122.52734365">
      </trkpt>
      <trkpt lat="54.70277872" lon="-122.52725835">
      </trkpt>
      <trkpt lat="54.70285898" lon="-122.52724327">
      </trkpt>
      <trkpt lat="54.70297597" lon="-122.52718385">
      </trkpt>
      <trkpt lat="54.70310288" lon="-122.52714006">
      </trkpt>
      <trkpt lat="54.70317321" lon="-122.52710935">
      </trkpt>
      <trkpt lat="54.70328234" lon="-122.52710829">
      </trkpt>
      <trkpt lat="54.70336757" lon="-122.52710102">
      </trkpt>
      <trkpt lat="54.70354378" lon="-122.52695414">
      </trkpt>
      <trkpt lat="54.70360984" lon="-122.52694027">
      </trkpt>
      <trkpt lat="54.70371238" lon="-122.52687384">
      </trkpt>
      <trkpt lat="54.70381181" lon="-122.52686537">
      </trkpt>
      <trkpt lat="54.70391357" lon="-122.52693911">
      </trkpt>
      <trkpt lat="54.7040047" lon="-122.52697255">
      </trkpt>
      <trkpt lat="54.70411407" lon="-122.5269797">
      </trkpt>
      <trkpt lat="54.70417942" lon="-122.52694116">
      </trkpt>
      <trkpt lat="54.70427087" lon="-122.52681799">
      </trkpt>
      <trkpt lat="54.7044092" lon="-122.52667433">
      </trkpt>
      <trkpt lat="54.70448286" lon="-122.52659389">
      </trkpt>
      <trkpt lat="54.70455157" lon="-122.52650562">
      </trkpt>
      <trkpt lat="54.70463424" lon="-122.52640791">
      </trkpt>
      <trkpt lat="54.70472187" lon="-122.52631804">
      </trkpt>
      <trkpt lat="54.70483435" lon="-122.52626724">
      </trkpt>
      <trkpt lat="54.70492812" lon="-122.52622627">
      </trkpt>
      <trkpt lat="54.7050541" lon="-122.5261496">
      </trkpt>
      <trkpt lat="54.7051436" lon="-122.52612548">
      </trkpt>
      <trkpt lat="54.70521797" lon="-122.52606969">
      </trkpt>
      <trkpt lat="54.70533828" lon="-122.52596053">
      </trkpt>
      <trkpt lat="54.70543089" lon="-122.52587847">
      </trkpt>
      <trkpt lat="54.7055318" lon="-122.52575447">
      </trkpt>
      <trkpt lat="54.705605" lon="-122.52565759">
      </trkpt>
      <trkpt lat="54.70570499" lon="-122.52550071">
      </trkpt>
      <trkpt lat="54.70575925" lon="-122.52540543">
      </trkpt>
      <trkpt lat="54.70582135" lon="-122.52525178">
      </trkpt>
      <trkpt lat="54.70583611" lon="-122.52510218">
      </trkpt>
      <trkpt lat="54.70583076" lon="-122.52491308">
      </trkpt>
      <trkpt lat="54.70579376" lon="-122.5248002">
      </trkpt>
      <trkpt lat="54.70575336" lon="-122.5247126">
      </trkpt>
      <trkpt lat="54.70569946" lon="-122.52458135">
      </trkpt>
      <trkpt lat="54.70564557" lon="-122.52434054">
      </trkpt>
      <trkpt lat="54.70564557" lon="-122.52425303">
      </trkpt>
      <trkpt lat="54.70575337" lon="-122.52359648">
      </trkpt>
      <trkpt lat="54.70575336" lon="-122.52344326">
      </trkpt>
      <trkpt lat="54.70563208" lon="-122.52293984">
      </trkpt>
      <trkpt lat="54.70557818" lon="-122.52267723">
      </trkpt>
      <trkpt lat="54.70557818" lon="-122.52245838">
      </trkpt>
      <trkpt lat="54.7054165" lon="-122.52202059">
      </trkpt>
      <trkpt lat="54.7053491" lon="-122.52173611">
      </trkpt>
      <trkpt lat="54.70528172" lon="-122.52147341">
      </trkpt>
      <trkpt lat="54.70518742" lon="-122.52134215">
      </trkpt>
      <trkpt lat="54.70505272" lon="-122.52118894">
      </trkpt>
      <trkpt lat="54.70495834" lon="-122.52097009">
      </trkpt>
      <trkpt lat="54.70483706" lon="-122.52059801">
      </trkpt>
      <trkpt lat="54.70467537" lon="-122.52002897">
      </trkpt>
      <trkpt lat="54.70460798" lon="-122.51970065">
      </trkpt>
      <trkpt lat="54.70447328" lon="-122.51952555">
      </trkpt>
      <trkpt lat="54.70441938" lon="-122.51943804">
      </trkpt>
      <trkpt lat="54.70439239" lon="-122.51932858">
      </trkpt>
      <trkpt lat="54.70439239" lon="-122.51908784">
      </trkpt>
      <trkpt lat="54.7042981" lon="-122.51880328">
      </trkpt>
      <trkpt lat="54.70419031" lon="-122.51862819">
      </trkpt>
      <trkpt lat="54.70402862" lon="-122.51838745">
      </trkpt>
      <trkpt lat="54.70394773" lon="-122.51821235">
      </trkpt>
      <trkpt lat="54.70388034" lon="-122.51757767">
      </trkpt>
      <trkpt lat="54.70382645" lon="-122.51731499">
      </trkpt>
      <trkpt lat="54.70379955" lon="-122.51724935">
      </trkpt>
      <trkpt lat="54.70374565" lon="-122.51689916">
      </trkpt>
      <trkpt lat="54.70374564" lon="-122.51665844">
      </trkpt>
      <trkpt lat="54.70367826" lon="-122.51650521">
      </trkpt>
      <trkpt lat="54.70353006" lon="-122.51635199">
      </trkpt>
      <trkpt lat="54.70342228" lon="-122.51617689">
      </trkpt>
      <trkpt lat="54.70336837" lon="-122.51602376">
      </trkpt>
      <trkpt lat="54.70328749" lon="-122.51584866">
      </trkpt>
      <trkpt lat="54.7032201" lon="-122.51565169">
      </trkpt>
      <trkpt lat="54.7031393" lon="-122.51541087">
      </trkpt>
      <trkpt lat="54.70289672" lon="-122.51530149">
      </trkpt>
      <trkpt lat="54.70269464" lon="-122.51506076">
      </trkpt>
      <trkpt lat="54.70265416" lon="-122.51499504">
      </trkpt>
      <trkpt lat="54.70251946" lon="-122.51499504">
      </trkpt>
      <trkpt lat="54.70226339" lon="-122.51490754">
      </trkpt>
      <trkpt lat="54.7021556" lon="-122.51481995">
      </trkpt>
      <trkpt lat="54.70198042" lon="-122.51457922">
      </trkpt>
      <trkpt lat="54.70185914" lon="-122.51427278">
      </trkpt>
      <trkpt lat="54.70173793" lon="-122.51407581">
      </trkpt>
      <trkpt lat="54.70160315" lon="-122.51385696">
      </trkpt>
      <trkpt lat="54.70129872" lon="-122.51334926">
      </trkpt>
      <trkpt lat="54.70125832" lon="-122.51319604">
      </trkpt>
      <trkpt lat="54.70113703" lon="-122.51302093">
      </trkpt>
      <trkpt lat="54.70094836" lon="-122.51280209">
      </trkpt>
      <trkpt lat="54.70084056" lon="-122.5126927">
      </trkpt>
      <trkpt lat="54.70070578" lon="-122.51251761">
      </trkpt>
      <trkpt lat="54.70055759" lon="-122.51227679">
      </trkpt>
      <trkpt lat="54.7004229" lon="-122.51201419">
      </trkpt>
      <trkpt lat="54.70032851" lon="-122.51170775">
      </trkpt>
      <trkpt lat="54.70023421" lon="-122.5113138">
      </trkpt>
      <trkpt lat="54.70018032" lon="-122.51107307">
      </trkpt>
      <trkpt lat="54.70018032" lon="-122.51091986">
      </trkpt>
      <trkpt lat="54.70005904" lon="-122.510701">
      </trkpt>
      <trkpt lat="54.69987036" lon="-122.51037269">
      </trkpt>
      <trkpt lat="54.69976257" lon="-122.51013195">
      </trkpt>
      <trkpt lat="54.69969526" lon="-122.50984746">
      </trkpt>
      <trkpt lat="54.69969526" lon="-122.50951915">
      </trkpt>
      <trkpt lat="54.69969526" lon="-122.50910333">
      </trkpt>
      <trkpt lat="54.69968177" lon="-122.50888448">
      </trkpt>
      <trkpt lat="54.69961437" lon="-122.50855615">
      </trkpt>
      <trkpt lat="54.69952007" lon="-122.50820596">
      </trkpt>
      <trkpt lat="54.69947959" lon="-122.50803086">
      </trkpt>
      <trkpt lat="54.69947959" lon="-122.50783389">
      </trkpt>
      <trkpt lat="54.69949309" lon="-122.50761504">
      </trkpt>
      <trkpt lat="54.69950658" lon="-122.5074837">
      </trkpt>
      <trkpt lat="54.69954699" lon="-122.50737431">
      </trkpt>
      <trkpt lat="54.69945269" lon="-122.50693651">
      </trkpt>
      <trkpt lat="54.6993718" lon="-122.5067833">
      </trkpt>
      <trkpt lat="54.69925051" lon="-122.50673954">
      </trkpt>
      <trkpt lat="54.69912931" lon="-122.50665203">
      </trkpt>
      <trkpt lat="54.69903493" lon="-122.50665204">
      </trkpt>
      <trkpt lat="54.69895413" lon="-122.50665204">
      </trkpt>
      <trkpt lat="54.69877895" lon="-122.50647694">
      </trkpt>
      <trkpt lat="54.69865767" lon="-122.50641131">
      </trkpt>
      <trkpt lat="54.69848248" lon="-122.50636747">
      </trkpt>
      <trkpt lat="54.69823991" lon="-122.50638935">
      </trkpt>
      <trkpt lat="54.69814561" lon="-122.50647693">
      </trkpt>
      <trkpt lat="54.69799742" lon="-122.50654257">
      </trkpt>
      <trkpt lat="54.69799742" lon="-122.50678329">
      </trkpt>
      <trkpt lat="54.69786264" lon="-122.50695839">
      </trkpt>
      <trkpt lat="54.69772794" lon="-122.50702411">
      </trkpt>
      <trkpt lat="54.69748537" lon="-122.50698035">
      </trkpt>
      <trkpt lat="54.69735059" lon="-122.50698035">
      </trkpt>
      <trkpt lat="54.6972024" lon="-122.50698035">
      </trkpt>
      <trkpt lat="54.69706761" lon="-122.50689276">
      </trkpt>
      <trkpt lat="54.69687903" lon="-122.50673955">
      </trkpt>
      <trkpt lat="54.69671734" lon="-122.50660828">
      </trkpt>
      <trkpt lat="54.69660955" lon="-122.50649881">
      </trkpt>
      <trkpt lat="54.69651517" lon="-122.50623622">
      </trkpt>
      <trkpt lat="54.69639388" lon="-122.50612675">
      </trkpt>
      <trkpt lat="54.69625918" lon="-122.50601728">
      </trkpt>
      <trkpt lat="54.6961244" lon="-122.5058203">
      </trkpt>
      <trkpt lat="54.69601661" lon="-122.50557957">
      </trkpt>
      <trkpt lat="54.6959762" lon="-122.50549207">
      </trkpt>
      <trkpt lat="54.69592232" lon="-122.50536072">
      </trkpt>
      <trkpt lat="54.69585492" lon="-122.50518562">
      </trkpt>
      <trkpt lat="54.69580102" lon="-122.5050324">
      </trkpt>
      <trkpt lat="54.69569324" lon="-122.50479167">
      </trkpt>
      <trkpt lat="54.69562584" lon="-122.50472604">
      </trkpt>
      <trkpt lat="54.69563934" lon="-122.50455094">
      </trkpt>
      <trkpt lat="54.69557195" lon="-122.50435398">
      </trkpt>
      <trkpt lat="54.69549106" lon="-122.50413512">
      </trkpt>
      <trkpt lat="54.69542376" lon="-122.50402564">
      </trkpt>
      <trkpt lat="54.69527548" lon="-122.50396002">
      </trkpt>
      <trkpt lat="54.69519468" lon="-122.5037192">
      </trkpt>
      <trkpt lat="54.69508689" lon="-122.50352224">
      </trkpt>
      <trkpt lat="54.69499251" lon="-122.50341285">
      </trkpt>
      <trkpt lat="54.69488472" lon="-122.50325963">
      </trkpt>
      <trkpt lat="54.69477693" lon="-122.50310641">
      </trkpt>
      <trkpt lat="54.69471239" lon="-122.50301454">
      </trkpt>
      <trkpt lat="54.6945776" lon="-122.50277381">
      </trkpt>
      <trkpt lat="54.69446982" lon="-122.50259872">
      </trkpt>
      <trkpt lat="54.69433512" lon="-122.50242361">
      </trkpt>
      <trkpt lat="54.69413294" lon="-122.50216101">
      </trkpt>
      <trkpt lat="54.69402515" lon="-122.50198591">
      </trkpt>
      <trkpt lat="54.69394435" lon="-122.50183269">
      </trkpt>
      <trkpt lat="54.69386347" lon="-122.50157009">
      </trkpt>
      <trkpt lat="54.69378266" lon="-122.50137303">
      </trkpt>
      <trkpt lat="54.69363439" lon="-122.50137304">
      </trkpt>
      <trkpt lat="54.693567" lon="-122.50139498">
      </trkpt>
      <trkpt lat="54.69340531" lon="-122.50137302">
      </trkpt>
      <trkpt lat="54.69328402" lon="-122.50135116">
      </trkpt>
      <trkpt lat="54.69305503" lon="-122.50126365">
      </trkpt>
      <trkpt lat="54.69287985" lon="-122.50106667">
      </trkpt>
      <trkpt lat="54.69274507" lon="-122.50082595">
      </trkpt>
      <trkpt lat="54.69259688" lon="-122.50065084">
      </trkpt>
      <trkpt lat="54.69252948" lon="-122.50047575">
      </trkpt>
      <trkpt lat="54.69217913" lon="-122.50014743">
      </trkpt>
      <trkpt lat="54.69184225" lon="-122.50023494">
      </trkpt>
      <trkpt lat="54.69149189" lon="-122.49984098">
      </trkpt>
      <trkpt lat="54.69128981" lon="-122.49968784">
      </trkpt>
      <trkpt lat="54.69111462" lon="-122.49955651">
      </trkpt>
      <trkpt lat="54.69085864" lon="-122.49940328">
      </trkpt>
      <trkpt lat="54.69073735" lon="-122.49933765">
      </trkpt>
      <trkpt lat="54.69062956" lon="-122.49909684">
      </trkpt>
      <trkpt lat="54.69048129" lon="-122.49885612">
      </trkpt>
      <trkpt lat="54.69042739" lon="-122.49857163">
      </trkpt>
      <trkpt lat="54.6902792" lon="-122.4979807">
      </trkpt>
      <trkpt lat="54.6902253" lon="-122.49773989">
      </trkpt>
      <trkpt lat="54.690131" lon="-122.49758676">
      </trkpt>
      <trkpt lat="54.69006362" lon="-122.49738979">
      </trkpt>
      <trkpt lat="54.68998272" lon="-122.49723655">
      </trkpt>
      <trkpt lat="54.68998273" lon="-122.49708334">
      </trkpt>
      <trkpt lat="54.68990193" lon="-122.49697387">
      </trkpt>
      <trkpt lat="54.68983454" lon="-122.49695199">
      </trkpt>
      <trkpt lat="54.68980755" lon="-122.49677689">
      </trkpt>
      <trkpt lat="54.68972674" lon="-122.49668938">
      </trkpt>
      <trkpt lat="54.68965935" lon="-122.49657992">
      </trkpt>
      <trkpt lat="54.68965935" lon="-122.49647054">
      </trkpt>
      <trkpt lat="54.68952458" lon="-122.4960766">
      </trkpt>
      <trkpt lat="54.68938987" lon="-122.49574827">
      </trkpt>
      <trkpt lat="54.68933598" lon="-122.49559506">
      </trkpt>
      <trkpt lat="54.68922819" lon="-122.49528861">
      </trkpt>
      <trkpt lat="54.68910691" lon="-122.49498224">
      </trkpt>
      <trkpt lat="54.68901261" lon="-122.49471956">
      </trkpt>
      <trkpt lat="54.68887782" lon="-122.49443507">
      </trkpt>
      <trkpt lat="54.68875654" lon="-122.49428185">
      </trkpt>
      <trkpt lat="54.68854096" lon="-122.4939755">
      </trkpt>
      <trkpt lat="54.68833887" lon="-122.49382228">
      </trkpt>
      <trkpt lat="54.68821759" lon="-122.49371281">
      </trkpt>
      <trkpt lat="54.68805589" lon="-122.49362531">
      </trkpt>
      <trkpt lat="54.68796152" lon="-122.49351583">
      </trkpt>
      <trkpt lat="54.68782682" lon="-122.49323135">
      </trkpt>
      <trkpt lat="54.68775943" lon="-122.49310001">
      </trkpt>
      <trkpt lat="54.68762465" lon="-122.49296866">
      </trkpt>
      <trkpt lat="54.68753035" lon="-122.49296866">
      </trkpt>
      <trkpt lat="54.68742256" lon="-122.49283741">
      </trkpt>
      <trkpt lat="54.68730127" lon="-122.49272793">
      </trkpt>
      <trkpt lat="54.68716657" lon="-122.49257472">
      </trkpt>
      <trkpt lat="54.6868836" lon="-122.49255284">
      </trkpt>
      <trkpt lat="54.68667347" lon="-122.4925354">
      </trkpt>
      <trkpt lat="54.68655218" lon="-122.49253541">
      </trkpt>
      <trkpt lat="54.68645789" lon="-122.49246968">
      </trkpt>
      <trkpt lat="54.68626921" lon="-122.49236031">
      </trkpt>
      <trkpt lat="54.68605362" lon="-122.49246968">
      </trkpt>
      <trkpt lat="54.68587845" lon="-122.49266666">
      </trkpt>
      <trkpt lat="54.68574367" lon="-122.49277613">
      </trkpt>
      <trkpt lat="54.68547419" lon="-122.49303874">
      </trkpt>
      <trkpt lat="54.6853529" lon="-122.49325759">
      </trkpt>
      <trkpt lat="54.68524511" lon="-122.49338894">
      </trkpt>
      <trkpt lat="54.68519121" lon="-122.49343268">
      </trkpt>
      <trkpt lat="54.68513732" lon="-122.49345456">
      </trkpt>
      <trkpt lat="54.68504302" lon="-122.49354216">
      </trkpt>
      <trkpt lat="54.68490824" lon="-122.4935859">
      </trkpt>
      <trkpt lat="54.68478696" lon="-122.49358591">
      </trkpt>
      <trkpt lat="54.68467916" lon="-122.4935859">
      </trkpt>
      <trkpt lat="54.68459836" lon="-122.49352028">
      </trkpt>
      <trkpt lat="54.68453097" lon="-122.49332331">
      </trkpt>
      <trkpt lat="54.68447707" lon="-122.4931482">
      </trkpt>
      <trkpt lat="54.68440968" lon="-122.49306061">
      </trkpt>
      <trkpt lat="54.68431539" lon="-122.49301686">
      </trkpt>
      <trkpt lat="54.68426149" lon="-122.49295123">
      </trkpt>
      <trkpt lat="54.68416711" lon="-122.49268854">
      </trkpt>
      <trkpt lat="54.68414021" lon="-122.49260103">
      </trkpt>
      <trkpt lat="54.68395153" lon="-122.49222896">
      </trkpt>
      <trkpt lat="54.68384374" lon="-122.49205386">
      </trkpt>
      <trkpt lat="54.68380334" lon="-122.49181313">
      </trkpt>
      <trkpt lat="54.68369555" lon="-122.49159428">
      </trkpt>
      <trkpt lat="54.68357426" lon="-122.49139732">
      </trkpt>
      <trkpt lat="54.68352037" lon="-122.4913316">
      </trkpt>
      <trkpt lat="54.68341257" lon="-122.4913316">
      </trkpt>
      <trkpt lat="54.68339908" lon="-122.49141918">
      </trkpt>
      <trkpt lat="54.68330478" lon="-122.49148482">
      </trkpt>
      <trkpt lat="54.6832239" lon="-122.49150669">
      </trkpt>
      <trkpt lat="54.68311611" lon="-122.49137535">
      </trkpt>
      <trkpt lat="54.68304872" lon="-122.49122222">
      </trkpt>
      <trkpt lat="54.68295442" lon="-122.49113462">
      </trkpt>
      <trkpt lat="54.68283313" lon="-122.49093764">
      </trkpt>
      <trkpt lat="54.68271185" lon="-122.49067504">
      </trkpt>
      <trkpt lat="54.68259064" lon="-122.49032484">
      </trkpt>
      <trkpt lat="54.68245587" lon="-122.48999652">
      </trkpt>
      <trkpt lat="54.68230767" lon="-122.48966828">
      </trkpt>
      <trkpt lat="54.68226719" lon="-122.48947123">
      </trkpt>
      <trkpt lat="54.68226718" lon="-122.48933997">
      </trkpt>
      <trkpt lat="54.68219988" lon="-122.48925238">
      </trkpt>
      <trkpt lat="54.68219988" lon="-122.48912112">
      </trkpt>
      <trkpt lat="54.68219988" lon="-122.4889679">
      </trkpt>
      <trkpt lat="54.6821594" lon="-122.4888803">
      </trkpt>
      <trkpt lat="54.6821055" lon="-122.4888803">
      </trkpt>
      <trkpt lat="54.68207859" lon="-122.48877092">
      </trkpt>
      <trkpt lat="54.68207859" lon="-122.48850823">
      </trkpt>
      <trkpt lat="54.682092" lon="-122.48817999">
      </trkpt>
      <trkpt lat="54.68213249" lon="-122.48782981">
      </trkpt>
      <trkpt lat="54.682119" lon="-122.48763283">
      </trkpt>
      <trkpt lat="54.6819977" lon="-122.48745773">
      </trkpt>
      <trkpt lat="54.68195731" lon="-122.48730451">
      </trkpt>
      <trkpt lat="54.68188992" lon="-122.48715128">
      </trkpt>
      <trkpt lat="54.68180903" lon="-122.48699807">
      </trkpt>
      <trkpt lat="54.68166084" lon="-122.48684492">
      </trkpt>
      <trkpt lat="54.68160695" lon="-122.48682305">
      </trkpt>
      <trkpt lat="54.68167434" lon="-122.48653849">
      </trkpt>
      <trkpt lat="54.68174172" lon="-122.48640714">
      </trkpt>
      <trkpt lat="54.68180904" lon="-122.48623205">
      </trkpt>
      <trkpt lat="54.68180903" lon="-122.48612267">
      </trkpt>
      <trkpt lat="54.68178427" lon="-122.48596247">
      </trkpt>
      <trkpt lat="54.68181818" lon="-122.48586188">
      </trkpt>
    </trkseg>
  </trk>
</gpx>