<?xml version="1.0" encoding="UTF-8"?>
<gpx xmlns="http://www.topografix.com/GPX/1/1" xmlns:xsi="http://www.w3.org/2001/XMLSchema-instance" xsi:schemaLocation="http://www.topografix.com/GPX/1/1 http://www.topografix.com/GPX/1/1/gpx.xsd" version="1.1" creator="gpx.py -- https://github.com/tkrajina/gpxpy">
  <trk>
    <name>Valley Mountain Pass</name>
    <trkseg>
      <trkpt lat="53.08945424" lon="-121.50774715">
      </trkpt>
      <trkpt lat="53.08945882" lon="-121.50774224">
      </trkpt>
      <trkpt lat="53.08947868" lon="-121.50771718">
      </trkpt>
      <trkpt lat="53.08949587" lon="-121.50768969">
      </trkpt>
      <trkpt lat="53.08951255" lon="-121.50766471">
      </trkpt>
      <trkpt lat="53.08952973" lon="-121.50764016">
      </trkpt>
      <trkpt lat="53.0895475" lon="-121.50761661">
      </trkpt>
      <trkpt lat="53.08956494" lon="-121.50759758">
      </trkpt>
      <trkpt lat="53.08958438" lon="-121.50758039">
      </trkpt>
      <trkpt lat="53.08960945" lon="-121.507556">
      </trkpt>
      <trkpt lat="53.08964138" lon="-121.50752767">
      </trkpt>
      <trkpt lat="53.08967901" lon="-121.50749691">
      </trkpt>
      <trkpt lat="53.0897205" lon="-121.50745869">
      </trkpt>
      <trkpt lat="53.08975806" lon="-121.50740856">
      </trkpt>
      <trkpt lat="53.08979016" lon="-121.50735509">
      </trkpt>
      <trkpt lat="53.08982326" lon="-121.50730656">
      </trkpt>
      <trkpt lat="53.08986618" lon="-121.50726541">
      </trkpt>
      <trkpt lat="53.08992225" lon="-121.50723212">
      </trkpt>
      <trkpt lat="53.08998554" lon="-121.50720673">
      </trkpt>
      <trkpt lat="53.09004991" lon="-121.50718786">
      </trkpt>
      <trkpt lat="53.09011395" lon="-121.50717714">
      </trkpt>
      <trkpt lat="53.0901774" lon="-121.50717194">
      </trkpt>
      <trkpt lat="53.09023935" lon="-121.50717328">
      </trkpt>
      <trkpt lat="53.09030355" lon="-121.5071747">
      </trkpt>
      <trkpt lat="53.09037169" lon="-121.5071743">
      </trkpt>
      <trkpt lat="53.09044035" lon="-121.50716926">
      </trkpt>
      <trkpt lat="53.09050455" lon="-121.5071602">
      </trkpt>
      <trkpt lat="53.09056707" lon="-121.50714705">
      </trkpt>
      <trkpt lat="53.09062944" lon="-121.50713037">
      </trkpt>
      <trkpt lat="53.09069406" lon="-121.5071105">
      </trkpt>
      <trkpt lat="53.09075969" lon="-121.50709214">
      </trkpt>
      <trkpt lat="53.09082943" lon="-121.50707145">
      </trkpt>
      <trkpt lat="53.09090369" lon="-121.50703926">
      </trkpt>
      <trkpt lat="53.09095927" lon="-121.50703053">
      </trkpt>
      <trkpt lat="53.09100687" lon="-121.50703172">
      </trkpt>
      <trkpt lat="53.09103998" lon="-121.50705845">
      </trkpt>
      <trkpt lat="53.09106706" lon="-121.50710657">
      </trkpt>
      <trkpt lat="53.09109195" lon="-121.50717303">
      </trkpt>
      <trkpt lat="53.09111492" lon="-121.50725534">
      </trkpt>
      <trkpt lat="53.09114115" lon="-121.50734611">
      </trkpt>
      <trkpt lat="53.0911684" lon="-121.50744342">
      </trkpt>
      <trkpt lat="53.0911958" lon="-121.50754871">
      </trkpt>
      <trkpt lat="53.09122078" lon="-121.50765541">
      </trkpt>
      <trkpt lat="53.09124157" lon="-121.50776504">
      </trkpt>
      <trkpt lat="53.09126068" lon="-121.50786404">
      </trkpt>
      <trkpt lat="53.09127803" lon="-121.50795782">
      </trkpt>
      <trkpt lat="53.09129387" lon="-121.50805825">
      </trkpt>
      <trkpt lat="53.09131038" lon="-121.50816646">
      </trkpt>
      <trkpt lat="53.09132605" lon="-121.50828422">
      </trkpt>
      <trkpt lat="53.09134081" lon="-121.50840836">
      </trkpt>
      <trkpt lat="53.09135037" lon="-121.50853392">
      </trkpt>
      <trkpt lat="53.09135036" lon="-121.50866241">
      </trkpt>
      <trkpt lat="53.09134701" lon="-121.50878387">
      </trkpt>
      <trkpt lat="53.09134458" lon="-121.50890054">
      </trkpt>
      <trkpt lat="53.09133939" lon="-121.50902183">
      </trkpt>
      <trkpt lat="53.09133352" lon="-121.50913918">
      </trkpt>
      <trkpt lat="53.09133025" lon="-121.50925686">
      </trkpt>
      <trkpt lat="53.09133344" lon="-121.50937085">
      </trkpt>
      <trkpt lat="53.09133981" lon="-121.50948183">
      </trkpt>
      <trkpt lat="53.09135095" lon="-121.50959364">
      </trkpt>
      <trkpt lat="53.09136763" lon="-121.50969531">
      </trkpt>
      <trkpt lat="53.09138984" lon="-121.50980001">
      </trkpt>
      <trkpt lat="53.09141473" lon="-121.50991132">
      </trkpt>
      <trkpt lat="53.09144307" lon="-121.51003017">
      </trkpt>
      <trkpt lat="53.09147391" lon="-121.51015088">
      </trkpt>
      <trkpt lat="53.09150837" lon="-121.51026638">
      </trkpt>
      <trkpt lat="53.09154466" lon="-121.51038078">
      </trkpt>
      <trkpt lat="53.09157651" lon="-121.51049101">
      </trkpt>
      <trkpt lat="53.09160233" lon="-121.51059202">
      </trkpt>
      <trkpt lat="53.09162512" lon="-121.51069385">
      </trkpt>
      <trkpt lat="53.09164331" lon="-121.51079368">
      </trkpt>
      <trkpt lat="53.09165814" lon="-121.51089183">
      </trkpt>
      <trkpt lat="53.09166862" lon="-121.51098479">
      </trkpt>
      <trkpt lat="53.09167642" lon="-121.51107196">
      </trkpt>
      <trkpt lat="53.09168422" lon="-121.511166">
      </trkpt>
      <trkpt lat="53.09169327" lon="-121.51127119">
      </trkpt>
      <trkpt lat="53.09170174" lon="-121.51138662">
      </trkpt>
      <trkpt lat="53.09171171" lon="-121.51149976">
      </trkpt>
      <trkpt lat="53.09172353" lon="-121.51160581">
      </trkpt>
      <trkpt lat="53.09173375" lon="-121.51170873">
      </trkpt>
      <trkpt lat="53.09174322" lon="-121.51180562">
      </trkpt>
      <trkpt lat="53.09175027" lon="-121.51189657">
      </trkpt>
      <trkpt lat="53.09175605" lon="-121.5119793">
      </trkpt>
      <trkpt lat="53.09176007" lon="-121.51204988">
      </trkpt>
      <trkpt lat="53.09176166" lon="-121.5121098">
      </trkpt>
      <trkpt lat="53.09176393" lon="-121.5121539">
      </trkpt>
      <trkpt lat="53.09177767" lon="-121.51216621">
      </trkpt>
      <trkpt lat="53.0918205" lon="-121.51234987">
      </trkpt>
      <trkpt lat="53.09182277" lon="-121.51244608">
      </trkpt>
      <trkpt lat="53.09183132" lon="-121.5125532">
      </trkpt>
      <trkpt lat="53.09184465" lon="-121.5126672">
      </trkpt>
      <trkpt lat="53.0918635" lon="-121.51279335">
      </trkpt>
      <trkpt lat="53.09188806" lon="-121.51292554">
      </trkpt>
      <trkpt lat="53.09191397" lon="-121.51305831">
      </trkpt>
      <trkpt lat="53.09193903" lon="-121.51319518">
      </trkpt>
      <trkpt lat="53.09196107" lon="-121.51333281">
      </trkpt>
      <trkpt lat="53.09198689" lon="-121.51346557">
      </trkpt>
      <trkpt lat="53.09203651" lon="-121.5136318">
      </trkpt>
      <trkpt lat="53.09206048" lon="-121.51371511">
      </trkpt>
      <trkpt lat="53.0921023" lon="-121.51384066">
      </trkpt>
      <trkpt lat="53.09214681" lon="-121.51396632">
      </trkpt>
      <trkpt lat="53.0921946" lon="-121.51409741">
      </trkpt>
      <trkpt lat="53.09224446" lon="-121.5142321">
      </trkpt>
      <trkpt lat="53.09229115" lon="-121.51437182">
      </trkpt>
      <trkpt lat="53.09233515" lon="-121.51452002">
      </trkpt>
      <trkpt lat="53.09237287" lon="-121.51467198">
      </trkpt>
      <trkpt lat="53.09240531" lon="-121.51482445">
      </trkpt>
      <trkpt lat="53.09243675" lon="-121.5149713">
      </trkpt>
      <trkpt lat="53.09246667" lon="-121.5151133">
      </trkpt>
      <trkpt lat="53.09249357" lon="-121.51525872">
      </trkpt>
      <trkpt lat="53.09251822" lon="-121.51540809">
      </trkpt>
      <trkpt lat="53.09254261" lon="-121.51555813">
      </trkpt>
      <trkpt lat="53.09256717" lon="-121.51570195">
      </trkpt>
      <trkpt lat="53.09259022" lon="-121.51583917">
      </trkpt>
      <trkpt lat="53.09261109" lon="-121.51597923">
      </trkpt>
      <trkpt lat="53.0926286" lon="-121.51611971">
      </trkpt>
      <trkpt lat="53.09263942" lon="-121.51625332">
      </trkpt>
      <trkpt lat="53.09263934" lon="-121.51637828">
      </trkpt>
      <trkpt lat="53.09262868" lon="-121.51650008">
      </trkpt>
      <trkpt lat="53.09261369" lon="-121.51661859">
      </trkpt>
      <trkpt lat="53.09260304" lon="-121.51673108">
      </trkpt>
      <trkpt lat="53.09260061" lon="-121.51684323">
      </trkpt>
      <trkpt lat="53.09260975" lon="-121.51695178">
      </trkpt>
      <trkpt lat="53.09262626" lon="-121.51705379">
      </trkpt>
      <trkpt lat="53.09264973" lon="-121.51714851">
      </trkpt>
      <trkpt lat="53.092682" lon="-121.51723945">
      </trkpt>
      <trkpt lat="53.09272231" lon="-121.51733081">
      </trkpt>
      <trkpt lat="53.09276892" lon="-121.51743039">
      </trkpt>
      <trkpt lat="53.09281544" lon="-121.51753457">
      </trkpt>
      <trkpt lat="53.09285768" lon="-121.51764446">
      </trkpt>
      <trkpt lat="53.09289699" lon="-121.51775191">
      </trkpt>
      <trkpt lat="53.0929379" lon="-121.51785426">
      </trkpt>
      <trkpt lat="53.09298559" lon="-121.51795266">
      </trkpt>
      <trkpt lat="53.09303806" lon="-121.51804737">
      </trkpt>
      <trkpt lat="53.09309213" lon="-121.51813698">
      </trkpt>
      <trkpt lat="53.09314988" lon="-121.51822851">
      </trkpt>
      <trkpt lat="53.09320972" lon="-121.51832758">
      </trkpt>
      <trkpt lat="53.09326932" lon="-121.51843085">
      </trkpt>
      <trkpt lat="53.09332732" lon="-121.51853964">
      </trkpt>
      <trkpt lat="53.09338113" lon="-121.51865255">
      </trkpt>
      <trkpt lat="53.09343151" lon="-121.51877366">
      </trkpt>
      <trkpt lat="53.0934792" lon="-121.51890149">
      </trkpt>
      <trkpt lat="53.09353083" lon="-121.51902555">
      </trkpt>
      <trkpt lat="53.0935885" lon="-121.51914642">
      </trkpt>
      <trkpt lat="53.09364684" lon="-121.51926452">
      </trkpt>
      <trkpt lat="53.09370174" lon="-121.51937851">
      </trkpt>
      <trkpt lat="53.09375664" lon="-121.51948462">
      </trkpt>
      <trkpt lat="53.09381548" lon="-121.5195847">
      </trkpt>
      <trkpt lat="53.09387768" lon="-121.51967875">
      </trkpt>
      <trkpt lat="53.09394079" lon="-121.51977196">
      </trkpt>
      <trkpt lat="53.0940034" lon="-121.51987362">
      </trkpt>
      <trkpt lat="53.09406551" lon="-121.51998024">
      </trkpt>
      <trkpt lat="53.09412419" lon="-121.52007966">
      </trkpt>
      <trkpt lat="53.094179" lon="-121.52017261">
      </trkpt>
      <trkpt lat="53.09423181" lon="-121.52024376">
      </trkpt>
      <trkpt lat="53.09428227" lon="-121.52028929">
      </trkpt>
      <trkpt lat="53.09432753" lon="-121.52032071">
      </trkpt>
      <trkpt lat="53.09437288" lon="-121.52033731">
      </trkpt>
      <trkpt lat="53.0944256" lon="-121.52034343">
      </trkpt>
      <trkpt lat="53.09448939" lon="-121.52034301">
      </trkpt>
      <trkpt lat="53.09456642" lon="-121.52033898">
      </trkpt>
      <trkpt lat="53.09464931" lon="-121.52034109">
      </trkpt>
      <trkpt lat="53.0947333" lon="-121.52034334">
      </trkpt>
      <trkpt lat="53.0948172" lon="-121.52034276">
      </trkpt>
      <trkpt lat="53.09489868" lon="-121.52033312">
      </trkpt>
      <trkpt lat="53.09497789" lon="-121.52032014">
      </trkpt>
      <trkpt lat="53.09505759" lon="-121.5203094">
      </trkpt>
      <trkpt lat="53.0951415" lon="-121.52030529">
      </trkpt>
      <trkpt lat="53.09522055" lon="-121.52032834">
      </trkpt>
      <trkpt lat="53.09530076" lon="-121.52036364">
      </trkpt>
      <trkpt lat="53.09536781" lon="-121.5204099">
      </trkpt>
      <trkpt lat="53.09542581" lon="-121.52045768">
      </trkpt>
      <trkpt lat="53.09547552" lon="-121.52050227">
      </trkpt>
      <trkpt lat="53.09551575" lon="-121.52053998">
      </trkpt>
      <trkpt lat="53.09554802" lon="-121.52058106">
      </trkpt>
      <trkpt lat="53.09558289" lon="-121.52062951">
      </trkpt>
      <trkpt lat="53.09562103" lon="-121.52068458">
      </trkpt>
      <trkpt lat="53.09566185" lon="-121.52074837">
      </trkpt>
      <trkpt lat="53.095703" lon="-121.52082883">
      </trkpt>
      <trkpt lat="53.09574835" lon="-121.52092087">
      </trkpt>
      <trkpt lat="53.09579294" lon="-121.52101976">
      </trkpt>
      <trkpt lat="53.09583427" lon="-121.52112722">
      </trkpt>
      <trkpt lat="53.09587231" lon="-121.52123904">
      </trkpt>
      <trkpt lat="53.09591079" lon="-121.52135337">
      </trkpt>
      <trkpt lat="53.09595186" lon="-121.5214693">
      </trkpt>
      <trkpt lat="53.09599218" lon="-121.52158765">
      </trkpt>
      <trkpt lat="53.09603007" lon="-121.52170918">
      </trkpt>
      <trkpt lat="53.0960672" lon="-121.52183232">
      </trkpt>
      <trkpt lat="53.09610257" lon="-121.521952">
      </trkpt>
      <trkpt lat="53.09613233" lon="-121.52206557">
      </trkpt>
      <trkpt lat="53.09615856" lon="-121.52217932">
      </trkpt>
      <trkpt lat="53.09618547" lon="-121.52229323">
      </trkpt>
      <trkpt lat="53.0962096" lon="-121.52240815">
      </trkpt>
      <trkpt lat="53.09623123" lon="-121.52252507">
      </trkpt>
      <trkpt lat="53.09625554" lon="-121.52263286">
      </trkpt>
      <trkpt lat="53.09628404" lon="-121.52272339">
      </trkpt>
      <trkpt lat="53.09632125" lon="-121.52279882">
      </trkpt>
      <trkpt lat="53.09637213" lon="-121.52286094">
      </trkpt>
      <trkpt lat="53.09643064" lon="-121.52291232">
      </trkpt>
      <trkpt lat="53.09649258" lon="-121.52295608">
      </trkpt>
      <trkpt lat="53.09655779" lon="-121.52299655">
      </trkpt>
      <trkpt lat="53.09662325" lon="-121.52303812">
      </trkpt>
      <trkpt lat="53.09668737" lon="-121.52307945">
      </trkpt>
      <trkpt lat="53.09674831" lon="-121.52312069">
      </trkpt>
      <trkpt lat="53.09680464" lon="-121.52315984">
      </trkpt>
      <trkpt lat="53.09685501" lon="-121.5231994">
      </trkpt>
      <trkpt lat="53.09690455" lon="-121.5232434">
      </trkpt>
      <trkpt lat="53.09695509" lon="-121.5232947">
      </trkpt>
      <trkpt lat="53.09700697" lon="-121.52335137">
      </trkpt>
      <trkpt lat="53.09705886" lon="-121.52340844">
      </trkpt>
      <trkpt lat="53.09711133" lon="-121.52346955">
      </trkpt>
      <trkpt lat="53.09716531" lon="-121.52353267">
      </trkpt>
      <trkpt lat="53.0972208" lon="-121.52360073">
      </trkpt>
      <trkpt lat="53.09727603" lon="-121.52367138">
      </trkpt>
      <trkpt lat="53.09732892" lon="-121.5237402">
      </trkpt>
      <trkpt lat="53.09737645" lon="-121.52381564">
      </trkpt>
      <trkpt lat="53.09742331" lon="-121.52389535">
      </trkpt>
      <trkpt lat="53.09746941" lon="-121.52397799">
      </trkpt>
      <trkpt lat="53.09751073" lon="-121.52406323">
      </trkpt>
      <trkpt lat="53.09754392" lon="-121.52415418">
      </trkpt>
      <trkpt lat="53.09756555" lon="-121.5242483">
      </trkpt>
      <trkpt lat="53.09757846" lon="-121.52434093">
      </trkpt>
      <trkpt lat="53.0975865" lon="-121.52442299">
      </trkpt>
      <trkpt lat="53.0975953" lon="-121.5244954">
      </trkpt>
      <trkpt lat="53.09760921" lon="-121.5245675">
      </trkpt>
      <trkpt lat="53.09762875" lon="-121.52464611">
      </trkpt>
      <trkpt lat="53.09765422" lon="-121.52473127">
      </trkpt>
      <trkpt lat="53.09768557" lon="-121.52482372">
      </trkpt>
      <trkpt lat="53.09771919" lon="-121.52491769">
      </trkpt>
      <trkpt lat="53.09775271" lon="-121.52500552">
      </trkpt>
      <trkpt lat="53.09778842" lon="-121.52508558">
      </trkpt>
      <trkpt lat="53.09782857" lon="-121.52516118">
      </trkpt>
      <trkpt lat="53.09787308" lon="-121.52523839">
      </trkpt>
      <trkpt lat="53.09791893" lon="-121.52531977">
      </trkpt>
      <trkpt lat="53.09796352" lon="-121.52539973">
      </trkpt>
      <trkpt lat="53.09800585" lon="-121.52548019">
      </trkpt>
      <trkpt lat="53.098046" lon="-121.52555891">
      </trkpt>
      <trkpt lat="53.09808564" lon="-121.52563376">
      </trkpt>
      <trkpt lat="53.09812697" lon="-121.52570592">
      </trkpt>
      <trkpt lat="53.09817072" lon="-121.52577859">
      </trkpt>
      <trkpt lat="53.09821397" lon="-121.52585664">
      </trkpt>
      <trkpt lat="53.09825563" lon="-121.52593735">
      </trkpt>
      <trkpt lat="53.09829687" lon="-121.52601881">
      </trkpt>
      <trkpt lat="53.09833836" lon="-121.52610214">
      </trkpt>
      <trkpt lat="53.09838027" lon="-121.52618311">
      </trkpt>
      <trkpt lat="53.0984236" lon="-121.52626105">
      </trkpt>
      <trkpt lat="53.09846752" lon="-121.52633464">
      </trkpt>
      <trkpt lat="53.09851245" lon="-121.52639458">
      </trkpt>
      <trkpt lat="53.09856283" lon="-121.52644496">
      </trkpt>
      <trkpt lat="53.0986142" lon="-121.52649071">
      </trkpt>
      <trkpt lat="53.09866525" lon="-121.52652551">
      </trkpt>
      <trkpt lat="53.09872057" lon="-121.52655753">
      </trkpt>
      <trkpt lat="53.09877916" lon="-121.52658845">
      </trkpt>
      <trkpt lat="53.09883985" lon="-121.52661695">
      </trkpt>
      <trkpt lat="53.09889843" lon="-121.52664771">
      </trkpt>
      <trkpt lat="53.098953" lon="-121.5266804">
      </trkpt>
      <trkpt lat="53.09899869" lon="-121.52671795">
      </trkpt>
      <trkpt lat="53.09903531" lon="-121.52676103">
      </trkpt>
      <trkpt lat="53.09906499" lon="-121.52680605">
      </trkpt>
      <trkpt lat="53.09909567" lon="-121.52685299">
      </trkpt>
      <trkpt lat="53.09913254" lon="-121.52691141">
      </trkpt>
      <trkpt lat="53.09917328" lon="-121.52698542">
      </trkpt>
      <trkpt lat="53.09921402" lon="-121.52706949">
      </trkpt>
      <trkpt lat="53.09925232" lon="-121.52715901">
      </trkpt>
      <trkpt lat="53.09928928" lon="-121.52725129">
      </trkpt>
      <trkpt lat="53.0993244" lon="-121.52734072">
      </trkpt>
      <trkpt lat="53.09936406" lon="-121.52742648">
      </trkpt>
      <trkpt lat="53.09940931" lon="-121.52751222">
      </trkpt>
      <trkpt lat="53.09945743" lon="-121.52759855">
      </trkpt>
      <trkpt lat="53.09950562" lon="-121.52768741">
      </trkpt>
      <trkpt lat="53.09955315" lon="-121.52776922">
      </trkpt>
      <trkpt lat="53.09959749" lon="-121.5278459">
      </trkpt>
      <trkpt lat="53.09963663" lon="-121.52790969">
      </trkpt>
      <trkpt lat="53.09967276" lon="-121.52796023">
      </trkpt>
      <trkpt lat="53.09971048" lon="-121.52800709">
      </trkpt>
      <trkpt lat="53.09974928" lon="-121.52805546">
      </trkpt>
      <trkpt lat="53.09978977" lon="-121.528108">
      </trkpt>
      <trkpt lat="53.09982975" lon="-121.52816366">
      </trkpt>
      <trkpt lat="53.09986781" lon="-121.52822351">
      </trkpt>
      <trkpt lat="53.09990318" lon="-121.52828336">
      </trkpt>
      <trkpt lat="53.09993444" lon="-121.52834052">
      </trkpt>
      <trkpt lat="53.09996595" lon="-121.52839533">
      </trkpt>
      <trkpt lat="53.10000501" lon="-121.52844941">
      </trkpt>
      <trkpt lat="53.10005128" lon="-121.52851168">
      </trkpt>
      <trkpt lat="53.10009797" lon="-121.52857865">
      </trkpt>
      <trkpt lat="53.10014055" lon="-121.52864486">
      </trkpt>
      <trkpt lat="53.10017726" lon="-121.52870229">
      </trkpt>
      <trkpt lat="53.10021054" lon="-121.5287509">
      </trkpt>
      <trkpt lat="53.10024206" lon="-121.52879364">
      </trkpt>
      <trkpt lat="53.10027332" lon="-121.52883296">
      </trkpt>
      <trkpt lat="53.100305" lon="-121.52887077">
      </trkpt>
      <trkpt lat="53.1003345" lon="-121.52890438">
      </trkpt>
      <trkpt lat="53.10036158" lon="-121.52892926">
      </trkpt>
      <trkpt lat="53.10037843" lon="-121.52894872">
      </trkpt>
      <trkpt lat="53.10040382" lon="-121.52894947">
      </trkpt>
      <trkpt lat="53.10040667" lon="-121.5289462">
      </trkpt>
      <trkpt lat="53.10040919" lon="-121.52894109">
      </trkpt>
      <trkpt lat="53.10041229" lon="-121.52893463">
      </trkpt>
      <trkpt lat="53.10041388" lon="-121.52893077">
      </trkpt>
      <trkpt lat="53.10041598" lon="-121.52892818">
      </trkpt>
      <trkpt lat="53.10050358" lon="-121.52894814">
      </trkpt>
      <trkpt lat="53.100534" lon="-121.52895777">
      </trkpt>
      <trkpt lat="53.10058127" lon="-121.52897176">
      </trkpt>
      <trkpt lat="53.10063718" lon="-121.52898669">
      </trkpt>
      <trkpt lat="53.10070105" lon="-121.52900328">
      </trkpt>
      <trkpt lat="53.10077036" lon="-121.52902507">
      </trkpt>
      <trkpt lat="53.10084061" lon="-121.52904887">
      </trkpt>
      <trkpt lat="53.10091236" lon="-121.52907276">
      </trkpt>
      <trkpt lat="53.10098704" lon="-121.52910018">
      </trkpt>
      <trkpt lat="53.10106298" lon="-121.52912692">
      </trkpt>
      <trkpt lat="53.10113364" lon="-121.52914905">
      </trkpt>
      <trkpt lat="53.1012027" lon="-121.52916882">
      </trkpt>
      <trkpt lat="53.1012706" lon="-121.52918851">
      </trkpt>
      <trkpt lat="53.10133623" lon="-121.52920789">
      </trkpt>
      <trkpt lat="53.10139968" lon="-121.52922541">
      </trkpt>
      <trkpt lat="53.10146196" lon="-121.52924896">
      </trkpt>
      <trkpt lat="53.1015208" lon="-121.52928433">
      </trkpt>
      <trkpt lat="53.10157519" lon="-121.52932623">
      </trkpt>
      <trkpt lat="53.10162717" lon="-121.5293689">
      </trkpt>
      <trkpt lat="53.10167796" lon="-121.52941358">
      </trkpt>
      <trkpt lat="53.10173085" lon="-121.5294632">
      </trkpt>
      <trkpt lat="53.10178759" lon="-121.52951734">
      </trkpt>
      <trkpt lat="53.10184451" lon="-121.52957375">
      </trkpt>
      <trkpt lat="53.101901" lon="-121.52963167">
      </trkpt>
      <trkpt lat="53.10195901" lon="-121.52969463">
      </trkpt>
      <trkpt lat="53.10201935" lon="-121.52976217">
      </trkpt>
      <trkpt lat="53.10208364" lon="-121.52983166">
      </trkpt>
      <trkpt lat="53.10215121" lon="-121.52990559">
      </trkpt>
      <trkpt lat="53.10221859" lon="-121.52998019">
      </trkpt>
      <trkpt lat="53.10228389" lon="-121.53005035">
      </trkpt>
      <trkpt lat="53.10235028" lon="-121.53012184">
      </trkpt>
      <trkpt lat="53.10241808" lon="-121.53019745">
      </trkpt>
      <trkpt lat="53.10248372" lon="-121.53027942">
      </trkpt>
      <trkpt lat="53.10254641" lon="-121.53036652">
      </trkpt>
      <trkpt lat="53.10260508" lon="-121.53045679">
      </trkpt>
      <trkpt lat="53.10266225" lon="-121.53054555">
      </trkpt>
      <trkpt lat="53.10271925" lon="-121.53063632">
      </trkpt>
      <trkpt lat="53.10277272" lon="-121.53072609">
      </trkpt>
      <trkpt lat="53.10282033" lon="-121.53081469">
      </trkpt>
      <trkpt lat="53.10285872" lon="-121.53090077">
      </trkpt>
      <trkpt lat="53.10288982" lon="-121.53098543">
      </trkpt>
      <trkpt lat="53.10291446" lon="-121.5310653">
      </trkpt>
      <trkpt lat="53.10293793" lon="-121.53113664">
      </trkpt>
      <trkpt lat="53.10296232" lon="-121.53119314">
      </trkpt>
      <trkpt lat="53.10298679" lon="-121.53123455">
      </trkpt>
      <trkpt lat="53.10301127" lon="-121.53126724">
      </trkpt>
      <trkpt lat="53.10303507" lon="-121.53129523">
      </trkpt>
      <trkpt lat="53.10306273" lon="-121.53132347">
      </trkpt>
      <trkpt lat="53.10309266" lon="-121.53135658">
      </trkpt>
      <trkpt lat="53.10312199" lon="-121.53139011">
      </trkpt>
      <trkpt lat="53.10315217" lon="-121.5314187">
      </trkpt>
      <trkpt lat="53.1031872" lon="-121.53144501">
      </trkpt>
      <trkpt lat="53.10322627" lon="-121.53146965">
      </trkpt>
      <trkpt lat="53.10326264" lon="-121.53149077">
      </trkpt>
      <trkpt lat="53.10329542" lon="-121.53151852">
      </trkpt>
      <trkpt lat="53.10333062" lon="-121.53154466">
      </trkpt>
      <trkpt lat="53.10336558" lon="-121.53156949">
      </trkpt>
      <trkpt lat="53.10340212" lon="-121.53159321">
      </trkpt>
      <trkpt lat="53.103439" lon="-121.5316176">
      </trkpt>
      <trkpt lat="53.10347227" lon="-121.53164777">
      </trkpt>
      <trkpt lat="53.10350446" lon="-121.53167811">
      </trkpt>
      <trkpt lat="53.10353447" lon="-121.53171533">
      </trkpt>
      <trkpt lat="53.10355853" lon="-121.53175019">
      </trkpt>
      <trkpt lat="53.10357688" lon="-121.53179001">
      </trkpt>
      <trkpt lat="53.10359616" lon="-121.53182631">
      </trkpt>
      <trkpt lat="53.10361761" lon="-121.53186025">
      </trkpt>
      <trkpt lat="53.1036426" lon="-121.53189218">
      </trkpt>
      <trkpt lat="53.10366925" lon="-121.53192136">
      </trkpt>
      <trkpt lat="53.10369791" lon="-121.53195672">
      </trkpt>
      <trkpt lat="53.10373194" lon="-121.53200132">
      </trkpt>
      <trkpt lat="53.10376741" lon="-121.53206075">
      </trkpt>
      <trkpt lat="53.10380562" lon="-121.53212605">
      </trkpt>
      <trkpt lat="53.10384871" lon="-121.53219728">
      </trkpt>
      <trkpt lat="53.10389497" lon="-121.53227423">
      </trkpt>
      <trkpt lat="53.10394359" lon="-121.5323526">
      </trkpt>
      <trkpt lat="53.10399271" lon="-121.53243399">
      </trkpt>
      <trkpt lat="53.10404073" lon="-121.53252058">
      </trkpt>
      <trkpt lat="53.1040875" lon="-121.5326085">
      </trkpt>
      <trkpt lat="53.10413645" lon="-121.53269383">
      </trkpt>
      <trkpt lat="53.10418725" lon="-121.53277271">
      </trkpt>
      <trkpt lat="53.10423687" lon="-121.53284897">
      </trkpt>
      <trkpt lat="53.10428624" lon="-121.53292543">
      </trkpt>
      <trkpt lat="53.10434391" lon="-121.53299541">
      </trkpt>
      <trkpt lat="53.10440971" lon="-121.53306238">
      </trkpt>
      <trkpt lat="53.10447827" lon="-121.53312358">
      </trkpt>
      <trkpt lat="53.10454742" lon="-121.53317671">
      </trkpt>
      <trkpt lat="53.10461641" lon="-121.53322591">
      </trkpt>
      <trkpt lat="53.10468287" lon="-121.5332716">
      </trkpt>
      <trkpt lat="53.10474758" lon="-121.53331476">
      </trkpt>
      <trkpt lat="53.10480307" lon="-121.53335182">
      </trkpt>
      <trkpt lat="53.1048516" lon="-121.53337477">
      </trkpt>
      <trkpt lat="53.10488865" lon="-121.5333944">
      </trkpt>
      <trkpt lat="53.10492193" lon="-121.5334228">
      </trkpt>
      <trkpt lat="53.10494883" lon="-121.53347352">
      </trkpt>
      <trkpt lat="53.10497968" lon="-121.53353077">
      </trkpt>
      <trkpt lat="53.10501094" lon="-121.53360117">
      </trkpt>
      <trkpt lat="53.10504296" lon="-121.53368709">
      </trkpt>
      <trkpt lat="53.1050671" lon="-121.53379664">
      </trkpt>
      <trkpt lat="53.10508201" lon="-121.53392119">
      </trkpt>
      <trkpt lat="53.10509585" lon="-121.53405439">
      </trkpt>
      <trkpt lat="53.10511454" lon="-121.53417424">
      </trkpt>
      <trkpt lat="53.10521051" lon="-121.53499835">
      </trkpt>
      <trkpt lat="53.10519845" lon="-121.53508058">
      </trkpt>
      <trkpt lat="53.10519149" lon="-121.53517605">
      </trkpt>
      <trkpt lat="53.10519525" lon="-121.53528854">
      </trkpt>
      <trkpt lat="53.10520909" lon="-121.53539163">
      </trkpt>
      <trkpt lat="53.10524287" lon="-121.53560846">
      </trkpt>
      <trkpt lat="53.10527522" lon="-121.53583118">
      </trkpt>
      <trkpt lat="53.10531294" lon="-121.53603435">
      </trkpt>
      <trkpt lat="53.10534152" lon="-121.53613184">
      </trkpt>
      <trkpt lat="53.10537195" lon="-121.53622396">
      </trkpt>
      <trkpt lat="53.10540179" lon="-121.5363066">
      </trkpt>
      <trkpt lat="53.1054338" lon="-121.53638623">
      </trkpt>
      <trkpt lat="53.10547203" lon="-121.53647029">
      </trkpt>
      <trkpt lat="53.10551268" lon="-121.53655798">
      </trkpt>
      <trkpt lat="53.10555794" lon="-121.53664774">
      </trkpt>
      <trkpt lat="53.10560304" lon="-121.53673609">
      </trkpt>
      <trkpt lat="53.10565132" lon="-121.53682342">
      </trkpt>
      <trkpt lat="53.10570286" lon="-121.53689979">
      </trkpt>
      <trkpt lat="53.10575567" lon="-121.53696768">
      </trkpt>
      <trkpt lat="53.10580764" lon="-121.53702317">
      </trkpt>
      <trkpt lat="53.10584771" lon="-121.53705854">
      </trkpt>
      <trkpt lat="53.10587888" lon="-121.53707925">
      </trkpt>
      <trkpt lat="53.10590378" lon="-121.53708393">
      </trkpt>
      <trkpt lat="53.1059249" lon="-121.53708746">
      </trkpt>
      <trkpt lat="53.10595231" lon="-121.53709986">
      </trkpt>
      <trkpt lat="53.10598802" lon="-121.5371266">
      </trkpt>
      <trkpt lat="53.10603857" lon="-121.53716298">
      </trkpt>
      <trkpt lat="53.10609287" lon="-121.53719642">
      </trkpt>
      <trkpt lat="53.10613261" lon="-121.53722399">
      </trkpt>
      <trkpt lat="53.10616253" lon="-121.53725309">
      </trkpt>
      <trkpt lat="53.10618458" lon="-121.53728661">
      </trkpt>
      <trkpt lat="53.1061984" lon="-121.53733271">
      </trkpt>
      <trkpt lat="53.10621231" lon="-121.53737555">
      </trkpt>
      <trkpt lat="53.10621927" lon="-121.53741988">
      </trkpt>
      <trkpt lat="53.10622791" lon="-121.53746338">
      </trkpt>
      <trkpt lat="53.10623713" lon="-121.53751644">
      </trkpt>
      <trkpt lat="53.10624257" lon="-121.53758182">
      </trkpt>
      <trkpt lat="53.10625045" lon="-121.53765794">
      </trkpt>
      <trkpt lat="53.10626101" lon="-121.5377451">
      </trkpt>
      <trkpt lat="53.10626957" lon="-121.53784568">
      </trkpt>
      <trkpt lat="53.1062756" lon="-121.53794802">
      </trkpt>
      <trkpt lat="53.10628306" lon="-121.53804635">
      </trkpt>
      <trkpt lat="53.10628902" lon="-121.5381367">
      </trkpt>
      <trkpt lat="53.10629094" lon="-121.53822747">
      </trkpt>
      <trkpt lat="53.10629295" lon="-121.5383191">
      </trkpt>
      <trkpt lat="53.10630134" lon="-121.53841657">
      </trkpt>
      <trkpt lat="53.10632053" lon="-121.5385211">
      </trkpt>
      <trkpt lat="53.10635179" lon="-121.53863644">
      </trkpt>
      <trkpt lat="53.10638851" lon="-121.53875671">
      </trkpt>
      <trkpt lat="53.10642874" lon="-121.53886183">
      </trkpt>
      <trkpt lat="53.1064652" lon="-121.53896434">
      </trkpt>
      <trkpt lat="53.1064973" lon="-121.53905838">
      </trkpt>
      <trkpt lat="53.10652522" lon="-121.53915233">
      </trkpt>
      <trkpt lat="53.10655321" lon="-121.5392468">
      </trkpt>
      <trkpt lat="53.10658556" lon="-121.5393473">
      </trkpt>
      <trkpt lat="53.10662454" lon="-121.5394483">
      </trkpt>
      <trkpt lat="53.10667097" lon="-121.53954378">
      </trkpt>
      <trkpt lat="53.10672622" lon="-121.53963648">
      </trkpt>
      <trkpt lat="53.10678908" lon="-121.53972801">
      </trkpt>
      <trkpt lat="53.10685445" lon="-121.53982365">
      </trkpt>
      <trkpt lat="53.1069221" lon="-121.53991677">
      </trkpt>
      <trkpt lat="53.10698739" lon="-121.54001349">
      </trkpt>
      <trkpt lat="53.10705076" lon="-121.54012037">
      </trkpt>
      <trkpt lat="53.10711036" lon="-121.54022145">
      </trkpt>
      <trkpt lat="53.10716676" lon="-121.5403263">
      </trkpt>
      <trkpt lat="53.10722166" lon="-121.54043284">
      </trkpt>
      <trkpt lat="53.10727565" lon="-121.54053258">
      </trkpt>
      <trkpt lat="53.1073287" lon="-121.54062571">
      </trkpt>
      <trkpt lat="53.10738444" lon="-121.54071825">
      </trkpt>
      <trkpt lat="53.10743935" lon="-121.54081723">
      </trkpt>
      <trkpt lat="53.10749257" lon="-121.54091924">
      </trkpt>
      <trkpt lat="53.10754437" lon="-121.54101891">
      </trkpt>
      <trkpt lat="53.10759542" lon="-121.54111689">
      </trkpt>
      <trkpt lat="53.10763967" lon="-121.54121806">
      </trkpt>
      <trkpt lat="53.10767278" lon="-121.54132937">
      </trkpt>
      <trkpt lat="53.10769834" lon="-121.54144915">
      </trkpt>
      <trkpt lat="53.10772634" lon="-121.54156616">
      </trkpt>
      <trkpt lat="53.10776322" lon="-121.54166163">
      </trkpt>
      <trkpt lat="53.10780245" lon="-121.54175836">
      </trkpt>
      <trkpt lat="53.10784092" lon="-121.54185332">
      </trkpt>
      <trkpt lat="53.1078721" lon="-121.54195684">
      </trkpt>
      <trkpt lat="53.10789625" lon="-121.54206446">
      </trkpt>
      <trkpt lat="53.10791175" lon="-121.54216965">
      </trkpt>
      <trkpt lat="53.10792633" lon="-121.54226597">
      </trkpt>
      <trkpt lat="53.10794268" lon="-121.5423554">
      </trkpt>
      <trkpt lat="53.10796121" lon="-121.54244123">
      </trkpt>
      <trkpt lat="53.10798316" lon="-121.54252698">
      </trkpt>
      <trkpt lat="53.10800705" lon="-121.54261641">
      </trkpt>
      <trkpt lat="53.10803187" lon="-121.54271063">
      </trkpt>
      <trkpt lat="53.10805684" lon="-121.54281011">
      </trkpt>
      <trkpt lat="53.1080804" lon="-121.54291346">
      </trkpt>
      <trkpt lat="53.10810444" lon="-121.54301781">
      </trkpt>
      <trkpt lat="53.10812767" lon="-121.54311337">
      </trkpt>
      <trkpt lat="53.1081451" lon="-121.54320474">
      </trkpt>
      <trkpt lat="53.10815466" lon="-121.54329283">
      </trkpt>
      <trkpt lat="53.10816011" lon="-121.54337916">
      </trkpt>
      <trkpt lat="53.10816605" lon="-121.54346626">
      </trkpt>
      <trkpt lat="53.10817335" lon="-121.54355409">
      </trkpt>
      <trkpt lat="53.10818483" lon="-121.54364462">
      </trkpt>
      <trkpt lat="53.10819992" lon="-121.54373917">
      </trkpt>
      <trkpt lat="53.10821283" lon="-121.54383313">
      </trkpt>
      <trkpt lat="53.10822356" lon="-121.54391611">
      </trkpt>
      <trkpt lat="53.10823303" lon="-121.54398861">
      </trkpt>
      <trkpt lat="53.10824191" lon="-121.54404971">
      </trkpt>
      <trkpt lat="53.10825147" lon="-121.54410336">
      </trkpt>
      <trkpt lat="53.10826329" lon="-121.54415399">
      </trkpt>
      <trkpt lat="53.10827435" lon="-121.54420134">
      </trkpt>
      <trkpt lat="53.10828508" lon="-121.54424887">
      </trkpt>
      <trkpt lat="53.10829874" lon="-121.54430269">
      </trkpt>
      <trkpt lat="53.108314" lon="-121.54436144">
      </trkpt>
      <trkpt lat="53.1083269" lon="-121.54442155">
      </trkpt>
      <trkpt lat="53.1083347" lon="-121.54448121">
      </trkpt>
      <trkpt lat="53.10833646" lon="-121.54453528">
      </trkpt>
      <trkpt lat="53.10833319" lon="-121.54458239">
      </trkpt>
      <trkpt lat="53.1083243" lon="-121.54462396">
      </trkpt>
      <trkpt lat="53.10831232" lon="-121.54466479">
      </trkpt>
      <trkpt lat="53.10829991" lon="-121.54471432">
      </trkpt>
      <trkpt lat="53.10828281" lon="-121.54476947">
      </trkpt>
      <trkpt lat="53.10826178" lon="-121.54482287">
      </trkpt>
      <trkpt lat="53.10823579" lon="-121.5448781">
      </trkpt>
      <trkpt lat="53.10820461" lon="-121.5449315">
      </trkpt>
      <trkpt lat="53.10817159" lon="-121.54497902">
      </trkpt>
      <trkpt lat="53.10814091" lon="-121.54501792">
      </trkpt>
      <trkpt lat="53.10811367" lon="-121.54504885">
      </trkpt>
      <trkpt lat="53.10808852" lon="-121.54507624">
      </trkpt>
      <trkpt lat="53.1080669" lon="-121.54510064">
      </trkpt>
      <trkpt lat="53.10804619" lon="-121.54512218">
      </trkpt>
      <trkpt lat="53.10802281" lon="-121.54513961">
      </trkpt>
      <trkpt lat="53.10799641" lon="-121.54515403">
      </trkpt>
      <trkpt lat="53.10796322" lon="-121.54516895">
      </trkpt>
      <trkpt lat="53.1079229" lon="-121.54518371">
      </trkpt>
      <trkpt lat="53.10787604" lon="-121.5452008">
      </trkpt>
      <trkpt lat="53.10782676" lon="-121.54521773">
      </trkpt>
      <trkpt lat="53.10777537" lon="-121.54523057">
      </trkpt>
      <trkpt lat="53.10772307" lon="-121.54523568">
      </trkpt>
      <trkpt lat="53.10767119" lon="-121.54523592">
      </trkpt>
      <trkpt lat="53.10762039" lon="-121.54522913">
      </trkpt>
      <trkpt lat="53.1075706" lon="-121.54521279">
      </trkpt>
      <trkpt lat="53.1075204" lon="-121.54519226">
      </trkpt>
      <trkpt lat="53.10746977" lon="-121.54517365">
      </trkpt>
      <trkpt lat="53.10741831" lon="-121.54515227">
      </trkpt>
      <trkpt lat="53.10737229" lon="-121.54513342">
      </trkpt>
      <trkpt lat="53.10732988" lon="-121.54511967">
      </trkpt>
      <trkpt lat="53.10729283" lon="-121.54511061">
      </trkpt>
      <trkpt lat="53.10726399" lon="-121.5451009">
      </trkpt>
      <trkpt lat="53.1072417" lon="-121.54508966">
      </trkpt>
      <trkpt lat="53.10722485" lon="-121.54508328">
      </trkpt>
      <trkpt lat="53.10721044" lon="-121.5450781">
      </trkpt>
      <trkpt lat="53.10719686" lon="-121.54507306">
      </trkpt>
      <trkpt lat="53.10718445" lon="-121.54506745">
      </trkpt>
      <trkpt lat="53.10717447" lon="-121.54506159">
      </trkpt>
      <trkpt lat="53.10716123" lon="-121.54505671">
      </trkpt>
      <trkpt lat="53.10714263" lon="-121.5450511">
      </trkpt>
      <trkpt lat="53.10711614" lon="-121.54504147">
      </trkpt>
      <trkpt lat="53.10708915" lon="-121.54503024">
      </trkpt>
      <trkpt lat="53.10706644" lon="-121.54502177">
      </trkpt>
      <trkpt lat="53.10704338" lon="-121.54501791">
      </trkpt>
      <trkpt lat="53.10702452" lon="-121.54501674">
      </trkpt>
      <trkpt lat="53.10700911" lon="-121.54501549">
      </trkpt>
      <trkpt lat="53.10699921" lon="-121.54501573">
      </trkpt>
      <trkpt lat="53.10699225" lon="-121.54501648">
      </trkpt>
      <trkpt lat="53.10698521" lon="-121.54501707">
      </trkpt>
      <trkpt lat="53.10697205" lon="-121.54501297">
      </trkpt>
      <trkpt lat="53.10695001" lon="-121.54500684">
      </trkpt>
      <trkpt lat="53.10691732" lon="-121.54499327">
      </trkpt>
      <trkpt lat="53.10687676" lon="-121.54498589">
      </trkpt>
      <trkpt lat="53.10683358" lon="-121.54498832">
      </trkpt>
      <trkpt lat="53.1067895" lon="-121.54500166">
      </trkpt>
      <trkpt lat="53.10675794" lon="-121.5450181">
      </trkpt>
      <trkpt lat="53.10673416" lon="-121.54501762">
      </trkpt>
      <trkpt lat="53.1066292" lon="-121.54510593">
      </trkpt>
      <trkpt lat="53.10665861" lon="-121.54519085">
      </trkpt>
      <trkpt lat="53.1066821" lon="-121.54533448">
      </trkpt>
      <trkpt lat="53.10673916" lon="-121.54555822">
      </trkpt>
      <trkpt lat="53.10686368" lon="-121.54596924">
      </trkpt>
      <trkpt lat="53.10697235" lon="-121.54641691">
      </trkpt>
      <trkpt lat="53.10703616" lon="-121.54674874">
      </trkpt>
      <trkpt lat="53.10706738" lon="-121.54708168">
      </trkpt>
      <trkpt lat="53.10709029" lon="-121.5476225">
      </trkpt>
      <trkpt lat="53.10713244" lon="-121.5484064">
      </trkpt>
      <trkpt lat="53.10713339" lon="-121.54892992">
      </trkpt>
      <trkpt lat="53.10713889" lon="-121.54938106">
      </trkpt>
      <trkpt lat="53.10714993" lon="-121.54984106">
      </trkpt>
      <trkpt lat="53.10714511" lon="-121.55033769">
      </trkpt>
      <trkpt lat="53.10714639" lon="-121.55088826">
      </trkpt>
      <trkpt lat="53.10714656" lon="-121.55134862">
      </trkpt>
      <trkpt lat="53.10715095" lon="-121.55170954">
      </trkpt>
      <trkpt lat="53.10712889" lon="-121.55208779">
      </trkpt>
      <trkpt lat="53.10702786" lon="-121.55272999">
      </trkpt>
      <trkpt lat="53.10698887" lon="-121.55358728">
      </trkpt>
      <trkpt lat="53.10690252" lon="-121.55444953">
      </trkpt>
      <trkpt lat="53.1068065" lon="-121.55505486">
      </trkpt>
      <trkpt lat="53.10664683" lon="-121.55554782">
      </trkpt>
      <trkpt lat="53.1064376" lon="-121.55598645">
      </trkpt>
      <trkpt lat="53.10622688" lon="-121.55638556">
      </trkpt>
      <trkpt lat="53.10604503" lon="-121.5569205">
      </trkpt>
      <trkpt lat="53.1057781" lon="-121.55740487">
      </trkpt>
      <trkpt lat="53.10536842" lon="-121.55788435">
      </trkpt>
      <trkpt lat="53.10498016" lon="-121.55830206">
      </trkpt>
      <trkpt lat="53.10471472" lon="-121.55882592">
      </trkpt>
      <trkpt lat="53.10454693" lon="-121.55941889">
      </trkpt>
      <trkpt lat="53.10437844" lon="-121.56030953">
      </trkpt>
      <trkpt lat="53.10430537" lon="-121.56121001">
      </trkpt>
      <trkpt lat="53.10432177" lon="-121.56196222">
      </trkpt>
      <trkpt lat="53.10435519" lon="-121.56285153">
      </trkpt>
      <trkpt lat="53.1044412" lon="-121.56419166">
      </trkpt>
      <trkpt lat="53.10444635" lon="-121.5644756">
      </trkpt>
      <trkpt lat="53.10444199" lon="-121.56464787">
      </trkpt>
      <trkpt lat="53.10454301" lon="-121.56495604">
      </trkpt>
      <trkpt lat="53.10472165" lon="-121.56537279">
      </trkpt>
      <trkpt lat="53.10485483" lon="-121.56579431">
      </trkpt>
      <trkpt lat="53.10499249" lon="-121.56633511">
      </trkpt>
      <trkpt lat="53.10512243" lon="-121.56684406">
      </trkpt>
      <trkpt lat="53.10523735" lon="-121.56730016">
      </trkpt>
      <trkpt lat="53.10535185" lon="-121.56774541">
      </trkpt>
      <trkpt lat="53.10546717" lon="-121.56821236">
      </trkpt>
      <trkpt lat="53.10555043" lon="-121.56869355">
      </trkpt>
      <trkpt lat="53.10558823" lon="-121.5691795">
      </trkpt>
      <trkpt lat="53.10558057" lon="-121.56959416">
      </trkpt>
    </trkseg>
    <trkseg>
      <trkpt lat="53.10369916" lon="-121.56606398">
      </trkpt>
      <trkpt lat="53.10375073" lon="-121.56599527">
      </trkpt>
      <trkpt lat="53.1037942" lon="-121.56585509">
      </trkpt>
      <trkpt lat="53.10384442" lon="-121.56575035">
      </trkpt>
      <trkpt lat="53.10392195" lon="-121.56565181">
      </trkpt>
      <trkpt lat="53.10402204" lon="-121.56543335">
      </trkpt>
      <trkpt lat="53.10409921" lon="-121.56518111">
      </trkpt>
      <trkpt lat="53.10418245" lon="-121.56494634">
      </trkpt>
      <trkpt lat="53.1042475" lon="-121.56480388">
      </trkpt>
      <trkpt lat="53.10434289" lon="-121.56474868">
      </trkpt>
      <trkpt lat="53.10444199" lon="-121.56464787">
      </trkpt>
    </trkseg>
    <trkseg>
      <trkpt lat="53.07818462" lon="-121.50977013">
      </trkpt>
      <trkpt lat="53.07814068" lon="-121.50977483">
      </trkpt>
      <trkpt lat="53.07810605" lon="-121.50977853">
      </trkpt>
      <trkpt lat="53.0780436" lon="-121.50978521">
      </trkpt>
      <trkpt lat="53.07796103" lon="-121.50979894">
      </trkpt>
      <trkpt lat="53.07793187" lon="-121.50980378">
      </trkpt>
      <trkpt lat="53.0778802" lon="-121.50981237">
      </trkpt>
      <trkpt lat="53.07778075" lon="-121.50982891">
      </trkpt>
      <trkpt lat="53.07773728" lon="-121.50985213">
      </trkpt>
      <trkpt lat="53.0776655" lon="-121.50989048">
      </trkpt>
      <trkpt lat="53.07758016" lon="-121.50993607">
      </trkpt>
      <trkpt lat="53.07754178" lon="-121.50994739">
      </trkpt>
      <trkpt lat="53.07747246" lon="-121.50996784">
      </trkpt>
      <trkpt lat="53.07737024" lon="-121.50999798">
      </trkpt>
      <trkpt lat="53.07733201" lon="-121.51000025">
      </trkpt>
      <trkpt lat="53.07723947" lon="-121.51000575">
      </trkpt>
      <trkpt lat="53.07715091" lon="-121.51001102">
      </trkpt>
      <trkpt lat="53.07708218" lon="-121.50999873">
      </trkpt>
      <trkpt lat="53.07704223" lon="-121.50999158">
      </trkpt>
      <trkpt lat="53.07699657" lon="-121.50998343">
      </trkpt>
      <trkpt lat="53.07693949" lon="-121.50997323">
      </trkpt>
      <trkpt lat="53.07691667" lon="-121.50996915">
      </trkpt>
      <trkpt lat="53.07685614" lon="-121.50995834">
      </trkpt>
      <trkpt lat="53.07659606" lon="-121.5099477">
      </trkpt>
      <trkpt lat="53.07631217" lon="-121.50992865">
      </trkpt>
      <trkpt lat="53.07567656" lon="-121.50999389">
      </trkpt>
      <trkpt lat="53.07563219" lon="-121.51001535">
      </trkpt>
      <trkpt lat="53.07561072" lon="-121.51002573">
      </trkpt>
      <trkpt lat="53.07552304" lon="-121.51006813">
      </trkpt>
      <trkpt lat="53.07543177" lon="-121.51008416">
      </trkpt>
      <trkpt lat="53.0753505" lon="-121.51009844">
      </trkpt>
      <trkpt lat="53.07526462" lon="-121.51011352">
      </trkpt>
      <trkpt lat="53.07518259" lon="-121.51012887">
      </trkpt>
      <trkpt lat="53.07510656" lon="-121.51014309">
      </trkpt>
      <trkpt lat="53.07500184" lon="-121.51016267">
      </trkpt>
      <trkpt lat="53.07494364" lon="-121.51019266">
      </trkpt>
      <trkpt lat="53.07488594" lon="-121.51022242">
      </trkpt>
      <trkpt lat="53.07482671" lon="-121.51025294">
      </trkpt>
      <trkpt lat="53.07477068" lon="-121.51028181">
      </trkpt>
      <trkpt lat="53.07472102" lon="-121.51030389">
      </trkpt>
      <trkpt lat="53.07468035" lon="-121.51032197">
      </trkpt>
      <trkpt lat="53.07462205" lon="-121.51034789">
      </trkpt>
      <trkpt lat="53.07452185" lon="-121.51039244">
      </trkpt>
      <trkpt lat="53.07445401" lon="-121.51042311">
      </trkpt>
      <trkpt lat="53.07438087" lon="-121.51045618">
      </trkpt>
      <trkpt lat="53.07433888" lon="-121.51047515">
      </trkpt>
      <trkpt lat="53.07430797" lon="-121.51048913">
      </trkpt>
      <trkpt lat="53.07419385" lon="-121.51056396">
      </trkpt>
      <trkpt lat="53.07413589" lon="-121.51060196">
      </trkpt>
      <trkpt lat="53.07405904" lon="-121.51065235">
      </trkpt>
      <trkpt lat="53.07399251" lon="-121.51070774">
      </trkpt>
      <trkpt lat="53.07393677" lon="-121.51076208">
      </trkpt>
      <trkpt lat="53.07389462" lon="-121.51080318">
      </trkpt>
      <trkpt lat="53.07384717" lon="-121.51084943">
      </trkpt>
      <trkpt lat="53.07381335" lon="-121.51086767">
      </trkpt>
      <trkpt lat="53.07376434" lon="-121.51089409">
      </trkpt>
      <trkpt lat="53.073719" lon="-121.51091854">
      </trkpt>
      <trkpt lat="53.07368579" lon="-121.51093645">
      </trkpt>
      <trkpt lat="53.07365785" lon="-121.51095152">
      </trkpt>
      <trkpt lat="53.07361607" lon="-121.51097403">
      </trkpt>
      <trkpt lat="53.07355478" lon="-121.5110242">
      </trkpt>
      <trkpt lat="53.07353188" lon="-121.51104295">
      </trkpt>
      <trkpt lat="53.07344406" lon="-121.51111482">
      </trkpt>
      <trkpt lat="53.07337224" lon="-121.5111736">
      </trkpt>
      <trkpt lat="53.07326781" lon="-121.51125907">
      </trkpt>
      <trkpt lat="53.07316337" lon="-121.51134455">
      </trkpt>
      <trkpt lat="53.07311476" lon="-121.51138433">
      </trkpt>
      <trkpt lat="53.07303381" lon="-121.51145058">
      </trkpt>
      <trkpt lat="53.07296821" lon="-121.51150135">
      </trkpt>
      <trkpt lat="53.07284681" lon="-121.5115953">
      </trkpt>
      <trkpt lat="53.07276037" lon="-121.5116596">
      </trkpt>
      <trkpt lat="53.07271296" lon="-121.51169344">
      </trkpt>
      <trkpt lat="53.07266954" lon="-121.51172442">
      </trkpt>
      <trkpt lat="53.07256686" lon="-121.51179768">
      </trkpt>
      <trkpt lat="53.07249882" lon="-121.51184622">
      </trkpt>
      <trkpt lat="53.07243201" lon="-121.51189595">
      </trkpt>
      <trkpt lat="53.07240843" lon="-121.5119135">
      </trkpt>
      <trkpt lat="53.07238074" lon="-121.51193412">
      </trkpt>
      <trkpt lat="53.07225728" lon="-121.51202599">
      </trkpt>
      <trkpt lat="53.07220742" lon="-121.51206309">
      </trkpt>
      <trkpt lat="53.07216738" lon="-121.51209525">
      </trkpt>
      <trkpt lat="53.07208804" lon="-121.51215896">
      </trkpt>
      <trkpt lat="53.07208114" lon="-121.5121645">
      </trkpt>
      <trkpt lat="53.07199747" lon="-121.5122317">
      </trkpt>
      <trkpt lat="53.07194665" lon="-121.5122725">
      </trkpt>
      <trkpt lat="53.07190008" lon="-121.51230892">
      </trkpt>
      <trkpt lat="53.07182298" lon="-121.51236918">
      </trkpt>
      <trkpt lat="53.07171131" lon="-121.51245648">
      </trkpt>
      <trkpt lat="53.07167143" lon="-121.51248765">
      </trkpt>
      <trkpt lat="53.0716467" lon="-121.51250697">
      </trkpt>
      <trkpt lat="53.07157297" lon="-121.51259529">
      </trkpt>
      <trkpt lat="53.07150262" lon="-121.51267956">
      </trkpt>
      <trkpt lat="53.0714564" lon="-121.51273492">
      </trkpt>
      <trkpt lat="53.07137135" lon="-121.51282127">
      </trkpt>
      <trkpt lat="53.07135607" lon="-121.51283679">
      </trkpt>
      <trkpt lat="53.07124833" lon="-121.51294617">
      </trkpt>
      <trkpt lat="53.07121243" lon="-121.5129696">
      </trkpt>
      <trkpt lat="53.07120046" lon="-121.5129774">
      </trkpt>
      <trkpt lat="53.07109963" lon="-121.5130432">
      </trkpt>
      <trkpt lat="53.07105679" lon="-121.51307115">
      </trkpt>
      <trkpt lat="53.07103471" lon="-121.51308555">
      </trkpt>
      <trkpt lat="53.07096531" lon="-121.51313083">
      </trkpt>
      <trkpt lat="53.07091049" lon="-121.51315952">
      </trkpt>
      <trkpt lat="53.07086345" lon="-121.51318413">
      </trkpt>
      <trkpt lat="53.07079743" lon="-121.51321869">
      </trkpt>
      <trkpt lat="53.07074725" lon="-121.51324494">
      </trkpt>
      <trkpt lat="53.07068452" lon="-121.5132879">
      </trkpt>
      <trkpt lat="53.07064393" lon="-121.51331569">
      </trkpt>
      <trkpt lat="53.07061692" lon="-121.51333418">
      </trkpt>
      <trkpt lat="53.07050977" lon="-121.51341376">
      </trkpt>
      <trkpt lat="53.07046167" lon="-121.51345578">
      </trkpt>
      <trkpt lat="53.07039295" lon="-121.51351582">
      </trkpt>
      <trkpt lat="53.07038378" lon="-121.51352382">
      </trkpt>
      <trkpt lat="53.07030522" lon="-121.51358729">
      </trkpt>
      <trkpt lat="53.07019216" lon="-121.51365604">
      </trkpt>
      <trkpt lat="53.07009496" lon="-121.51373843">
      </trkpt>
      <trkpt lat="53.06996469" lon="-121.51376602">
      </trkpt>
      <trkpt lat="53.06984366" lon="-121.51381701">
      </trkpt>
      <trkpt lat="53.06975535" lon="-121.51382636">
      </trkpt>
      <trkpt lat="53.06963857" lon="-121.51383872">
      </trkpt>
      <trkpt lat="53.06953318" lon="-121.51384988">
      </trkpt>
      <trkpt lat="53.06942657" lon="-121.51390411">
      </trkpt>
      <trkpt lat="53.0692383" lon="-121.51406719">
      </trkpt>
      <trkpt lat="53.06914167" lon="-121.51415854">
      </trkpt>
      <trkpt lat="53.06908262" lon="-121.51422513">
      </trkpt>
      <trkpt lat="53.06898131" lon="-121.51422799">
      </trkpt>
      <trkpt lat="53.068919" lon="-121.51424413">
      </trkpt>
      <trkpt lat="53.06889205" lon="-121.51425037">
      </trkpt>
      <trkpt lat="53.06886517" lon="-121.51425247">
      </trkpt>
    </trkseg>
  </trk>
</gpx>