<?xml version="1.0" encoding="UTF-8"?>
<gpx xmlns="http://www.topografix.com/GPX/1/1" xmlns:xsi="http://www.w3.org/2001/XMLSchema-instance" xsi:schemaLocation="http://www.topografix.com/GPX/1/1 http://www.topografix.com/GPX/1/1/gpx.xsd" version="1.1" creator="gpx.py -- https://github.com/tkrajina/gpxpy">
  <trk>
    <name>Record Ridge Trail</name>
    <trkseg>
      <trkpt lat="49.03042377" lon="-117.89670138">
      </trkpt>
      <trkpt lat="49.03109399" lon="-117.8969936">
      </trkpt>
      <trkpt lat="49.03117999" lon="-117.89710296">
      </trkpt>
      <trkpt lat="49.03117276" lon="-117.89710311">
      </trkpt>
      <trkpt lat="49.03129614" lon="-117.89725616">
      </trkpt>
      <trkpt lat="49.03152099" lon="-117.89750717">
      </trkpt>
      <trkpt lat="49.03165166" lon="-117.89768232">
      </trkpt>
      <trkpt lat="49.03195662" lon="-117.89810951">
      </trkpt>
      <trkpt lat="49.03213055" lon="-117.89826153">
      </trkpt>
      <trkpt lat="49.03237006" lon="-117.89856782">
      </trkpt>
      <trkpt lat="49.03247924" lon="-117.89879899">
      </trkpt>
      <trkpt lat="49.0326028" lon="-117.89900765">
      </trkpt>
      <trkpt lat="49.03281376" lon="-117.89941457">
      </trkpt>
      <trkpt lat="49.03286525" lon="-117.89968027">
      </trkpt>
      <trkpt lat="49.03289515" lon="-117.89996865">
      </trkpt>
      <trkpt lat="49.03291782" lon="-117.9002572">
      </trkpt>
      <trkpt lat="49.03307058" lon="-117.90055416">
      </trkpt>
      <trkpt lat="49.03320867" lon="-117.90078474">
      </trkpt>
      <trkpt lat="49.03331043" lon="-117.9009605">
      </trkpt>
      <trkpt lat="49.03345593" lon="-117.90124651">
      </trkpt>
      <trkpt lat="49.03349252" lon="-117.90137915">
      </trkpt>
      <trkpt lat="49.03358797" lon="-117.9018218">
      </trkpt>
      <trkpt lat="49.03365357" lon="-117.90198719">
      </trkpt>
      <trkpt lat="49.03387872" lon="-117.90232715">
      </trkpt>
      <trkpt lat="49.03411121" lon="-117.90270031">
      </trkpt>
      <trkpt lat="49.03423565" lon="-117.90316461">
      </trkpt>
      <trkpt lat="49.03435342" lon="-117.9037958">
      </trkpt>
      <trkpt lat="49.03439012" lon="-117.90396178">
      </trkpt>
      <trkpt lat="49.03448504" lon="-117.90424884">
      </trkpt>
      <trkpt lat="49.03465984" lon="-117.90465654">
      </trkpt>
      <trkpt lat="49.03472543" lon="-117.90482193">
      </trkpt>
      <trkpt lat="49.03483408" lon="-117.90489752">
      </trkpt>
      <trkpt lat="49.0351744" lon="-117.90511285">
      </trkpt>
      <trkpt lat="49.03534826" lon="-117.90524269">
      </trkpt>
      <trkpt lat="49.03547872" lon="-117.90536228">
      </trkpt>
      <trkpt lat="49.03555112" lon="-117.90540526">
      </trkpt>
      <trkpt lat="49.03577578" lon="-117.90560075">
      </trkpt>
      <trkpt lat="49.03588446" lon="-117.90568745">
      </trkpt>
      <trkpt lat="49.03595655" lon="-117.9056415">
      </trkpt>
      <trkpt lat="49.0359999" lon="-117.90564062">
      </trkpt>
      <trkpt lat="49.03646864" lon="-117.90537534">
      </trkpt>
      <trkpt lat="49.03663459" lon="-117.90530524">
      </trkpt>
      <trkpt lat="49.03687301" lon="-117.90530035">
      </trkpt>
      <trkpt lat="49.03715501" lon="-117.90536127">
      </trkpt>
      <trkpt lat="49.0375887" lon="-117.90540796">
      </trkpt>
      <trkpt lat="49.03789959" lon="-117.90546828">
      </trkpt>
      <trkpt lat="49.03833304" lon="-117.90544827">
      </trkpt>
      <trkpt lat="49.03872645" lon="-117.90554045">
      </trkpt>
      <trkpt lat="49.03888219" lon="-117.90565746">
      </trkpt>
      <trkpt lat="49.03915239" lon="-117.90583615">
      </trkpt>
      <trkpt lat="49.03918483" lon="-117.90597504">
      </trkpt>
      <trkpt lat="49.03930407" lon="-117.90610627">
      </trkpt>
      <trkpt lat="49.0395424" lon="-117.90632697">
      </trkpt>
      <trkpt lat="49.03962972" lon="-117.90647933">
      </trkpt>
      <trkpt lat="49.0398817" lon="-117.90667906">
      </trkpt>
      <trkpt lat="49.04002805" lon="-117.90671962">
      </trkpt>
      <trkpt lat="49.04028411" lon="-117.90677318">
      </trkpt>
      <trkpt lat="49.04034361" lon="-117.90680053">
      </trkpt>
      <trkpt lat="49.04052246" lon="-117.90699389">
      </trkpt>
      <trkpt lat="49.04084735" lon="-117.90713738">
      </trkpt>
      <trkpt lat="49.04103012" lon="-117.90713589">
      </trkpt>
      <trkpt lat="49.04152808" lon="-117.90709704">
      </trkpt>
      <trkpt lat="49.04174755" lon="-117.907137">
      </trkpt>
      <trkpt lat="49.04213644" lon="-117.90728691">
      </trkpt>
      <trkpt lat="49.04241479" lon="-117.90716636">
      </trkpt>
      <trkpt lat="49.04247396" lon="-117.90709629">
      </trkpt>
      <trkpt lat="49.04259663" lon="-117.90687958">
      </trkpt>
      <trkpt lat="49.04268377" lon="-117.90697629">
      </trkpt>
      <trkpt lat="49.04274333" lon="-117.90702452">
      </trkpt>
      <trkpt lat="49.04280731" lon="-117.90702399">
      </trkpt>
      <trkpt lat="49.04282518" lon="-117.9068986">
      </trkpt>
      <trkpt lat="49.04281126" lon="-117.90683609">
      </trkpt>
      <trkpt lat="49.0427742" lon="-117.90668331">
      </trkpt>
      <trkpt lat="49.0428747" lon="-117.90667553">
      </trkpt>
      <trkpt lat="49.04299376" lon="-117.9067511">
      </trkpt>
      <trkpt lat="49.04313539" lon="-117.90674298">
      </trkpt>
      <trkpt lat="49.04317186" lon="-117.90671486">
      </trkpt>
      <trkpt lat="49.04309358" lon="-117.90653458">
      </trkpt>
      <trkpt lat="49.04285547" lon="-117.90638342">
      </trkpt>
      <trkpt lat="49.04285492" lon="-117.90620949">
      </trkpt>
      <trkpt lat="49.04298695" lon="-117.90606228">
      </trkpt>
      <trkpt lat="49.04318343" lon="-117.90606068">
      </trkpt>
      <trkpt lat="49.04349865" lon="-117.90603723">
      </trkpt>
      <trkpt lat="49.04376794" lon="-117.90594455">
      </trkpt>
      <trkpt lat="49.04426512" lon="-117.90566913">
      </trkpt>
      <trkpt lat="49.04458856" lon="-117.90536725">
      </trkpt>
      <trkpt lat="49.0450029" lon="-117.90491156">
      </trkpt>
      <trkpt lat="49.04541716" lon="-117.90443498">
      </trkpt>
      <trkpt lat="49.04583133" lon="-117.90393056">
      </trkpt>
      <trkpt lat="49.04604163" lon="-117.90358899">
      </trkpt>
      <trkpt lat="49.04609653" lon="-117.90354015">
      </trkpt>
      <trkpt lat="49.0461297" lon="-117.90352477">
      </trkpt>
      <trkpt lat="49.04643342" lon="-117.90354772">
      </trkpt>
      <trkpt lat="49.04662865" lon="-117.90358819">
      </trkpt>
      <trkpt lat="49.04672979" lon="-117.90358612">
      </trkpt>
      <trkpt lat="49.04694669" lon="-117.90362614">
      </trkpt>
      <trkpt lat="49.04735174" lon="-117.90375124">
      </trkpt>
      <trkpt lat="49.04770622" lon="-117.90387739">
      </trkpt>
      <trkpt lat="49.04787247" lon="-117.90389621">
      </trkpt>
      <trkpt lat="49.04839255" lon="-117.90385219">
      </trkpt>
      <trkpt lat="49.04864485" lon="-117.90368021">
      </trkpt>
      <trkpt lat="49.04887592" lon="-117.90364211">
      </trkpt>
      <trkpt lat="49.04912891" lon="-117.90367026">
      </trkpt>
      <trkpt lat="49.04945407" lon="-117.90367471">
      </trkpt>
      <trkpt lat="49.04971405" lon="-117.90363602">
      </trkpt>
      <trkpt lat="49.05003167" lon="-117.90355166">
      </trkpt>
      <trkpt lat="49.050811" lon="-117.90325766">
      </trkpt>
      <trkpt lat="49.0511143" lon="-117.90320696">
      </trkpt>
      <trkpt lat="49.05143919" lon="-117.90313356">
      </trkpt>
      <trkpt lat="49.0516848" lon="-117.9031174">
      </trkpt>
      <trkpt lat="49.05200289" lon="-117.90316647">
      </trkpt>
      <trkpt lat="49.05248722" lon="-117.90323435">
      </trkpt>
      <trkpt lat="49.05271123" lon="-117.90324087">
      </trkpt>
      <trkpt lat="49.05295707" lon="-117.90329141">
      </trkpt>
      <trkpt lat="49.05331842" lon="-117.90331735">
      </trkpt>
      <trkpt lat="49.05357775" lon="-117.90308962">
      </trkpt>
      <trkpt lat="49.05382994" lon="-117.90288428">
      </trkpt>
      <trkpt lat="49.05392337" lon="-117.90273779">
      </trkpt>
      <trkpt lat="49.05440559" lon="-117.90219411">
      </trkpt>
      <trkpt lat="49.05501033" lon="-117.90155892">
      </trkpt>
      <trkpt lat="49.0550095" lon="-117.90131429">
      </trkpt>
      <trkpt lat="49.05499473" lon="-117.90122564">
      </trkpt>
      <trkpt lat="49.05490674" lon="-117.90084936">
      </trkpt>
      <trkpt lat="49.05491335" lon="-117.90067129">
      </trkpt>
      <trkpt lat="49.05518029" lon="-117.90055459">
      </trkpt>
      <trkpt lat="49.05536097" lon="-117.9005731">
      </trkpt>
      <trkpt lat="49.05572583" lon="-117.90049479">
      </trkpt>
      <trkpt lat="49.05601575" lon="-117.90032365">
      </trkpt>
      <trkpt lat="49.0561045" lon="-117.90027862">
      </trkpt>
      <trkpt lat="49.05618734" lon="-117.90019757">
      </trkpt>
      <trkpt lat="49.05625903" lon="-117.90010945">
      </trkpt>
      <trkpt lat="49.05631731" lon="-117.89962486">
      </trkpt>
      <trkpt lat="49.05648392" lon="-117.89902072">
      </trkpt>
      <trkpt lat="49.05667399" lon="-117.89824277">
      </trkpt>
      <trkpt lat="49.05694665" lon="-117.89736805">
      </trkpt>
      <trkpt lat="49.05736108" lon="-117.89645971">
      </trkpt>
      <trkpt lat="49.0579311" lon="-117.89549002">
      </trkpt>
      <trkpt lat="49.05849541" lon="-117.89485433">
      </trkpt>
      <trkpt lat="49.05910972" lon="-117.89429564">
      </trkpt>
      <trkpt lat="49.05963646" lon="-117.89395198">
      </trkpt>
      <trkpt lat="49.06034099" lon="-117.89373507">
      </trkpt>
      <trkpt lat="49.06067501" lon="-117.89361951">
      </trkpt>
      <trkpt lat="49.06116896" lon="-117.89351224">
      </trkpt>
      <trkpt lat="49.06185503" lon="-117.89335086">
      </trkpt>
      <trkpt lat="49.06245859" lon="-117.89325841">
      </trkpt>
      <trkpt lat="49.06324965" lon="-117.89313269">
      </trkpt>
      <trkpt lat="49.06403188" lon="-117.8929164">
      </trkpt>
      <trkpt lat="49.06463067" lon="-117.89288657">
      </trkpt>
      <trkpt lat="49.06534894" lon="-117.89266278">
      </trkpt>
      <trkpt lat="49.06629505" lon="-117.89263579">
      </trkpt>
      <trkpt lat="49.06705357" lon="-117.89266991">
      </trkpt>
      <trkpt lat="49.0679302" lon="-117.89291388">
      </trkpt>
      <trkpt lat="49.06874264" lon="-117.89321998">
      </trkpt>
      <trkpt lat="49.06963646" lon="-117.89378434">
      </trkpt>
      <trkpt lat="49.07023806" lon="-117.89426973">
      </trkpt>
      <trkpt lat="49.07096692" lon="-117.89495808">
      </trkpt>
      <trkpt lat="49.07170506" lon="-117.89560476">
      </trkpt>
      <trkpt lat="49.07231969" lon="-117.89628525">
      </trkpt>
      <trkpt lat="49.07294947" lon="-117.89654812">
      </trkpt>
      <trkpt lat="49.07352542" lon="-117.89651117">
      </trkpt>
      <trkpt lat="49.0742171" lon="-117.89605044">
      </trkpt>
      <trkpt lat="49.0754096" lon="-117.89480706">
      </trkpt>
      <trkpt lat="49.07606408" lon="-117.89452704">
      </trkpt>
      <trkpt lat="49.07682863" lon="-117.8941365">
      </trkpt>
      <trkpt lat="49.07736902" lon="-117.89380676">
      </trkpt>
      <trkpt lat="49.07787246" lon="-117.89359507">
      </trkpt>
      <trkpt lat="49.07848131" lon="-117.89329374">
      </trkpt>
      <trkpt lat="49.07890287" lon="-117.89296995">
      </trkpt>
      <trkpt lat="49.07943358" lon="-117.89280027">
      </trkpt>
      <trkpt lat="49.0801007" lon="-117.89283364">
      </trkpt>
      <trkpt lat="49.08073474" lon="-117.89318708">
      </trkpt>
      <trkpt lat="49.08149575" lon="-117.89383406">
      </trkpt>
      <trkpt lat="49.08195933" lon="-117.89458303">
      </trkpt>
      <trkpt lat="49.08235435" lon="-117.89533841">
      </trkpt>
      <trkpt lat="49.08274227" lon="-117.89549485">
      </trkpt>
      <trkpt lat="49.08320819" lon="-117.89556142">
      </trkpt>
      <trkpt lat="49.08362939" lon="-117.89534209">
      </trkpt>
      <trkpt lat="49.08442767" lon="-117.89444339">
      </trkpt>
      <trkpt lat="49.08495132" lon="-117.89366776">
      </trkpt>
      <trkpt lat="49.08568067" lon="-117.89287292">
      </trkpt>
      <trkpt lat="49.08620242" lon="-117.89265438">
      </trkpt>
      <trkpt lat="49.08673793" lon="-117.89241507">
      </trkpt>
      <trkpt lat="49.08738675" lon="-117.89245526">
      </trkpt>
      <trkpt lat="49.08793479" lon="-117.89256426">
      </trkpt>
      <trkpt lat="49.08846479" lon="-117.89260347">
      </trkpt>
      <trkpt lat="49.08894915" lon="-117.89262141">
      </trkpt>
      <trkpt lat="49.08986486" lon="-117.89212752">
      </trkpt>
      <trkpt lat="49.09028442" lon="-117.89189026">
      </trkpt>
      <trkpt lat="49.09038685" lon="-117.89183236">
      </trkpt>
      <trkpt lat="49.09096805" lon="-117.89160034">
      </trkpt>
      <trkpt lat="49.09141226" lon="-117.89133238">
      </trkpt>
      <trkpt lat="49.09219026" lon="-117.89101143">
      </trkpt>
      <trkpt lat="49.09290377" lon="-117.8908432">
      </trkpt>
      <trkpt lat="49.09351709" lon="-117.89056963">
      </trkpt>
      <trkpt lat="49.09429462" lon="-117.89038798">
      </trkpt>
      <trkpt lat="49.09502151" lon="-117.89031733">
      </trkpt>
      <trkpt lat="49.09571262" lon="-117.89001654">
      </trkpt>
      <trkpt lat="49.09616618" lon="-117.88968592">
      </trkpt>
      <trkpt lat="49.09665664" lon="-117.88925111">
      </trkpt>
      <trkpt lat="49.09714693" lon="-117.88887201">
      </trkpt>
      <trkpt lat="49.09739511" lon="-117.88845609">
      </trkpt>
      <trkpt lat="49.09751955" lon="-117.88814364">
      </trkpt>
      <trkpt lat="49.09713282" lon="-117.88763195">
      </trkpt>
      <trkpt lat="49.09654423" lon="-117.8873485">
      </trkpt>
      <trkpt lat="49.09565538" lon="-117.88665859">
      </trkpt>
      <trkpt lat="49.09391828" lon="-117.88543241">
      </trkpt>
      <trkpt lat="49.09345765" lon="-117.88514308">
      </trkpt>
      <trkpt lat="49.09314796" lon="-117.88482712">
      </trkpt>
      <trkpt lat="49.0928652" lon="-117.88465069">
      </trkpt>
      <trkpt lat="49.09237702" lon="-117.88440294">
      </trkpt>
      <trkpt lat="49.09211231" lon="-117.88429631">
      </trkpt>
      <trkpt lat="49.09169352" lon="-117.88379838">
      </trkpt>
      <trkpt lat="49.09124717" lon="-117.88334203">
      </trkpt>
      <trkpt lat="49.0907463" lon="-117.88278774">
      </trkpt>
      <trkpt lat="49.09043694" lon="-117.88236038">
      </trkpt>
      <trkpt lat="49.09026063" lon="-117.88178087">
      </trkpt>
      <trkpt lat="49.09025823" lon="-117.88112613">
      </trkpt>
      <trkpt lat="49.0903873" lon="-117.88079284">
      </trkpt>
      <trkpt lat="49.09065397" lon="-117.88030744">
      </trkpt>
      <trkpt lat="49.09099327" lon="-117.87996887">
      </trkpt>
      <trkpt lat="49.09140531" lon="-117.87974931">
      </trkpt>
      <trkpt lat="49.09191747" lon="-117.87965589">
      </trkpt>
      <trkpt lat="49.09252105" lon="-117.87955627">
      </trkpt>
      <trkpt lat="49.09295548" lon="-117.8794692">
      </trkpt>
      <trkpt lat="49.09352258" lon="-117.87934836">
      </trkpt>
      <trkpt lat="49.09407602" lon="-117.87921351">
      </trkpt>
      <trkpt lat="49.0946798" lon="-117.87905118">
      </trkpt>
      <trkpt lat="49.09491325" lon="-117.87893462">
      </trkpt>
      <trkpt lat="49.09520153" lon="-117.87882548">
      </trkpt>
      <trkpt lat="49.09544429" lon="-117.87866026">
      </trkpt>
      <trkpt lat="49.09566909" lon="-117.87839736">
      </trkpt>
      <trkpt lat="49.09584366" lon="-117.87812011">
      </trkpt>
      <trkpt lat="49.09586236" lon="-117.87799489">
      </trkpt>
      <trkpt lat="49.09582213" lon="-117.87771594">
      </trkpt>
      <trkpt lat="49.09581435" lon="-117.8773049">
      </trkpt>
      <trkpt lat="49.0960161" lon="-117.87709753">
      </trkpt>
      <trkpt lat="49.09653268" lon="-117.87705288">
      </trkpt>
      <trkpt lat="49.09688054" lon="-117.87688848">
      </trkpt>
      <trkpt lat="49.09726172" lon="-117.8763203">
      </trkpt>
      <trkpt lat="49.09751427" lon="-117.87595312">
      </trkpt>
      <trkpt lat="49.09788594" lon="-117.87549632">
      </trkpt>
      <trkpt lat="49.09802407" lon="-117.87537451">
      </trkpt>
      <trkpt lat="49.09826176" lon="-117.87516494">
      </trkpt>
      <trkpt lat="49.09860542" lon="-117.87488902">
      </trkpt>
      <trkpt lat="49.09886245" lon="-117.8745497">
      </trkpt>
      <trkpt lat="49.09921557" lon="-117.87417633">
      </trkpt>
      <trkpt lat="49.09956897" lon="-117.87371239">
      </trkpt>
      <trkpt lat="49.09988523" lon="-117.87342928">
      </trkpt>
      <trkpt lat="49.09992617" lon="-117.87338441">
      </trkpt>
      <trkpt lat="49.10025146" lon="-117.87319968">
      </trkpt>
      <trkpt lat="49.10058032" lon="-117.87296877">
      </trkpt>
      <trkpt lat="49.10092462" lon="-117.8725986">
      </trkpt>
      <trkpt lat="49.10096372" lon="-117.87255655">
      </trkpt>
      <trkpt lat="49.10142022" lon="-117.87210928">
      </trkpt>
      <trkpt lat="49.10173738" lon="-117.87178771">
      </trkpt>
      <trkpt lat="49.10177171" lon="-117.87175289">
      </trkpt>
      <trkpt lat="49.10226448" lon="-117.87114528">
      </trkpt>
      <trkpt lat="49.10274809" lon="-117.87052374">
      </trkpt>
      <trkpt lat="49.10324998" lon="-117.86990212">
      </trkpt>
      <trkpt lat="49.10329495" lon="-117.86985023">
      </trkpt>
      <trkpt lat="49.1035466" lon="-117.86955981">
      </trkpt>
      <trkpt lat="49.10461053" lon="-117.86867162">
      </trkpt>
      <trkpt lat="49.10498529" lon="-117.86852408">
      </trkpt>
      <trkpt lat="49.1055432" lon="-117.86848042">
      </trkpt>
      <trkpt lat="49.10632565" lon="-117.86865197">
      </trkpt>
      <trkpt lat="49.10705325" lon="-117.86884462">
      </trkpt>
      <trkpt lat="49.10776261" lon="-117.86905821">
      </trkpt>
      <trkpt lat="49.1100907" lon="-117.86908531">
      </trkpt>
      <trkpt lat="49.11083634" lon="-117.86915251">
      </trkpt>
      <trkpt lat="49.11214411" lon="-117.86898793">
      </trkpt>
      <trkpt lat="49.11277005" lon="-117.86865142">
      </trkpt>
      <trkpt lat="49.11340936" lon="-117.86814069">
      </trkpt>
      <trkpt lat="49.11458389" lon="-117.86767692">
      </trkpt>
      <trkpt lat="49.11538391" lon="-117.86747916">
      </trkpt>
      <trkpt lat="49.11590966" lon="-117.86736592">
      </trkpt>
      <trkpt lat="49.11637578" lon="-117.86716229">
      </trkpt>
      <trkpt lat="49.11827249" lon="-117.8664661">
      </trkpt>
      <trkpt lat="49.11898078" lon="-117.86614317">
      </trkpt>
      <trkpt lat="49.11988137" lon="-117.86592413">
      </trkpt>
      <trkpt lat="49.12048928" lon="-117.86572696">
      </trkpt>
      <trkpt lat="49.12082756" lon="-117.8656422">
      </trkpt>
      <trkpt lat="49.12149127" lon="-117.86589778">
      </trkpt>
      <trkpt lat="49.12220589" lon="-117.8664598">
      </trkpt>
      <trkpt lat="49.12292911" lon="-117.86675005">
      </trkpt>
      <trkpt lat="49.12342513" lon="-117.86703233">
      </trkpt>
      <trkpt lat="49.12342822" lon="-117.8670341">
      </trkpt>
      <trkpt lat="49.12413313" lon="-117.86731744">
      </trkpt>
      <trkpt lat="49.12495215" lon="-117.86747498">
      </trkpt>
      <trkpt lat="49.12535502" lon="-117.86766876">
      </trkpt>
      <trkpt lat="49.12604203" lon="-117.86815429">
      </trkpt>
      <trkpt lat="49.12633989" lon="-117.86843902">
      </trkpt>
      <trkpt lat="49.1266562" lon="-117.86880734">
      </trkpt>
      <trkpt lat="49.12676682" lon="-117.86923904">
      </trkpt>
      <trkpt lat="49.12665784" lon="-117.86963665">
      </trkpt>
      <trkpt lat="49.12547901" lon="-117.87135197">
      </trkpt>
      <trkpt lat="49.12542683" lon="-117.87163383">
      </trkpt>
      <trkpt lat="49.1255127" lon="-117.8718674">
      </trkpt>
      <trkpt lat="49.12594075" lon="-117.87248933">
      </trkpt>
      <trkpt lat="49.12629867" lon="-117.87309447">
      </trkpt>
      <trkpt lat="49.12656479" lon="-117.87353266">
      </trkpt>
      <trkpt lat="49.12686296" lon="-117.87399165">
      </trkpt>
      <trkpt lat="49.12721187" lon="-117.87466654">
      </trkpt>
      <trkpt lat="49.12740077" lon="-117.87539074">
      </trkpt>
      <trkpt lat="49.12748408" lon="-117.87590619">
      </trkpt>
      <trkpt lat="49.12759577" lon="-117.87600851">
      </trkpt>
    </trkseg>
    <trkseg>
      <trkpt lat="49.15029791" lon="-117.90005329">
      </trkpt>
      <trkpt lat="49.15067175" lon="-117.90026828">
      </trkpt>
      <trkpt lat="49.15116629" lon="-117.9005367">
      </trkpt>
      <trkpt lat="49.15170182" lon="-117.90075607">
      </trkpt>
      <trkpt lat="49.15214115" lon="-117.90091336">
      </trkpt>
      <trkpt lat="49.15260296" lon="-117.90093807">
      </trkpt>
      <trkpt lat="49.1531103" lon="-117.90089975">
      </trkpt>
      <trkpt lat="49.15403831" lon="-117.9008934">
      </trkpt>
      <trkpt lat="49.15448565" lon="-117.90066727">
      </trkpt>
      <trkpt lat="49.15501038" lon="-117.90032911">
      </trkpt>
      <trkpt lat="49.15566789" lon="-117.90005973">
      </trkpt>
      <trkpt lat="49.15636165" lon="-117.89968552">
      </trkpt>
      <trkpt lat="49.15689123" lon="-117.89943791">
      </trkpt>
      <trkpt lat="49.15772199" lon="-117.89901394">
      </trkpt>
      <trkpt lat="49.15815579" lon="-117.89884365">
      </trkpt>
      <trkpt lat="49.15881803" lon="-117.89862996">
      </trkpt>
      <trkpt lat="49.15951262" lon="-117.89853456">
      </trkpt>
      <trkpt lat="49.16042711" lon="-117.898591">
      </trkpt>
      <trkpt lat="49.16131937" lon="-117.89885671">
      </trkpt>
      <trkpt lat="49.16329078" lon="-117.89921262">
      </trkpt>
      <trkpt lat="49.16384458" lon="-117.89942493">
      </trkpt>
      <trkpt lat="49.16463703" lon="-117.89995629">
      </trkpt>
      <trkpt lat="49.16542959" lon="-117.90051556">
      </trkpt>
      <trkpt lat="49.16624418" lon="-117.90080281">
      </trkpt>
      <trkpt lat="49.16738212" lon="-117.90067648">
      </trkpt>
      <trkpt lat="49.16813048" lon="-117.90021119">
      </trkpt>
      <trkpt lat="49.16865992" lon="-117.89973706">
      </trkpt>
      <trkpt lat="49.16900134" lon="-117.89943128">
      </trkpt>
      <trkpt lat="49.16968917" lon="-117.89859683">
      </trkpt>
      <trkpt lat="49.17005299" lon="-117.89795983">
      </trkpt>
      <trkpt lat="49.17048889" lon="-117.89696673">
      </trkpt>
      <trkpt lat="49.17100681" lon="-117.89588936">
      </trkpt>
      <trkpt lat="49.17149804" lon="-117.8950562">
      </trkpt>
      <trkpt lat="49.17186317" lon="-117.89485843">
      </trkpt>
      <trkpt lat="49.1724566" lon="-117.8945684">
      </trkpt>
      <trkpt lat="49.17294516" lon="-117.89436976">
      </trkpt>
      <trkpt lat="49.17330594" lon="-117.89424869">
      </trkpt>
      <trkpt lat="49.17319316" lon="-117.89474456">
      </trkpt>
      <trkpt lat="49.17291591" lon="-117.8952834">
      </trkpt>
      <trkpt lat="49.17263099" lon="-117.89631038">
      </trkpt>
      <trkpt lat="49.17254129" lon="-117.89688975">
      </trkpt>
      <trkpt lat="49.17295736" lon="-117.8969078">
      </trkpt>
      <trkpt lat="49.17347861" lon="-117.89693903">
      </trkpt>
      <trkpt lat="49.17415966" lon="-117.89689946">
      </trkpt>
      <trkpt lat="49.17472222" lon="-117.89698621">
      </trkpt>
      <trkpt lat="49.17517551" lon="-117.89722016">
      </trkpt>
      <trkpt lat="49.1756707" lon="-117.89770486">
      </trkpt>
      <trkpt lat="49.1762529" lon="-117.89824476">
      </trkpt>
      <trkpt lat="49.1766244" lon="-117.89864664">
      </trkpt>
      <trkpt lat="49.17693746" lon="-117.89938368">
      </trkpt>
      <trkpt lat="49.17713728" lon="-117.90047714">
      </trkpt>
      <trkpt lat="49.17734081" lon="-117.90127769">
      </trkpt>
      <trkpt lat="49.17763617" lon="-117.90221911">
      </trkpt>
      <trkpt lat="49.17770539" lon="-117.90243977">
      </trkpt>
      <trkpt lat="49.17827919" lon="-117.90323782">
      </trkpt>
      <trkpt lat="49.17904963" lon="-117.90406246">
      </trkpt>
      <trkpt lat="49.1797555" lon="-117.90469229">
      </trkpt>
      <trkpt lat="49.18037375" lon="-117.90506469">
      </trkpt>
      <trkpt lat="49.18126217" lon="-117.90558871">
      </trkpt>
      <trkpt lat="49.18226068" lon="-117.90624451">
      </trkpt>
      <trkpt lat="49.18324432" lon="-117.9065029">
      </trkpt>
      <trkpt lat="49.18438365" lon="-117.90685093">
      </trkpt>
      <trkpt lat="49.18559532" lon="-117.90691951">
      </trkpt>
      <trkpt lat="49.18644534" lon="-117.90682312">
      </trkpt>
      <trkpt lat="49.18728204" lon="-117.90685933">
      </trkpt>
      <trkpt lat="49.18797244" lon="-117.90688957">
      </trkpt>
      <trkpt lat="49.18885038" lon="-117.90696038">
      </trkpt>
      <trkpt lat="49.18963642" lon="-117.90686443">
      </trkpt>
      <trkpt lat="49.19027586" lon="-117.90667179">
      </trkpt>
      <trkpt lat="49.19085151" lon="-117.90654237">
      </trkpt>
      <trkpt lat="49.19150491" lon="-117.90642636">
      </trkpt>
      <trkpt lat="49.19193814" lon="-117.9060607">
      </trkpt>
      <trkpt lat="49.19206504" lon="-117.90568317">
      </trkpt>
      <trkpt lat="49.19174823" lon="-117.90521098">
      </trkpt>
      <trkpt lat="49.19127624" lon="-117.90483052">
      </trkpt>
      <trkpt lat="49.1906702" lon="-117.90394178">
      </trkpt>
      <trkpt lat="49.19027014" lon="-117.9031493">
      </trkpt>
      <trkpt lat="49.19019031" lon="-117.90243141">
      </trkpt>
      <trkpt lat="49.19023272" lon="-117.90130809">
      </trkpt>
      <trkpt lat="49.19011504" lon="-117.90016494">
      </trkpt>
      <trkpt lat="49.19014952" lon="-117.8994602">
      </trkpt>
      <trkpt lat="49.19032587" lon="-117.89894424">
      </trkpt>
    </trkseg>
  </trk>
</gpx>