<?xml version="1.0" encoding="UTF-8"?>
<gpx xmlns="http://www.topografix.com/GPX/1/1" xmlns:xsi="http://www.w3.org/2001/XMLSchema-instance" xsi:schemaLocation="http://www.topografix.com/GPX/1/1 http://www.topografix.com/GPX/1/1/gpx.xsd" version="1.1" creator="gpx.py -- https://github.com/tkrajina/gpxpy">
  <trk>
    <name>Paper Mill Dam Trail</name>
    <trkseg>
      <trkpt lat="49.2740393" lon="-124.8548172">
      </trkpt>
      <trkpt lat="49.2739636" lon="-124.8548715">
      </trkpt>
      <trkpt lat="49.2738635" lon="-124.8549821">
      </trkpt>
      <trkpt lat="49.2738172" lon="-124.8549837">
      </trkpt>
      <trkpt lat="49.2738472" lon="-124.8551627">
      </trkpt>
      <trkpt lat="49.2739436" lon="-124.8553763">
      </trkpt>
      <trkpt lat="49.2737632" lon="-124.8560096">
      </trkpt>
    </trkseg>
    <trkseg>
      <trkpt lat="49.2737632" lon="-124.8560096">
      </trkpt>
      <trkpt lat="49.2737784" lon="-124.8560242">
      </trkpt>
    </trkseg>
    <trkseg>
      <trkpt lat="49.2737784" lon="-124.8560242">
      </trkpt>
      <trkpt lat="49.2738028" lon="-124.8560643">
      </trkpt>
      <trkpt lat="49.2742037" lon="-124.8563573">
      </trkpt>
    </trkseg>
    <trkseg>
      <trkpt lat="49.2742037" lon="-124.8563573">
      </trkpt>
      <trkpt lat="49.2742201" lon="-124.8562561">
      </trkpt>
      <trkpt lat="49.2742556" lon="-124.8562185">
      </trkpt>
    </trkseg>
    <trkseg>
      <trkpt lat="49.2742556" lon="-124.8562185">
      </trkpt>
      <trkpt lat="49.2743032" lon="-124.8561823">
      </trkpt>
      <trkpt lat="49.2744196" lon="-124.8564116">
      </trkpt>
      <trkpt lat="49.2748387" lon="-124.8566309">
      </trkpt>
    </trkseg>
    <trkseg>
      <trkpt lat="49.2748387" lon="-124.8566309">
      </trkpt>
      <trkpt lat="49.2748431" lon="-124.8567382">
      </trkpt>
    </trkseg>
    <trkseg>
      <trkpt lat="49.2748431" lon="-124.8567382">
      </trkpt>
      <trkpt lat="49.2748298" lon="-124.8569272">
      </trkpt>
    </trkseg>
    <trkseg>
      <trkpt lat="49.2748387" lon="-124.8566309">
      </trkpt>
      <trkpt lat="49.2748834" lon="-124.8566202">
      </trkpt>
      <trkpt lat="49.2750188" lon="-124.8567792">
      </trkpt>
    </trkseg>
    <trkseg>
      <trkpt lat="49.2750188" lon="-124.8567792">
      </trkpt>
      <trkpt lat="49.2751599" lon="-124.8568723">
      </trkpt>
      <trkpt lat="49.2753035" lon="-124.8569028">
      </trkpt>
    </trkseg>
    <trkseg>
      <trkpt lat="49.2753035" lon="-124.8569028">
      </trkpt>
      <trkpt lat="49.2754689" lon="-124.8569578">
      </trkpt>
      <trkpt lat="49.2755458" lon="-124.8569389">
      </trkpt>
      <trkpt lat="49.2756771" lon="-124.8568611">
      </trkpt>
      <trkpt lat="49.2758766" lon="-124.8567324">
      </trkpt>
      <trkpt lat="49.2760323" lon="-124.8565768">
      </trkpt>
      <trkpt lat="49.2761566" lon="-124.8564159">
      </trkpt>
      <trkpt lat="49.2762773" lon="-124.8562979">
      </trkpt>
      <trkpt lat="49.2763587" lon="-124.856123">
      </trkpt>
      <trkpt lat="49.2763247" lon="-124.8559587">
      </trkpt>
    </trkseg>
  </trk>
</gpx>