<?xml version="1.0" encoding="UTF-8"?>
<gpx xmlns="http://www.topografix.com/GPX/1/1" xmlns:xsi="http://www.w3.org/2001/XMLSchema-instance" xsi:schemaLocation="http://www.topografix.com/GPX/1/1 http://www.topografix.com/GPX/1/1/gpx.xsd" version="1.1" creator="gpx.py -- https://github.com/tkrajina/gpxpy">
  <trk>
    <name>Rogers Creek Park Trail</name>
    <trkseg>
      <trkpt lat="49.256758" lon="-124.8073344">
      </trkpt>
      <trkpt lat="49.2567132" lon="-124.8073042">
      </trkpt>
      <trkpt lat="49.2566898" lon="-124.8072689">
      </trkpt>
    </trkseg>
    <trkseg>
      <trkpt lat="49.2566898" lon="-124.8072689">
      </trkpt>
      <trkpt lat="49.2567896" lon="-124.8070188">
      </trkpt>
      <trkpt lat="49.2568638" lon="-124.8067957">
      </trkpt>
      <trkpt lat="49.2570911" lon="-124.8063803">
      </trkpt>
      <trkpt lat="49.2572852" lon="-124.805986">
      </trkpt>
      <trkpt lat="49.2575706" lon="-124.8057381">
      </trkpt>
      <trkpt lat="49.2577415" lon="-124.8055379">
      </trkpt>
      <trkpt lat="49.2578172" lon="-124.8053557">
      </trkpt>
      <trkpt lat="49.2578956" lon="-124.8050178">
      </trkpt>
      <trkpt lat="49.2579303" lon="-124.8048276">
      </trkpt>
      <trkpt lat="49.2579166" lon="-124.804658">
      </trkpt>
      <trkpt lat="49.2578682" lon="-124.8045677">
      </trkpt>
    </trkseg>
    <trkseg>
      <trkpt lat="49.2580383" lon="-124.8046723">
      </trkpt>
      <trkpt lat="49.2580703" lon="-124.8045932">
      </trkpt>
      <trkpt lat="49.2581556" lon="-124.8044597">
      </trkpt>
      <trkpt lat="49.2580755" lon="-124.8043665">
      </trkpt>
      <trkpt lat="49.2580632" lon="-124.8042521">
      </trkpt>
    </trkseg>
    <trkseg>
      <trkpt lat="49.2580632" lon="-124.8042521">
      </trkpt>
      <trkpt lat="49.2580938" lon="-124.8041186">
      </trkpt>
      <trkpt lat="49.258963" lon="-124.8045491">
      </trkpt>
      <trkpt lat="49.2590198" lon="-124.8045196">
      </trkpt>
      <trkpt lat="49.2592614" lon="-124.8044686">
      </trkpt>
      <trkpt lat="49.2593899" lon="-124.8041651">
      </trkpt>
      <trkpt lat="49.259433" lon="-124.8040158">
      </trkpt>
    </trkseg>
    <trkseg>
      <trkpt lat="49.2576147" lon="-124.8044244">
      </trkpt>
      <trkpt lat="49.2576976" lon="-124.8041606">
      </trkpt>
      <trkpt lat="49.2577677" lon="-124.8038749">
      </trkpt>
      <trkpt lat="49.2577868" lon="-124.8037971">
      </trkpt>
      <trkpt lat="49.2578618" lon="-124.8035091">
      </trkpt>
      <trkpt lat="49.2579406" lon="-124.8033679">
      </trkpt>
      <trkpt lat="49.2579755" lon="-124.8032079">
      </trkpt>
      <trkpt lat="49.257978" lon="-124.8030724">
      </trkpt>
    </trkseg>
    <trkseg>
      <trkpt lat="49.2576932" lon="-124.8044791">
      </trkpt>
      <trkpt lat="49.2576147" lon="-124.8044244">
      </trkpt>
      <trkpt lat="49.257386" lon="-124.8040758">
      </trkpt>
      <trkpt lat="49.2569745" lon="-124.8038522">
      </trkpt>
    </trkseg>
    <trkseg>
      <trkpt lat="49.2569745" lon="-124.8038522">
      </trkpt>
      <trkpt lat="49.2565996" lon="-124.8039062">
      </trkpt>
      <trkpt lat="49.2564569" lon="-124.8039144">
      </trkpt>
      <trkpt lat="49.2562721" lon="-124.8039929">
      </trkpt>
      <trkpt lat="49.2559227" lon="-124.8041566">
      </trkpt>
      <trkpt lat="49.2557382" lon="-124.8042665">
      </trkpt>
      <trkpt lat="49.2555228" lon="-124.8044059">
      </trkpt>
      <trkpt lat="49.2551114" lon="-124.8046929">
      </trkpt>
      <trkpt lat="49.2546733" lon="-124.8049852">
      </trkpt>
      <trkpt lat="49.2545948" lon="-124.8050942">
      </trkpt>
      <trkpt lat="49.2545213" lon="-124.8051722">
      </trkpt>
    </trkseg>
    <trkseg>
      <trkpt lat="49.2570911" lon="-124.8063803">
      </trkpt>
      <trkpt lat="49.2565656" lon="-124.805556">
      </trkpt>
      <trkpt lat="49.2563079" lon="-124.80524">
      </trkpt>
      <trkpt lat="49.2561048" lon="-124.8051703">
      </trkpt>
      <trkpt lat="49.2559842" lon="-124.8048625">
      </trkpt>
    </trkseg>
    <trkseg>
      <trkpt lat="49.2559842" lon="-124.8048625">
      </trkpt>
      <trkpt lat="49.2559362" lon="-124.8048454">
      </trkpt>
      <trkpt lat="49.2558835" lon="-124.8048622">
      </trkpt>
      <trkpt lat="49.2558587" lon="-124.8048896">
      </trkpt>
    </trkseg>
    <trkseg>
      <trkpt lat="49.2578682" lon="-124.8045677">
      </trkpt>
      <trkpt lat="49.2580383" lon="-124.8046723">
      </trkpt>
      <trkpt lat="49.2580478" lon="-124.8046868">
      </trkpt>
      <trkpt lat="49.2580984" lon="-124.804773">
      </trkpt>
      <trkpt lat="49.2581086" lon="-124.8049432">
      </trkpt>
    </trkseg>
    <trkseg>
      <trkpt lat="49.2578682" lon="-124.8045677">
      </trkpt>
      <trkpt lat="49.2576932" lon="-124.8044791">
      </trkpt>
    </trkseg>
  </trk>
</gpx>