<?xml version="1.0" encoding="UTF-8"?>
<gpx xmlns="http://www.topografix.com/GPX/1/1" xmlns:xsi="http://www.w3.org/2001/XMLSchema-instance" xsi:schemaLocation="http://www.topografix.com/GPX/1/1 http://www.topografix.com/GPX/1/1/gpx.xsd" version="1.1" creator="gpx.py -- https://github.com/tkrajina/gpxpy">
  <trk>
    <name>GDT enm</name>
    <trkseg>
      <trkpt lat="51.0674837" lon="-115.7794806">
      </trkpt>
      <trkpt lat="51.0675208" lon="-115.7792526">
      </trkpt>
      <trkpt lat="51.0674618" lon="-115.7789415">
      </trkpt>
      <trkpt lat="51.0674382" lon="-115.7788342">
      </trkpt>
    </trkseg>
    <trkseg>
      <trkpt lat="51.0674382" lon="-115.7788342">
      </trkpt>
      <trkpt lat="51.0673189" lon="-115.7786646">
      </trkpt>
      <trkpt lat="51.0672052" lon="-115.7785315">
      </trkpt>
      <trkpt lat="51.0670868" lon="-115.7784024">
      </trkpt>
      <trkpt lat="51.0669564" lon="-115.7782074">
      </trkpt>
      <trkpt lat="51.0668274" lon="-115.7780418">
      </trkpt>
      <trkpt lat="51.0667101" lon="-115.7778512">
      </trkpt>
      <trkpt lat="51.066589" lon="-115.7777001">
      </trkpt>
      <trkpt lat="51.0664935" lon="-115.7776286">
      </trkpt>
      <trkpt lat="51.0663876" lon="-115.7774372">
      </trkpt>
      <trkpt lat="51.0662895" lon="-115.777296">
      </trkpt>
      <trkpt lat="51.0661947" lon="-115.777123">
      </trkpt>
      <trkpt lat="51.0661069" lon="-115.7770199">
      </trkpt>
      <trkpt lat="51.0659971" lon="-115.7768789">
      </trkpt>
      <trkpt lat="51.0657901" lon="-115.7766363">
      </trkpt>
      <trkpt lat="51.0656288" lon="-115.7764725">
      </trkpt>
      <trkpt lat="51.0655512" lon="-115.7763652">
      </trkpt>
      <trkpt lat="51.0654811" lon="-115.7762839">
      </trkpt>
      <trkpt lat="51.0652581" lon="-115.7760802">
      </trkpt>
      <trkpt lat="51.0650298" lon="-115.7758428">
      </trkpt>
      <trkpt lat="51.064783" lon="-115.7756346">
      </trkpt>
      <trkpt lat="51.0645542" lon="-115.7754689">
      </trkpt>
      <trkpt lat="51.0643566" lon="-115.7752655">
      </trkpt>
      <trkpt lat="51.0641772" lon="-115.7750345">
      </trkpt>
      <trkpt lat="51.0640317" lon="-115.774831">
      </trkpt>
      <trkpt lat="51.0639339" lon="-115.7746311">
      </trkpt>
      <trkpt lat="51.0638211" lon="-115.7744574">
      </trkpt>
      <trkpt lat="51.0637128" lon="-115.7743149">
      </trkpt>
      <trkpt lat="51.0635956" lon="-115.7740708">
      </trkpt>
      <trkpt lat="51.0634728" lon="-115.7738842">
      </trkpt>
      <trkpt lat="51.0633786" lon="-115.7737368">
      </trkpt>
      <trkpt lat="51.0633335" lon="-115.7736789">
      </trkpt>
      <trkpt lat="51.0632916" lon="-115.7736267">
      </trkpt>
      <trkpt lat="51.0632028" lon="-115.77349">
      </trkpt>
      <trkpt lat="51.0631399" lon="-115.7732941">
      </trkpt>
      <trkpt lat="51.0630341" lon="-115.7731164">
      </trkpt>
      <trkpt lat="51.062957" lon="-115.7729977">
      </trkpt>
      <trkpt lat="51.0628186" lon="-115.7728617">
      </trkpt>
      <trkpt lat="51.0626244" lon="-115.77264">
      </trkpt>
      <trkpt lat="51.06243" lon="-115.77239">
      </trkpt>
      <trkpt lat="51.06216" lon="-115.77215">
      </trkpt>
      <trkpt lat="51.06193" lon="-115.77192">
      </trkpt>
      <trkpt lat="51.06182" lon="-115.77179">
      </trkpt>
      <trkpt lat="51.06161" lon="-115.77154">
      </trkpt>
      <trkpt lat="51.0615761" lon="-115.7715115">
      </trkpt>
      <trkpt lat="51.06136" lon="-115.77133">
      </trkpt>
      <trkpt lat="51.06105" lon="-115.77122">
      </trkpt>
      <trkpt lat="51.06072" lon="-115.77108">
      </trkpt>
      <trkpt lat="51.06041" lon="-115.77085">
      </trkpt>
      <trkpt lat="51.0603737" lon="-115.7708331">
      </trkpt>
      <trkpt lat="51.06013" lon="-115.77072">
      </trkpt>
      <trkpt lat="51.05987" lon="-115.77064">
      </trkpt>
      <trkpt lat="51.05952" lon="-115.77046">
      </trkpt>
      <trkpt lat="51.0593601" lon="-115.7704067">
      </trkpt>
      <trkpt lat="51.05928" lon="-115.77038">
      </trkpt>
      <trkpt lat="51.05927" lon="-115.77037">
      </trkpt>
      <trkpt lat="51.05927" lon="-115.77038">
      </trkpt>
      <trkpt lat="51.05926" lon="-115.77037">
      </trkpt>
      <trkpt lat="51.05908" lon="-115.77027">
      </trkpt>
      <trkpt lat="51.05886" lon="-115.77008">
      </trkpt>
      <trkpt lat="51.05861" lon="-115.76989">
      </trkpt>
      <trkpt lat="51.05831" lon="-115.76971">
      </trkpt>
      <trkpt lat="51.05799" lon="-115.76956">
      </trkpt>
      <trkpt lat="51.0577281" lon="-115.7694045">
      </trkpt>
      <trkpt lat="51.05767" lon="-115.76937">
      </trkpt>
      <trkpt lat="51.05734" lon="-115.76919">
      </trkpt>
      <trkpt lat="51.05708" lon="-115.769">
      </trkpt>
      <trkpt lat="51.05685" lon="-115.76879">
      </trkpt>
      <trkpt lat="51.0567998" lon="-115.7687398">
      </trkpt>
      <trkpt lat="51.05659" lon="-115.76853">
      </trkpt>
      <trkpt lat="51.05636" lon="-115.76834">
      </trkpt>
      <trkpt lat="51.05612" lon="-115.76811">
      </trkpt>
      <trkpt lat="51.0559" lon="-115.76792">
      </trkpt>
      <trkpt lat="51.05562" lon="-115.7677">
      </trkpt>
      <trkpt lat="51.05538" lon="-115.76747">
      </trkpt>
      <trkpt lat="51.05516" lon="-115.76728">
      </trkpt>
      <trkpt lat="51.0549" lon="-115.76712">
      </trkpt>
      <trkpt lat="51.05461" lon="-115.76686">
      </trkpt>
      <trkpt lat="51.05438" lon="-115.76663">
      </trkpt>
      <trkpt lat="51.05411" lon="-115.76647">
      </trkpt>
      <trkpt lat="51.05376" lon="-115.76628">
      </trkpt>
      <trkpt lat="51.05347" lon="-115.76609">
      </trkpt>
      <trkpt lat="51.05325" lon="-115.76593">
      </trkpt>
      <trkpt lat="51.05323" lon="-115.76589">
      </trkpt>
      <trkpt lat="51.0532" lon="-115.76584">
      </trkpt>
      <trkpt lat="51.05302" lon="-115.76558">
      </trkpt>
      <trkpt lat="51.05275" lon="-115.76542">
      </trkpt>
      <trkpt lat="51.05248" lon="-115.76516">
      </trkpt>
      <trkpt lat="51.05224" lon="-115.76493">
      </trkpt>
      <trkpt lat="51.05196" lon="-115.76474">
      </trkpt>
      <trkpt lat="51.05175" lon="-115.76464">
      </trkpt>
      <trkpt lat="51.05146" lon="-115.76451">
      </trkpt>
      <trkpt lat="51.05122" lon="-115.76432">
      </trkpt>
      <trkpt lat="51.05116" lon="-115.76426">
      </trkpt>
      <trkpt lat="51.05091" lon="-115.76396">
      </trkpt>
      <trkpt lat="51.0507" lon="-115.76374">
      </trkpt>
      <trkpt lat="51.05049" lon="-115.76345">
      </trkpt>
      <trkpt lat="51.05032" lon="-115.76316">
      </trkpt>
      <trkpt lat="51.05012" lon="-115.7629">
      </trkpt>
      <trkpt lat="51.04993" lon="-115.76263">
      </trkpt>
      <trkpt lat="51.04974" lon="-115.76239">
      </trkpt>
      <trkpt lat="51.04953" lon="-115.76214">
      </trkpt>
      <trkpt lat="51.04944" lon="-115.76206">
      </trkpt>
      <trkpt lat="51.04931" lon="-115.7619">
      </trkpt>
      <trkpt lat="51.04908" lon="-115.76158">
      </trkpt>
      <trkpt lat="51.0489" lon="-115.76129">
      </trkpt>
      <trkpt lat="51.04862" lon="-115.76108">
      </trkpt>
      <trkpt lat="51.04833" lon="-115.76084">
      </trkpt>
      <trkpt lat="51.04814" lon="-115.76066">
      </trkpt>
      <trkpt lat="51.04789" lon="-115.76049">
      </trkpt>
      <trkpt lat="51.04766" lon="-115.76029">
      </trkpt>
      <trkpt lat="51.04742" lon="-115.76002">
      </trkpt>
      <trkpt lat="51.04721" lon="-115.75991">
      </trkpt>
      <trkpt lat="51.04716" lon="-115.75985">
      </trkpt>
      <trkpt lat="51.04713" lon="-115.75984">
      </trkpt>
      <trkpt lat="51.04692" lon="-115.75966">
      </trkpt>
      <trkpt lat="51.04675" lon="-115.75949">
      </trkpt>
      <trkpt lat="51.04659" lon="-115.75923">
      </trkpt>
      <trkpt lat="51.0464032" lon="-115.7586228">
      </trkpt>
      <trkpt lat="51.0462" lon="-115.75823">
      </trkpt>
      <trkpt lat="51.04613" lon="-115.75814">
      </trkpt>
      <trkpt lat="51.04604" lon="-115.75798">
      </trkpt>
      <trkpt lat="51.04582" lon="-115.7577">
      </trkpt>
      <trkpt lat="51.04565" lon="-115.75722">
      </trkpt>
      <trkpt lat="51.045603" lon="-115.7570939">
      </trkpt>
      <trkpt lat="51.04545" lon="-115.75687">
      </trkpt>
      <trkpt lat="51.04534" lon="-115.7567">
      </trkpt>
      <trkpt lat="51.04529" lon="-115.75654">
      </trkpt>
      <trkpt lat="51.0452457" lon="-115.7564107">
      </trkpt>
      <trkpt lat="51.0451628" lon="-115.7562578">
      </trkpt>
      <trkpt lat="51.04508" lon="-115.75618">
      </trkpt>
      <trkpt lat="51.04493" lon="-115.75627">
      </trkpt>
      <trkpt lat="51.04491" lon="-115.75634">
      </trkpt>
      <trkpt lat="51.04479" lon="-115.75654">
      </trkpt>
      <trkpt lat="51.04477" lon="-115.75654">
      </trkpt>
      <trkpt lat="51.04454" lon="-115.7564">
      </trkpt>
      <trkpt lat="51.04449" lon="-115.75632">
      </trkpt>
      <trkpt lat="51.0443" lon="-115.75602">
      </trkpt>
      <trkpt lat="51.04417" lon="-115.75588">
      </trkpt>
      <trkpt lat="51.04403" lon="-115.75566">
      </trkpt>
      <trkpt lat="51.04388" lon="-115.75547">
      </trkpt>
      <trkpt lat="51.0438" lon="-115.75537">
      </trkpt>
      <trkpt lat="51.04361" lon="-115.75528">
      </trkpt>
      <trkpt lat="51.04347" lon="-115.75527">
      </trkpt>
      <trkpt lat="51.04336" lon="-115.75527">
      </trkpt>
      <trkpt lat="51.04309" lon="-115.75527">
      </trkpt>
      <trkpt lat="51.04287" lon="-115.75527">
      </trkpt>
      <trkpt lat="51.04267" lon="-115.75531">
      </trkpt>
      <trkpt lat="51.04249" lon="-115.75532">
      </trkpt>
      <trkpt lat="51.04238" lon="-115.75534">
      </trkpt>
      <trkpt lat="51.04223" lon="-115.75543">
      </trkpt>
      <trkpt lat="51.04213" lon="-115.75541">
      </trkpt>
      <trkpt lat="51.0420323" lon="-115.7553336">
      </trkpt>
      <trkpt lat="51.0419504" lon="-115.755135">
      </trkpt>
      <trkpt lat="51.0418874" lon="-115.7549357">
      </trkpt>
      <trkpt lat="51.0418522" lon="-115.754782">
      </trkpt>
      <trkpt lat="51.041783" lon="-115.7546121">
      </trkpt>
      <trkpt lat="51.0417125" lon="-115.7545602">
      </trkpt>
      <trkpt lat="51.0415917" lon="-115.7545668">
      </trkpt>
      <trkpt lat="51.0414733" lon="-115.7545668">
      </trkpt>
      <trkpt lat="51.0414289" lon="-115.7545201">
      </trkpt>
      <trkpt lat="51.0412653" lon="-115.7544139">
      </trkpt>
      <trkpt lat="51.0410847" lon="-115.7542677">
      </trkpt>
      <trkpt lat="51.0409112" lon="-115.7541382">
      </trkpt>
      <trkpt lat="51.0407328" lon="-115.7539355">
      </trkpt>
      <trkpt lat="51.0406242" lon="-115.7538564">
      </trkpt>
      <trkpt lat="51.040557" lon="-115.753808">
      </trkpt>
      <trkpt lat="51.0404906" lon="-115.7537966">
      </trkpt>
      <trkpt lat="51.0403837" lon="-115.7537963">
      </trkpt>
      <trkpt lat="51.0402639" lon="-115.7537287">
      </trkpt>
      <trkpt lat="51.0401884" lon="-115.7536268">
      </trkpt>
      <trkpt lat="51.0400566" lon="-115.7532805">
      </trkpt>
      <trkpt lat="51.0399636" lon="-115.7530583">
      </trkpt>
      <trkpt lat="51.0399013" lon="-115.7529646">
      </trkpt>
      <trkpt lat="51.039833" lon="-115.7528566">
      </trkpt>
      <trkpt lat="51.0397843" lon="-115.7527966">
      </trkpt>
      <trkpt lat="51.039693" lon="-115.7524717">
      </trkpt>
      <trkpt lat="51.0396366" lon="-115.7521295">
      </trkpt>
      <trkpt lat="51.0395763" lon="-115.7519059">
      </trkpt>
      <trkpt lat="51.0394927" lon="-115.7516834">
      </trkpt>
      <trkpt lat="51.0394213" lon="-115.7514356">
      </trkpt>
      <trkpt lat="51.0393353" lon="-115.751248">
      </trkpt>
      <trkpt lat="51.0391487" lon="-115.7512112">
      </trkpt>
      <trkpt lat="51.0389948" lon="-115.7511892">
      </trkpt>
      <trkpt lat="51.0387971" lon="-115.7512253">
      </trkpt>
      <trkpt lat="51.038718" lon="-115.7511536">
      </trkpt>
      <trkpt lat="51.0386646" lon="-115.7509954">
      </trkpt>
      <trkpt lat="51.0386278" lon="-115.750878">
      </trkpt>
      <trkpt lat="51.0385143" lon="-115.7507751">
      </trkpt>
      <trkpt lat="51.0382629" lon="-115.7507034">
      </trkpt>
      <trkpt lat="51.0381849" lon="-115.7504758">
      </trkpt>
      <trkpt lat="51.0381648" lon="-115.7502995">
      </trkpt>
      <trkpt lat="51.038128" lon="-115.7500827">
      </trkpt>
      <trkpt lat="51.0380383" lon="-115.7500007">
      </trkpt>
      <trkpt lat="51.03796" lon="-115.749981">
      </trkpt>
      <trkpt lat="51.0378172" lon="-115.7500534">
      </trkpt>
      <trkpt lat="51.0376729" lon="-115.7500124">
      </trkpt>
      <trkpt lat="51.03753" lon="-115.74983">
      </trkpt>
      <trkpt lat="51.03742" lon="-115.74964">
      </trkpt>
      <trkpt lat="51.03737" lon="-115.74932">
      </trkpt>
      <trkpt lat="51.03732" lon="-115.7489">
      </trkpt>
      <trkpt lat="51.03714" lon="-115.74855">
      </trkpt>
      <trkpt lat="51.03706" lon="-115.74826">
      </trkpt>
      <trkpt lat="51.03698" lon="-115.74792">
      </trkpt>
      <trkpt lat="51.03699" lon="-115.74784">
      </trkpt>
      <trkpt lat="51.037" lon="-115.74774">
      </trkpt>
      <trkpt lat="51.03702" lon="-115.74768">
      </trkpt>
      <trkpt lat="51.03701" lon="-115.74757">
      </trkpt>
      <trkpt lat="51.03699" lon="-115.74752">
      </trkpt>
      <trkpt lat="51.037" lon="-115.74748">
      </trkpt>
      <trkpt lat="51.03705" lon="-115.74731">
      </trkpt>
      <trkpt lat="51.03707" lon="-115.74726">
      </trkpt>
      <trkpt lat="51.03708" lon="-115.74697">
      </trkpt>
      <trkpt lat="51.03707" lon="-115.74676">
      </trkpt>
      <trkpt lat="51.03704" lon="-115.74659">
      </trkpt>
      <trkpt lat="51.03702" lon="-115.74658">
      </trkpt>
      <trkpt lat="51.03699" lon="-115.74653">
      </trkpt>
      <trkpt lat="51.03687" lon="-115.74646">
      </trkpt>
      <trkpt lat="51.03678" lon="-115.74629">
      </trkpt>
      <trkpt lat="51.0367" lon="-115.7461">
      </trkpt>
      <trkpt lat="51.03656" lon="-115.74598">
      </trkpt>
      <trkpt lat="51.03625" lon="-115.74585">
      </trkpt>
      <trkpt lat="51.03602" lon="-115.74581">
      </trkpt>
      <trkpt lat="51.03567" lon="-115.74568">
      </trkpt>
      <trkpt lat="51.03485" lon="-115.74511">
      </trkpt>
      <trkpt lat="51.03438" lon="-115.74469">
      </trkpt>
      <trkpt lat="51.03423" lon="-115.74464">
      </trkpt>
      <trkpt lat="51.03398" lon="-115.74462">
      </trkpt>
      <trkpt lat="51.03375" lon="-115.74435">
      </trkpt>
      <trkpt lat="51.03364" lon="-115.74423">
      </trkpt>
      <trkpt lat="51.0334" lon="-115.74414">
      </trkpt>
      <trkpt lat="51.03298" lon="-115.74385">
      </trkpt>
      <trkpt lat="51.03272" lon="-115.7437">
      </trkpt>
      <trkpt lat="51.03254" lon="-115.74359">
      </trkpt>
      <trkpt lat="51.03241" lon="-115.74337">
      </trkpt>
      <trkpt lat="51.03228" lon="-115.74303">
      </trkpt>
      <trkpt lat="51.03219" lon="-115.74279">
      </trkpt>
      <trkpt lat="51.03196" lon="-115.74242">
      </trkpt>
      <trkpt lat="51.03178" lon="-115.74221">
      </trkpt>
      <trkpt lat="51.03141" lon="-115.7416">
      </trkpt>
      <trkpt lat="51.03131" lon="-115.74122">
      </trkpt>
      <trkpt lat="51.03122" lon="-115.74099">
      </trkpt>
      <trkpt lat="51.03086" lon="-115.73992">
      </trkpt>
      <trkpt lat="51.03084" lon="-115.73983">
      </trkpt>
      <trkpt lat="51.03082" lon="-115.73937">
      </trkpt>
      <trkpt lat="51.03076" lon="-115.73919">
      </trkpt>
      <trkpt lat="51.03066" lon="-115.73906">
      </trkpt>
      <trkpt lat="51.0304" lon="-115.73899">
      </trkpt>
      <trkpt lat="51.03028" lon="-115.73886">
      </trkpt>
      <trkpt lat="51.03025" lon="-115.73877">
      </trkpt>
      <trkpt lat="51.0301" lon="-115.73849">
      </trkpt>
      <trkpt lat="51.02994" lon="-115.73825">
      </trkpt>
      <trkpt lat="51.02983" lon="-115.7381">
      </trkpt>
      <trkpt lat="51.02953" lon="-115.73775">
      </trkpt>
      <trkpt lat="51.02926" lon="-115.73754">
      </trkpt>
      <trkpt lat="51.02901" lon="-115.73727">
      </trkpt>
      <trkpt lat="51.0287" lon="-115.73699">
      </trkpt>
      <trkpt lat="51.02854" lon="-115.73682">
      </trkpt>
      <trkpt lat="51.02834" lon="-115.73667">
      </trkpt>
      <trkpt lat="51.02832" lon="-115.73661">
      </trkpt>
      <trkpt lat="51.0282226" lon="-115.7364574">
      </trkpt>
      <trkpt lat="51.02819" lon="-115.73632">
      </trkpt>
      <trkpt lat="51.02809" lon="-115.73603">
      </trkpt>
      <trkpt lat="51.02793" lon="-115.73577">
      </trkpt>
      <trkpt lat="51.02774" lon="-115.7355">
      </trkpt>
      <trkpt lat="51.02753" lon="-115.7352">
      </trkpt>
      <trkpt lat="51.02733" lon="-115.735">
      </trkpt>
      <trkpt lat="51.02708" lon="-115.73468">
      </trkpt>
      <trkpt lat="51.02673" lon="-115.73439">
      </trkpt>
      <trkpt lat="51.0265" lon="-115.7341">
      </trkpt>
      <trkpt lat="51.02631" lon="-115.73378">
      </trkpt>
      <trkpt lat="51.0262235" lon="-115.7337405">
      </trkpt>
      <trkpt lat="51.0261123" lon="-115.7336209">
      </trkpt>
      <trkpt lat="51.02598" lon="-115.73336">
      </trkpt>
      <trkpt lat="51.0258833" lon="-115.7330542">
      </trkpt>
      <trkpt lat="51.0257277" lon="-115.7326571">
      </trkpt>
      <trkpt lat="51.0256577" lon="-115.7322688">
      </trkpt>
      <trkpt lat="51.02566" lon="-115.73196">
      </trkpt>
      <trkpt lat="51.02566" lon="-115.73172">
      </trkpt>
      <trkpt lat="51.02563" lon="-115.73149">
      </trkpt>
      <trkpt lat="51.02554" lon="-115.73123">
      </trkpt>
      <trkpt lat="51.0254067" lon="-115.7309926">
      </trkpt>
      <trkpt lat="51.02534" lon="-115.73066">
      </trkpt>
      <trkpt lat="51.0252899" lon="-115.7304105">
      </trkpt>
      <trkpt lat="51.02517" lon="-115.73009">
      </trkpt>
      <trkpt lat="51.02497" lon="-115.72985">
      </trkpt>
      <trkpt lat="51.0249033" lon="-115.729768">
      </trkpt>
      <trkpt lat="51.0249" lon="-115.72962">
      </trkpt>
      <trkpt lat="51.02487" lon="-115.72944">
      </trkpt>
      <trkpt lat="51.02474" lon="-115.72917">
      </trkpt>
      <trkpt lat="51.0246045" lon="-115.7288695">
      </trkpt>
      <trkpt lat="51.0244499" lon="-115.7283984">
      </trkpt>
      <trkpt lat="51.0244098" lon="-115.7280702">
      </trkpt>
      <trkpt lat="51.0243644" lon="-115.727859">
      </trkpt>
      <trkpt lat="51.0243167" lon="-115.7277514">
      </trkpt>
      <trkpt lat="51.02426" lon="-115.72763">
      </trkpt>
      <trkpt lat="51.02421" lon="-115.7274929">
      </trkpt>
      <trkpt lat="51.02414" lon="-115.72737">
      </trkpt>
      <trkpt lat="51.0240811" lon="-115.7272347">
      </trkpt>
      <trkpt lat="51.02397" lon="-115.72686">
      </trkpt>
      <trkpt lat="51.02389" lon="-115.72654">
      </trkpt>
      <trkpt lat="51.0237978" lon="-115.7263072">
      </trkpt>
      <trkpt lat="51.0236799" lon="-115.7260669">
      </trkpt>
      <trkpt lat="51.0235644" lon="-115.7256274">
      </trkpt>
      <trkpt lat="51.0234988" lon="-115.7253198">
      </trkpt>
      <trkpt lat="51.02347" lon="-115.72507">
      </trkpt>
      <trkpt lat="51.0234278" lon="-115.7249635">
      </trkpt>
      <trkpt lat="51.0232978" lon="-115.7246477">
      </trkpt>
      <trkpt lat="51.0232023" lon="-115.7244983">
      </trkpt>
      <trkpt lat="51.0231211" lon="-115.7243626">
      </trkpt>
      <trkpt lat="51.02304" lon="-115.72431">
      </trkpt>
      <trkpt lat="51.0230044" lon="-115.7242912">
      </trkpt>
      <trkpt lat="51.0229488" lon="-115.7241986">
      </trkpt>
      <trkpt lat="51.0229171" lon="-115.7240538">
      </trkpt>
      <trkpt lat="51.0229657" lon="-115.7236393">
      </trkpt>
      <trkpt lat="51.0229686" lon="-115.7233144">
      </trkpt>
      <trkpt lat="51.0229886" lon="-115.7230193">
      </trkpt>
      <trkpt lat="51.02297" lon="-115.72272">
      </trkpt>
      <trkpt lat="51.02294" lon="-115.72236">
      </trkpt>
      <trkpt lat="51.02289" lon="-115.72196">
      </trkpt>
      <trkpt lat="51.02281" lon="-115.72162">
      </trkpt>
      <trkpt lat="51.02276" lon="-115.72132">
      </trkpt>
      <trkpt lat="51.0226798" lon="-115.7210739">
      </trkpt>
      <trkpt lat="51.0226087" lon="-115.720832">
      </trkpt>
      <trkpt lat="51.0226184" lon="-115.7205076">
      </trkpt>
      <trkpt lat="51.022679" lon="-115.7202912">
      </trkpt>
      <trkpt lat="51.0227412" lon="-115.7199078">
      </trkpt>
      <trkpt lat="51.0227831" lon="-115.7196">
      </trkpt>
      <trkpt lat="51.02277" lon="-115.71926">
      </trkpt>
      <trkpt lat="51.02274" lon="-115.71917">
      </trkpt>
      <trkpt lat="51.02255" lon="-115.71884">
      </trkpt>
      <trkpt lat="51.0224019" lon="-115.7186527">
      </trkpt>
      <trkpt lat="51.0223118" lon="-115.7184556">
      </trkpt>
      <trkpt lat="51.02229" lon="-115.71813">
      </trkpt>
      <trkpt lat="51.0222481" lon="-115.7179505">
      </trkpt>
      <trkpt lat="51.0221881" lon="-115.7177385">
      </trkpt>
      <trkpt lat="51.0221046" lon="-115.7175249">
      </trkpt>
      <trkpt lat="51.0221279" lon="-115.7173841">
      </trkpt>
      <trkpt lat="51.0221198" lon="-115.7171834">
      </trkpt>
      <trkpt lat="51.0220782" lon="-115.7169036">
      </trkpt>
      <trkpt lat="51.02199" lon="-115.7165276">
      </trkpt>
      <trkpt lat="51.0218643" lon="-115.7160885">
      </trkpt>
      <trkpt lat="51.021766" lon="-115.7155473">
      </trkpt>
      <trkpt lat="51.0216774" lon="-115.7153285">
      </trkpt>
      <trkpt lat="51.0215563" lon="-115.7147966">
      </trkpt>
      <trkpt lat="51.0213594" lon="-115.7143549">
      </trkpt>
      <trkpt lat="51.0212442" lon="-115.7139159">
      </trkpt>
      <trkpt lat="51.0212358" lon="-115.713753">
      </trkpt>
      <trkpt lat="51.0211405" lon="-115.7134315">
      </trkpt>
      <trkpt lat="51.0207547" lon="-115.7125066">
      </trkpt>
      <trkpt lat="51.0206077" lon="-115.7122119">
      </trkpt>
      <trkpt lat="51.0205079" lon="-115.7118637">
      </trkpt>
      <trkpt lat="51.0204029" lon="-115.7113752">
      </trkpt>
      <trkpt lat="51.0202369" lon="-115.711187">
      </trkpt>
      <trkpt lat="51.0200933" lon="-115.7109378">
      </trkpt>
      <trkpt lat="51.019904" lon="-115.7108585">
      </trkpt>
      <trkpt lat="51.0197631" lon="-115.7108248">
      </trkpt>
      <trkpt lat="51.0196841" lon="-115.7108059">
      </trkpt>
      <trkpt lat="51.0195147" lon="-115.7106863">
      </trkpt>
      <trkpt lat="51.0194044" lon="-115.7105881">
      </trkpt>
      <trkpt lat="51.0193481" lon="-115.7105517">
      </trkpt>
      <trkpt lat="51.0193185" lon="-115.7105624">
      </trkpt>
    </trkseg>
    <trkseg>
      <trkpt lat="51.0193185" lon="-115.7105624">
      </trkpt>
      <trkpt lat="51.0191514" lon="-115.7106404">
      </trkpt>
      <trkpt lat="51.0188949" lon="-115.7107585">
      </trkpt>
      <trkpt lat="51.018463" lon="-115.710737">
      </trkpt>
      <trkpt lat="51.018166" lon="-115.7106726">
      </trkpt>
      <trkpt lat="51.0180981" lon="-115.7106597">
      </trkpt>
      <trkpt lat="51.0176598" lon="-115.7105761">
      </trkpt>
      <trkpt lat="51.0171192" lon="-115.7103191">
      </trkpt>
      <trkpt lat="51.0164038" lon="-115.7095251">
      </trkpt>
      <trkpt lat="51.0156883" lon="-115.7089672">
      </trkpt>
      <trkpt lat="51.0152294" lon="-115.7083021">
      </trkpt>
      <trkpt lat="51.0145139" lon="-115.7079587">
      </trkpt>
      <trkpt lat="51.0142709" lon="-115.7079587">
      </trkpt>
      <trkpt lat="51.0137849" lon="-115.7076798">
      </trkpt>
      <trkpt lat="51.0136229" lon="-115.7076583">
      </trkpt>
      <trkpt lat="51.0129479" lon="-115.7072936">
      </trkpt>
      <trkpt lat="51.0125294" lon="-115.7068644">
      </trkpt>
      <trkpt lat="51.0122189" lon="-115.7066284">
      </trkpt>
      <trkpt lat="51.0115844" lon="-115.7064782">
      </trkpt>
      <trkpt lat="51.0113684" lon="-115.7063923">
      </trkpt>
      <trkpt lat="51.0109782" lon="-115.7059459">
      </trkpt>
      <trkpt lat="51.0105584" lon="-115.7053194">
      </trkpt>
      <trkpt lat="51.0102749" lon="-115.7047615">
      </trkpt>
      <trkpt lat="51.0099913" lon="-115.7043538">
      </trkpt>
      <trkpt lat="51.0098158" lon="-115.7035385">
      </trkpt>
      <trkpt lat="51.0099238" lon="-115.7025943">
      </trkpt>
      <trkpt lat="51.0098968" lon="-115.701972">
      </trkpt>
      <trkpt lat="51.0100229" lon="-115.7017793">
      </trkpt>
      <trkpt lat="51.0101533" lon="-115.7014141">
      </trkpt>
      <trkpt lat="51.0104504" lon="-115.700985">
      </trkpt>
      <trkpt lat="51.0106664" lon="-115.700749">
      </trkpt>
      <trkpt lat="51.0109634" lon="-115.7001481">
      </trkpt>
      <trkpt lat="51.0111794" lon="-115.6999336">
      </trkpt>
      <trkpt lat="51.0112739" lon="-115.6997834">
      </trkpt>
      <trkpt lat="51.0112469" lon="-115.6995902">
      </trkpt>
      <trkpt lat="51.0108554" lon="-115.6990538">
      </trkpt>
      <trkpt lat="51.0108284" lon="-115.6988607">
      </trkpt>
      <trkpt lat="51.0109499" lon="-115.6983672">
      </trkpt>
      <trkpt lat="51.0110174" lon="-115.6976805">
      </trkpt>
      <trkpt lat="51.0108589" lon="-115.6969812">
      </trkpt>
      <trkpt lat="51.0108014" lon="-115.696908">
      </trkpt>
      <trkpt lat="51.0107626" lon="-115.6968623">
      </trkpt>
      <trkpt lat="51.0107457" lon="-115.69701">
      </trkpt>
      <trkpt lat="51.0106866" lon="-115.6971441">
      </trkpt>
      <trkpt lat="51.0106505" lon="-115.6971196">
      </trkpt>
      <trkpt lat="51.0105509" lon="-115.6969464">
      </trkpt>
      <trkpt lat="51.0105152" lon="-115.6969466">
      </trkpt>
      <trkpt lat="51.0104706" lon="-115.6969939">
      </trkpt>
      <trkpt lat="51.0104369" lon="-115.6972299">
      </trkpt>
      <trkpt lat="51.0103154" lon="-115.6973801">
      </trkpt>
      <trkpt lat="51.0102546" lon="-115.6975518">
      </trkpt>
      <trkpt lat="51.0101938" lon="-115.6975732">
      </trkpt>
      <trkpt lat="51.0101061" lon="-115.6973908">
      </trkpt>
      <trkpt lat="51.0099576" lon="-115.6971763">
      </trkpt>
      <trkpt lat="51.0098563" lon="-115.697187">
      </trkpt>
      <trkpt lat="51.0098023" lon="-115.6972835">
      </trkpt>
      <trkpt lat="51.0096336" lon="-115.6973479">
      </trkpt>
      <trkpt lat="51.0095053" lon="-115.6973157">
      </trkpt>
      <trkpt lat="51.009404" lon="-115.6975196">
      </trkpt>
      <trkpt lat="51.009269" lon="-115.6976591">
      </trkpt>
      <trkpt lat="51.0091273" lon="-115.6975947">
      </trkpt>
      <trkpt lat="51.0089855" lon="-115.697702">
      </trkpt>
      <trkpt lat="51.008864" lon="-115.6976591">
      </trkpt>
      <trkpt lat="51.0086885" lon="-115.6971548">
      </trkpt>
      <trkpt lat="51.0086007" lon="-115.6970368">
      </trkpt>
      <trkpt lat="51.0086075" lon="-115.6968973">
      </trkpt>
      <trkpt lat="51.0085332" lon="-115.6967793">
      </trkpt>
      <trkpt lat="51.008378" lon="-115.6967364">
      </trkpt>
      <trkpt lat="51.0082834" lon="-115.6968222">
      </trkpt>
      <trkpt lat="51.0080877" lon="-115.6968007">
      </trkpt>
      <trkpt lat="51.0079662" lon="-115.69679">
      </trkpt>
      <trkpt lat="51.0078447" lon="-115.6967471">
      </trkpt>
      <trkpt lat="51.0075679" lon="-115.6966613">
      </trkpt>
      <trkpt lat="51.0073586" lon="-115.6967364">
      </trkpt>
      <trkpt lat="51.0072236" lon="-115.6967042">
      </trkpt>
      <trkpt lat="51.0068455" lon="-115.6964252">
      </trkpt>
      <trkpt lat="51.0067443" lon="-115.6962536">
      </trkpt>
      <trkpt lat="51.006319" lon="-115.6958244">
      </trkpt>
      <trkpt lat="51.0060422" lon="-115.6958673">
      </trkpt>
      <trkpt lat="51.0058734" lon="-115.6960283">
      </trkpt>
      <trkpt lat="51.0056169" lon="-115.6960497">
      </trkpt>
      <trkpt lat="51.0053671" lon="-115.6962214">
      </trkpt>
      <trkpt lat="51.0051375" lon="-115.6962214">
      </trkpt>
      <trkpt lat="51.0050363" lon="-115.6961463">
      </trkpt>
      <trkpt lat="51.0046042" lon="-115.6961034">
      </trkpt>
      <trkpt lat="51.0043679" lon="-115.6962214">
      </trkpt>
      <trkpt lat="51.0042599" lon="-115.6961463">
      </trkpt>
      <trkpt lat="51.0040033" lon="-115.6962858">
      </trkpt>
      <trkpt lat="51.0036793" lon="-115.6963072">
      </trkpt>
      <trkpt lat="51.0034227" lon="-115.6968544">
      </trkpt>
      <trkpt lat="51.0031324" lon="-115.6969402">
      </trkpt>
      <trkpt lat="51.0028353" lon="-115.6970261">
      </trkpt>
      <trkpt lat="51.0026463" lon="-115.6974337">
      </trkpt>
      <trkpt lat="51.0026193" lon="-115.697584">
      </trkpt>
      <trkpt lat="51.0024843" lon="-115.697702">
      </trkpt>
      <trkpt lat="51.0022682" lon="-115.6982062">
      </trkpt>
      <trkpt lat="51.0020387" lon="-115.6984208">
      </trkpt>
      <trkpt lat="51.0018226" lon="-115.6986783">
      </trkpt>
      <trkpt lat="51.0017618" lon="-115.6987319">
      </trkpt>
      <trkpt lat="51.0016201" lon="-115.6987641">
      </trkpt>
      <trkpt lat="51.0014924" lon="-115.6985383">
      </trkpt>
    </trkseg>
    <trkseg>
      <trkpt lat="51.0014924" lon="-115.6985383">
      </trkpt>
      <trkpt lat="51.0012997" lon="-115.6983761">
      </trkpt>
      <trkpt lat="51.0006688" lon="-115.6981773">
      </trkpt>
      <trkpt lat="51.0004502" lon="-115.6980233">
      </trkpt>
      <trkpt lat="51.0002201" lon="-115.6979576">
      </trkpt>
      <trkpt lat="50.9998603" lon="-115.6978552">
      </trkpt>
      <trkpt lat="50.9995643" lon="-115.6978487">
      </trkpt>
      <trkpt lat="50.9991091" lon="-115.6976569">
      </trkpt>
      <trkpt lat="50.9989373" lon="-115.6976758">
      </trkpt>
      <trkpt lat="50.9976343" lon="-115.6977936">
      </trkpt>
      <trkpt lat="50.9962692" lon="-115.6974732">
      </trkpt>
      <trkpt lat="50.995695" lon="-115.6973625">
      </trkpt>
      <trkpt lat="50.9951163" lon="-115.6970396">
      </trkpt>
      <trkpt lat="50.9948256" lon="-115.6967581">
      </trkpt>
      <trkpt lat="50.9945022" lon="-115.6963456">
      </trkpt>
      <trkpt lat="50.9941039" lon="-115.6959547">
      </trkpt>
      <trkpt lat="50.9939262" lon="-115.6957301">
      </trkpt>
      <trkpt lat="50.9937954" lon="-115.695684">
      </trkpt>
      <trkpt lat="50.993691" lon="-115.6955337">
      </trkpt>
      <trkpt lat="50.9936198" lon="-115.6955064">
      </trkpt>
      <trkpt lat="50.9927927" lon="-115.6945757">
      </trkpt>
      <trkpt lat="50.9925475" lon="-115.6940298">
      </trkpt>
      <trkpt lat="50.9922572" lon="-115.6930869">
      </trkpt>
      <trkpt lat="50.9919311" lon="-115.6922496">
      </trkpt>
      <trkpt lat="50.9918751" lon="-115.6918574">
      </trkpt>
      <trkpt lat="50.9917812" lon="-115.6917145">
      </trkpt>
      <trkpt lat="50.9916883" lon="-115.691588">
      </trkpt>
      <trkpt lat="50.9915977" lon="-115.6911185">
      </trkpt>
      <trkpt lat="50.9914517" lon="-115.6907747">
      </trkpt>
      <trkpt lat="50.9913888" lon="-115.6904786">
      </trkpt>
      <trkpt lat="50.9912992" lon="-115.6903322">
      </trkpt>
      <trkpt lat="50.9907706" lon="-115.688905">
      </trkpt>
      <trkpt lat="50.9904983" lon="-115.68834">
      </trkpt>
      <trkpt lat="50.990364" lon="-115.6880521">
      </trkpt>
      <trkpt lat="50.9901308" lon="-115.6880025">
      </trkpt>
      <trkpt lat="50.9900219" lon="-115.6879502">
      </trkpt>
      <trkpt lat="50.9899788" lon="-115.6877914">
      </trkpt>
      <trkpt lat="50.9896714" lon="-115.687519">
      </trkpt>
      <trkpt lat="50.9893489" lon="-115.6871773">
      </trkpt>
      <trkpt lat="50.9893181" lon="-115.6868643">
      </trkpt>
      <trkpt lat="50.9893551" lon="-115.6864198">
      </trkpt>
      <trkpt lat="50.98914" lon="-115.6859597">
      </trkpt>
      <trkpt lat="50.9890164" lon="-115.6854884">
      </trkpt>
      <trkpt lat="50.9885906" lon="-115.6847343">
      </trkpt>
      <trkpt lat="50.9885003" lon="-115.6846356">
      </trkpt>
      <trkpt lat="50.9884098" lon="-115.6846387">
      </trkpt>
      <trkpt lat="50.9881121" lon="-115.6847239">
      </trkpt>
      <trkpt lat="50.987974" lon="-115.6847082">
      </trkpt>
      <trkpt lat="50.9876993" lon="-115.6843667">
      </trkpt>
      <trkpt lat="50.9874703" lon="-115.6841382">
      </trkpt>
      <trkpt lat="50.9874191" lon="-115.6838468">
      </trkpt>
      <trkpt lat="50.9873692" lon="-115.6836569">
      </trkpt>
      <trkpt lat="50.9871965" lon="-115.6836121">
      </trkpt>
      <trkpt lat="50.9871354" lon="-115.6835917">
      </trkpt>
      <trkpt lat="50.9871064" lon="-115.6835235">
      </trkpt>
      <trkpt lat="50.9871311" lon="-115.683288">
      </trkpt>
      <trkpt lat="50.9870997" lon="-115.6832193">
      </trkpt>
      <trkpt lat="50.9869505" lon="-115.68324">
      </trkpt>
      <trkpt lat="50.9868299" lon="-115.6832079">
      </trkpt>
      <trkpt lat="50.9867054" lon="-115.6829984">
      </trkpt>
      <trkpt lat="50.9865896" lon="-115.6829196">
      </trkpt>
      <trkpt lat="50.9865552" lon="-115.682702">
      </trkpt>
      <trkpt lat="50.9864096" lon="-115.6824253">
      </trkpt>
      <trkpt lat="50.9867169" lon="-115.6815827">
      </trkpt>
      <trkpt lat="50.9866727" lon="-115.680946">
      </trkpt>
      <trkpt lat="50.9864333" lon="-115.6806304">
      </trkpt>
      <trkpt lat="50.9861381" lon="-115.6800961">
      </trkpt>
      <trkpt lat="50.9860228" lon="-115.6794493">
      </trkpt>
      <trkpt lat="50.986138" lon="-115.6789449">
      </trkpt>
      <trkpt lat="50.98609" lon="-115.6785059">
      </trkpt>
      <trkpt lat="50.9861719" lon="-115.6779854">
      </trkpt>
      <trkpt lat="50.986175" lon="-115.6777946">
      </trkpt>
      <trkpt lat="50.9861501" lon="-115.6776309">
      </trkpt>
      <trkpt lat="50.9860717" lon="-115.6773315">
      </trkpt>
      <trkpt lat="50.9860903" lon="-115.6770288">
      </trkpt>
      <trkpt lat="50.9860354" lon="-115.6767527">
      </trkpt>
      <trkpt lat="50.9859083" lon="-115.6762161">
      </trkpt>
      <trkpt lat="50.9857657" lon="-115.675684">
      </trkpt>
      <trkpt lat="50.984961" lon="-115.6754638">
      </trkpt>
      <trkpt lat="50.9841945" lon="-115.6741614">
      </trkpt>
      <trkpt lat="50.9834192" lon="-115.6739349">
      </trkpt>
      <trkpt lat="50.9833355" lon="-115.6738634">
      </trkpt>
      <trkpt lat="50.983261" lon="-115.6736013">
      </trkpt>
      <trkpt lat="50.9831453" lon="-115.6735462">
      </trkpt>
      <trkpt lat="50.9829523" lon="-115.673525">
      </trkpt>
      <trkpt lat="50.9827535" lon="-115.6734385">
      </trkpt>
      <trkpt lat="50.982574" lon="-115.6730174">
      </trkpt>
      <trkpt lat="50.9824595" lon="-115.6730101">
      </trkpt>
      <trkpt lat="50.9823535" lon="-115.6731157">
      </trkpt>
      <trkpt lat="50.9821433" lon="-115.6730327">
      </trkpt>
      <trkpt lat="50.9817621" lon="-115.6727291">
      </trkpt>
      <trkpt lat="50.981665" lon="-115.6728057">
      </trkpt>
      <trkpt lat="50.9816149" lon="-115.6729851">
      </trkpt>
      <trkpt lat="50.9814029" lon="-115.6731211">
      </trkpt>
      <trkpt lat="50.9813258" lon="-115.6732464">
      </trkpt>
      <trkpt lat="50.9812036" lon="-115.6733099">
      </trkpt>
      <trkpt lat="50.9812018" lon="-115.6735275">
      </trkpt>
      <trkpt lat="50.9810723" lon="-115.6738577">
      </trkpt>
      <trkpt lat="50.9808089" lon="-115.6739146">
      </trkpt>
      <trkpt lat="50.9807056" lon="-115.6739826">
      </trkpt>
      <trkpt lat="50.9806428" lon="-115.674072">
      </trkpt>
      <trkpt lat="50.980314" lon="-115.6740659">
      </trkpt>
      <trkpt lat="50.9801319" lon="-115.6739644">
      </trkpt>
      <trkpt lat="50.9798892" lon="-115.6742251">
      </trkpt>
      <trkpt lat="50.9798354" lon="-115.6743122">
      </trkpt>
      <trkpt lat="50.9797344" lon="-115.6742959">
      </trkpt>
      <trkpt lat="50.9797055" lon="-115.6743269">
      </trkpt>
      <trkpt lat="50.979687" lon="-115.674377">
      </trkpt>
      <trkpt lat="50.9796395" lon="-115.67443">
      </trkpt>
      <trkpt lat="50.9795576" lon="-115.6744927">
      </trkpt>
      <trkpt lat="50.9795384" lon="-115.6745886">
      </trkpt>
      <trkpt lat="50.9794292" lon="-115.6746467">
      </trkpt>
      <trkpt lat="50.9793052" lon="-115.6746149">
      </trkpt>
      <trkpt lat="50.9789837" lon="-115.6742804">
      </trkpt>
      <trkpt lat="50.9788013" lon="-115.6744092">
      </trkpt>
    </trkseg>
    <trkseg>
      <trkpt lat="50.9788013" lon="-115.6744092">
      </trkpt>
      <trkpt lat="50.9787772" lon="-115.6741795">
      </trkpt>
      <trkpt lat="50.978671" lon="-115.6740895">
      </trkpt>
      <trkpt lat="50.9786358" lon="-115.6739041">
      </trkpt>
      <trkpt lat="50.9785831" lon="-115.673824">
      </trkpt>
      <trkpt lat="50.9785072" lon="-115.6738087">
      </trkpt>
      <trkpt lat="50.9785237" lon="-115.6734441">
      </trkpt>
      <trkpt lat="50.9783548" lon="-115.673369">
      </trkpt>
      <trkpt lat="50.9780792" lon="-115.6734232">
      </trkpt>
      <trkpt lat="50.9779025" lon="-115.6731547">
      </trkpt>
      <trkpt lat="50.9769633" lon="-115.6731222">
      </trkpt>
      <trkpt lat="50.9767133" lon="-115.6733582">
      </trkpt>
      <trkpt lat="50.9764229" lon="-115.6732939">
      </trkpt>
      <trkpt lat="50.9763756" lon="-115.6731544">
      </trkpt>
      <trkpt lat="50.9763756" lon="-115.6729505">
      </trkpt>
      <trkpt lat="50.9760513" lon="-115.6723712">
      </trkpt>
      <trkpt lat="50.975977" lon="-115.6720815">
      </trkpt>
      <trkpt lat="50.9759162" lon="-115.6719098">
      </trkpt>
      <trkpt lat="50.9758351" lon="-115.6718562">
      </trkpt>
      <trkpt lat="50.9758014" lon="-115.6716953">
      </trkpt>
      <trkpt lat="50.9756354" lon="-115.6714594">
      </trkpt>
      <trkpt lat="50.9756206" lon="-115.6712738">
      </trkpt>
      <trkpt lat="50.9754825" lon="-115.6711406">
      </trkpt>
      <trkpt lat="50.9754684" lon="-115.6709512">
      </trkpt>
      <trkpt lat="50.9753777" lon="-115.6708052">
      </trkpt>
      <trkpt lat="50.9753148" lon="-115.6705093">
      </trkpt>
      <trkpt lat="50.975179" lon="-115.6702185">
      </trkpt>
      <trkpt lat="50.9750753" lon="-115.6701288">
      </trkpt>
      <trkpt lat="50.9750764" lon="-115.6699612">
      </trkpt>
      <trkpt lat="50.9750853" lon="-115.6697534">
      </trkpt>
      <trkpt lat="50.9747701" lon="-115.6695359">
      </trkpt>
      <trkpt lat="50.9745242" lon="-115.6691578">
      </trkpt>
      <trkpt lat="50.9744526" lon="-115.6691243">
      </trkpt>
      <trkpt lat="50.97443" lon="-115.6690131">
      </trkpt>
      <trkpt lat="50.9743489" lon="-115.6688521">
      </trkpt>
      <trkpt lat="50.9741463" lon="-115.6688629">
      </trkpt>
      <trkpt lat="50.9736058" lon="-115.6684444">
      </trkpt>
      <trkpt lat="50.9734977" lon="-115.668026">
      </trkpt>
      <trkpt lat="50.9731059" lon="-115.6674467">
      </trkpt>
      <trkpt lat="50.9727951" lon="-115.6667815">
      </trkpt>
      <trkpt lat="50.9726465" lon="-115.6657837">
      </trkpt>
      <trkpt lat="50.9726938" lon="-115.6651507">
      </trkpt>
      <trkpt lat="50.9731464" lon="-115.6637559">
      </trkpt>
      <trkpt lat="50.9731397" lon="-115.6634448">
      </trkpt>
      <trkpt lat="50.9737544" lon="-115.6628118">
      </trkpt>
      <trkpt lat="50.9738625" lon="-115.6621144">
      </trkpt>
      <trkpt lat="50.9737342" lon="-115.6603978">
      </trkpt>
      <trkpt lat="50.9733829" lon="-115.6593249">
      </trkpt>
      <trkpt lat="50.9732545" lon="-115.6590031">
      </trkpt>
      <trkpt lat="50.9729302" lon="-115.6586812">
      </trkpt>
      <trkpt lat="50.9727005" lon="-115.6582628">
      </trkpt>
      <trkpt lat="50.9724843" lon="-115.6579945">
      </trkpt>
      <trkpt lat="50.9724033" lon="-115.6569539">
      </trkpt>
      <trkpt lat="50.9718155" lon="-115.6547115">
      </trkpt>
      <trkpt lat="50.9714304" lon="-115.6539927">
      </trkpt>
      <trkpt lat="50.971302" lon="-115.6532739">
      </trkpt>
      <trkpt lat="50.970971" lon="-115.6523834">
      </trkpt>
      <trkpt lat="50.970917" lon="-115.6518898">
      </trkpt>
      <trkpt lat="50.970721" lon="-115.6515787">
      </trkpt>
      <trkpt lat="50.970444" lon="-115.65145">
      </trkpt>
      <trkpt lat="50.9704643" lon="-115.651171">
      </trkpt>
      <trkpt lat="50.9703494" lon="-115.6509028">
      </trkpt>
      <trkpt lat="50.9702481" lon="-115.6509242">
      </trkpt>
      <trkpt lat="50.9699306" lon="-115.6507097">
      </trkpt>
      <trkpt lat="50.9698292" lon="-115.6506882">
      </trkpt>
      <trkpt lat="50.9693968" lon="-115.6498514">
      </trkpt>
      <trkpt lat="50.969336" lon="-115.6494437">
      </trkpt>
      <trkpt lat="50.9692414" lon="-115.6493149">
      </trkpt>
      <trkpt lat="50.9689306" lon="-115.6492076">
      </trkpt>
      <trkpt lat="50.9688022" lon="-115.6489394">
      </trkpt>
      <trkpt lat="50.9687009" lon="-115.6488643">
      </trkpt>
      <trkpt lat="50.9685996" lon="-115.6484244">
      </trkpt>
      <trkpt lat="50.9683631" lon="-115.6481777">
      </trkpt>
      <trkpt lat="50.9681942" lon="-115.6480167">
      </trkpt>
      <trkpt lat="50.9681806" lon="-115.6477592">
      </trkpt>
      <trkpt lat="50.9680455" lon="-115.6476627">
      </trkpt>
      <trkpt lat="50.9679374" lon="-115.6472013">
      </trkpt>
      <trkpt lat="50.9675658" lon="-115.6468795">
      </trkpt>
      <trkpt lat="50.9672618" lon="-115.6468258">
      </trkpt>
      <trkpt lat="50.9670793" lon="-115.6462143">
      </trkpt>
      <trkpt lat="50.9666469" lon="-115.6456671">
      </trkpt>
      <trkpt lat="50.9665253" lon="-115.6453131">
      </trkpt>
      <trkpt lat="50.966005" lon="-115.6443582">
      </trkpt>
      <trkpt lat="50.9656604" lon="-115.6434355">
      </trkpt>
      <trkpt lat="50.9651199" lon="-115.6428025">
      </trkpt>
      <trkpt lat="50.9650117" lon="-115.6423412">
      </trkpt>
      <trkpt lat="50.9650185" lon="-115.6421373">
      </trkpt>
      <trkpt lat="50.9648766" lon="-115.6419442">
      </trkpt>
      <trkpt lat="50.9646401" lon="-115.6418906">
      </trkpt>
      <trkpt lat="50.9644779" lon="-115.6419335">
      </trkpt>
      <trkpt lat="50.9642685" lon="-115.6415258">
      </trkpt>
      <trkpt lat="50.9641063" lon="-115.6414507">
      </trkpt>
      <trkpt lat="50.9639374" lon="-115.6415151">
      </trkpt>
      <trkpt lat="50.9638698" lon="-115.641279">
      </trkpt>
      <trkpt lat="50.9635387" lon="-115.6411395">
      </trkpt>
      <trkpt lat="50.9634914" lon="-115.6407962">
      </trkpt>
      <trkpt lat="50.9632008" lon="-115.6405924">
      </trkpt>
      <trkpt lat="50.9630522" lon="-115.6402383">
      </trkpt>
      <trkpt lat="50.9630792" lon="-115.6397341">
      </trkpt>
      <trkpt lat="50.9628089" lon="-115.6390152">
      </trkpt>
      <trkpt lat="50.9622008" lon="-115.6381355">
      </trkpt>
      <trkpt lat="50.9617683" lon="-115.6370519">
      </trkpt>
      <trkpt lat="50.9612547" lon="-115.6356786">
      </trkpt>
      <trkpt lat="50.9612142" lon="-115.6352387">
      </trkpt>
      <trkpt lat="50.9607614" lon="-115.6345091">
      </trkpt>
      <trkpt lat="50.960579" lon="-115.6341658">
      </trkpt>
      <trkpt lat="50.9601262" lon="-115.6341229">
      </trkpt>
      <trkpt lat="50.9596464" lon="-115.6337903">
      </trkpt>
      <trkpt lat="50.9590382" lon="-115.6338118">
      </trkpt>
      <trkpt lat="50.9584976" lon="-115.63408">
      </trkpt>
      <trkpt lat="50.9581799" lon="-115.6339727">
      </trkpt>
      <trkpt lat="50.957842" lon="-115.6337366">
      </trkpt>
      <trkpt lat="50.9576123" lon="-115.633801">
      </trkpt>
      <trkpt lat="50.9570716" lon="-115.6341443">
      </trkpt>
      <trkpt lat="50.9565783" lon="-115.6341551">
      </trkpt>
      <trkpt lat="50.9562674" lon="-115.6342838">
      </trkpt>
      <trkpt lat="50.9561322" lon="-115.6341873">
      </trkpt>
      <trkpt lat="50.9552604" lon="-115.6346915">
      </trkpt>
      <trkpt lat="50.9542872" lon="-115.6345735">
      </trkpt>
      <trkpt lat="50.9534559" lon="-115.6344126">
      </trkpt>
      <trkpt lat="50.9532869" lon="-115.6343482">
      </trkpt>
      <trkpt lat="50.9528476" lon="-115.6346486">
      </trkpt>
      <trkpt lat="50.9526178" lon="-115.6347237">
      </trkpt>
      <trkpt lat="50.9524286" lon="-115.6347452">
      </trkpt>
      <trkpt lat="50.9520568" lon="-115.6348417">
      </trkpt>
      <trkpt lat="50.9517054" lon="-115.6348632">
      </trkpt>
      <trkpt lat="50.9507456" lon="-115.6352387">
      </trkpt>
      <trkpt lat="50.9502049" lon="-115.6355284">
      </trkpt>
      <trkpt lat="50.9495154" lon="-115.6356035">
      </trkpt>
      <trkpt lat="50.9487246" lon="-115.6363008">
      </trkpt>
      <trkpt lat="50.947954" lon="-115.6365476">
      </trkpt>
      <trkpt lat="50.9472375" lon="-115.6365905">
      </trkpt>
      <trkpt lat="50.946663" lon="-115.6363545">
      </trkpt>
      <trkpt lat="50.9455882" lon="-115.6361614">
      </trkpt>
      <trkpt lat="50.9447567" lon="-115.6364296">
      </trkpt>
      <trkpt lat="50.9444931" lon="-115.636333">
      </trkpt>
      <trkpt lat="50.9439387" lon="-115.6365798">
      </trkpt>
      <trkpt lat="50.9429247" lon="-115.6361828">
      </trkpt>
      <trkpt lat="50.9426814" lon="-115.6356249">
      </trkpt>
      <trkpt lat="50.9418836" lon="-115.6350456">
      </trkpt>
      <trkpt lat="50.9415321" lon="-115.6349276">
      </trkpt>
      <trkpt lat="50.9403355" lon="-115.633919">
      </trkpt>
      <trkpt lat="50.939673" lon="-115.6335113">
      </trkpt>
      <trkpt lat="50.9393755" lon="-115.63305">
      </trkpt>
      <trkpt lat="50.9385101" lon="-115.6324385">
      </trkpt>
      <trkpt lat="50.9375366" lon="-115.6322668">
      </trkpt>
      <trkpt lat="50.936279" lon="-115.6327281">
      </trkpt>
      <trkpt lat="50.9354338" lon="-115.6323312">
      </trkpt>
      <trkpt lat="50.9347848" lon="-115.632181">
      </trkpt>
      <trkpt lat="50.9340681" lon="-115.6316016">
      </trkpt>
      <trkpt lat="50.9333649" lon="-115.6304214">
      </trkpt>
      <trkpt lat="50.9330944" lon="-115.6303463">
      </trkpt>
      <trkpt lat="50.9324926" lon="-115.6305716">
      </trkpt>
      <trkpt lat="50.9318029" lon="-115.6304644">
      </trkpt>
      <trkpt lat="50.9309577" lon="-115.6300781">
      </trkpt>
      <trkpt lat="50.9294836" lon="-115.6303678">
      </trkpt>
      <trkpt lat="50.9288411" lon="-115.6307648">
      </trkpt>
      <trkpt lat="50.9278065" lon="-115.6309042">
      </trkpt>
      <trkpt lat="50.9271235" lon="-115.6308613">
      </trkpt>
      <trkpt lat="50.9261835" lon="-115.6303893">
      </trkpt>
      <trkpt lat="50.9248242" lon="-115.6301532">
      </trkpt>
      <trkpt lat="50.9228124" lon="-115.6292658">
      </trkpt>
      <trkpt lat="50.9219973" lon="-115.6278465">
      </trkpt>
      <trkpt lat="50.9218147" lon="-115.6269453">
      </trkpt>
      <trkpt lat="50.9213683" lon="-115.6258617">
      </trkpt>
      <trkpt lat="50.9209354" lon="-115.6254003">
      </trkpt>
      <trkpt lat="50.9207393" lon="-115.6253252">
      </trkpt>
      <trkpt lat="50.9203064" lon="-115.624585">
      </trkpt>
      <trkpt lat="50.9199209" lon="-115.6241451">
      </trkpt>
      <trkpt lat="50.919471" lon="-115.6239821">
      </trkpt>
      <trkpt lat="50.9190619" lon="-115.6238339">
      </trkpt>
      <trkpt lat="50.9185682" lon="-115.6237696">
      </trkpt>
      <trkpt lat="50.9179053" lon="-115.6238339">
      </trkpt>
      <trkpt lat="50.9175958" lon="-115.6237477">
      </trkpt>
      <trkpt lat="50.9174048" lon="-115.6236945">
      </trkpt>
      <trkpt lat="50.9168705" lon="-115.623673">
      </trkpt>
      <trkpt lat="50.9163632" lon="-115.623437">
      </trkpt>
      <trkpt lat="50.9159709" lon="-115.6232546">
      </trkpt>
      <trkpt lat="50.9154162" lon="-115.6222568">
      </trkpt>
      <trkpt lat="50.9147533" lon="-115.6213234">
      </trkpt>
      <trkpt lat="50.9144083" lon="-115.6213019">
      </trkpt>
      <trkpt lat="50.9139416" lon="-115.6210123">
      </trkpt>
      <trkpt lat="50.9134349" lon="-115.6211244">
      </trkpt>
    </trkseg>
    <trkseg>
      <trkpt lat="50.9134349" lon="-115.6211244">
      </trkpt>
      <trkpt lat="50.913211" lon="-115.6213234">
      </trkpt>
      <trkpt lat="50.9130825" lon="-115.6213234">
      </trkpt>
      <trkpt lat="50.9127375" lon="-115.6209586">
      </trkpt>
      <trkpt lat="50.9125025" lon="-115.6209228">
      </trkpt>
      <trkpt lat="50.9122572" lon="-115.6209693">
      </trkpt>
      <trkpt lat="50.9120986" lon="-115.6214022">
      </trkpt>
      <trkpt lat="50.9117759" lon="-115.6217163">
      </trkpt>
    </trkseg>
    <trkseg>
      <trkpt lat="50.9117759" lon="-115.6217163">
      </trkpt>
      <trkpt lat="50.9115592" lon="-115.6215812">
      </trkpt>
      <trkpt lat="50.9114511" lon="-115.6215153">
      </trkpt>
      <trkpt lat="50.91113" lon="-115.6215086">
      </trkpt>
      <trkpt lat="50.91067" lon="-115.6212726">
      </trkpt>
    </trkseg>
    <trkseg>
      <trkpt lat="50.9099732" lon="-115.6204411">
      </trkpt>
      <trkpt lat="50.9102201" lon="-115.6208166">
      </trkpt>
      <trkpt lat="50.9104264" lon="-115.6209293">
      </trkpt>
      <trkpt lat="50.91067" lon="-115.6212726">
      </trkpt>
    </trkseg>
  </trk>
</gpx>