<?xml version="1.0" encoding="UTF-8"?>
<gpx xmlns="http://www.topografix.com/GPX/1/1" xmlns:xsi="http://www.w3.org/2001/XMLSchema-instance" xsi:schemaLocation="http://www.topografix.com/GPX/1/1 http://www.topografix.com/GPX/1/1/gpx.xsd" version="1.1" creator="gpx.py -- https://github.com/tkrajina/gpxpy">
  <trk>
    <name>Cascade Cr Trail</name>
    <trkseg>
      <trkpt lat="50.39864861" lon="-117.0951416">
      </trkpt>
      <trkpt lat="50.39856868" lon="-117.0951831">
      </trkpt>
      <trkpt lat="50.39843547" lon="-117.09524831">
      </trkpt>
      <trkpt lat="50.39834791" lon="-117.09532552">
      </trkpt>
      <trkpt lat="50.39823372" lon="-117.0953848">
      </trkpt>
      <trkpt lat="50.3981005" lon="-117.09546786">
      </trkpt>
      <trkpt lat="50.39802054" lon="-117.09553317">
      </trkpt>
      <trkpt lat="50.39791393" lon="-117.0956401">
      </trkpt>
      <trkpt lat="50.39787582" lon="-117.09572335">
      </trkpt>
      <trkpt lat="50.39787567" lon="-117.09589596">
      </trkpt>
      <trkpt lat="50.39784896" lon="-117.09599709">
      </trkpt>
      <trkpt lat="50.39769669" lon="-117.09610987">
      </trkpt>
      <trkpt lat="50.39751395" lon="-117.09625829">
      </trkpt>
      <trkpt lat="50.39747573" lon="-117.09647248">
      </trkpt>
      <trkpt lat="50.3974754" lon="-117.09686531">
      </trkpt>
      <trkpt lat="50.39747134" lon="-117.09716885">
      </trkpt>
      <trkpt lat="50.39736084" lon="-117.09737695">
      </trkpt>
      <trkpt lat="50.39719333" lon="-117.09751349">
      </trkpt>
      <trkpt lat="50.39699168" lon="-117.09752499">
      </trkpt>
      <trkpt lat="50.3967786" lon="-117.09755431">
      </trkpt>
      <trkpt lat="50.39655408" lon="-117.09761336">
      </trkpt>
      <trkpt lat="50.39643232" lon="-117.09764287">
      </trkpt>
      <trkpt lat="50.39627629" lon="-117.09769612">
      </trkpt>
      <trkpt lat="50.39612023" lon="-117.09777913">
      </trkpt>
      <trkpt lat="50.39607454" lon="-117.09783259">
      </trkpt>
      <trkpt lat="50.39604406" lon="-117.09788609">
      </trkpt>
      <trkpt lat="50.39604015" lon="-117.09799917">
      </trkpt>
      <trkpt lat="50.39604006" lon="-117.09812416">
      </trkpt>
      <trkpt lat="50.39607034" lon="-117.09830873">
      </trkpt>
      <trkpt lat="50.39611196" lon="-117.09856475">
      </trkpt>
      <trkpt lat="50.39614975" lon="-117.09886836">
      </trkpt>
      <trkpt lat="50.3961533" lon="-117.09917191">
      </trkpt>
      <trkpt lat="50.39613401" lon="-117.09948136">
      </trkpt>
      <trkpt lat="50.39612999" lon="-117.09973133">
      </trkpt>
      <trkpt lat="50.39605358" lon="-117.10010612">
      </trkpt>
      <trkpt lat="50.39603812" lon="-117.10039177">
      </trkpt>
      <trkpt lat="50.39600359" lon="-117.100725">
      </trkpt>
      <trkpt lat="50.395992" lon="-117.10092138">
      </trkpt>
      <trkpt lat="50.39599178" lon="-117.10117135">
      </trkpt>
      <trkpt lat="50.39609816" lon="-117.10135014">
      </trkpt>
      <trkpt lat="50.39618554" lon="-117.10149316">
      </trkpt>
      <trkpt lat="50.39623865" lon="-117.10165993">
      </trkpt>
      <trkpt lat="50.3962271" lon="-117.1018206">
      </trkpt>
      <trkpt lat="50.39615478" lon="-117.10186807">
      </trkpt>
      <trkpt lat="50.39606713" lon="-117.10202262">
      </trkpt>
      <trkpt lat="50.39602513" lon="-117.10219512">
      </trkpt>
      <trkpt lat="50.3960097" lon="-117.10243911">
      </trkpt>
      <trkpt lat="50.39601328" lon="-117.10268909">
      </trkpt>
      <trkpt lat="50.39603972" lon="-117.10291533">
      </trkpt>
      <trkpt lat="50.39607372" lon="-117.10318323">
      </trkpt>
      <trkpt lat="50.39613059" lon="-117.10339761">
      </trkpt>
      <trkpt lat="50.39618362" lon="-117.10366556">
      </trkpt>
      <trkpt lat="50.39625938" lon="-117.10404069">
      </trkpt>
      <trkpt lat="50.3963467" lon="-117.10424323">
      </trkpt>
      <trkpt lat="50.39641877" lon="-117.10448147">
      </trkpt>
      <trkpt lat="50.3965137" lon="-117.10468405">
      </trkpt>
      <trkpt lat="50.39656683" lon="-117.10483296">
      </trkpt>
      <trkpt lat="50.39658189" lon="-117.10500559">
      </trkpt>
      <trkpt lat="50.39654366" lon="-117.10521381">
      </trkpt>
      <trkpt lat="50.39646371" lon="-117.10527315">
      </trkpt>
      <trkpt lat="50.39634197" lon="-117.10526098">
      </trkpt>
      <trkpt lat="50.39617473" lon="-117.10509397">
      </trkpt>
      <trkpt lat="50.39599614" lon="-117.10484955">
      </trkpt>
      <trkpt lat="50.39579465" lon="-117.10467651">
      </trkpt>
      <trkpt lat="50.39557415" lon="-117.10450343">
      </trkpt>
      <trkpt lat="50.39545642" lon="-117.10427104">
      </trkpt>
      <trkpt lat="50.39530442" lon="-117.10406835">
      </trkpt>
      <trkpt lat="50.39519043" lon="-117.10390742">
      </trkpt>
      <trkpt lat="50.3950195" lon="-117.10360945">
      </trkpt>
      <trkpt lat="50.39485613" lon="-117.10335317">
      </trkpt>
      <trkpt lat="50.39473073" lon="-117.1031803">
      </trkpt>
      <trkpt lat="50.39459775" lon="-117.10298362">
      </trkpt>
      <trkpt lat="50.39447999" lon="-117.10278101">
      </trkpt>
      <trkpt lat="50.39435082" lon="-117.10257243">
      </trkpt>
      <trkpt lat="50.39424068" lon="-117.10235793">
      </trkpt>
      <trkpt lat="50.39413816" lon="-117.10213156">
      </trkpt>
      <trkpt lat="50.39405081" lon="-117.10194687">
      </trkpt>
      <trkpt lat="50.39396725" lon="-117.10179791">
      </trkpt>
      <trkpt lat="50.39387984" lon="-117.10167869">
      </trkpt>
      <trkpt lat="50.39379241" lon="-117.10159518">
      </trkpt>
      <trkpt lat="50.39364787" lon="-117.10157106">
      </trkpt>
      <trkpt lat="50.39350711" lon="-117.10155886">
      </trkpt>
      <trkpt lat="50.3933587" lon="-117.10159425">
      </trkpt>
      <trkpt lat="50.39316844" lon="-117.10164146">
      </trkpt>
      <trkpt lat="50.39303907" lon="-117.10165904">
      </trkpt>
      <trkpt lat="50.39287921" lon="-117.10173606">
      </trkpt>
      <trkpt lat="50.39274973" lon="-117.10187862">
      </trkpt>
      <trkpt lat="50.39258982" lon="-117.10202111">
      </trkpt>
      <trkpt lat="50.39252499" lon="-117.10219951">
      </trkpt>
      <trkpt lat="50.39244862" lon="-117.10251477">
      </trkpt>
      <trkpt lat="50.39234572" lon="-117.10271094">
      </trkpt>
      <trkpt lat="50.39221607" lon="-117.10304988">
      </trkpt>
      <trkpt lat="50.39214741" lon="-117.10324612">
      </trkpt>
      <trkpt lat="50.39211685" lon="-117.10339484">
      </trkpt>
      <trkpt lat="50.39211668" lon="-117.10358527">
      </trkpt>
      <trkpt lat="50.39215075" lon="-117.10377579">
      </trkpt>
      <trkpt lat="50.39217723" lon="-117.10394843">
      </trkpt>
      <trkpt lat="50.39221512" lon="-117.1041211">
      </trkpt>
      <trkpt lat="50.39223401" lon="-117.10426398">
      </trkpt>
      <trkpt lat="50.39223767" lon="-117.10443063">
      </trkpt>
      <trkpt lat="50.39222608" lon="-117.10462699">
      </trkpt>
      <trkpt lat="50.39218403" lon="-117.1048471">
      </trkpt>
      <trkpt lat="50.39212297" lon="-117.1050612">
      </trkpt>
      <trkpt lat="50.39208092" lon="-117.10528131">
      </trkpt>
      <trkpt lat="50.39204268" lon="-117.10548952">
      </trkpt>
      <trkpt lat="50.39200435" lon="-117.10580485">
      </trkpt>
      <trkpt lat="50.3919965" lon="-117.10607264">
      </trkpt>
      <trkpt lat="50.39200757" lon="-117.10644164">
      </trkpt>
      <trkpt lat="50.39201871" lon="-117.10675112">
      </trkpt>
      <trkpt lat="50.39201463" lon="-117.10704868">
      </trkpt>
      <trkpt lat="50.39198021" lon="-117.10723904">
      </trkpt>
      <trkpt lat="50.39193816" lon="-117.1074532">
      </trkpt>
      <trkpt lat="50.39193028" lon="-117.10775074">
      </trkpt>
      <trkpt lat="50.39195666" lon="-117.10802456">
      </trkpt>
      <trkpt lat="50.39205521" lon="-117.10841161">
      </trkpt>
      <trkpt lat="50.39211206" lon="-117.10864979">
      </trkpt>
      <trkpt lat="50.39218785" lon="-117.10897133">
      </trkpt>
      <trkpt lat="50.39225973" lon="-117.10939999">
      </trkpt>
      <trkpt lat="50.39228976" lon="-117.10984046">
      </trkpt>
      <trkpt lat="50.39225908" lon="-117.11009034">
      </trkpt>
      <trkpt lat="50.39220555" lon="-117.11037588">
      </trkpt>
      <trkpt lat="50.39214826" lon="-117.11060785">
      </trkpt>
      <trkpt lat="50.39209098" lon="-117.11082195">
      </trkpt>
      <trkpt lat="50.3920109" lon="-117.11103006">
      </trkpt>
      <trkpt lat="50.39189278" lon="-117.11121427">
      </trkpt>
      <trkpt lat="50.3917784" lon="-117.11146395">
      </trkpt>
      <trkpt lat="50.39164891" lon="-117.11161839">
      </trkpt>
      <trkpt lat="50.39150036" lon="-117.11179658">
      </trkpt>
      <trkpt lat="50.39138227" lon="-117.11194508">
      </trkpt>
      <trkpt lat="50.3912794" lon="-117.11209957">
      </trkpt>
      <trkpt lat="50.39117275" lon="-117.11223024">
      </trkpt>
      <trkpt lat="50.39105468" lon="-117.11236088">
      </trkpt>
      <trkpt lat="50.39098608" lon="-117.11249165">
      </trkpt>
      <trkpt lat="50.39092886" lon="-117.11265219">
      </trkpt>
      <trkpt lat="50.39087537" lon="-117.11288416">
      </trkpt>
      <trkpt lat="50.39079901" lon="-117.11316368">
      </trkpt>
      <trkpt lat="50.39072655" lon="-117.11334204">
      </trkpt>
      <trkpt lat="50.39066171" lon="-117.11350256">
      </trkpt>
      <trkpt lat="50.3906539" lon="-117.11371678">
      </trkpt>
      <trkpt lat="50.39064989" lon="-117.11391911">
      </trkpt>
      <trkpt lat="50.39061172" lon="-117.1140559">
      </trkpt>
      <trkpt lat="50.39051643" lon="-117.1142342">
      </trkpt>
      <trkpt lat="50.39041735" lon="-117.11440059">
      </trkpt>
      <trkpt lat="50.39032592" lon="-117.11451939">
      </trkpt>
      <trkpt lat="50.39021172" lon="-117.11458457">
      </trkpt>
      <trkpt lat="50.39007092" lon="-117.1146259">
      </trkpt>
      <trkpt lat="50.38994148" lon="-117.11471485">
      </trkpt>
      <trkpt lat="50.38981585" lon="-117.1147919">
      </trkpt>
      <trkpt lat="50.38970922" lon="-117.11489877">
      </trkpt>
      <trkpt lat="50.38961771" lon="-117.11509492">
      </trkpt>
      <trkpt lat="50.38954139" lon="-117.11533277">
      </trkpt>
      <trkpt lat="50.38948037" lon="-117.1154814">
      </trkpt>
      <trkpt lat="50.38941931" lon="-117.11567764">
      </trkpt>
      <trkpt lat="50.38933544" lon="-117.11584405">
      </trkpt>
      <trkpt lat="50.3892554" lon="-117.11599264">
      </trkpt>
      <trkpt lat="50.38916773" lon="-117.11615309">
      </trkpt>
      <trkpt lat="50.38908756" lon="-117.11642664">
      </trkpt>
      <trkpt lat="50.38903033" lon="-117.11659312">
      </trkpt>
      <trkpt lat="50.38894638" lon="-117.11684286">
      </trkpt>
      <trkpt lat="50.38888147" lon="-117.11707478">
      </trkpt>
      <trkpt lat="50.38885463" lon="-117.11728894">
      </trkpt>
      <trkpt lat="50.38879344" lon="-117.11759823">
      </trkpt>
      <trkpt lat="50.38874752" lon="-117.11785996">
      </trkpt>
      <trkpt lat="50.38867118" lon="-117.11810971">
      </trkpt>
      <trkpt lat="50.38855301" lon="-117.11833555">
      </trkpt>
      <trkpt lat="50.38846915" lon="-117.11849005">
      </trkpt>
      <trkpt lat="50.38836626" lon="-117.11865643">
      </trkpt>
      <trkpt lat="50.38816822" lon="-117.11885825">
      </trkpt>
      <trkpt lat="50.38805015" lon="-117.11898888">
      </trkpt>
      <trkpt lat="50.387951" lon="-117.1192088">
      </trkpt>
      <trkpt lat="50.38783278" lon="-117.11948224">
      </trkpt>
      <trkpt lat="50.38776031" lon="-117.11967248">
      </trkpt>
      <trkpt lat="50.38770688" lon="-117.11983301">
      </trkpt>
      <trkpt lat="50.38759635" lon="-117.12002912">
      </trkpt>
      <trkpt lat="50.3875201" lon="-117.12018363">
      </trkpt>
      <trkpt lat="50.38737139" lon="-117.12049864">
      </trkpt>
      <trkpt lat="50.3872494" lon="-117.12073637">
      </trkpt>
      <trkpt lat="50.38715407" lon="-117.1209444">
      </trkpt>
      <trkpt lat="50.38703585" lon="-117.12121783">
      </trkpt>
      <trkpt lat="50.38695955" lon="-117.12141401">
      </trkpt>
      <trkpt lat="50.38684133" lon="-117.12168148">
      </trkpt>
      <trkpt lat="50.38672696" lon="-117.1219073">
      </trkpt>
      <trkpt lat="50.38658207" lon="-117.12221042">
      </trkpt>
      <trkpt lat="50.38647527" lon="-117.12247791">
      </trkpt>
      <trkpt lat="50.38636468" lon="-117.1227216">
      </trkpt>
      <trkpt lat="50.38627698" lon="-117.12290584">
      </trkpt>
      <trkpt lat="50.38619692" lon="-117.12306035">
      </trkpt>
      <trkpt lat="50.38608245" lon="-117.12337543">
      </trkpt>
      <trkpt lat="50.38597181" lon="-117.12366672">
      </trkpt>
      <trkpt lat="50.38590305" lon="-117.1239343">
      </trkpt>
      <trkpt lat="50.38583814" lon="-117.12414835">
      </trkpt>
      <trkpt lat="50.3857238" lon="-117.12433847">
      </trkpt>
      <trkpt lat="50.38557521" lon="-117.12454634">
      </trkpt>
      <trkpt lat="50.38549126" lon="-117.1247782">
      </trkpt>
      <trkpt lat="50.38540729" lon="-117.12503385">
      </trkpt>
      <trkpt lat="50.3853005" lon="-117.12527753">
      </trkpt>
      <trkpt lat="50.3852014" lon="-117.12543793">
      </trkpt>
      <trkpt lat="50.385049" lon="-117.12564579">
      </trkpt>
      <trkpt lat="50.3848815" lon="-117.12574056">
      </trkpt>
      <trkpt lat="50.38472929" lon="-117.12576395">
      </trkpt>
      <trkpt lat="50.3846075" lon="-117.12581718">
      </trkpt>
      <trkpt lat="50.38446292" lon="-117.12581085">
      </trkpt>
      <trkpt lat="50.38433734" lon="-117.12584027">
      </trkpt>
      <trkpt lat="50.38420791" lon="-117.12592324">
      </trkpt>
      <trkpt lat="50.38411267" lon="-117.12603604">
      </trkpt>
      <trkpt lat="50.38401362" lon="-117.12615477">
      </trkpt>
      <trkpt lat="50.38394503" lon="-117.12625575">
      </trkpt>
      <trkpt lat="50.3838801" lon="-117.12649358">
      </trkpt>
      <trkpt lat="50.38380761" lon="-117.1266719">
      </trkpt>
      <trkpt lat="50.38372758" lon="-117.12679664">
      </trkpt>
      <trkpt lat="50.38362093" lon="-117.12691537">
      </trkpt>
      <trkpt lat="50.38348006" lon="-117.12700424">
      </trkpt>
      <trkpt lat="50.38333535" lon="-117.1271407">
      </trkpt>
      <trkpt lat="50.38316396" lon="-117.12730685">
      </trkpt>
      <trkpt lat="50.38303063" lon="-117.12746715">
      </trkpt>
      <trkpt lat="50.38291252" lon="-117.12761558">
      </trkpt>
      <trkpt lat="50.38275253" lon="-117.1278115">
      </trkpt>
      <trkpt lat="50.38263442" lon="-117.12795399">
      </trkpt>
      <trkpt lat="50.38251631" lon="-117.12811432">
      </trkpt>
      <trkpt lat="50.38241722" lon="-117.12826877">
      </trkpt>
      <trkpt lat="50.38227627" lon="-117.12843499">
      </trkpt>
      <trkpt lat="50.38214285" lon="-117.12867262">
      </trkpt>
      <trkpt lat="50.38202469" lon="-117.1288746">
      </trkpt>
      <trkpt lat="50.38192938" lon="-117.12905284">
      </trkpt>
      <trkpt lat="50.38181883" lon="-117.1292489">
      </trkpt>
      <trkpt lat="50.3817349" lon="-117.12945692">
      </trkpt>
      <trkpt lat="50.38161282" lon="-117.12975409">
      </trkpt>
      <trkpt lat="50.38149832" lon="-117.13007506">
      </trkpt>
      <trkpt lat="50.3813306" lon="-117.1303721">
      </trkpt>
      <trkpt lat="50.3811782" lon="-117.13056208">
      </trkpt>
      <trkpt lat="50.38109816" lon="-117.13069276">
      </trkpt>
      <trkpt lat="50.38101434" lon="-117.13080557">
      </trkpt>
      <trkpt lat="50.38090769" lon="-117.13091238">
      </trkpt>
      <trkpt lat="50.38078957" lon="-117.13106675">
      </trkpt>
      <trkpt lat="50.38069427" lon="-117.13123904">
      </trkpt>
      <trkpt lat="50.38054576" lon="-117.13135762">
      </trkpt>
      <trkpt lat="50.38036309" lon="-117.13140472">
      </trkpt>
      <trkpt lat="50.38018799" lon="-117.13148158">
      </trkpt>
      <trkpt lat="50.3800015" lon="-117.13154651">
      </trkpt>
      <trkpt lat="50.37989116" lon="-117.13155215">
      </trkpt>
      <trkpt lat="50.37968566" lon="-117.13160513">
      </trkpt>
      <trkpt lat="50.3795144" lon="-117.13165821">
      </trkpt>
      <trkpt lat="50.37935836" lon="-117.13171132">
      </trkpt>
      <trkpt lat="50.37925174" lon="-117.13178242">
      </trkpt>
      <trkpt lat="50.37909938" lon="-117.13194264">
      </trkpt>
      <trkpt lat="50.37899268" lon="-117.13209109">
      </trkpt>
      <trkpt lat="50.37891642" lon="-117.13224556">
      </trkpt>
      <trkpt lat="50.37879442" lon="-117.13247131">
      </trkpt>
      <trkpt lat="50.37871813" lon="-117.13264363">
      </trkpt>
      <trkpt lat="50.37863799" lon="-117.1328576">
      </trkpt>
      <trkpt lat="50.37853121" lon="-117.13308338">
      </trkpt>
      <trkpt lat="50.37839783" lon="-117.13327339">
      </trkpt>
      <trkpt lat="50.37826447" lon="-117.13345746">
      </trkpt>
      <trkpt lat="50.37812348" lon="-117.13364744">
      </trkpt>
      <trkpt lat="50.37799775" lon="-117.13380773">
      </trkpt>
      <trkpt lat="50.37789488" lon="-117.13393238">
      </trkpt>
      <trkpt lat="50.37775393" lon="-117.13409856">
      </trkpt>
      <trkpt lat="50.37763968" lon="-117.13419939">
      </trkpt>
      <trkpt lat="50.37750635" lon="-117.13434774">
      </trkpt>
      <trkpt lat="50.37740353" lon="-117.1344248">
      </trkpt>
      <trkpt lat="50.37728549" lon="-117.13450776">
      </trkpt>
      <trkpt lat="50.37715983" lon="-117.13460854">
      </trkpt>
      <trkpt lat="50.37701512" lon="-117.13473306">
      </trkpt>
      <trkpt lat="50.37688946" lon="-117.1348279">
      </trkpt>
      <trkpt lat="50.37675236" lon="-117.1349465">
      </trkpt>
      <trkpt lat="50.37665711" lon="-117.13506521">
      </trkpt>
      <trkpt lat="50.37654274" lon="-117.13526122">
      </trkpt>
      <trkpt lat="50.37643215" lon="-117.13549292">
      </trkpt>
      <trkpt lat="50.37632913" lon="-117.1357425">
      </trkpt>
      <trkpt lat="50.37621845" lon="-117.13603965">
      </trkpt>
      <trkpt lat="50.37610026" lon="-117.13625349">
      </trkpt>
      <trkpt lat="50.37595164" lon="-117.13646723">
      </trkpt>
      <trkpt lat="50.37581829" lon="-117.13662749">
      </trkpt>
      <trkpt lat="50.37566586" lon="-117.13683526">
      </trkpt>
      <trkpt lat="50.37552866" lon="-117.13703714">
      </trkpt>
      <trkpt lat="50.37540294" lon="-117.13718551">
      </trkpt>
      <trkpt lat="50.37526205" lon="-117.13729218">
      </trkpt>
      <trkpt lat="50.3751669" lon="-117.13732165">
      </trkpt>
      <trkpt lat="50.37504508" lon="-117.13738675">
      </trkpt>
      <trkpt lat="50.37493091" lon="-117.13741617">
      </trkpt>
      <trkpt lat="50.37481286" lon="-117.13750506">
      </trkpt>
      <trkpt lat="50.37469476" lon="-117.1376475">
      </trkpt>
      <trkpt lat="50.3745576" lon="-117.13780772">
      </trkpt>
      <trkpt lat="50.37438618" lon="-117.13799165">
      </trkpt>
      <trkpt lat="50.37430235" lon="-117.13809849">
      </trkpt>
      <trkpt lat="50.37418804" lon="-117.13824688">
      </trkpt>
      <trkpt lat="50.37406234" lon="-117.1383774">
      </trkpt>
      <trkpt lat="50.3739595" lon="-117.13847823">
      </trkpt>
      <trkpt lat="50.37385666" lon="-117.13857311">
      </trkpt>
      <trkpt lat="50.37370052" lon="-117.13870353">
      </trkpt>
      <trkpt lat="50.37359005" lon="-117.13882219">
      </trkpt>
      <trkpt lat="50.37345285" lon="-117.1390181">
      </trkpt>
      <trkpt lat="50.37330427" lon="-117.13919019">
      </trkpt>
      <trkpt lat="50.37315189" lon="-117.13935037">
      </trkpt>
      <trkpt lat="50.37301859" lon="-117.1394749">
      </trkpt>
      <trkpt lat="50.37287015" lon="-117.13952801">
      </trkpt>
      <trkpt lat="50.37272937" lon="-117.13953948">
      </trkpt>
      <trkpt lat="50.37260388" lon="-117.13949153">
      </trkpt>
      <trkpt lat="50.37246303" lon="-117.1395625">
      </trkpt>
      <trkpt lat="50.37231071" lon="-117.13968104">
      </trkpt>
      <trkpt lat="50.37219645" lon="-117.13977587">
      </trkpt>
      <trkpt lat="50.37207458" lon="-117.13988855">
      </trkpt>
      <trkpt lat="50.37192222" lon="-117.14003087">
      </trkpt>
      <trkpt lat="50.37182314" lon="-117.1401674">
      </trkpt>
      <trkpt lat="50.37168214" lon="-117.14036329">
      </trkpt>
      <trkpt lat="50.37159063" lon="-117.14052364">
      </trkpt>
      <trkpt lat="50.37157904" lon="-117.14067231">
      </trkpt>
      <trkpt lat="50.37163593" lon="-117.14082715">
      </trkpt>
      <trkpt lat="50.37174621" lon="-117.14086317">
      </trkpt>
      <trkpt lat="50.37188325" lon="-117.14080409">
      </trkpt>
      <trkpt lat="50.37198223" lon="-117.14074489">
      </trkpt>
      <trkpt lat="50.37210783" lon="-117.14069768">
      </trkpt>
      <trkpt lat="50.37221061" lon="-117.14065039">
      </trkpt>
      <trkpt lat="50.37233626" lon="-117.14057343">
      </trkpt>
      <trkpt lat="50.37244286" lon="-117.1405083">
      </trkpt>
      <trkpt lat="50.37254949" lon="-117.14041939">
      </trkpt>
      <trkpt lat="50.37262938" lon="-117.14042557">
      </trkpt>
      <trkpt lat="50.37270529" lon="-117.14058047">
      </trkpt>
      <trkpt lat="50.37266322" lon="-117.14076476">
      </trkpt>
      <trkpt lat="50.37257553" lon="-117.14091321">
      </trkpt>
      <trkpt lat="50.37248021" lon="-117.14108545">
      </trkpt>
      <trkpt lat="50.37236584" lon="-117.14128142">
      </trkpt>
      <trkpt lat="50.37226668" lon="-117.14147744">
      </trkpt>
      <trkpt lat="50.37217138" lon="-117.14163777">
      </trkpt>
      <trkpt lat="50.37202283" lon="-117.1417801">
      </trkpt>
      <trkpt lat="50.37181719" lon="-117.14193415">
      </trkpt>
      <trkpt lat="50.37167243" lon="-117.14208839">
      </trkpt>
      <trkpt lat="50.37157709" lon="-117.14227846">
      </trkpt>
      <trkpt lat="50.37148553" lon="-117.14248639">
      </trkpt>
      <trkpt lat="50.37140154" lon="-117.14271814">
      </trkpt>
      <trkpt lat="50.37133285" lon="-117.14288449">
      </trkpt>
      <trkpt lat="50.3712528" lon="-117.14301512">
      </trkpt>
      <trkpt lat="50.37117657" lon="-117.14312792">
      </trkpt>
      <trkpt lat="50.37108894" lon="-117.14322878">
      </trkpt>
      <trkpt lat="50.37099367" lon="-117.14335342">
      </trkpt>
      <trkpt lat="50.37087186" lon="-117.14341254">
      </trkpt>
      <trkpt lat="50.37069296" lon="-117.14348338">
      </trkpt>
      <trkpt lat="50.37059775" lon="-117.14356638">
      </trkpt>
      <trkpt lat="50.3705215" lon="-117.14368511">
      </trkpt>
      <trkpt lat="50.3704643" lon="-117.14379796">
      </trkpt>
      <trkpt lat="50.37039569" lon="-117.14389888">
      </trkpt>
      <trkpt lat="50.37027379" lon="-117.14402938">
      </trkpt>
      <trkpt lat="50.37017856" lon="-117.14412427">
      </trkpt>
      <trkpt lat="50.37004531" lon="-117.14419525">
      </trkpt>
      <trkpt lat="50.36989688" lon="-117.14423643">
      </trkpt>
      <trkpt lat="50.36975225" lon="-117.14428954">
      </trkpt>
      <trkpt lat="50.36963045" lon="-117.14432486">
      </trkpt>
      <trkpt lat="50.36954288" lon="-117.14438407">
      </trkpt>
      <trkpt lat="50.36943238" lon="-117.14452055">
      </trkpt>
      <trkpt lat="50.36932948" lon="-117.14466301">
      </trkpt>
      <trkpt lat="50.36923041" lon="-117.14478167">
      </trkpt>
      <trkpt lat="50.36913135" lon="-117.14490629">
      </trkpt>
      <trkpt lat="50.36905517" lon="-117.14497149">
      </trkpt>
      <trkpt lat="50.36891812" lon="-117.14504245">
      </trkpt>
      <trkpt lat="50.3687887" lon="-117.14508964">
      </trkpt>
      <trkpt lat="50.36864787" lon="-117.14514274">
      </trkpt>
      <trkpt lat="50.36851849" lon="-117.14516615">
      </trkpt>
      <trkpt lat="50.36838152" lon="-117.14517167">
      </trkpt>
      <trkpt lat="50.36824075" lon="-117.14517125">
      </trkpt>
      <trkpt lat="50.36812284" lon="-117.14515304">
      </trkpt>
      <trkpt lat="50.36800866" lon="-117.14518243">
      </trkpt>
      <trkpt lat="50.36791724" lon="-117.14527733">
      </trkpt>
      <trkpt lat="50.36777632" lon="-117.14540181">
      </trkpt>
      <trkpt lat="50.36766968" lon="-117.1454907">
      </trkpt>
      <trkpt lat="50.36756681" lon="-117.14560341">
      </trkpt>
      <trkpt lat="50.36743723" lon="-117.14579335">
      </trkpt>
      <trkpt lat="50.36732295" lon="-117.14590007">
      </trkpt>
      <trkpt lat="50.36721252" lon="-117.145983">
      </trkpt>
      <trkpt lat="50.36707171" lon="-117.14601231">
      </trkpt>
      <trkpt lat="50.36691571" lon="-117.14602968">
      </trkpt>
      <trkpt lat="50.36680913" lon="-117.14606504">
      </trkpt>
      <trkpt lat="50.36671773" lon="-117.14614803">
      </trkpt>
      <trkpt lat="50.36662629" lon="-117.14624292">
      </trkpt>
      <trkpt lat="50.36653485" lon="-117.14634971">
      </trkpt>
      <trkpt lat="50.36642823" lon="-117.14642671">
      </trkpt>
      <trkpt lat="50.36632917" lon="-117.14653941">
      </trkpt>
      <trkpt lat="50.36625672" lon="-117.14667004">
      </trkpt>
      <trkpt lat="50.36619567" lon="-117.14681261">
      </trkpt>
      <trkpt lat="50.36614221" lon="-117.14696709">
      </trkpt>
      <trkpt lat="50.36605062" lon="-117.14718688">
      </trkpt>
      <trkpt lat="50.36597432" lon="-117.1473532">
      </trkpt>
      <trkpt lat="50.36588286" lon="-117.14747187">
      </trkpt>
      <trkpt lat="50.36576471" lon="-117.14763804">
      </trkpt>
      <trkpt lat="50.36565036" lon="-117.14780424">
      </trkpt>
      <trkpt lat="50.36553219" lon="-117.14798826">
      </trkpt>
      <trkpt lat="50.36542926" lon="-117.14814852">
      </trkpt>
      <trkpt lat="50.36531494" lon="-117.14829688">
      </trkpt>
      <trkpt lat="50.36519677" lon="-117.14848089">
      </trkpt>
      <trkpt lat="50.36506717" lon="-117.14867081">
      </trkpt>
      <trkpt lat="50.3649794" lon="-117.14887872">
      </trkpt>
      <trkpt lat="50.36491069" lon="-117.14905694">
      </trkpt>
      <trkpt lat="50.36483054" lon="-117.14925297">
      </trkpt>
      <trkpt lat="50.36467802" lon="-117.14952014">
      </trkpt>
      <trkpt lat="50.36454456" lon="-117.14975169">
      </trkpt>
      <trkpt lat="50.36446059" lon="-117.14996554">
      </trkpt>
      <trkpt lat="50.36435371" lon="-117.15023285">
      </trkpt>
      <trkpt lat="50.36425828" lon="-117.15048236">
      </trkpt>
      <trkpt lat="50.36419724" lon="-117.15060707">
      </trkpt>
      <trkpt lat="50.36412482" lon="-117.1507139">
      </trkpt>
      <trkpt lat="50.36401438" lon="-117.15079682">
      </trkpt>
      <trkpt lat="50.36390769" lon="-117.15092734">
      </trkpt>
      <trkpt lat="50.36380096" lon="-117.15108163">
      </trkpt>
      <trkpt lat="50.36369423" lon="-117.15123593">
      </trkpt>
      <trkpt lat="50.36354939" lon="-117.15144365">
      </trkpt>
      <trkpt lat="50.36346547" lon="-117.15161587">
      </trkpt>
      <trkpt lat="50.36335876" lon="-117.15175827">
      </trkpt>
      <trkpt lat="50.36319123" lon="-117.15185289">
      </trkpt>
      <trkpt lat="50.36294769" lon="-117.15189375">
      </trkpt>
      <trkpt lat="50.36278024" lon="-117.1519289">
      </trkpt>
      <trkpt lat="50.36259375" lon="-117.15198778">
      </trkpt>
      <trkpt lat="50.36241491" lon="-117.15200506">
      </trkpt>
      <trkpt lat="50.36229309" lon="-117.15206414">
      </trkpt>
      <trkpt lat="50.36217881" lon="-117.15217083">
      </trkpt>
      <trkpt lat="50.36203779" lon="-117.1523607">
      </trkpt>
      <trkpt lat="50.3619082" lon="-117.1525506">
      </trkpt>
      <trkpt lat="50.36178995" lon="-117.15278218">
      </trkpt>
      <trkpt lat="50.36175933" lon="-117.15291888">
      </trkpt>
      <trkpt lat="50.36166781" lon="-117.15308511">
      </trkpt>
      <trkpt lat="50.3615459" lon="-117.1532096">
      </trkpt>
      <trkpt lat="50.36138211" lon="-117.15335777">
      </trkpt>
      <trkpt lat="50.3612869" lon="-117.15343478">
      </trkpt>
      <trkpt lat="50.36115359" lon="-117.15354734">
      </trkpt>
      <trkpt lat="50.3610088" lon="-117.1537134">
      </trkpt>
      <trkpt lat="50.36090594" lon="-117.15381418">
      </trkpt>
      <trkpt lat="50.36071548" lon="-117.15399199">
      </trkpt>
      <trkpt lat="50.3605517" lon="-117.15412824">
      </trkpt>
      <trkpt lat="50.36038414" lon="-117.15425854">
      </trkpt>
      <trkpt lat="50.36025466" lon="-117.15434733">
      </trkpt>
      <trkpt lat="50.36014797" lon="-117.15446592">
      </trkpt>
      <trkpt lat="50.36004508" lon="-117.15459644">
      </trkpt>
      <trkpt lat="50.35993073" lon="-117.15475665">
      </trkpt>
      <trkpt lat="50.35985065" lon="-117.15489911">
      </trkpt>
      <trkpt lat="50.35976297" lon="-117.15502967">
      </trkpt>
      <trkpt lat="50.35970946" lon="-117.15521385">
      </trkpt>
      <trkpt lat="50.35964448" lon="-117.15544559">
      </trkpt>
      <trkpt lat="50.35956054" lon="-117.15561778">
      </trkpt>
      <trkpt lat="50.35947676" lon="-117.15567698">
      </trkpt>
      <trkpt lat="50.35938544" lon="-117.15569453">
      </trkpt>
      <trkpt lat="50.3592826" lon="-117.15577744">
      </trkpt>
      <trkpt lat="50.35921021" lon="-117.15585452">
      </trkpt>
      <trkpt lat="50.35910728" lon="-117.15600881">
      </trkpt>
      <trkpt lat="50.35900828" lon="-117.1560739">
      </trkpt>
      <trkpt lat="50.35890932" lon="-117.15610331">
      </trkpt>
      <trkpt lat="50.35876855" lon="-117.15610286">
      </trkpt>
      <trkpt lat="50.35863547" lon="-117.15604889">
      </trkpt>
      <trkpt lat="50.35850234" lon="-117.15602467">
      </trkpt>
      <trkpt lat="50.35836544" lon="-117.15597664">
      </trkpt>
      <trkpt lat="50.35821717" lon="-117.15589885">
      </trkpt>
      <trkpt lat="50.35806891" lon="-117.1558151">
      </trkpt>
      <trkpt lat="50.35790537" lon="-117.15577294">
      </trkpt>
      <trkpt lat="50.35774561" lon="-117.15574268">
      </trkpt>
      <trkpt lat="50.35762384" lon="-117.15576607">
      </trkpt>
      <trkpt lat="50.35750959" lon="-117.15584896">
      </trkpt>
      <trkpt lat="50.35741434" lon="-117.15594973">
      </trkpt>
      <trkpt lat="50.35726963" lon="-117.15606225">
      </trkpt>
      <trkpt lat="50.35709444" lon="-117.15619252">
      </trkpt>
      <trkpt lat="50.35696494" lon="-117.15630508">
      </trkpt>
      <trkpt lat="50.35688486" lon="-117.1564416">
      </trkpt>
      <trkpt lat="50.35685431" lon="-117.15651881">
      </trkpt>
      <trkpt lat="50.35677042" lon="-117.15666126">
      </trkpt>
      <trkpt lat="50.35668268" lon="-117.15683937">
      </trkpt>
      <trkpt lat="50.35659887" lon="-117.15692234">
      </trkpt>
      <trkpt lat="50.35648464" lon="-117.15699333">
      </trkpt>
      <trkpt lat="50.35635524" lon="-117.15702858">
      </trkpt>
      <trkpt lat="50.35621064" lon="-117.15704595">
      </trkpt>
      <trkpt lat="50.35604704" lon="-117.15705135">
      </trkpt>
      <trkpt lat="50.3559215" lon="-117.157045">
      </trkpt>
      <trkpt lat="50.35582641" lon="-117.15702684">
      </trkpt>
      <trkpt lat="50.35573507" lon="-117.15705032">
      </trkpt>
      <trkpt lat="50.35563225" lon="-117.15712729">
      </trkpt>
      <trkpt lat="50.35548375" lon="-117.15721006">
      </trkpt>
      <trkpt lat="50.35533905" lon="-117.15730473">
      </trkpt>
      <trkpt lat="50.35521339" lon="-117.1573935">
      </trkpt>
      <trkpt lat="50.35509914" lon="-117.15747045">
      </trkpt>
      <trkpt lat="50.35500768" lon="-117.15758312">
      </trkpt>
      <trkpt lat="50.35490475" lon="-117.15773739">
      </trkpt>
      <trkpt lat="50.35482837" lon="-117.15795122">
      </trkpt>
      <trkpt lat="50.35475581" lon="-117.15814721">
      </trkpt>
      <trkpt lat="50.354664" lon="-117.15852749">
      </trkpt>
      <trkpt lat="50.35461425" lon="-117.15873545">
      </trkpt>
      <trkpt lat="50.35456074" lon="-117.15891963">
      </trkpt>
      <trkpt lat="50.35452631" lon="-117.15905034">
      </trkpt>
      <trkpt lat="50.35448815" lon="-117.15913346">
      </trkpt>
      <trkpt lat="50.35438538" lon="-117.15917473">
      </trkpt>
      <trkpt lat="50.35430165" lon="-117.15919825">
      </trkpt>
      <trkpt lat="50.35418368" lon="-117.15922164">
      </trkpt>
      <trkpt lat="50.35405806" lon="-117.15926879">
      </trkpt>
      <trkpt lat="50.35396672" lon="-117.15929227">
      </trkpt>
      <trkpt lat="50.35389053" lon="-117.15936337">
      </trkpt>
      <trkpt lat="50.35377622" lon="-117.15949382">
      </trkpt>
      <trkpt lat="50.35367716" lon="-117.15959457">
      </trkpt>
      <trkpt lat="50.3535781" lon="-117.15969533">
      </trkpt>
      <trkpt lat="50.353479" lon="-117.15983177">
      </trkpt>
      <trkpt lat="50.35334567" lon="-117.15995619">
      </trkpt>
      <trkpt lat="50.35321609" lon="-117.16011631">
      </trkpt>
      <trkpt lat="50.35308646" lon="-117.16031806">
      </trkpt>
      <trkpt lat="50.35297204" lon="-117.16052578">
      </trkpt>
      <trkpt lat="50.35281942" lon="-117.16084043">
      </trkpt>
      <trkpt lat="50.35270497" lon="-117.16106601">
      </trkpt>
      <trkpt lat="50.352583" lon="-117.16123209">
      </trkpt>
      <trkpt lat="50.35247626" lon="-117.16138039">
      </trkpt>
      <trkpt lat="50.35236196" lon="-117.16150487">
      </trkpt>
      <trkpt lat="50.35224004" lon="-117.16163527">
      </trkpt>
      <trkpt lat="50.35212953" lon="-117.16175977">
      </trkpt>
      <trkpt lat="50.35204199" lon="-117.16178921">
      </trkpt>
      <trkpt lat="50.35193918" lon="-117.16184237">
      </trkpt>
      <trkpt lat="50.35187068" lon="-117.16185998">
      </trkpt>
      <trkpt lat="50.35179455" lon="-117.16188945">
      </trkpt>
      <trkpt lat="50.35169562" lon="-117.16189505">
      </trkpt>
      <trkpt lat="50.3515891" lon="-117.1618947">
      </trkpt>
      <trkpt lat="50.35145592" lon="-117.16190614">
      </trkpt>
      <trkpt lat="50.35131513" lon="-117.16192349">
      </trkpt>
      <trkpt lat="50.35118191" lon="-117.16197061">
      </trkpt>
      <trkpt lat="50.3510715" lon="-117.16202374">
      </trkpt>
      <trkpt lat="50.350942" lon="-117.16213034">
      </trkpt>
      <trkpt lat="50.35085055" lon="-117.16222517">
      </trkpt>
      <trkpt lat="50.35072479" lon="-117.16238528">
      </trkpt>
      <trkpt lat="50.35064853" lon="-117.162498">
      </trkpt>
      <trkpt lat="50.35057226" lon="-117.1626345">
      </trkpt>
      <trkpt lat="50.35049979" lon="-117.16275912">
      </trkpt>
      <trkpt lat="50.35040073" lon="-117.16285986">
      </trkpt>
      <trkpt lat="50.35029406" lon="-117.16296058">
      </trkpt>
      <trkpt lat="50.35019502" lon="-117.16305538">
      </trkpt>
      <trkpt lat="50.35010741" lon="-117.16312644">
      </trkpt>
      <trkpt lat="50.35003115" lon="-117.16325103">
      </trkpt>
      <trkpt lat="50.34992823" lon="-117.16339339">
      </trkpt>
      <trkpt lat="50.34982909" lon="-117.16354764">
      </trkpt>
      <trkpt lat="50.34978705" lon="-117.16368425">
      </trkpt>
      <trkpt lat="50.34972605" lon="-117.16377323">
      </trkpt>
      <trkpt lat="50.34964601" lon="-117.16387404">
      </trkpt>
      <trkpt lat="50.349566" lon="-117.163957">
      </trkpt>
      <trkpt lat="50.34950125" lon="-117.16401625">
      </trkpt>
      <trkpt lat="50.34939084" lon="-117.16406343">
      </trkpt>
      <trkpt lat="50.34931095" lon="-117.16406315">
      </trkpt>
      <trkpt lat="50.34921959" lon="-117.16409852">
      </trkpt>
      <trkpt lat="50.34913202" lon="-117.16414578">
      </trkpt>
      <trkpt lat="50.34904821" lon="-117.16422278">
      </trkpt>
      <trkpt lat="50.34895681" lon="-117.16428788">
      </trkpt>
      <trkpt lat="50.34885017" lon="-117.16437075">
      </trkpt>
      <trkpt lat="50.34869781" lon="-117.16449509">
      </trkpt>
      <trkpt lat="50.34856069" lon="-117.16460165">
      </trkpt>
      <trkpt lat="50.34843507" lon="-117.16465471">
      </trkpt>
      <trkpt lat="50.34834749" lon="-117.16470792">
      </trkpt>
      <trkpt lat="50.34823704" lon="-117.16478484">
      </trkpt>
      <trkpt lat="50.34813421" lon="-117.16486773">
      </trkpt>
      <trkpt lat="50.34797814" lon="-117.16492664">
      </trkpt>
      <trkpt lat="50.34783351" lon="-117.16496776">
      </trkpt>
      <trkpt lat="50.34768508" lon="-117.16500292">
      </trkpt>
      <trkpt lat="50.34753661" lon="-117.16506781">
      </trkpt>
      <trkpt lat="50.3474224" lon="-117.16512688">
      </trkpt>
      <trkpt lat="50.34734242" lon="-117.16518606">
      </trkpt>
      <trkpt lat="50.34727389" lon="-117.16521554">
      </trkpt>
      <trkpt lat="50.34717864" lon="-117.16531628">
      </trkpt>
      <trkpt lat="50.34708717" lon="-117.16542894">
      </trkpt>
      <trkpt lat="50.34701472" lon="-117.16554165">
      </trkpt>
      <trkpt lat="50.34693082" lon="-117.16568405">
      </trkpt>
      <trkpt lat="50.3468583" lon="-117.16584434">
      </trkpt>
      <trkpt lat="50.34680856" lon="-117.16604631">
      </trkpt>
      <trkpt lat="50.34675886" lon="-117.16621261">
      </trkpt>
      <trkpt lat="50.34672062" lon="-117.16634922">
      </trkpt>
      <trkpt lat="50.34668238" lon="-117.16648584">
      </trkpt>
      <trkpt lat="50.34663273" lon="-117.16662242">
      </trkpt>
      <trkpt lat="50.34654508" lon="-117.16672319">
      </trkpt>
      <trkpt lat="50.34641178" lon="-117.1668119">
      </trkpt>
      <trkpt lat="50.34625191" lon="-117.16687674">
      </trkpt>
      <trkpt lat="50.34607676" lon="-117.16697125">
      </trkpt>
      <trkpt lat="50.34595493" lon="-117.16703029">
      </trkpt>
      <trkpt lat="50.3458483" lon="-117.16710125">
      </trkpt>
      <trkpt lat="50.34575306" lon="-117.16719011">
      </trkpt>
      <trkpt lat="50.34566157" lon="-117.16731464">
      </trkpt>
      <trkpt lat="50.34561575" lon="-117.16743339">
      </trkpt>
      <trkpt lat="50.34553937" lon="-117.16763527">
      </trkpt>
      <trkpt lat="50.34546684" lon="-117.16780148">
      </trkpt>
      <trkpt lat="50.34540957" lon="-117.16794397">
      </trkpt>
      <trkpt lat="50.34533705" lon="-117.16809829">
      </trkpt>
      <trkpt lat="50.34523415" lon="-117.16822873">
      </trkpt>
      <trkpt lat="50.34510842" lon="-117.1683472">
      </trkpt>
      <trkpt lat="50.34500564" lon="-117.1683944">
      </trkpt>
      <trkpt lat="50.34490284" lon="-117.1684416">
      </trkpt>
      <trkpt lat="50.34478487" lon="-117.16846496">
      </trkpt>
      <trkpt lat="50.34462131" lon="-117.1684406">
      </trkpt>
      <trkpt lat="50.34449957" lon="-117.16843422">
      </trkpt>
      <trkpt lat="50.34434747" lon="-117.16838017">
      </trkpt>
      <trkpt lat="50.34419534" lon="-117.16834397">
      </trkpt>
      <trkpt lat="50.3439823" lon="-117.16833132">
      </trkpt>
      <trkpt lat="50.34383776" lon="-117.16831297">
      </trkpt>
      <trkpt lat="50.34365893" lon="-117.16832424">
      </trkpt>
      <trkpt lat="50.34354471" lon="-117.16838328">
      </trkpt>
      <trkpt lat="50.343419" lon="-117.16848985">
      </trkpt>
      <trkpt lat="50.34326281" lon="-117.16863198">
      </trkpt>
      <trkpt lat="50.34315233" lon="-117.16873265">
      </trkpt>
      <trkpt lat="50.34304558" lon="-117.16888685">
      </trkpt>
      <trkpt lat="50.34295417" lon="-117.16896381">
      </trkpt>
      <trkpt lat="50.3428361" lon="-117.16904662">
      </trkpt>
      <trkpt lat="50.34268764" lon="-117.16910555">
      </trkpt>
      <trkpt lat="50.34253918" lon="-117.16916448">
      </trkpt>
      <trkpt lat="50.34240218" lon="-117.16918777">
      </trkpt>
      <trkpt lat="50.34223849" lon="-117.16925259">
      </trkpt>
      <trkpt lat="50.34208999" lon="-117.16933529">
      </trkpt>
      <trkpt lat="50.34192246" lon="-117.16942387">
      </trkpt>
      <trkpt lat="50.34172447" lon="-117.16953017">
      </trkpt>
      <trkpt lat="50.34157987" lon="-117.16955344">
      </trkpt>
      <trkpt lat="50.34137051" lon="-117.16962403">
      </trkpt>
      <trkpt lat="50.34117262" lon="-117.16966493">
      </trkpt>
      <trkpt lat="50.34097856" lon="-117.16968208">
      </trkpt>
      <trkpt lat="50.34070463" lon="-117.16968706">
      </trkpt>
      <trkpt lat="50.34053722" lon="-117.16969241">
      </trkpt>
      <trkpt lat="50.34031653" lon="-117.16970945">
      </trkpt>
      <trkpt lat="50.3401566" lon="-117.16980994">
      </trkpt>
      <trkpt lat="50.33989388" lon="-117.16994573">
      </trkpt>
      <trkpt lat="50.33980251" lon="-117.16999296">
      </trkpt>
      <trkpt lat="50.33961208" lon="-117.17012901">
      </trkpt>
      <trkpt lat="50.33949403" lon="-117.17019992">
      </trkpt>
      <trkpt lat="50.33931511" lon="-117.17027657">
      </trkpt>
      <trkpt lat="50.33920463" lon="-117.17037723">
      </trkpt>
      <trkpt lat="50.3391246" lon="-117.17046612">
      </trkpt>
      <trkpt lat="50.33898736" lon="-117.17065585">
      </trkpt>
      <trkpt lat="50.33888065" lon="-117.17078031">
      </trkpt>
      <trkpt lat="50.33877394" lon="-117.17091071">
      </trkpt>
      <trkpt lat="50.33866328" lon="-117.17113026">
      </trkpt>
      <trkpt lat="50.33857926" lon="-117.17134397">
      </trkpt>
      <trkpt lat="50.33846861" lon="-117.17156351">
      </trkpt>
      <trkpt lat="50.33838462" lon="-117.17175938">
      </trkpt>
      <trkpt lat="50.33828157" lon="-117.17197896">
      </trkpt>
      <trkpt lat="50.33816707" lon="-117.17222822">
      </trkpt>
      <trkpt lat="50.33807934" lon="-117.17237651">
      </trkpt>
      <trkpt lat="50.33794978" lon="-117.17251871">
      </trkpt>
      <trkpt lat="50.33776316" lon="-117.17265475">
      </trkpt>
      <trkpt lat="50.33767555" lon="-117.17272578">
      </trkpt>
      <trkpt lat="50.33757649" lon="-117.17282052">
      </trkpt>
      <trkpt lat="50.33748887" lon="-117.17289748">
      </trkpt>
      <trkpt lat="50.33739742" lon="-117.17299226">
      </trkpt>
      <trkpt lat="50.33730217" lon="-117.17308109">
      </trkpt>
      <trkpt lat="50.3372221" lon="-117.17319968">
      </trkpt>
      <trkpt lat="50.33716863" lon="-117.17333621">
      </trkpt>
      <trkpt lat="50.33713039" lon="-117.17346685">
      </trkpt>
      <trkpt lat="50.33707686" lon="-117.17365092">
      </trkpt>
      <trkpt lat="50.33697006" lon="-117.17382887">
      </trkpt>
      <trkpt lat="50.33687484" lon="-117.17389985">
      </trkpt>
      <trkpt lat="50.33677192" lon="-117.17403025">
      </trkpt>
      <trkpt lat="50.33666145" lon="-117.1741309">
      </trkpt>
      <trkpt lat="50.33656238" lon="-117.17422566">
      </trkpt>
      <trkpt lat="50.3364709" lon="-117.17433826">
      </trkpt>
      <trkpt lat="50.33636806" lon="-117.17441516">
      </trkpt>
      <trkpt lat="50.33623854" lon="-117.17452762">
      </trkpt>
      <trkpt lat="50.33611664" lon="-117.17463418">
      </trkpt>
      <trkpt lat="50.33600222" lon="-117.17481802">
      </trkpt>
      <trkpt lat="50.33592199" lon="-117.17504361">
      </trkpt>
      <trkpt lat="50.33584937" lon="-117.17526329">
      </trkpt>
      <trkpt lat="50.33574245" lon="-117.17552444">
      </trkpt>
      <trkpt lat="50.33565857" lon="-117.17564302">
      </trkpt>
      <trkpt lat="50.33551376" lon="-117.17580297">
      </trkpt>
      <trkpt lat="50.33531579" lon="-117.17589141">
      </trkpt>
      <trkpt lat="50.33517119" lon="-117.1759087">
      </trkpt>
      <trkpt lat="50.33496587" lon="-117.17582472">
      </trkpt>
      <trkpt lat="50.33485562" lon="-117.17577082">
      </trkpt>
      <trkpt lat="50.33473393" lon="-117.1757347">
      </trkpt>
      <trkpt lat="50.33457415" lon="-117.17572818">
      </trkpt>
      <trkpt lat="50.33443714" lon="-117.17575739">
      </trkpt>
      <trkpt lat="50.33429232" lon="-117.17591734">
      </trkpt>
      <trkpt lat="50.3341818" lon="-117.1760477">
      </trkpt>
      <trkpt lat="50.3340483" lon="-117.17627308">
      </trkpt>
      <trkpt lat="50.33392247" lon="-117.17645688">
      </trkpt>
      <trkpt lat="50.3337814" lon="-117.17665845">
      </trkpt>
      <trkpt lat="50.33366325" lon="-117.17678879">
      </trkpt>
      <trkpt lat="50.33352977" lon="-117.17700228">
      </trkpt>
      <trkpt lat="50.33340003" lon="-117.17725737">
      </trkpt>
      <trkpt lat="50.33333128" lon="-117.17743544">
      </trkpt>
      <trkpt lat="50.33327009" lon="-117.17764325">
      </trkpt>
      <trkpt lat="50.33320143" lon="-117.17775593">
      </trkpt>
      <trkpt lat="50.33311382" lon="-117.17782099">
      </trkpt>
      <trkpt lat="50.33299207" lon="-117.17782647">
      </trkpt>
      <trkpt lat="50.33287033" lon="-117.17782602">
      </trkpt>
      <trkpt lat="50.33272574" lon="-117.17783737">
      </trkpt>
      <trkpt lat="50.33253114" lon="-117.17821109">
      </trkpt>
      <trkpt lat="50.33240903" lon="-117.17844245">
      </trkpt>
      <trkpt lat="50.33232886" lon="-117.17862642">
      </trkpt>
      <trkpt lat="50.3322334" lon="-117.17885192">
      </trkpt>
      <trkpt lat="50.33214565" lon="-117.17900612">
      </trkpt>
      <trkpt lat="50.33201232" lon="-117.17911855">
      </trkpt>
      <trkpt lat="50.33192101" lon="-117.17911821">
      </trkpt>
      <trkpt lat="50.33175357" lon="-117.17914731">
      </trkpt>
      <trkpt lat="50.33163555" lon="-117.17920035">
      </trkpt>
      <trkpt lat="50.33150987" lon="-117.17928309">
      </trkpt>
      <trkpt lat="50.33138795" lon="-117.17939556">
      </trkpt>
      <trkpt lat="50.33125842" lon="-117.179508">
      </trkpt>
      <trkpt lat="50.33116693" lon="-117.17962654">
      </trkpt>
      <trkpt lat="50.3311021" lon="-117.17972733">
      </trkpt>
      <trkpt lat="50.3310068" lon="-117.17984584">
      </trkpt>
      <trkpt lat="50.33093431" lon="-117.17997633">
      </trkpt>
      <trkpt lat="50.33083132" lon="-117.1801483">
      </trkpt>
      <trkpt lat="50.33073981" lon="-117.18028466">
      </trkpt>
      <trkpt lat="50.33062924" lon="-117.18043284">
      </trkpt>
      <trkpt lat="50.33053775" lon="-117.18055135">
      </trkpt>
      <trkpt lat="50.33039296" lon="-117.18068751">
      </trkpt>
      <trkpt lat="50.33027864" lon="-117.1808119">
      </trkpt>
      <trkpt lat="50.33011861" lon="-117.18095987">
      </trkpt>
      <trkpt lat="50.3300005" lon="-117.18107235">
      </trkpt>
      <trkpt lat="50.32985575" lon="-117.18118472">
      </trkpt>
      <trkpt lat="50.32969569" lon="-117.18135647">
      </trkpt>
      <trkpt lat="50.32955079" lon="-117.18156395">
      </trkpt>
      <trkpt lat="50.32935634" lon="-117.1818366">
      </trkpt>
      <trkpt lat="50.32912004" lon="-117.18209721">
      </trkpt>
      <trkpt lat="50.32897523" lon="-117.18225712">
      </trkpt>
      <trkpt lat="50.32884946" lon="-117.18239334">
      </trkpt>
      <trkpt lat="50.32876165" lon="-117.18258914">
      </trkpt>
      <trkpt lat="50.3287157" lon="-117.18277321">
      </trkpt>
      <trkpt lat="50.32862016" lon="-117.18304624">
      </trkpt>
      <trkpt lat="50.32851712" lon="-117.18324791">
      </trkpt>
      <trkpt lat="50.32845217" lon="-117.18342001">
      </trkpt>
      <trkpt lat="50.32841757" lon="-117.18364574">
      </trkpt>
      <trkpt lat="50.3284172" lon="-117.18388346">
      </trkpt>
      <trkpt lat="50.32842067" lon="-117.18409743">
      </trkpt>
      <trkpt lat="50.3284052" lon="-117.18425189">
      </trkpt>
      <trkpt lat="50.3283404" lon="-117.18433486">
      </trkpt>
      <trkpt lat="50.32826413" lon="-117.18444154">
      </trkpt>
      <trkpt lat="50.32817259" lon="-117.18458977">
      </trkpt>
      <trkpt lat="50.32808113" lon="-117.18468451">
      </trkpt>
      <trkpt lat="50.32792497" lon="-117.18479088">
      </trkpt>
      <trkpt lat="50.32783352" lon="-117.18487967">
      </trkpt>
      <trkpt lat="50.32773821" lon="-117.18500411">
      </trkpt>
      <trkpt lat="50.32772267" lon="-117.18520612">
      </trkpt>
      <trkpt lat="50.32772995" lon="-117.18541415">
      </trkpt>
      <trkpt lat="50.32774861" lon="-117.18564008">
      </trkpt>
      <trkpt lat="50.32772931" lon="-117.18581236">
      </trkpt>
      <trkpt lat="50.32766058" lon="-117.18597256">
      </trkpt>
      <trkpt lat="50.32760318" lon="-117.18618035">
      </trkpt>
      <trkpt lat="50.32754959" lon="-117.18637626">
      </trkpt>
      <trkpt lat="50.32749986" lon="-117.18654841">
      </trkpt>
      <trkpt lat="50.32742359" lon="-117.18666104">
      </trkpt>
      <trkpt lat="50.3273359" lon="-117.18677361">
      </trkpt>
      <trkpt lat="50.32723674" lon="-117.18692775">
      </trkpt>
      <trkpt lat="50.32714906" lon="-117.18703438">
      </trkpt>
      <trkpt lat="50.32707269" lon="-117.18721237">
      </trkpt>
      <trkpt lat="50.32703055" lon="-117.18739051">
      </trkpt>
      <trkpt lat="50.32696183" lon="-117.18753881">
      </trkpt>
      <trkpt lat="50.32689697" lon="-117.18764553">
      </trkpt>
      <trkpt lat="50.32679021" lon="-117.1877937">
      </trkpt>
      <trkpt lat="50.32671022" lon="-117.18785281">
      </trkpt>
      <trkpt lat="50.32655393" lon="-117.18804237">
      </trkpt>
      <trkpt lat="50.32643192" lon="-117.18820828">
      </trkpt>
      <trkpt lat="50.32637842" lon="-117.18835071">
      </trkpt>
      <trkpt lat="50.32629437" lon="-117.18857028">
      </trkpt>
      <trkpt lat="50.32622544" lon="-117.18884338">
      </trkpt>
      <trkpt lat="50.32616418" lon="-117.18908086">
      </trkpt>
      <trkpt lat="50.32608022" lon="-117.18924099">
      </trkpt>
      <trkpt lat="50.32598487" lon="-117.18938918">
      </trkpt>
      <trkpt lat="50.32585526" lon="-117.18954318">
      </trkpt>
      <trkpt lat="50.32567996" lon="-117.18972078">
      </trkpt>
      <trkpt lat="50.32554273" lon="-117.18988663">
      </trkpt>
      <trkpt lat="50.32538262" lon="-117.19008211">
      </trkpt>
      <trkpt lat="50.32524924" lon="-117.19021232">
      </trkpt>
      <trkpt lat="50.32511585" lon="-117.19035443">
      </trkpt>
      <trkpt lat="50.32500531" lon="-117.19048473">
      </trkpt>
      <trkpt lat="50.32482242" lon="-117.1906504">
      </trkpt>
      <trkpt lat="50.32473481" lon="-117.19071541">
      </trkpt>
      <trkpt lat="50.32459379" lon="-117.19086936">
      </trkpt>
      <trkpt lat="50.32442994" lon="-117.19101728">
      </trkpt>
      <trkpt lat="50.32433462" lon="-117.19114764">
      </trkpt>
      <trkpt lat="50.32424682" lon="-117.19132556">
      </trkpt>
      <trkpt lat="50.32418179" lon="-117.19153925">
      </trkpt>
      <trkpt lat="50.32415085" lon="-117.19184815">
      </trkpt>
      <trkpt lat="50.32413513" lon="-117.19215117">
      </trkpt>
      <trkpt lat="50.32408156" lon="-117.19232923">
      </trkpt>
      <trkpt lat="50.3240053" lon="-117.19243589">
      </trkpt>
      <trkpt lat="50.32391385" lon="-117.19251872">
      </trkpt>
      <trkpt lat="50.32379954" lon="-117.19262523">
      </trkpt>
      <trkpt lat="50.32367002" lon="-117.19272574">
      </trkpt>
      <trkpt lat="50.32354437" lon="-117.19278466">
      </trkpt>
      <trkpt lat="50.32330828" lon="-117.19291444">
      </trkpt>
      <trkpt lat="50.32319778" lon="-117.19300907">
      </trkpt>
      <trkpt lat="50.32305301" lon="-117.19313328">
      </trkpt>
      <trkpt lat="50.32293869" lon="-117.19323979">
      </trkpt>
      <trkpt lat="50.32283576" lon="-117.19336417">
      </trkpt>
      <trkpt lat="50.32267182" lon="-117.19357149">
      </trkpt>
      <trkpt lat="50.32251929" lon="-117.1937848">
      </trkpt>
      <trkpt lat="50.32239344" lon="-117.19396257">
      </trkpt>
      <trkpt lat="50.3223247" lon="-117.19411679">
      </trkpt>
      <trkpt lat="50.32224441" lon="-117.19435417">
      </trkpt>
      <trkpt lat="50.32215684" lon="-117.19438946">
      </trkpt>
      <trkpt lat="50.32205023" lon="-117.19443657">
      </trkpt>
      <trkpt lat="50.32190562" lon="-117.19445975">
      </trkpt>
      <trkpt lat="50.32174953" lon="-117.19452449">
      </trkpt>
      <trkpt lat="50.32164296" lon="-117.19454782">
      </trkpt>
      <trkpt lat="50.3214717" lon="-117.19458278">
      </trkpt>
      <trkpt lat="50.3213347" lon="-117.19460004">
      </trkpt>
      <trkpt lat="50.32120152" lon="-117.19461733">
      </trkpt>
      <trkpt lat="50.32100342" lon="-117.19477697">
      </trkpt>
      <trkpt lat="50.32080149" lon="-117.19494846">
      </trkpt>
      <trkpt lat="50.32060345" lon="-117.19507244">
      </trkpt>
      <trkpt lat="50.32036734" lon="-117.19520221">
      </trkpt>
      <trkpt lat="50.32003616" lon="-117.19531375">
      </trkpt>
      <trkpt lat="50.31979254" lon="-117.19539001">
      </trkpt>
      <trkpt lat="50.31946527" lon="-117.19543621">
      </trkpt>
      <trkpt lat="50.31929022" lon="-117.19545926">
      </trkpt>
      <trkpt lat="50.3191686" lon="-117.19538744">
      </trkpt>
      <trkpt lat="50.31908108" lon="-117.1952679">
      </trkpt>
      <trkpt lat="50.31899661" lon="-117.19517945">
      </trkpt>
      <trkpt lat="50.31896855" lon="-117.19509122">
      </trkpt>
      <trkpt lat="50.31892648" lon="-117.19494787">
      </trkpt>
      <trkpt lat="50.31888437" lon="-117.19482653">
      </trkpt>
      <trkpt lat="50.31887743" lon="-117.19476042">
      </trkpt>
      <trkpt lat="50.31884235" lon="-117.19465014">
      </trkpt>
      <trkpt lat="50.31874381" lon="-117.19453961">
      </trkpt>
      <trkpt lat="50.31865232" lon="-117.19442909">
      </trkpt>
      <trkpt lat="50.31855368" lon="-117.19437362">
      </trkpt>
      <trkpt lat="50.31839848" lon="-117.19441705">
      </trkpt>
      <trkpt lat="50.31829971" lon="-117.19443867">
      </trkpt>
      <trkpt lat="50.3181798" lon="-117.1944602">
      </trkpt>
      <trkpt lat="50.31803874" lon="-117.19447064">
      </trkpt>
      <trkpt lat="50.31790474" lon="-117.19448112">
      </trkpt>
      <trkpt lat="50.31773544" lon="-117.19451346">
      </trkpt>
      <trkpt lat="50.31761541" lon="-117.19460108">
      </trkpt>
      <trkpt lat="50.31750947" lon="-117.19469977">
      </trkpt>
      <trkpt lat="50.31737531" lon="-117.19479834">
      </trkpt>
      <trkpt lat="50.31726939" lon="-117.19488602">
      </trkpt>
      <trkpt lat="50.31715641" lon="-117.19497366">
      </trkpt>
      <trkpt lat="50.31702236" lon="-117.19501717">
      </trkpt>
      <trkpt lat="50.31682485" lon="-117.19504941">
      </trkpt>
      <trkpt lat="50.31668372" lon="-117.19510389">
      </trkpt>
      <trkpt lat="50.31654966" lon="-117.19514739">
      </trkpt>
      <trkpt lat="50.31638741" lon="-117.19517978">
      </trkpt>
      <trkpt lat="50.31623927" lon="-117.19521221">
      </trkpt>
      <trkpt lat="50.31607706" lon="-117.19522256">
      </trkpt>
      <trkpt lat="50.31595714" lon="-117.19524409">
      </trkpt>
      <trkpt lat="50.31586539" lon="-117.19528776">
      </trkpt>
      <trkpt lat="50.31573831" lon="-117.19537535">
      </trkpt>
      <trkpt lat="50.31566767" lon="-117.19545216">
      </trkpt>
      <trkpt lat="50.3155195" lon="-117.1954956">
      </trkpt>
      <trkpt lat="50.31542783" lon="-117.19549522">
      </trkpt>
      <trkpt lat="50.31532916" lon="-117.19546178">
      </trkpt>
      <trkpt lat="50.31519528" lon="-117.19539515">
      </trkpt>
      <trkpt lat="50.31505429" lon="-117.19537255">
      </trkpt>
      <trkpt lat="50.31492017" lon="-117.19544909">
      </trkpt>
      <trkpt lat="50.31480714" lon="-117.19556977">
      </trkpt>
      <trkpt lat="50.31472222" lon="-117.19574563">
      </trkpt>
      <trkpt lat="50.31467254" lon="-117.19593265">
      </trkpt>
      <trkpt lat="50.31463708" lon="-117.19605365">
      </trkpt>
      <trkpt lat="50.31461569" lon="-117.19619672">
      </trkpt>
      <trkpt lat="50.31455186" lon="-117.1964057">
      </trkpt>
      <trkpt lat="50.31453043" lon="-117.19657081">
      </trkpt>
      <trkpt lat="50.31453006" lon="-117.19679107">
      </trkpt>
      <trkpt lat="50.31452963" lon="-117.19704436">
      </trkpt>
      <trkpt lat="50.31449407" lon="-117.19722043">
      </trkpt>
      <trkpt lat="50.314381" lon="-117.19736312">
      </trkpt>
      <trkpt lat="50.31423285" lon="-117.19739555">
      </trkpt>
      <trkpt lat="50.31411998" lon="-117.19741711">
      </trkpt>
      <trkpt lat="50.31397868" lon="-117.1975707">
      </trkpt>
      <trkpt lat="50.31387264" lon="-117.19772443">
      </trkpt>
      <trkpt lat="50.31379489" lon="-117.19783424">
      </trkpt>
      <trkpt lat="50.3136254" lon="-117.19797671">
      </trkpt>
      <trkpt lat="50.31343488" lon="-117.198053">
      </trkpt>
      <trkpt lat="50.31318086" lon="-117.19814005">
      </trkpt>
      <trkpt lat="50.31301866" lon="-117.19813937">
      </trkpt>
      <trkpt lat="50.31287761" lon="-117.1981498">
      </trkpt>
      <trkpt lat="50.31263771" lon="-117.19822589">
      </trkpt>
      <trkpt lat="50.3124684" lon="-117.19826924">
      </trkpt>
      <trkpt lat="50.3122566" lon="-117.19841151">
      </trkpt>
      <trkpt lat="50.3121294" lon="-117.19856516">
      </trkpt>
      <trkpt lat="50.31202332" lon="-117.19874091">
      </trkpt>
      <trkpt lat="50.31193127" lon="-117.19896078">
      </trkpt>
      <trkpt lat="50.3118181" lon="-117.19915852">
      </trkpt>
      <trkpt lat="50.31169091" lon="-117.19931217">
      </trkpt>
      <trkpt lat="50.31145107" lon="-117.19935521">
      </trkpt>
      <trkpt lat="50.31126064" lon="-117.19937645">
      </trkpt>
      <trkpt lat="50.31107024" lon="-117.19937564">
      </trkpt>
      <trkpt lat="50.31093646" lon="-117.19925396">
      </trkpt>
      <trkpt lat="50.31083089" lon="-117.19913238">
      </trkpt>
      <trkpt lat="50.31069719" lon="-117.19896665">
      </trkpt>
      <trkpt lat="50.31057742" lon="-117.19890007">
      </trkpt>
      <trkpt lat="50.31040115" lon="-117.19887731">
      </trkpt>
      <trkpt lat="50.31027419" lon="-117.19889881">
      </trkpt>
      <trkpt lat="50.31016833" lon="-117.19894241">
      </trkpt>
      <trkpt lat="50.3101048" lon="-117.19898619">
      </trkpt>
      <trkpt lat="50.3099778" lon="-117.19901871">
      </trkpt>
      <trkpt lat="50.30985085" lon="-117.19902919">
      </trkpt>
      <trkpt lat="50.3097591" lon="-117.19907285">
      </trkpt>
      <trkpt lat="50.30968844" lon="-117.19916065">
      </trkpt>
      <trkpt lat="50.30957539" lon="-117.19928131">
      </trkpt>
      <trkpt lat="50.30947648" lon="-117.199391">
      </trkpt>
      <trkpt lat="50.30939872" lon="-117.19950079">
      </trkpt>
    </trkseg>
  </trk>
</gpx>