<?xml version="1.0" encoding="UTF-8"?>
<gpx xmlns="http://www.topografix.com/GPX/1/1" xmlns:xsi="http://www.w3.org/2001/XMLSchema-instance" xsi:schemaLocation="http://www.topografix.com/GPX/1/1 http://www.topografix.com/GPX/1/1/gpx.xsd" version="1.1" creator="gpx.py -- https://github.com/tkrajina/gpxpy">
  <trk>
    <name>Dinner Rock Trails</name>
    <trkseg>
      <trkpt lat="49.9703434" lon="-124.7508844">
      </trkpt>
      <trkpt lat="49.9704522" lon="-124.7510559">
      </trkpt>
      <trkpt lat="49.9705274" lon="-124.7512321">
      </trkpt>
      <trkpt lat="49.9705721" lon="-124.7514902">
      </trkpt>
      <trkpt lat="49.9706677" lon="-124.7516172">
      </trkpt>
      <trkpt lat="49.9708042" lon="-124.7516783">
      </trkpt>
      <trkpt lat="49.9709722" lon="-124.7517385">
      </trkpt>
      <trkpt lat="49.9711502" lon="-124.751766">
      </trkpt>
      <trkpt lat="49.9713173" lon="-124.7517615">
      </trkpt>
      <trkpt lat="49.9715054" lon="-124.7517563">
      </trkpt>
      <trkpt lat="49.971725" lon="-124.7517665">
      </trkpt>
      <trkpt lat="49.9719221" lon="-124.7516161">
      </trkpt>
      <trkpt lat="49.9721495" lon="-124.7517268">
      </trkpt>
      <trkpt lat="49.9724587" lon="-124.7517183">
      </trkpt>
      <trkpt lat="49.9725454" lon="-124.7509782">
      </trkpt>
      <trkpt lat="49.9726547" lon="-124.7501268">
      </trkpt>
      <trkpt lat="49.9728361" lon="-124.7493472">
      </trkpt>
      <trkpt lat="49.9728999" lon="-124.7486815">
      </trkpt>
      <trkpt lat="49.9729867" lon="-124.7479414">
      </trkpt>
      <trkpt lat="49.9729324" lon="-124.7473526">
      </trkpt>
      <trkpt lat="49.9730413" lon="-124.7466142">
      </trkpt>
      <trkpt lat="49.9734567" lon="-124.7454964">
      </trkpt>
      <trkpt lat="49.9734656" lon="-124.7454736">
      </trkpt>
    </trkseg>
    <trkseg>
      <trkpt lat="49.9703434" lon="-124.7508844">
      </trkpt>
      <trkpt lat="49.9700501" lon="-124.7512309">
      </trkpt>
      <trkpt lat="49.9695544" lon="-124.7515764">
      </trkpt>
      <trkpt lat="49.9691526" lon="-124.7518087">
      </trkpt>
      <trkpt lat="49.9688451" lon="-124.7519647">
      </trkpt>
      <trkpt lat="49.9685864" lon="-124.7522299">
      </trkpt>
      <trkpt lat="49.9683507" lon="-124.7524208">
      </trkpt>
      <trkpt lat="49.9683294" lon="-124.7526427">
      </trkpt>
      <trkpt lat="49.9684538" lon="-124.7531187">
      </trkpt>
      <trkpt lat="49.9685765" lon="-124.7534474">
      </trkpt>
      <trkpt lat="49.9686762" lon="-124.7538504">
      </trkpt>
      <trkpt lat="49.9687021" lon="-124.7540341">
      </trkpt>
      <trkpt lat="49.9682724" lon="-124.7547821">
      </trkpt>
      <trkpt lat="49.9675375" lon="-124.7541396">
      </trkpt>
      <trkpt lat="49.9670104" lon="-124.7538221">
      </trkpt>
      <trkpt lat="49.9661734" lon="-124.7534392">
      </trkpt>
      <trkpt lat="49.9652382" lon="-124.7528009">
      </trkpt>
      <trkpt lat="49.9650396" lon="-124.7520687">
      </trkpt>
      <trkpt lat="49.9642421" lon="-124.750984">
      </trkpt>
      <trkpt lat="49.9637792" lon="-124.7500378">
      </trkpt>
      <trkpt lat="49.9635305" lon="-124.7490858">
      </trkpt>
      <trkpt lat="49.9634031" lon="-124.7483516">
      </trkpt>
      <trkpt lat="49.9630885" lon="-124.7478808">
      </trkpt>
      <trkpt lat="49.963148" lon="-124.7468466">
      </trkpt>
      <trkpt lat="49.9632127" lon="-124.7462547">
      </trkpt>
      <trkpt lat="49.9635074" lon="-124.745785">
      </trkpt>
    </trkseg>
    <trkseg>
      <trkpt lat="49.9635074" lon="-124.745785">
      </trkpt>
      <trkpt lat="49.9638719" lon="-124.7456465">
      </trkpt>
      <trkpt lat="49.9643947" lon="-124.7455953">
      </trkpt>
      <trkpt lat="49.9648746" lon="-124.7456826">
      </trkpt>
      <trkpt lat="49.9650873" lon="-124.7454936">
      </trkpt>
    </trkseg>
    <trkseg>
      <trkpt lat="49.9635074" lon="-124.745785">
      </trkpt>
      <trkpt lat="49.9630636" lon="-124.7457056">
      </trkpt>
      <trkpt lat="49.962492" lon="-124.7456155">
      </trkpt>
    </trkseg>
    <trkseg>
      <trkpt lat="49.9589097" lon="-124.7200186">
      </trkpt>
      <trkpt lat="49.958955" lon="-124.7203885">
      </trkpt>
      <trkpt lat="49.9590812" lon="-124.7210118">
      </trkpt>
      <trkpt lat="49.9593471" lon="-124.7213732">
      </trkpt>
      <trkpt lat="49.9596211" lon="-124.7218461">
      </trkpt>
      <trkpt lat="49.9596614" lon="-124.7218748">
      </trkpt>
      <trkpt lat="49.9598294" lon="-124.7219942">
      </trkpt>
      <trkpt lat="49.9601704" lon="-124.7226039">
      </trkpt>
      <trkpt lat="49.9601955" lon="-124.7226833">
      </trkpt>
      <trkpt lat="49.9603434" lon="-124.7231523">
      </trkpt>
      <trkpt lat="49.9605232" lon="-124.7238393">
      </trkpt>
      <trkpt lat="49.9607104" lon="-124.7246462">
      </trkpt>
      <trkpt lat="49.9606173" lon="-124.7247222">
      </trkpt>
      <trkpt lat="49.9603311" lon="-124.7243764">
      </trkpt>
      <trkpt lat="49.960288" lon="-124.724497">
      </trkpt>
      <trkpt lat="49.9602913" lon="-124.7248132">
      </trkpt>
      <trkpt lat="49.9603466" lon="-124.7254755">
      </trkpt>
      <trkpt lat="49.9604604" lon="-124.7263024">
      </trkpt>
      <trkpt lat="49.9604949" lon="-124.7269663">
      </trkpt>
      <trkpt lat="49.9606044" lon="-124.7273334">
      </trkpt>
      <trkpt lat="49.9604053" lon="-124.7279742">
      </trkpt>
      <trkpt lat="49.9603831" lon="-124.7281976">
      </trkpt>
      <trkpt lat="49.9603932" lon="-124.7287462">
      </trkpt>
      <trkpt lat="49.9603761" lon="-124.7297454">
      </trkpt>
      <trkpt lat="49.9603833" lon="-124.7298775">
      </trkpt>
      <trkpt lat="49.960397" lon="-124.7299861">
      </trkpt>
      <trkpt lat="49.9605231" lon="-124.730711">
      </trkpt>
      <trkpt lat="49.9606164" lon="-124.7310528">
      </trkpt>
    </trkseg>
    <trkseg>
      <trkpt lat="49.9643117" lon="-124.7369099">
      </trkpt>
      <trkpt lat="49.9638574" lon="-124.7360949">
      </trkpt>
      <trkpt lat="49.9634973" lon="-124.7358099">
      </trkpt>
      <trkpt lat="49.9629256" lon="-124.7357519">
      </trkpt>
      <trkpt lat="49.9623803" lon="-124.7359145">
      </trkpt>
      <trkpt lat="49.9619768" lon="-124.7359995">
      </trkpt>
      <trkpt lat="49.9614452" lon="-124.7360631">
      </trkpt>
      <trkpt lat="49.9610988" lon="-124.7362081">
      </trkpt>
      <trkpt lat="49.9605726" lon="-124.7359646">
      </trkpt>
      <trkpt lat="49.9603072" lon="-124.73564">
      </trkpt>
      <trkpt lat="49.9601143" lon="-124.7354241">
      </trkpt>
      <trkpt lat="49.9597482" lon="-124.7346229">
      </trkpt>
      <trkpt lat="49.9596722" lon="-124.7342194">
      </trkpt>
      <trkpt lat="49.9593162" lon="-124.7333684">
      </trkpt>
      <trkpt lat="49.9589342" lon="-124.7323292">
      </trkpt>
      <trkpt lat="49.9588115" lon="-124.7316571">
      </trkpt>
      <trkpt lat="49.958889" lon="-124.7311433">
      </trkpt>
      <trkpt lat="49.9590756" lon="-124.7309421">
      </trkpt>
      <trkpt lat="49.9593009" lon="-124.730573">
      </trkpt>
      <trkpt lat="49.9594766" lon="-124.7305794">
      </trkpt>
      <trkpt lat="49.9597144" lon="-124.7308026">
      </trkpt>
      <trkpt lat="49.9599211" lon="-124.7311342">
      </trkpt>
      <trkpt lat="49.9599806" lon="-124.7313374">
      </trkpt>
      <trkpt lat="49.9600513" lon="-124.7314262">
      </trkpt>
      <trkpt lat="49.9603564" lon="-124.7315264">
      </trkpt>
      <trkpt lat="49.9606164" lon="-124.7310528">
      </trkpt>
    </trkseg>
    <trkseg>
      <trkpt lat="49.9606164" lon="-124.7310528">
      </trkpt>
      <trkpt lat="49.9609936" lon="-124.7320365">
      </trkpt>
      <trkpt lat="49.9610497" lon="-124.7327725">
      </trkpt>
      <trkpt lat="49.9610816" lon="-124.7334723">
      </trkpt>
      <trkpt lat="49.961158" lon="-124.7339127">
      </trkpt>
      <trkpt lat="49.9615921" lon="-124.734417">
      </trkpt>
      <trkpt lat="49.9619748" lon="-124.7345907">
      </trkpt>
      <trkpt lat="49.9625096" lon="-124.734788">
      </trkpt>
      <trkpt lat="49.9630281" lon="-124.7351516">
      </trkpt>
      <trkpt lat="49.9635998" lon="-124.7352096">
      </trkpt>
      <trkpt lat="49.9639116" lon="-124.7354222">
      </trkpt>
      <trkpt lat="49.9640105" lon="-124.7357514">
      </trkpt>
      <trkpt lat="49.9641107" lon="-124.7361912">
      </trkpt>
      <trkpt lat="49.9643117" lon="-124.7369099">
      </trkpt>
      <trkpt lat="49.9643148" lon="-124.7369176">
      </trkpt>
    </trkseg>
    <trkseg>
      <trkpt lat="49.9643148" lon="-124.7369176">
      </trkpt>
      <trkpt lat="49.9645606" lon="-124.7375298">
      </trkpt>
      <trkpt lat="49.9643201" lon="-124.737845">
      </trkpt>
      <trkpt lat="49.9641558" lon="-124.738034">
      </trkpt>
      <trkpt lat="49.9639226" lon="-124.7384461">
      </trkpt>
      <trkpt lat="49.9639272" lon="-124.7388516">
      </trkpt>
      <trkpt lat="49.9641192" lon="-124.7389939">
      </trkpt>
      <trkpt lat="49.9644585" lon="-124.7395377">
      </trkpt>
      <trkpt lat="49.9645609" lon="-124.7401619">
      </trkpt>
      <trkpt lat="49.9644925" lon="-124.7404219">
      </trkpt>
      <trkpt lat="49.9644016" lon="-124.7407932">
      </trkpt>
      <trkpt lat="49.9645477" lon="-124.7410842">
      </trkpt>
      <trkpt lat="49.9645281" lon="-124.7414536">
      </trkpt>
      <trkpt lat="49.9645319" lon="-124.7417854">
      </trkpt>
      <trkpt lat="49.9647243" lon="-124.7419645">
      </trkpt>
      <trkpt lat="49.9649821" lon="-124.7416255">
      </trkpt>
      <trkpt lat="49.9650762" lon="-124.7415045">
      </trkpt>
    </trkseg>
  </trk>
</gpx>