<?xml version="1.0" encoding="UTF-8"?>
<gpx xmlns="http://www.topografix.com/GPX/1/1" xmlns:xsi="http://www.w3.org/2001/XMLSchema-instance" xsi:schemaLocation="http://www.topografix.com/GPX/1/1 http://www.topografix.com/GPX/1/1/gpx.xsd" version="1.1" creator="gpx.py -- https://github.com/tkrajina/gpxpy">
  <trk>
    <name>Okeover Trails</name>
    <trkseg>
      <trkpt lat="49.9702242" lon="-124.6715507">
      </trkpt>
      <trkpt lat="49.9701854" lon="-124.6715971">
      </trkpt>
      <trkpt lat="49.9701318" lon="-124.6717153">
      </trkpt>
      <trkpt lat="49.9700931" lon="-124.6718646">
      </trkpt>
      <trkpt lat="49.9700871" lon="-124.6720892">
      </trkpt>
      <trkpt lat="49.9700842" lon="-124.6723227">
      </trkpt>
      <trkpt lat="49.9700777" lon="-124.672507">
      </trkpt>
      <trkpt lat="49.9700118" lon="-124.6725672">
      </trkpt>
      <trkpt lat="49.9699221" lon="-124.6725698">
      </trkpt>
      <trkpt lat="49.96987" lon="-124.6725669">
      </trkpt>
      <trkpt lat="49.9698037" lon="-124.6725912">
      </trkpt>
      <trkpt lat="49.9697321" lon="-124.6726561">
      </trkpt>
      <trkpt lat="49.9696545" lon="-124.6727078">
      </trkpt>
      <trkpt lat="49.9695974" lon="-124.6727723">
      </trkpt>
    </trkseg>
    <trkseg>
      <trkpt lat="49.9702242" lon="-124.6715507">
      </trkpt>
      <trkpt lat="49.9702035" lon="-124.6715435">
      </trkpt>
      <trkpt lat="49.9696975" lon="-124.671022">
      </trkpt>
      <trkpt lat="49.9692463" lon="-124.6705639">
      </trkpt>
      <trkpt lat="49.9690523" lon="-124.6703925">
      </trkpt>
      <trkpt lat="49.9687674" lon="-124.6701407">
      </trkpt>
      <trkpt lat="49.968691" lon="-124.6700271">
      </trkpt>
      <trkpt lat="49.9685087" lon="-124.6699105">
      </trkpt>
      <trkpt lat="49.9680907" lon="-124.6698075">
      </trkpt>
      <trkpt lat="49.9678166" lon="-124.6698403">
      </trkpt>
      <trkpt lat="49.9675109" lon="-124.6701474">
      </trkpt>
    </trkseg>
    <trkseg>
      <trkpt lat="49.9731184" lon="-124.6684905">
      </trkpt>
      <trkpt lat="49.9730181" lon="-124.6685698">
      </trkpt>
      <trkpt lat="49.9729056" lon="-124.668609">
      </trkpt>
      <trkpt lat="49.9727764" lon="-124.6686935">
      </trkpt>
      <trkpt lat="49.9726845" lon="-124.6687591">
      </trkpt>
      <trkpt lat="49.9724806" lon="-124.6688952">
      </trkpt>
      <trkpt lat="49.9723369" lon="-124.6689847">
      </trkpt>
      <trkpt lat="49.9722277" lon="-124.6690552">
      </trkpt>
      <trkpt lat="49.9720868" lon="-124.6691311">
      </trkpt>
      <trkpt lat="49.9719112" lon="-124.6692215">
      </trkpt>
      <trkpt lat="49.9717414" lon="-124.6693028">
      </trkpt>
      <trkpt lat="49.971592" lon="-124.6694014">
      </trkpt>
      <trkpt lat="49.9715316" lon="-124.6694301">
      </trkpt>
      <trkpt lat="49.9714427" lon="-124.6695001">
      </trkpt>
      <trkpt lat="49.9713711" lon="-124.669565">
      </trkpt>
      <trkpt lat="49.9713137" lon="-124.6696071">
      </trkpt>
      <trkpt lat="49.9712416" lon="-124.6696316">
      </trkpt>
      <trkpt lat="49.9711576" lon="-124.669634">
      </trkpt>
      <trkpt lat="49.9710503" lon="-124.6696147">
      </trkpt>
      <trkpt lat="49.9709807" lon="-124.6696078">
      </trkpt>
      <trkpt lat="49.9709171" lon="-124.6696186">
      </trkpt>
      <trkpt lat="49.9708512" lon="-124.6696699">
      </trkpt>
      <trkpt lat="49.970814" lon="-124.6697114">
      </trkpt>
      <trkpt lat="49.9707948" lon="-124.6697972">
      </trkpt>
      <trkpt lat="49.9707581" lon="-124.6698746">
      </trkpt>
      <trkpt lat="49.9706774" lon="-124.6699039">
      </trkpt>
      <trkpt lat="49.9705706" lon="-124.6699339">
      </trkpt>
      <trkpt lat="49.9705021" lon="-124.6700123">
      </trkpt>
      <trkpt lat="49.970484" lon="-124.6701968">
      </trkpt>
      <trkpt lat="49.9704572" lon="-124.6703682">
      </trkpt>
      <trkpt lat="49.9704457" lon="-124.6706199">
      </trkpt>
      <trkpt lat="49.9704247" lon="-124.6707911">
      </trkpt>
      <trkpt lat="49.970421" lon="-124.6709708">
      </trkpt>
      <trkpt lat="49.9704077" lon="-124.6710654">
      </trkpt>
      <trkpt lat="49.970375" lon="-124.6712324">
      </trkpt>
      <trkpt lat="49.9703446" lon="-124.6713545">
      </trkpt>
      <trkpt lat="49.9702739" lon="-124.6714912">
      </trkpt>
      <trkpt lat="49.9702242" lon="-124.6715507">
      </trkpt>
    </trkseg>
    <trkseg>
      <trkpt lat="49.9794258" lon="-124.6691915">
      </trkpt>
      <trkpt lat="49.9794029" lon="-124.6690839">
      </trkpt>
      <trkpt lat="49.9793406" lon="-124.6689601">
      </trkpt>
      <trkpt lat="49.9792464" lon="-124.6688326">
      </trkpt>
      <trkpt lat="49.9791616" lon="-124.6687632">
      </trkpt>
      <trkpt lat="49.9791201" lon="-124.6686881">
      </trkpt>
      <trkpt lat="49.9790989" lon="-124.6686124">
      </trkpt>
      <trkpt lat="49.9790885" lon="-124.6684735">
      </trkpt>
      <trkpt lat="49.9790848" lon="-124.6684018">
      </trkpt>
      <trkpt lat="49.9790602" lon="-124.6682858">
      </trkpt>
      <trkpt lat="49.9790275" lon="-124.6682149">
      </trkpt>
      <trkpt lat="49.9789916" lon="-124.6681217">
      </trkpt>
      <trkpt lat="49.9789697" lon="-124.6679831">
      </trkpt>
      <trkpt lat="49.9789624" lon="-124.6678621">
      </trkpt>
      <trkpt lat="49.9789146" lon="-124.6677423">
      </trkpt>
      <trkpt lat="49.9789016" lon="-124.6676215">
      </trkpt>
      <trkpt lat="49.9789144" lon="-124.6674819">
      </trkpt>
      <trkpt lat="49.978855" lon="-124.6673624">
      </trkpt>
      <trkpt lat="49.9787696" lon="-124.6672437">
      </trkpt>
      <trkpt lat="49.9786491" lon="-124.6670945">
      </trkpt>
      <trkpt lat="49.9786044" lon="-124.6669881">
      </trkpt>
      <trkpt lat="49.9785594" lon="-124.6668637">
      </trkpt>
      <trkpt lat="49.9784691" lon="-124.666579">
      </trkpt>
      <trkpt lat="49.9784372" lon="-124.666333">
      </trkpt>
      <trkpt lat="49.9783962" lon="-124.6660603">
      </trkpt>
      <trkpt lat="49.9783578" lon="-124.6657607">
      </trkpt>
      <trkpt lat="49.9783226" lon="-124.6654878">
      </trkpt>
      <trkpt lat="49.9782855" lon="-124.6650534">
      </trkpt>
      <trkpt lat="49.9782164" lon="-124.6648489">
      </trkpt>
      <trkpt lat="49.9781531" lon="-124.6646397">
      </trkpt>
      <trkpt lat="49.9781514" lon="-124.6645006">
      </trkpt>
      <trkpt lat="49.9781505" lon="-124.6641864">
      </trkpt>
      <trkpt lat="49.9781476" lon="-124.6639485">
      </trkpt>
      <trkpt lat="49.9781656" lon="-124.6637639">
      </trkpt>
      <trkpt lat="49.9781602" lon="-124.663562">
      </trkpt>
      <trkpt lat="49.9781677" lon="-124.6634585">
      </trkpt>
      <trkpt lat="49.978143" lon="-124.663338">
      </trkpt>
      <trkpt lat="49.9780838" lon="-124.6632275">
      </trkpt>
      <trkpt lat="49.9780128" lon="-124.6631039">
      </trkpt>
      <trkpt lat="49.9779624" lon="-124.6630066">
      </trkpt>
      <trkpt lat="49.977918" lon="-124.6629271">
      </trkpt>
      <trkpt lat="49.9778394" lon="-124.6628935">
      </trkpt>
      <trkpt lat="49.9777713" lon="-124.6627742">
      </trkpt>
      <trkpt lat="49.9777702" lon="-124.6626845">
      </trkpt>
      <trkpt lat="49.977803" lon="-124.6625174">
      </trkpt>
      <trkpt lat="49.9778215" lon="-124.6623777">
      </trkpt>
      <trkpt lat="49.9777859" lon="-124.6623069">
      </trkpt>
      <trkpt lat="49.9776811" lon="-124.6622606">
      </trkpt>
      <trkpt lat="49.9776201" lon="-124.6622444">
      </trkpt>
      <trkpt lat="49.9775246" lon="-124.6622472">
      </trkpt>
      <trkpt lat="49.9773977" lon="-124.6622913">
      </trkpt>
      <trkpt lat="49.9773376" lon="-124.662347">
      </trkpt>
      <trkpt lat="49.9772722" lon="-124.6624432">
      </trkpt>
      <trkpt lat="49.9772336" lon="-124.6626014">
      </trkpt>
      <trkpt lat="49.9772392" lon="-124.6628213">
      </trkpt>
      <trkpt lat="49.9772611" lon="-124.6629553">
      </trkpt>
      <trkpt lat="49.9772658" lon="-124.6631078">
      </trkpt>
      <trkpt lat="49.9772405" lon="-124.6631714">
      </trkpt>
      <trkpt lat="49.9771869" lon="-124.6632852">
      </trkpt>
      <trkpt lat="49.9771072" lon="-124.6633953">
      </trkpt>
      <trkpt lat="49.9769989" lon="-124.6635377">
      </trkpt>
      <trkpt lat="49.9768824" lon="-124.6637206">
      </trkpt>
      <trkpt lat="49.9767857" lon="-124.6638671">
      </trkpt>
      <trkpt lat="49.9766744" lon="-124.6639961">
      </trkpt>
      <trkpt lat="49.9765863" lon="-124.6641289">
      </trkpt>
      <trkpt lat="49.9765066" lon="-124.6642434">
      </trkpt>
      <trkpt lat="49.9764432" lon="-124.6642677">
      </trkpt>
      <trkpt lat="49.9763774" lon="-124.6643325">
      </trkpt>
      <trkpt lat="49.9762941" lon="-124.6643933">
      </trkpt>
      <trkpt lat="49.9762395" lon="-124.6644219">
      </trkpt>
      <trkpt lat="49.9761637" lon="-124.6643837">
      </trkpt>
      <trkpt lat="49.976114" lon="-124.6643447">
      </trkpt>
      <trkpt lat="49.9760671" lon="-124.6642922">
      </trkpt>
      <trkpt lat="49.9759939" lon="-124.6642315">
      </trkpt>
      <trkpt lat="49.9759142" lon="-124.6641036">
      </trkpt>
      <trkpt lat="49.9758495" lon="-124.6640202">
      </trkpt>
      <trkpt lat="49.9757728" lon="-124.6639058">
      </trkpt>
      <trkpt lat="49.9757168" lon="-124.6638221">
      </trkpt>
      <trkpt lat="49.9756519" lon="-124.6637207">
      </trkpt>
      <trkpt lat="49.9755672" lon="-124.6636649">
      </trkpt>
      <trkpt lat="49.9755065" lon="-124.6636756">
      </trkpt>
      <trkpt lat="49.9754404" lon="-124.6637135">
      </trkpt>
      <trkpt lat="49.975383" lon="-124.6637511">
      </trkpt>
      <trkpt lat="49.9753104" lon="-124.6637397">
      </trkpt>
      <trkpt lat="49.9752654" lon="-124.6636064">
      </trkpt>
      <trkpt lat="49.9752778" lon="-124.6634354">
      </trkpt>
      <trkpt lat="49.9753469" lon="-124.6631685">
      </trkpt>
      <trkpt lat="49.9754041" lon="-124.662875">
      </trkpt>
      <trkpt lat="49.975468" lon="-124.6626487">
      </trkpt>
      <trkpt lat="49.9755261" lon="-124.662427">
      </trkpt>
      <trkpt lat="49.9755639" lon="-124.6622014">
      </trkpt>
      <trkpt lat="49.9755489" lon="-124.661928">
      </trkpt>
      <trkpt lat="49.9755437" lon="-124.6617351">
      </trkpt>
      <trkpt lat="49.9755156" lon="-124.6615653">
      </trkpt>
      <trkpt lat="49.975444" lon="-124.6613968">
      </trkpt>
      <trkpt lat="49.9753816" lon="-124.661264">
      </trkpt>
      <trkpt lat="49.975326" lon="-124.6612118">
      </trkpt>
      <trkpt lat="49.9752437" lon="-124.6611109">
      </trkpt>
      <trkpt lat="49.9751791" lon="-124.661041">
      </trkpt>
      <trkpt lat="49.9750856" lon="-124.6609719">
      </trkpt>
      <trkpt lat="49.9750126" lon="-124.6609246">
      </trkpt>
      <trkpt lat="49.9749199" lon="-124.6609139">
      </trkpt>
      <trkpt lat="49.9747896" lon="-124.6609132">
      </trkpt>
      <trkpt lat="49.9746712" lon="-124.6609392">
      </trkpt>
      <trkpt lat="49.9745507" lon="-124.661037">
      </trkpt>
      <trkpt lat="49.9744766" lon="-124.6611334">
      </trkpt>
      <trkpt lat="49.974414" lon="-124.6612205">
      </trkpt>
      <trkpt lat="49.9743429" lon="-124.6613259">
      </trkpt>
      <trkpt lat="49.9742781" lon="-124.6614714">
      </trkpt>
      <trkpt lat="49.9742892" lon="-124.6616686">
      </trkpt>
      <trkpt lat="49.9743461" lon="-124.6618241">
      </trkpt>
      <trkpt lat="49.9743819" lon="-124.6619128">
      </trkpt>
      <trkpt lat="49.9743779" lon="-124.6620611">
      </trkpt>
      <trkpt lat="49.9743617" lon="-124.6621558">
      </trkpt>
      <trkpt lat="49.974348" lon="-124.6622191">
      </trkpt>
      <trkpt lat="49.9743319" lon="-124.6623228">
      </trkpt>
      <trkpt lat="49.9742811" lon="-124.6624276">
      </trkpt>
      <trkpt lat="49.9742359" lon="-124.6625232">
      </trkpt>
      <trkpt lat="49.9742374" lon="-124.6626488">
      </trkpt>
      <trkpt lat="49.974295" lon="-124.6628626">
      </trkpt>
      <trkpt lat="49.9743363" lon="-124.6631622">
      </trkpt>
      <trkpt lat="49.9743706" lon="-124.6633587">
      </trkpt>
      <trkpt lat="49.9744043" lon="-124.6635104">
      </trkpt>
      <trkpt lat="49.9744091" lon="-124.6636673">
      </trkpt>
      <trkpt lat="49.9743967" lon="-124.6638428">
      </trkpt>
      <trkpt lat="49.974346" lon="-124.663952">
      </trkpt>
      <trkpt lat="49.9742664" lon="-124.66408">
      </trkpt>
      <trkpt lat="49.9742043" lon="-124.6642076">
      </trkpt>
      <trkpt lat="49.9741223" lon="-124.6643671">
      </trkpt>
      <trkpt lat="49.9740519" lon="-124.6645308">
      </trkpt>
      <trkpt lat="49.9740137" lon="-124.6647249">
      </trkpt>
      <trkpt lat="49.9739903" lon="-124.6649456">
      </trkpt>
      <trkpt lat="49.9739732" lon="-124.6652064">
      </trkpt>
      <trkpt lat="49.9739496" lon="-124.6654091">
      </trkpt>
      <trkpt lat="49.9739117" lon="-124.6656257">
      </trkpt>
      <trkpt lat="49.9738903" lon="-124.66577">
      </trkpt>
      <trkpt lat="49.9738864" lon="-124.6659228">
      </trkpt>
      <trkpt lat="49.9739172" lon="-124.6660745">
      </trkpt>
      <trkpt lat="49.9739393" lon="-124.666222">
      </trkpt>
      <trkpt lat="49.9739171" lon="-124.6663079">
      </trkpt>
      <trkpt lat="49.9738667" lon="-124.6664441">
      </trkpt>
      <trkpt lat="49.9738278" lon="-124.6665844">
      </trkpt>
      <trkpt lat="49.9737808" lon="-124.6667608">
      </trkpt>
      <trkpt lat="49.9737478" lon="-124.6669099">
      </trkpt>
      <trkpt lat="49.973726" lon="-124.6670228">
      </trkpt>
      <trkpt lat="49.9736139" lon="-124.6673224">
      </trkpt>
      <trkpt lat="49.9735377" lon="-124.6674907">
      </trkpt>
      <trkpt lat="49.9734594" lon="-124.667713">
      </trkpt>
      <trkpt lat="49.9733554" lon="-124.6679764">
      </trkpt>
      <trkpt lat="49.9732765" lon="-124.6681537">
      </trkpt>
      <trkpt lat="49.9732119" lon="-124.6683217">
      </trkpt>
      <trkpt lat="49.9731523" lon="-124.6684132">
      </trkpt>
      <trkpt lat="49.9731184" lon="-124.6684905">
      </trkpt>
    </trkseg>
    <trkseg>
      <trkpt lat="49.9731184" lon="-124.6684905">
      </trkpt>
      <trkpt lat="49.9731396" lon="-124.6685617">
      </trkpt>
      <trkpt lat="49.9731814" lon="-124.6686683">
      </trkpt>
      <trkpt lat="49.9731869" lon="-124.6686807">
      </trkpt>
    </trkseg>
    <trkseg>
      <trkpt lat="49.9731869" lon="-124.6686807">
      </trkpt>
      <trkpt lat="49.973232" lon="-124.6687835">
      </trkpt>
      <trkpt lat="49.9732857" lon="-124.6689076">
      </trkpt>
      <trkpt lat="49.9733246" lon="-124.6690142">
      </trkpt>
      <trkpt lat="49.9733559" lon="-124.6692109">
      </trkpt>
      <trkpt lat="49.9734295" lon="-124.6693075">
      </trkpt>
      <trkpt lat="49.9735346" lon="-124.6694133">
      </trkpt>
    </trkseg>
    <trkseg>
      <trkpt lat="49.9735418" lon="-124.6694056">
      </trkpt>
      <trkpt lat="49.9735346" lon="-124.6694133">
      </trkpt>
    </trkseg>
    <trkseg>
      <trkpt lat="49.9735346" lon="-124.6694133">
      </trkpt>
      <trkpt lat="49.9734573" lon="-124.6694955">
      </trkpt>
      <trkpt lat="49.9734035" lon="-124.6696108">
      </trkpt>
      <trkpt lat="49.9733458" lon="-124.6697088">
      </trkpt>
      <trkpt lat="49.973255" lon="-124.6697952">
      </trkpt>
      <trkpt lat="49.9731606" lon="-124.6698333">
      </trkpt>
      <trkpt lat="49.9730243" lon="-124.6698906">
      </trkpt>
      <trkpt lat="49.9729049" lon="-124.6699347">
      </trkpt>
      <trkpt lat="49.9728747" lon="-124.6699332">
      </trkpt>
      <trkpt lat="49.9728122" lon="-124.669931">
      </trkpt>
      <trkpt lat="49.9726992" lon="-124.6699616">
      </trkpt>
      <trkpt lat="49.9725942" lon="-124.6700165">
      </trkpt>
      <trkpt lat="49.9725186" lon="-124.6700552">
      </trkpt>
      <trkpt lat="49.9724296" lon="-124.670159">
      </trkpt>
      <trkpt lat="49.9723887" lon="-124.6702437">
      </trkpt>
      <trkpt lat="49.972369" lon="-124.670312">
      </trkpt>
      <trkpt lat="49.9723658" lon="-124.6703911">
      </trkpt>
      <trkpt lat="49.9723608" lon="-124.6704495">
      </trkpt>
      <trkpt lat="49.972331" lon="-124.6704933">
      </trkpt>
      <trkpt lat="49.9722743" lon="-124.6705223">
      </trkpt>
      <trkpt lat="49.9722154" lon="-124.6705582">
      </trkpt>
      <trkpt lat="49.9721812" lon="-124.6706156">
      </trkpt>
      <trkpt lat="49.9721813" lon="-124.6707534">
      </trkpt>
      <trkpt lat="49.9721709" lon="-124.6708944">
      </trkpt>
      <trkpt lat="49.9721823" lon="-124.670974">
      </trkpt>
      <trkpt lat="49.9722085" lon="-124.6710335">
      </trkpt>
      <trkpt lat="49.9722673" lon="-124.6711493">
      </trkpt>
      <trkpt lat="49.9723835" lon="-124.6713325">
      </trkpt>
      <trkpt lat="49.9724544" lon="-124.6714728">
      </trkpt>
      <trkpt lat="49.9724922" lon="-124.6715982">
      </trkpt>
      <trkpt lat="49.9725067" lon="-124.6717468">
      </trkpt>
      <trkpt lat="49.9725059" lon="-124.6718041">
      </trkpt>
      <trkpt lat="49.9724738" lon="-124.6718616">
      </trkpt>
      <trkpt lat="49.9724039" lon="-124.6719384">
      </trkpt>
      <trkpt lat="49.9723532" lon="-124.6719883">
      </trkpt>
      <trkpt lat="49.9723355" lon="-124.6720601">
      </trkpt>
      <trkpt lat="49.9723132" lon="-124.6721558">
      </trkpt>
      <trkpt lat="49.9722852" lon="-124.6722203">
      </trkpt>
      <trkpt lat="49.9722384" lon="-124.6722876">
      </trkpt>
      <trkpt lat="49.9721664" lon="-124.6723644">
      </trkpt>
      <trkpt lat="49.9720859" lon="-124.6724581">
      </trkpt>
      <trkpt lat="49.9720517" lon="-124.6725155">
      </trkpt>
      <trkpt lat="49.9720219" lon="-124.6725558">
      </trkpt>
      <trkpt lat="49.9719923" lon="-124.6725858">
      </trkpt>
      <trkpt lat="49.9719753" lon="-124.6726093">
      </trkpt>
      <trkpt lat="49.9719708" lon="-124.6726333">
      </trkpt>
      <trkpt lat="49.9719681" lon="-124.6726745">
      </trkpt>
      <trkpt lat="49.9719464" lon="-124.6727358">
      </trkpt>
      <trkpt lat="49.9718977" lon="-124.6727893">
      </trkpt>
      <trkpt lat="49.9717924" lon="-124.6728614">
      </trkpt>
    </trkseg>
    <trkseg>
      <trkpt lat="49.9731869" lon="-124.6686807">
      </trkpt>
      <trkpt lat="49.9730011" lon="-124.6688046">
      </trkpt>
      <trkpt lat="49.9725101" lon="-124.6697131">
      </trkpt>
      <trkpt lat="49.9720656" lon="-124.6705026">
      </trkpt>
      <trkpt lat="49.9715976" lon="-124.6714252">
      </trkpt>
      <trkpt lat="49.9712148" lon="-124.6716707">
      </trkpt>
      <trkpt lat="49.9711099" lon="-124.6717378">
      </trkpt>
      <trkpt lat="49.9707204" lon="-124.6717217">
      </trkpt>
      <trkpt lat="49.9702242" lon="-124.6715507">
      </trkpt>
    </trkseg>
    <trkseg>
      <trkpt lat="49.9793154" lon="-124.6700318">
      </trkpt>
      <trkpt lat="49.9793153" lon="-124.6700317">
      </trkpt>
      <trkpt lat="49.9787452" lon="-124.6695167">
      </trkpt>
      <trkpt lat="49.9782503" lon="-124.6686658">
      </trkpt>
      <trkpt lat="49.977841" lon="-124.6680886">
      </trkpt>
      <trkpt lat="49.9775641" lon="-124.6675753">
      </trkpt>
      <trkpt lat="49.977259" lon="-124.6671706">
      </trkpt>
      <trkpt lat="49.97715" lon="-124.6670262">
      </trkpt>
      <trkpt lat="49.9767516" lon="-124.6669608">
      </trkpt>
      <trkpt lat="49.9762775" lon="-124.6673158">
      </trkpt>
      <trkpt lat="49.975972" lon="-124.6678469">
      </trkpt>
      <trkpt lat="49.9755716" lon="-124.6681461">
      </trkpt>
      <trkpt lat="49.9750662" lon="-124.6684968">
      </trkpt>
      <trkpt lat="49.9749504" lon="-124.6685772">
      </trkpt>
      <trkpt lat="49.9745878" lon="-124.6686592">
      </trkpt>
      <trkpt lat="49.9744092" lon="-124.6685947">
      </trkpt>
      <trkpt lat="49.974016" lon="-124.6684528">
      </trkpt>
      <trkpt lat="49.9737413" lon="-124.6683883">
      </trkpt>
      <trkpt lat="49.9734703" lon="-124.6684918">
      </trkpt>
      <trkpt lat="49.9731869" lon="-124.6686807">
      </trkpt>
    </trkseg>
    <trkseg>
      <trkpt lat="49.9792536" lon="-124.6705027">
      </trkpt>
      <trkpt lat="49.9792532" lon="-124.6705022">
      </trkpt>
      <trkpt lat="49.9789929" lon="-124.6701968">
      </trkpt>
      <trkpt lat="49.9788531" lon="-124.670061">
      </trkpt>
      <trkpt lat="49.9787388" lon="-124.6698916">
      </trkpt>
      <trkpt lat="49.978661" lon="-124.6697924">
      </trkpt>
      <trkpt lat="49.978568" lon="-124.6697409">
      </trkpt>
      <trkpt lat="49.9784703" lon="-124.669663">
      </trkpt>
      <trkpt lat="49.9783759" lon="-124.6695598">
      </trkpt>
      <trkpt lat="49.9782695" lon="-124.6694217">
      </trkpt>
      <trkpt lat="49.9781965" lon="-124.6692813">
      </trkpt>
      <trkpt lat="49.9780749" lon="-124.6690393">
      </trkpt>
      <trkpt lat="49.9778871" lon="-124.668764">
      </trkpt>
      <trkpt lat="49.9777735" lon="-124.6685464">
      </trkpt>
      <trkpt lat="49.9776526" lon="-124.6684044">
      </trkpt>
      <trkpt lat="49.9775118" lon="-124.6681927">
      </trkpt>
      <trkpt lat="49.9774322" lon="-124.6680295">
      </trkpt>
      <trkpt lat="49.9773954" lon="-124.6679765">
      </trkpt>
      <trkpt lat="49.977319" lon="-124.6679291">
      </trkpt>
      <trkpt lat="49.9771815" lon="-124.6679243">
      </trkpt>
      <trkpt lat="49.977036" lon="-124.6680399">
      </trkpt>
      <trkpt lat="49.9768122" lon="-124.668239">
      </trkpt>
      <trkpt lat="49.9766638" lon="-124.668413">
      </trkpt>
      <trkpt lat="49.9764992" lon="-124.6687003">
      </trkpt>
      <trkpt lat="49.9764288" lon="-124.6687892">
      </trkpt>
      <trkpt lat="49.9762803" lon="-124.6689702">
      </trkpt>
      <trkpt lat="49.976149" lon="-124.6691104">
      </trkpt>
      <trkpt lat="49.9760028" lon="-124.6692777">
      </trkpt>
      <trkpt lat="49.9758124" lon="-124.6694744">
      </trkpt>
      <trkpt lat="49.9757153" lon="-124.6695538">
      </trkpt>
      <trkpt lat="49.9755918" lon="-124.6695908">
      </trkpt>
      <trkpt lat="49.9755624" lon="-124.6696105">
      </trkpt>
      <trkpt lat="49.9754473" lon="-124.669641">
      </trkpt>
      <trkpt lat="49.9753466" lon="-124.6696858">
      </trkpt>
      <trkpt lat="49.9752587" lon="-124.6697103">
      </trkpt>
      <trkpt lat="49.9751611" lon="-124.6696828">
      </trkpt>
      <trkpt lat="49.9750906" lon="-124.6696597">
      </trkpt>
      <trkpt lat="49.9749592" lon="-124.6696689">
      </trkpt>
      <trkpt lat="49.9748732" lon="-124.6696762">
      </trkpt>
      <trkpt lat="49.9748191" lon="-124.6696709">
      </trkpt>
      <trkpt lat="49.9747427" lon="-124.6696235">
      </trkpt>
      <trkpt lat="49.9746707" lon="-124.6695555">
      </trkpt>
      <trkpt lat="49.9745737" lon="-124.6694867">
      </trkpt>
      <trkpt lat="49.9744696" lon="-124.6694831">
      </trkpt>
      <trkpt lat="49.9743907" lon="-124.6694631">
      </trkpt>
      <trkpt lat="49.9743563" lon="-124.6693896">
      </trkpt>
      <trkpt lat="49.9743561" lon="-124.6692586">
      </trkpt>
      <trkpt lat="49.9743433" lon="-124.6691341">
      </trkpt>
      <trkpt lat="49.9743115" lon="-124.6690262">
      </trkpt>
      <trkpt lat="49.9742499" lon="-124.6689586">
      </trkpt>
      <trkpt lat="49.974132" lon="-124.6688993">
      </trkpt>
      <trkpt lat="49.9740337" lon="-124.6689201">
      </trkpt>
      <trkpt lat="49.973943" lon="-124.6689962">
      </trkpt>
      <trkpt lat="49.9738683" lon="-124.6691211">
      </trkpt>
      <trkpt lat="49.9738169" lon="-124.6692124">
      </trkpt>
      <trkpt lat="49.9737492" lon="-124.6692824">
      </trkpt>
      <trkpt lat="49.973638" lon="-124.6693302">
      </trkpt>
      <trkpt lat="49.9735483" lon="-124.6693987">
      </trkpt>
      <trkpt lat="49.9735418" lon="-124.6694056">
      </trkpt>
    </trkseg>
  </trk>
</gpx>