<?xml version="1.0" encoding="UTF-8"?>
<gpx xmlns="http://www.topografix.com/GPX/1/1" xmlns:xsi="http://www.w3.org/2001/XMLSchema-instance" xsi:schemaLocation="http://www.topografix.com/GPX/1/1 http://www.topografix.com/GPX/1/1/gpx.xsd" version="1.1" creator="gpx.py -- https://github.com/tkrajina/gpxpy">
  <trk>
    <name>Ski tour near Howson Range</name>
    <trkseg>
      <trkpt lat="54.4425484" lon="-127.6615566">
      </trkpt>
      <trkpt lat="54.4427823" lon="-127.6620877">
      </trkpt>
      <trkpt lat="54.4429882" lon="-127.6622808">
      </trkpt>
      <trkpt lat="54.4432128" lon="-127.6627851">
      </trkpt>
      <trkpt lat="54.443506" lon="-127.6634824">
      </trkpt>
      <trkpt lat="54.4437119" lon="-127.6641047">
      </trkpt>
      <trkpt lat="54.4439428" lon="-127.6644051">
      </trkpt>
      <trkpt lat="54.4441237" lon="-127.6648557">
      </trkpt>
      <trkpt lat="54.4442672" lon="-127.6649094">
      </trkpt>
      <trkpt lat="54.4449035" lon="-127.6660466">
      </trkpt>
      <trkpt lat="54.4456397" lon="-127.6670444">
      </trkpt>
      <trkpt lat="54.4459329" lon="-127.6674199">
      </trkpt>
      <trkpt lat="54.446276" lon="-127.6677954">
      </trkpt>
      <trkpt lat="54.4463696" lon="-127.6681066">
      </trkpt>
      <trkpt lat="54.4466503" lon="-127.6685679">
      </trkpt>
      <trkpt lat="54.4468687" lon="-127.6688576">
      </trkpt>
      <trkpt lat="54.4470808" lon="-127.6696408">
      </trkpt>
      <trkpt lat="54.4471494" lon="-127.6701665">
      </trkpt>
      <trkpt lat="54.4474987" lon="-127.6710785">
      </trkpt>
      <trkpt lat="54.4475237" lon="-127.6713359">
      </trkpt>
      <trkpt lat="54.447636" lon="-127.6713681">
      </trkpt>
      <trkpt lat="54.4476547" lon="-127.6716364">
      </trkpt>
      <trkpt lat="54.4478543" lon="-127.6717329">
      </trkpt>
      <trkpt lat="54.4479167" lon="-127.6719153">
      </trkpt>
      <trkpt lat="54.447873" lon="-127.6720655">
      </trkpt>
      <trkpt lat="54.4480726" lon="-127.6723445">
      </trkpt>
      <trkpt lat="54.4483783" lon="-127.6726234">
      </trkpt>
      <trkpt lat="54.4486091" lon="-127.6724196">
      </trkpt>
      <trkpt lat="54.4487588" lon="-127.672559">
      </trkpt>
      <trkpt lat="54.4491394" lon="-127.672838">
      </trkpt>
      <trkpt lat="54.4493265" lon="-127.673235">
      </trkpt>
      <trkpt lat="54.4494513" lon="-127.6733422">
      </trkpt>
      <trkpt lat="54.4494762" lon="-127.6735675">
      </trkpt>
      <trkpt lat="54.4495635" lon="-127.6736212">
      </trkpt>
      <trkpt lat="54.4496509" lon="-127.673471">
      </trkpt>
      <trkpt lat="54.4498068" lon="-127.6739538">
      </trkpt>
      <trkpt lat="54.4499129" lon="-127.6740182">
      </trkpt>
      <trkpt lat="54.4500626" lon="-127.6744795">
      </trkpt>
      <trkpt lat="54.4500002" lon="-127.6752734">
      </trkpt>
      <trkpt lat="54.4500501" lon="-127.6754236">
      </trkpt>
      <trkpt lat="54.450231" lon="-127.6753593">
      </trkpt>
      <trkpt lat="54.4503183" lon="-127.6756168">
      </trkpt>
      <trkpt lat="54.4504306" lon="-127.675724">
      </trkpt>
      <trkpt lat="54.4505741" lon="-127.6755738">
      </trkpt>
      <trkpt lat="54.4506489" lon="-127.6749194">
      </trkpt>
      <trkpt lat="54.4507924" lon="-127.6745546">
      </trkpt>
      <trkpt lat="54.4508673" lon="-127.6745761">
      </trkpt>
      <trkpt lat="54.4508922" lon="-127.6748872">
      </trkpt>
      <trkpt lat="54.4510419" lon="-127.6749838">
      </trkpt>
      <trkpt lat="54.4510856" lon="-127.6751554">
      </trkpt>
      <trkpt lat="54.4511604" lon="-127.675134">
      </trkpt>
      <trkpt lat="54.4513288" lon="-127.6747048">
      </trkpt>
      <trkpt lat="54.4514474" lon="-127.6747048">
      </trkpt>
      <trkpt lat="54.4515846" lon="-127.6743186">
      </trkpt>
      <trkpt lat="54.4516657" lon="-127.674222">
      </trkpt>
      <trkpt lat="54.451778" lon="-127.6734173">
      </trkpt>
      <trkpt lat="54.451884" lon="-127.6732135">
      </trkpt>
      <trkpt lat="54.4520087" lon="-127.673471">
      </trkpt>
      <trkpt lat="54.452514" lon="-127.6741898">
      </trkpt>
      <trkpt lat="54.4526824" lon="-127.6743615">
      </trkpt>
      <trkpt lat="54.4528633" lon="-127.6747745">
      </trkpt>
      <trkpt lat="54.4532531" lon="-127.6751715">
      </trkpt>
      <trkpt lat="54.4535463" lon="-127.6752895">
      </trkpt>
      <trkpt lat="54.4536835" lon="-127.674855">
      </trkpt>
      <trkpt lat="54.4538706" lon="-127.674855">
      </trkpt>
      <trkpt lat="54.4545661" lon="-127.6754451">
      </trkpt>
      <trkpt lat="54.4547469" lon="-127.6756918">
      </trkpt>
      <trkpt lat="54.4548686" lon="-127.6754504">
      </trkpt>
      <trkpt lat="54.4549871" lon="-127.6754826">
      </trkpt>
      <trkpt lat="54.4550619" lon="-127.6756436">
      </trkpt>
      <trkpt lat="54.4551555" lon="-127.6755631">
      </trkpt>
      <trkpt lat="54.4553613" lon="-127.6757723">
      </trkpt>
      <trkpt lat="54.4554767" lon="-127.6757455">
      </trkpt>
      <trkpt lat="54.4555266" lon="-127.6755202">
      </trkpt>
      <trkpt lat="54.4556763" lon="-127.6754075">
      </trkpt>
      <trkpt lat="54.456144" lon="-127.6756167">
      </trkpt>
      <trkpt lat="54.4565245" lon="-127.6757026">
      </trkpt>
      <trkpt lat="54.4566149" lon="-127.6760405">
      </trkpt>
      <trkpt lat="54.4569798" lon="-127.677033">
      </trkpt>
      <trkpt lat="54.4575037" lon="-127.6771832">
      </trkpt>
      <trkpt lat="54.4576658" lon="-127.6779986">
      </trkpt>
      <trkpt lat="54.4578529" lon="-127.6779771">
      </trkpt>
      <trkpt lat="54.4579777" lon="-127.6786423">
      </trkpt>
      <trkpt lat="54.4581897" lon="-127.6793719">
      </trkpt>
      <trkpt lat="54.4582646" lon="-127.6798654">
      </trkpt>
      <trkpt lat="54.4584267" lon="-127.679801">
      </trkpt>
      <trkpt lat="54.4584517" lon="-127.6801014">
      </trkpt>
      <trkpt lat="54.4588259" lon="-127.6798225">
      </trkpt>
      <trkpt lat="54.458857" lon="-127.6800156">
      </trkpt>
      <trkpt lat="54.4591377" lon="-127.6798117">
      </trkpt>
      <trkpt lat="54.4594682" lon="-127.6798868">
      </trkpt>
      <trkpt lat="54.4594682" lon="-127.6800585">
      </trkpt>
      <trkpt lat="54.4596241" lon="-127.6802087">
      </trkpt>
      <trkpt lat="54.4596678" lon="-127.6806486">
      </trkpt>
      <trkpt lat="54.4593248" lon="-127.6811314">
      </trkpt>
      <trkpt lat="54.4591626" lon="-127.6815605">
      </trkpt>
      <trkpt lat="54.4592" lon="-127.681818">
      </trkpt>
      <trkpt lat="54.4593871" lon="-127.6818609">
      </trkpt>
      <trkpt lat="54.4600544" lon="-127.6822364">
      </trkpt>
      <trkpt lat="54.4603351" lon="-127.6821292">
      </trkpt>
      <trkpt lat="54.4606344" lon="-127.682215">
      </trkpt>
      <trkpt lat="54.4607155" lon="-127.6823545">
      </trkpt>
      <trkpt lat="54.4606968" lon="-127.6829124">
      </trkpt>
      <trkpt lat="54.4607591" lon="-127.6830518">
      </trkpt>
      <trkpt lat="54.4608776" lon="-127.6830411">
      </trkpt>
      <trkpt lat="54.4609836" lon="-127.6829767">
      </trkpt>
      <trkpt lat="54.4609836" lon="-127.6831699">
      </trkpt>
      <trkpt lat="54.4608652" lon="-127.683878">
      </trkpt>
      <trkpt lat="54.460728" lon="-127.6840711">
      </trkpt>
      <trkpt lat="54.4608028" lon="-127.684232">
      </trkpt>
      <trkpt lat="54.4607529" lon="-127.6844359">
      </trkpt>
      <trkpt lat="54.4603288" lon="-127.685144">
      </trkpt>
      <trkpt lat="54.4601792" lon="-127.6853263">
      </trkpt>
      <trkpt lat="54.4602852" lon="-127.6854766">
      </trkpt>
      <trkpt lat="54.4607342" lon="-127.6857233">
      </trkpt>
      <trkpt lat="54.4610709" lon="-127.6857448">
      </trkpt>
      <trkpt lat="54.4613266" lon="-127.6856375">
      </trkpt>
      <trkpt lat="54.4615324" lon="-127.6854873">
      </trkpt>
      <trkpt lat="54.4617195" lon="-127.6854336">
      </trkpt>
      <trkpt lat="54.4619066" lon="-127.6855624">
      </trkpt>
      <trkpt lat="54.4619253" lon="-127.6857662">
      </trkpt>
      <trkpt lat="54.4616634" lon="-127.6865387">
      </trkpt>
      <trkpt lat="54.4618442" lon="-127.6865494">
      </trkpt>
      <trkpt lat="54.4621373" lon="-127.6867747">
      </trkpt>
    </trkseg>
  </trk>
</gpx>