<?xml version="1.0" encoding="UTF-8"?>
<gpx xmlns="http://www.topografix.com/GPX/1/1" xmlns:xsi="http://www.w3.org/2001/XMLSchema-instance" xsi:schemaLocation="http://www.topografix.com/GPX/1/1 http://www.topografix.com/GPX/1/1/gpx.xsd" version="1.1" creator="gpx.py -- https://github.com/tkrajina/gpxpy">
  <trk>
    <name>Kuskanax Mountain</name>
    <trkseg>
      <trkpt lat="50.26935128" lon="-117.78387188">
      </trkpt>
      <trkpt lat="50.26974094" lon="-117.78401912">
      </trkpt>
      <trkpt lat="50.27000931" lon="-117.78407133">
      </trkpt>
      <trkpt lat="50.27022425" lon="-117.78426415">
      </trkpt>
      <trkpt lat="50.27039153" lon="-117.78428101">
      </trkpt>
      <trkpt lat="50.2704712" lon="-117.78426873">
      </trkpt>
      <trkpt lat="50.27054877" lon="-117.78417392">
      </trkpt>
      <trkpt lat="50.27067101" lon="-117.78403342">
      </trkpt>
      <trkpt lat="50.27075197" lon="-117.78385386">
      </trkpt>
      <trkpt lat="50.2708826" lon="-117.78357611">
      </trkpt>
      <trkpt lat="50.27105093" lon="-117.7833054">
      </trkpt>
      <trkpt lat="50.27130596" lon="-117.78311131">
      </trkpt>
      <trkpt lat="50.27155562" lon="-117.78302483">
      </trkpt>
      <trkpt lat="50.27176938" lon="-117.78305132">
      </trkpt>
      <trkpt lat="50.27195787" lon="-117.78310959">
      </trkpt>
      <trkpt lat="50.27210123" lon="-117.78314709">
      </trkpt>
      <trkpt lat="50.27219681" lon="-117.78316795">
      </trkpt>
      <trkpt lat="50.27231627" lon="-117.78320541">
      </trkpt>
      <trkpt lat="50.27243311" lon="-117.78319319">
      </trkpt>
      <trkpt lat="50.27253054" lon="-117.78318508">
      </trkpt>
      <trkpt lat="50.2727272" lon="-117.78319744">
      </trkpt>
      <trkpt lat="50.27297878" lon="-117.78315174">
      </trkpt>
      <trkpt lat="50.27316402" lon="-117.78312727">
      </trkpt>
      <trkpt lat="50.27330354" lon="-117.78308128">
      </trkpt>
      <trkpt lat="50.27346141" lon="-117.78299255">
      </trkpt>
      <trkpt lat="50.27360097" lon="-117.78292162">
      </trkpt>
      <trkpt lat="50.27376794" lon="-117.78287569">
      </trkpt>
      <trkpt lat="50.27399705" lon="-117.78281551">
      </trkpt>
      <trkpt lat="50.27415959" lon="-117.78278484">
      </trkpt>
      <trkpt lat="50.27433974" lon="-117.782731">
      </trkpt>
      <trkpt lat="50.27449068" lon="-117.78260116">
      </trkpt>
      <trkpt lat="50.27461205" lon="-117.78262505">
      </trkpt>
      <trkpt lat="50.2746499" lon="-117.78288262">
      </trkpt>
      <trkpt lat="50.27464119" lon="-117.78309546">
      </trkpt>
      <trkpt lat="50.27460223" lon="-117.78317381">
      </trkpt>
      <trkpt lat="50.27445558" lon="-117.7834658">
      </trkpt>
      <trkpt lat="50.27434334" lon="-117.78365091">
      </trkpt>
      <trkpt lat="50.27411197" lon="-117.78404964">
      </trkpt>
      <trkpt lat="50.27393095" lon="-117.78440215">
      </trkpt>
      <trkpt lat="50.27382364" lon="-117.78476196">
      </trkpt>
      <trkpt lat="50.27380482" lon="-117.78509705">
      </trkpt>
      <trkpt lat="50.27383113" lon="-117.78542458">
      </trkpt>
      <trkpt lat="50.27383886" lon="-117.78575676">
      </trkpt>
      <trkpt lat="50.27382629" lon="-117.78604557">
      </trkpt>
      <trkpt lat="50.27385575" lon="-117.78629167">
      </trkpt>
      <trkpt lat="50.27386467" lon="-117.78649849">
      </trkpt>
      <trkpt lat="50.27386211" lon="-117.78674806">
      </trkpt>
      <trkpt lat="50.27386198" lon="-117.78687641">
      </trkpt>
      <trkpt lat="50.27387597" lon="-117.78698691">
      </trkpt>
      <trkpt lat="50.27389815" lon="-117.78725445">
      </trkpt>
      <trkpt lat="50.2739094" lon="-117.78741494">
      </trkpt>
      <trkpt lat="50.27390467" lon="-117.78756111">
      </trkpt>
      <trkpt lat="50.27390457" lon="-117.78765024">
      </trkpt>
      <trkpt lat="50.27391575" lon="-117.78789331">
      </trkpt>
      <trkpt lat="50.2739293" lon="-117.78803182">
      </trkpt>
      <trkpt lat="50.27396341" lon="-117.78820662">
      </trkpt>
      <trkpt lat="50.27398613" lon="-117.78834218">
      </trkpt>
      <trkpt lat="50.27403848" lon="-117.78855982">
      </trkpt>
      <trkpt lat="50.27411592" lon="-117.78883101">
      </trkpt>
      <trkpt lat="50.27417508" lon="-117.78909858">
      </trkpt>
      <trkpt lat="50.27426514" lon="-117.78922054">
      </trkpt>
      <trkpt lat="50.27440571" lon="-117.78942546">
      </trkpt>
      <trkpt lat="50.27449844" lon="-117.78970525">
      </trkpt>
      <trkpt lat="50.27458062" lon="-117.78988337">
      </trkpt>
      <trkpt lat="50.27465484" lon="-117.7900408">
      </trkpt>
      <trkpt lat="50.27470433" lon="-117.79020535">
      </trkpt>
      <trkpt lat="50.27478874" lon="-117.79037673">
      </trkpt>
      <trkpt lat="50.27485714" lon="-117.79056232">
      </trkpt>
      <trkpt lat="50.2749232" lon="-117.79077644">
      </trkpt>
      <trkpt lat="50.27499154" lon="-117.79101195">
      </trkpt>
      <trkpt lat="50.27504164" lon="-117.79119038">
      </trkpt>
      <trkpt lat="50.27508478" lon="-117.79146147">
      </trkpt>
      <trkpt lat="50.27512574" lon="-117.79164343">
      </trkpt>
      <trkpt lat="50.27517342" lon="-117.79193594">
      </trkpt>
      <trkpt lat="50.27524166" lon="-117.79224634">
      </trkpt>
      <trkpt lat="50.27528014" lon="-117.79260301">
      </trkpt>
      <trkpt lat="50.27533472" lon="-117.79285632">
      </trkpt>
      <trkpt lat="50.27537804" lon="-117.79311757">
      </trkpt>
      <trkpt lat="50.27545479" lon="-117.79344157">
      </trkpt>
      <trkpt lat="50.27553575" lon="-117.79362883">
      </trkpt>
      <trkpt lat="50.27572266" lon="-117.79383098">
      </trkpt>
      <trkpt lat="50.27595615" lon="-117.79405622">
      </trkpt>
      <trkpt lat="50.27606384" lon="-117.79418545">
      </trkpt>
      <trkpt lat="50.27620428" lon="-117.79453217">
      </trkpt>
      <trkpt lat="50.2763448" lon="-117.7948026">
      </trkpt>
      <trkpt lat="50.27651976" lon="-117.79515907">
      </trkpt>
      <trkpt lat="50.27673461" lon="-117.79559257">
      </trkpt>
      <trkpt lat="50.27708659" lon="-117.7960409">
      </trkpt>
      <trkpt lat="50.2771564" lon="-117.79599955">
      </trkpt>
      <trkpt lat="50.27716824" lon="-117.7957207">
      </trkpt>
      <trkpt lat="50.27690727" lon="-117.79538884">
      </trkpt>
      <trkpt lat="50.27677651" lon="-117.7949969">
      </trkpt>
      <trkpt lat="50.27666792" lon="-117.79466069">
      </trkpt>
      <trkpt lat="50.27651422" lon="-117.79427201">
      </trkpt>
      <trkpt lat="50.27633971" lon="-117.79378323">
      </trkpt>
      <trkpt lat="50.27632193" lon="-117.79352228">
      </trkpt>
      <trkpt lat="50.27633694" lon="-117.7930695">
      </trkpt>
      <trkpt lat="50.27636616" lon="-117.79264165">
      </trkpt>
      <trkpt lat="50.27636598" lon="-117.79218475">
      </trkpt>
      <trkpt lat="50.27638313" lon="-117.79184661">
      </trkpt>
      <trkpt lat="50.276427" lon="-117.7913547">
      </trkpt>
      <trkpt lat="50.27646375" lon="-117.79091335">
      </trkpt>
      <trkpt lat="50.27647843" lon="-117.79047765">
      </trkpt>
      <trkpt lat="50.27653275" lon="-117.78998211">
      </trkpt>
      <trkpt lat="50.2765595" lon="-117.78954367">
      </trkpt>
      <trkpt lat="50.27661919" lon="-117.78905645">
      </trkpt>
      <trkpt lat="50.27677356" lon="-117.78858486">
      </trkpt>
      <trkpt lat="50.27699319" lon="-117.78812165">
      </trkpt>
      <trkpt lat="50.27714665" lon="-117.78788341">
      </trkpt>
      <trkpt lat="50.27735265" lon="-117.78770993">
      </trkpt>
      <trkpt lat="50.27761921" lon="-117.78756554">
      </trkpt>
      <trkpt lat="50.27781692" lon="-117.78745887">
      </trkpt>
      <trkpt lat="50.27794509" lon="-117.78737344">
      </trkpt>
      <trkpt lat="50.27828373" lon="-117.78718282">
      </trkpt>
      <trkpt lat="50.2783764" lon="-117.78722003">
      </trkpt>
      <trkpt lat="50.27840524" lon="-117.78738719">
      </trkpt>
      <trkpt lat="50.27816419" lon="-117.78792206">
      </trkpt>
      <trkpt lat="50.27805454" lon="-117.78831026">
      </trkpt>
      <trkpt lat="50.2780118" lon="-117.78866678">
      </trkpt>
      <trkpt lat="50.27781759" lon="-117.78913356">
      </trkpt>
      <trkpt lat="50.27776157" lon="-117.78947198">
      </trkpt>
      <trkpt lat="50.2777347" lon="-117.7899069">
      </trkpt>
      <trkpt lat="50.2777078" lon="-117.79036761">
      </trkpt>
      <trkpt lat="50.27783523" lon="-117.79092066">
      </trkpt>
      <trkpt lat="50.27803237" lon="-117.79130922">
      </trkpt>
      <trkpt lat="50.27817384" lon="-117.79156991">
      </trkpt>
      <trkpt lat="50.27851399" lon="-117.79206295">
      </trkpt>
      <trkpt lat="50.27870809" lon="-117.7922917">
      </trkpt>
      <trkpt lat="50.27912902" lon="-117.79267287">
      </trkpt>
      <trkpt lat="50.27920322" lon="-117.79274115">
      </trkpt>
      <trkpt lat="50.27935453" lon="-117.79283992">
      </trkpt>
      <trkpt lat="50.27966957" lon="-117.79307085">
      </trkpt>
      <trkpt lat="50.27991368" lon="-117.79328985">
      </trkpt>
      <trkpt lat="50.28004902" lon="-117.79339447">
      </trkpt>
      <trkpt lat="50.28024011" lon="-117.79350661">
      </trkpt>
      <trkpt lat="50.28056111" lon="-117.7936617">
      </trkpt>
      <trkpt lat="50.28087781" lon="-117.79383248">
      </trkpt>
      <trkpt lat="50.28100219" lon="-117.79389659">
      </trkpt>
      <trkpt lat="50.28127666" lon="-117.79403421">
      </trkpt>
      <trkpt lat="50.28141807" lon="-117.79396463">
      </trkpt>
      <trkpt lat="50.28134631" lon="-117.79369206">
      </trkpt>
      <trkpt lat="50.28115982" lon="-117.79350955">
      </trkpt>
      <trkpt lat="50.2809256" lon="-117.79330269">
      </trkpt>
      <trkpt lat="50.28068123" lon="-117.7929854">
      </trkpt>
      <trkpt lat="50.2804823" lon="-117.79272422">
      </trkpt>
      <trkpt lat="50.28038155" lon="-117.79252946">
      </trkpt>
      <trkpt lat="50.2802942" lon="-117.79218571">
      </trkpt>
      <trkpt lat="50.28023068" lon="-117.79191238">
      </trkpt>
      <trkpt lat="50.28020966" lon="-117.7916219">
      </trkpt>
      <trkpt lat="50.28019996" lon="-117.79138655">
      </trkpt>
      <trkpt lat="50.280246" lon="-117.7911121">
      </trkpt>
      <trkpt lat="50.28039474" lon="-117.79101267">
      </trkpt>
      <trkpt lat="50.28053641" lon="-117.79110578">
      </trkpt>
      <trkpt lat="50.2806277" lon="-117.79126651">
      </trkpt>
      <trkpt lat="50.28075195" lon="-117.79145461">
      </trkpt>
      <trkpt lat="50.28084597" lon="-117.79153759">
      </trkpt>
      <trkpt lat="50.28104315" lon="-117.79161603">
      </trkpt>
      <trkpt lat="50.28117913" lon="-117.79167039">
      </trkpt>
      <trkpt lat="50.28135731" lon="-117.7918278">
      </trkpt>
      <trkpt lat="50.28159273" lon="-117.79197677">
      </trkpt>
      <trkpt lat="50.28172011" lon="-117.79206395">
      </trkpt>
      <trkpt lat="50.28200966" lon="-117.79223928">
      </trkpt>
      <trkpt lat="50.28219075" lon="-117.79241291">
      </trkpt>
      <trkpt lat="50.28240495" lon="-117.79255407">
      </trkpt>
      <trkpt lat="50.28258278" lon="-117.79266204">
      </trkpt>
      <trkpt lat="50.28267839" lon="-117.79275493">
      </trkpt>
      <trkpt lat="50.28284095" lon="-117.79284218">
      </trkpt>
      <trkpt lat="50.28300818" lon="-117.79291495">
      </trkpt>
      <trkpt lat="50.28315222" lon="-117.79293697">
      </trkpt>
      <trkpt lat="50.28321168" lon="-117.79296394">
      </trkpt>
      <trkpt lat="50.28343425" lon="-117.79302333">
      </trkpt>
      <trkpt lat="50.28354616" lon="-117.79306909">
      </trkpt>
      <trkpt lat="50.28376649" lon="-117.79315646">
      </trkpt>
      <trkpt lat="50.28392527" lon="-117.79320112">
      </trkpt>
      <trkpt lat="50.28403821" lon="-117.79313858">
      </trkpt>
      <trkpt lat="50.28401373" lon="-117.7927802">
      </trkpt>
      <trkpt lat="50.28370616" lon="-117.79220785">
      </trkpt>
      <trkpt lat="50.28357816" lon="-117.79185202">
      </trkpt>
      <trkpt lat="50.2834483" lon="-117.79153301">
      </trkpt>
      <trkpt lat="50.28333163" lon="-117.79132165">
      </trkpt>
      <trkpt lat="50.28325575" lon="-117.79105658">
      </trkpt>
      <trkpt lat="50.28322841" lon="-117.79089561">
      </trkpt>
      <trkpt lat="50.28325243" lon="-117.79072451">
      </trkpt>
      <trkpt lat="50.28329123" lon="-117.79057156">
      </trkpt>
      <trkpt lat="50.28344678" lon="-117.7904875">
      </trkpt>
      <trkpt lat="50.28358257" lon="-117.79051822">
      </trkpt>
      <trkpt lat="50.28369699" lon="-117.79055847">
      </trkpt>
      <trkpt lat="50.28377327" lon="-117.79055837">
      </trkpt>
      <trkpt lat="50.28386785" lon="-117.79052972">
      </trkpt>
      <trkpt lat="50.28399752" lon="-117.79049152">
      </trkpt>
      <trkpt lat="50.28409819" lon="-117.79045099">
      </trkpt>
      <trkpt lat="50.28416377" lon="-117.79032971">
      </trkpt>
      <trkpt lat="50.28425528" lon="-117.79026067">
      </trkpt>
      <trkpt lat="50.28431898" lon="-117.7902096">
      </trkpt>
      <trkpt lat="50.28448257" lon="-117.79017245">
      </trkpt>
      <trkpt lat="50.28456493" lon="-117.79007253">
      </trkpt>
      <trkpt lat="50.28460611" lon="-117.79004395">
      </trkpt>
      <trkpt lat="50.28473272" lon="-117.79000338">
      </trkpt>
      <trkpt lat="50.28486922" lon="-117.79000387">
      </trkpt>
      <trkpt lat="50.28490503" lon="-117.78999471">
      </trkpt>
      <trkpt lat="50.28499" lon="-117.78990711">
      </trkpt>
      <trkpt lat="50.28503782" lon="-117.78991267">
      </trkpt>
      <trkpt lat="50.285108" lon="-117.78993635">
      </trkpt>
      <trkpt lat="50.28515682" lon="-117.78994578">
      </trkpt>
      <trkpt lat="50.28521021" lon="-117.78990532">
      </trkpt>
      <trkpt lat="50.28525138" lon="-117.78985772">
      </trkpt>
      <trkpt lat="50.28530172" lon="-117.7898125">
      </trkpt>
      <trkpt lat="50.28534747" lon="-117.78976016">
      </trkpt>
      <trkpt lat="50.28541457" lon="-117.78966501">
      </trkpt>
      <trkpt lat="50.28546944" lon="-117.78964823">
      </trkpt>
      <trkpt lat="50.2855183" lon="-117.7896411">
      </trkpt>
      <trkpt lat="50.28560238" lon="-117.78964894">
      </trkpt>
      <trkpt lat="50.28566319" lon="-117.78960018">
      </trkpt>
      <trkpt lat="50.28571634" lon="-117.78950839">
      </trkpt>
      <trkpt lat="50.28574252" lon="-117.78946256">
      </trkpt>
      <trkpt lat="50.28581877" lon="-117.78933888">
      </trkpt>
      <trkpt lat="50.28592706" lon="-117.78923892">
      </trkpt>
      <trkpt lat="50.28600737" lon="-117.78918528">
      </trkpt>
      <trkpt lat="50.28609887" lon="-117.78907346">
      </trkpt>
      <trkpt lat="50.28616651" lon="-117.78897717">
      </trkpt>
      <trkpt lat="50.28625955" lon="-117.78891526">
      </trkpt>
      <trkpt lat="50.28636328" lon="-117.78884857">
      </trkpt>
      <trkpt lat="50.28645363" lon="-117.78882887">
      </trkpt>
      <trkpt lat="50.28651984" lon="-117.7888013">
      </trkpt>
      <trkpt lat="50.28665869" lon="-117.78877387">
      </trkpt>
      <trkpt lat="50.28673933" lon="-117.78873365">
      </trkpt>
      <trkpt lat="50.28686221" lon="-117.78862323">
      </trkpt>
      <trkpt lat="50.28692613" lon="-117.78851033">
      </trkpt>
      <trkpt lat="50.28692458" lon="-117.78844617">
      </trkpt>
      <trkpt lat="50.28688185" lon="-117.78838205">
      </trkpt>
      <trkpt lat="50.28682997" lon="-117.78833459">
      </trkpt>
      <trkpt lat="50.28679181" lon="-117.78826097">
      </trkpt>
      <trkpt lat="50.28681925" lon="-117.7881421">
      </trkpt>
      <trkpt lat="50.28691687" lon="-117.78810156">
      </trkpt>
      <trkpt lat="50.2870084" lon="-117.78806579">
      </trkpt>
      <trkpt lat="50.28709076" lon="-117.78803479">
      </trkpt>
      <trkpt lat="50.28718381" lon="-117.78797525">
      </trkpt>
      <trkpt lat="50.28729975" lon="-117.78792993">
      </trkpt>
      <trkpt lat="50.28740195" lon="-117.7878775">
      </trkpt>
      <trkpt lat="50.28751026" lon="-117.78784883">
      </trkpt>
      <trkpt lat="50.28761401" lon="-117.7879081">
      </trkpt>
      <trkpt lat="50.28773302" lon="-117.78799588">
      </trkpt>
      <trkpt lat="50.28783524" lon="-117.78802901">
      </trkpt>
      <trkpt lat="50.28794967" lon="-117.78804788">
      </trkpt>
      <trkpt lat="50.2880366" lon="-117.78796933">
      </trkpt>
      <trkpt lat="50.28812356" lon="-117.78793831">
      </trkpt>
      <trkpt lat="50.28820593" lon="-117.78792869">
      </trkpt>
      <trkpt lat="50.28828374" lon="-117.78794997">
      </trkpt>
      <trkpt lat="50.28839816" lon="-117.78792604">
      </trkpt>
      <trkpt lat="50.28846833" lon="-117.78790694">
      </trkpt>
      <trkpt lat="50.28857204" lon="-117.7878046">
      </trkpt>
      <trkpt lat="50.28865899" lon="-117.78774507">
      </trkpt>
      <trkpt lat="50.28876117" lon="-117.78765222">
      </trkpt>
      <trkpt lat="50.28885269" lon="-117.78761169">
      </trkpt>
      <trkpt lat="50.28895337" lon="-117.78760206">
      </trkpt>
      <trkpt lat="50.28905558" lon="-117.7875734">
      </trkpt>
      <trkpt lat="50.28913948" lon="-117.78753525">
      </trkpt>
      <trkpt lat="50.28923711" lon="-117.78751136">
      </trkpt>
      <trkpt lat="50.28935152" lon="-117.78749456">
      </trkpt>
      <trkpt lat="50.28944306" lon="-117.78748255">
      </trkpt>
      <trkpt lat="50.28954526" lon="-117.78744437">
      </trkpt>
      <trkpt lat="50.2896078" lon="-117.78739201">
      </trkpt>
      <trkpt lat="50.28968556" lon="-117.78724928">
      </trkpt>
      <trkpt lat="50.28974806" lon="-117.78708758">
      </trkpt>
      <trkpt lat="50.28978465" lon="-117.78698296">
      </trkpt>
      <trkpt lat="50.28983953" lon="-117.78680699">
      </trkpt>
      <trkpt lat="50.28990967" lon="-117.78669757">
      </trkpt>
      <trkpt lat="50.28996915" lon="-117.78663094">
      </trkpt>
      <trkpt lat="50.29000119" lon="-117.78661663">
      </trkpt>
      <trkpt lat="50.29012321" lon="-117.78654278">
      </trkpt>
      <trkpt lat="50.29024064" lon="-117.78639763">
      </trkpt>
      <trkpt lat="50.29033979" lon="-117.78636422">
      </trkpt>
      <trkpt lat="50.29045572" lon="-117.7863284">
      </trkpt>
      <trkpt lat="50.29053351" lon="-117.78627838">
      </trkpt>
      <trkpt lat="50.29056767" lon="-117.78625479">
      </trkpt>
      <trkpt lat="50.2906696" lon="-117.7861844">
      </trkpt>
      <trkpt lat="50.2906829" lon="-117.78617521">
      </trkpt>
      <trkpt lat="50.29097006" lon="-117.78636141">
      </trkpt>
      <trkpt lat="50.29116292" lon="-117.78637622">
      </trkpt>
      <trkpt lat="50.29130665" lon="-117.78637501">
      </trkpt>
      <trkpt lat="50.29154146" lon="-117.7862779">
      </trkpt>
      <trkpt lat="50.29160359" lon="-117.78607136">
      </trkpt>
      <trkpt lat="50.29176357" lon="-117.78573705">
      </trkpt>
      <trkpt lat="50.29188689" lon="-117.78537081">
      </trkpt>
      <trkpt lat="50.29197152" lon="-117.78500596">
      </trkpt>
      <trkpt lat="50.29203381" lon="-117.78476997">
      </trkpt>
      <trkpt lat="50.29214997" lon="-117.78439938">
      </trkpt>
      <trkpt lat="50.29229583" lon="-117.78399841">
      </trkpt>
      <trkpt lat="50.29245086" lon="-117.78372056">
      </trkpt>
      <trkpt lat="50.292698" lon="-117.78342634">
      </trkpt>
      <trkpt lat="50.29282401" lon="-117.7831534">
      </trkpt>
      <trkpt lat="50.29301793" lon="-117.78296832">
      </trkpt>
      <trkpt lat="50.29326282" lon="-117.78282386">
      </trkpt>
      <trkpt lat="50.29350772" lon="-117.78267942">
      </trkpt>
      <trkpt lat="50.2937647" lon="-117.78248284">
      </trkpt>
      <trkpt lat="50.29399199" lon="-117.78231663">
      </trkpt>
      <trkpt lat="50.29420825" lon="-117.78200266">
      </trkpt>
      <trkpt lat="50.29441242" lon="-117.78174081">
      </trkpt>
      <trkpt lat="50.29463419" lon="-117.78150072">
      </trkpt>
      <trkpt lat="50.29487358" lon="-117.78128238">
      </trkpt>
      <trkpt lat="50.29506749" lon="-117.78109727">
      </trkpt>
      <trkpt lat="50.29533656" lon="-117.78084856">
      </trkpt>
      <trkpt lat="50.2956549" lon="-117.78066629">
      </trkpt>
      <trkpt lat="50.29574602" lon="-117.78064841">
      </trkpt>
      <trkpt lat="50.2960147" lon="-117.78102868">
      </trkpt>
      <trkpt lat="50.29618026" lon="-117.78101936">
      </trkpt>
      <trkpt lat="50.29637414" lon="-117.78069272">
      </trkpt>
      <trkpt lat="50.29650321" lon="-117.78063601">
      </trkpt>
      <trkpt lat="50.29676202" lon="-117.78046403">
      </trkpt>
      <trkpt lat="50.29696802" lon="-117.78022679">
      </trkpt>
      <trkpt lat="50.29710116" lon="-117.78017416">
      </trkpt>
      <trkpt lat="50.29735113" lon="-117.7800072">
      </trkpt>
      <trkpt lat="50.29753295" lon="-117.77987423">
      </trkpt>
      <trkpt lat="50.29774447" lon="-117.77971086">
      </trkpt>
      <trkpt lat="50.29792802" lon="-117.77957269">
      </trkpt>
      <trkpt lat="50.29816935" lon="-117.77940876">
      </trkpt>
      <trkpt lat="50.29835595" lon="-117.77932831">
      </trkpt>
      <trkpt lat="50.29862471" lon="-117.77930081">
      </trkpt>
      <trkpt lat="50.29881573" lon="-117.77929097">
      </trkpt>
      <trkpt lat="50.29919594" lon="-117.77924665">
      </trkpt>
      <trkpt lat="50.29941849" lon="-117.77923105">
      </trkpt>
      <trkpt lat="50.29963496" lon="-117.77934474">
      </trkpt>
      <trkpt lat="50.29983285" lon="-117.77943016">
      </trkpt>
      <trkpt lat="50.30008036" lon="-117.77953483">
      </trkpt>
      <trkpt lat="50.30023881" lon="-117.77973065">
      </trkpt>
      <trkpt lat="50.30038211" lon="-117.77992727">
      </trkpt>
      <trkpt lat="50.3006282" lon="-117.77980949">
      </trkpt>
      <trkpt lat="50.30082948" lon="-117.77972287">
      </trkpt>
      <trkpt lat="50.30105124" lon="-117.77948273">
      </trkpt>
      <trkpt lat="50.30146508" lon="-117.77903283">
      </trkpt>
      <trkpt lat="50.3015643" lon="-117.7789459">
      </trkpt>
      <trkpt lat="50.30178407" lon="-117.77902462">
      </trkpt>
      <trkpt lat="50.30192725" lon="-117.77922283">
      </trkpt>
      <trkpt lat="50.30225265" lon="-117.7796428">
      </trkpt>
      <trkpt lat="50.30256707" lon="-117.77988057">
      </trkpt>
      <trkpt lat="50.30281826" lon="-117.78003453">
      </trkpt>
      <trkpt lat="50.30305368" lon="-117.78019136">
      </trkpt>
      <trkpt lat="50.30327205" lon="-117.78036317">
      </trkpt>
      <trkpt lat="50.3035135" lon="-117.78035724">
      </trkpt>
      <trkpt lat="50.30370819" lon="-117.78039665">
      </trkpt>
      <trkpt lat="50.30390105" lon="-117.78041144">
      </trkpt>
      <trkpt lat="50.30406421" lon="-117.78046047">
      </trkpt>
      <trkpt lat="50.30423948" lon="-117.78044964">
      </trkpt>
      <trkpt lat="50.30444994" lon="-117.78048618">
      </trkpt>
      <trkpt lat="50.304858" lon="-117.78038686">
      </trkpt>
      <trkpt lat="50.30500356" lon="-117.78041027">
      </trkpt>
      <trkpt lat="50.30512311" lon="-117.78051332">
      </trkpt>
      <trkpt lat="50.30525659" lon="-117.78058887">
      </trkpt>
      <trkpt lat="50.30534666" lon="-117.7808396">
      </trkpt>
      <trkpt lat="50.30536843" lon="-117.78125724">
      </trkpt>
      <trkpt lat="50.30541205" lon="-117.78144202">
      </trkpt>
      <trkpt lat="50.30556314" lon="-117.78148391">
      </trkpt>
      <trkpt lat="50.30576571" lon="-117.78161025">
      </trkpt>
      <trkpt lat="50.30597286" lon="-117.78182463">
      </trkpt>
      <trkpt lat="50.30618776" lon="-117.78171753">
      </trkpt>
      <trkpt lat="50.30635198" lon="-117.78156277">
      </trkpt>
      <trkpt lat="50.30645673" lon="-117.78146651">
      </trkpt>
      <trkpt lat="50.30669436" lon="-117.78122572">
      </trkpt>
      <trkpt lat="50.30692164" lon="-117.78105946">
      </trkpt>
      <trkpt lat="50.30707561" lon="-117.78098146">
      </trkpt>
      <trkpt lat="50.30728897" lon="-117.7808427">
      </trkpt>
      <trkpt lat="50.30750601" lon="-117.78075322">
      </trkpt>
      <trkpt lat="50.30762882" lon="-117.78074118">
      </trkpt>
      <trkpt lat="50.30784548" lon="-117.78059148">
      </trkpt>
      <trkpt lat="50.30804124" lon="-117.78043095">
      </trkpt>
      <trkpt lat="50.30823699" lon="-117.78027042">
      </trkpt>
      <trkpt lat="50.30839097" lon="-117.78019243">
      </trkpt>
      <trkpt lat="50.30862826" lon="-117.7802854">
      </trkpt>
      <trkpt lat="50.30872503" lon="-117.78042286">
      </trkpt>
      <trkpt lat="50.30900843" lon="-117.78032958">
      </trkpt>
      <trkpt lat="50.30908542" lon="-117.78029058">
      </trkpt>
      <trkpt lat="50.30923952" lon="-117.78020317">
      </trkpt>
      <trkpt lat="50.30939337" lon="-117.78013458">
      </trkpt>
      <trkpt lat="50.30961408" lon="-117.78009436">
      </trkpt>
      <trkpt lat="50.30985056" lon="-117.78005125">
      </trkpt>
      <trkpt lat="50.31008703" lon="-117.78000815">
      </trkpt>
      <trkpt lat="50.31026999" lon="-117.7799766">
      </trkpt>
      <trkpt lat="50.31057821" lon="-117.77997531">
      </trkpt>
      <trkpt lat="50.31080013" lon="-117.77992811">
      </trkpt>
      <trkpt lat="50.31111025" lon="-117.77977783">
      </trkpt>
      <trkpt lat="50.31130094" lon="-117.77978689">
      </trkpt>
      <trkpt lat="50.31156492" lon="-117.77990073">
      </trkpt>
      <trkpt lat="50.31177836" lon="-117.77997455">
      </trkpt>
      <trkpt lat="50.31198837" lon="-117.78001045">
      </trkpt>
      <trkpt lat="50.31229571" lon="-117.78005505">
      </trkpt>
      <trkpt lat="50.31256299" lon="-117.78013359">
      </trkpt>
      <trkpt lat="50.31272766" lon="-117.78027598">
      </trkpt>
      <trkpt lat="50.31287708" lon="-117.78041099">
      </trkpt>
      <trkpt lat="50.31305032" lon="-117.78031705">
      </trkpt>
      <trkpt lat="50.31330073" lon="-117.78024643">
      </trkpt>
      <trkpt lat="50.31346661" lon="-117.78026723">
      </trkpt>
      <trkpt lat="50.31378287" lon="-117.78028342">
      </trkpt>
      <trkpt lat="50.31409136" lon="-117.7804402">
      </trkpt>
      <trkpt lat="50.31442819" lon="-117.78036557">
      </trkpt>
      <trkpt lat="50.31455643" lon="-117.78034819">
      </trkpt>
      <trkpt lat="50.31496756" lon="-117.78028644">
      </trkpt>
      <trkpt lat="50.31523054" lon="-117.78036691">
      </trkpt>
      <trkpt lat="50.31544345" lon="-117.78048019">
      </trkpt>
      <trkpt lat="50.31550236" lon="-117.78075137">
      </trkpt>
      <trkpt lat="50.31565472" lon="-117.78112491">
      </trkpt>
      <trkpt lat="50.31573209" lon="-117.78119307">
      </trkpt>
      <trkpt lat="50.31572851" lon="-117.78109052">
      </trkpt>
      <trkpt lat="50.31573144" lon="-117.7808291">
      </trkpt>
      <trkpt lat="50.31569941" lon="-117.78065582">
      </trkpt>
      <trkpt lat="50.31570276" lon="-117.78052824">
      </trkpt>
      <trkpt lat="50.31585929" lon="-117.7802386">
      </trkpt>
      <trkpt lat="50.3159034" lon="-117.7801541">
      </trkpt>
      <trkpt lat="50.3160457" lon="-117.77992101">
      </trkpt>
      <trkpt lat="50.31619709" lon="-117.77977399">
      </trkpt>
      <trkpt lat="50.31629181" lon="-117.77973515">
      </trkpt>
      <trkpt lat="50.31648432" lon="-117.77952759">
      </trkpt>
      <trkpt lat="50.31662409" lon="-117.77935285">
      </trkpt>
      <trkpt lat="50.31676715" lon="-117.77922228">
      </trkpt>
      <trkpt lat="50.31686203" lon="-117.77920768">
      </trkpt>
      <trkpt lat="50.31697618" lon="-117.77907967">
      </trkpt>
      <trkpt lat="50.31722619" lon="-117.77897439">
      </trkpt>
      <trkpt lat="50.31737695" lon="-117.7789469">
      </trkpt>
      <trkpt lat="50.3175654" lon="-117.77891254">
      </trkpt>
      <trkpt lat="50.31781038" lon="-117.77886788">
      </trkpt>
      <trkpt lat="50.31798108" lon="-117.77885168">
      </trkpt>
      <trkpt lat="50.31811629" lon="-117.7788718">
      </trkpt>
      <trkpt lat="50.31825354" lon="-117.77893592">
      </trkpt>
      <trkpt lat="50.31849759" lon="-117.778862">
      </trkpt>
      <trkpt lat="50.31871541" lon="-117.7788372">
      </trkpt>
      <trkpt lat="50.31896577" lon="-117.77892088">
      </trkpt>
      <trkpt lat="50.31917647" lon="-117.77887256">
      </trkpt>
      <trkpt lat="50.31939125" lon="-117.77890839">
      </trkpt>
      <trkpt lat="50.31950845" lon="-117.77884188">
      </trkpt>
      <trkpt lat="50.3196443" lon="-117.77874247">
      </trkpt>
      <trkpt lat="50.31976742" lon="-117.77860061">
      </trkpt>
      <trkpt lat="50.31988944" lon="-117.778444">
      </trkpt>
      <trkpt lat="50.32002151" lon="-117.77816615">
      </trkpt>
      <trkpt lat="50.32016347" lon="-117.77802084">
      </trkpt>
      <trkpt lat="50.32028018" lon="-117.77793879">
      </trkpt>
      <trkpt lat="50.32040139" lon="-117.77775353">
      </trkpt>
      <trkpt lat="50.32059549" lon="-117.777539">
      </trkpt>
      <trkpt lat="50.32072913" lon="-117.77741013">
      </trkpt>
      <trkpt lat="50.32087329" lon="-117.77729427">
      </trkpt>
      <trkpt lat="50.32099548" lon="-117.77723417">
      </trkpt>
      <trkpt lat="50.3211178" lon="-117.77711533">
      </trkpt>
      <trkpt lat="50.3213185" lon="-117.77698915">
      </trkpt>
      <trkpt lat="50.32145544" lon="-117.77690446">
      </trkpt>
      <trkpt lat="50.32155299" lon="-117.77689892">
      </trkpt>
      <trkpt lat="50.32169147" lon="-117.77699577">
      </trkpt>
      <trkpt lat="50.32183329" lon="-117.77712955">
      </trkpt>
      <trkpt lat="50.32196456" lon="-117.77719976">
      </trkpt>
      <trkpt lat="50.32210244" lon="-117.7773836">
      </trkpt>
      <trkpt lat="50.32228804" lon="-117.77759082">
      </trkpt>
      <trkpt lat="50.32240427" lon="-117.77771669">
      </trkpt>
      <trkpt lat="50.32251609" lon="-117.77793517">
      </trkpt>
      <trkpt lat="50.3226213" lon="-117.77806527">
      </trkpt>
      <trkpt lat="50.32276935" lon="-117.77825289">
      </trkpt>
      <trkpt lat="50.3228688" lon="-117.77843814">
      </trkpt>
      <trkpt lat="50.32293853" lon="-117.77860457">
      </trkpt>
      <trkpt lat="50.32302097" lon="-117.77881347">
      </trkpt>
      <trkpt lat="50.32312116" lon="-117.7790042">
      </trkpt>
      <trkpt lat="50.32322575" lon="-117.77925385">
      </trkpt>
      <trkpt lat="50.32338734" lon="-117.77962747">
      </trkpt>
      <trkpt lat="50.32345486" lon="-117.77976444">
      </trkpt>
      <trkpt lat="50.32350904" lon="-117.7799785">
      </trkpt>
      <trkpt lat="50.32357965" lon="-117.78025055">
      </trkpt>
      <trkpt lat="50.32367785" lon="-117.78032095">
      </trkpt>
      <trkpt lat="50.32382688" lon="-117.78039828">
      </trkpt>
      <trkpt lat="50.32400601" lon="-117.78048919">
      </trkpt>
      <trkpt lat="50.32400464" lon="-117.78060474">
      </trkpt>
      <trkpt lat="50.32403714" lon="-117.78091232">
      </trkpt>
      <trkpt lat="50.32405033" lon="-117.78108906">
      </trkpt>
      <trkpt lat="50.32407925" lon="-117.7814596">
      </trkpt>
      <trkpt lat="50.32411595" lon="-117.7815847">
      </trkpt>
      <trkpt lat="50.32422164" lon="-117.78184909">
      </trkpt>
      <trkpt lat="50.32432505" lon="-117.78209435">
      </trkpt>
      <trkpt lat="50.32439813" lon="-117.78229465">
      </trkpt>
      <trkpt lat="50.32449612" lon="-117.78245593">
      </trkpt>
      <trkpt lat="50.32466369" lon="-117.7826286">
      </trkpt>
      <trkpt lat="50.32478851" lon="-117.78279081">
      </trkpt>
      <trkpt lat="50.32489842" lon="-117.78298365">
      </trkpt>
      <trkpt lat="50.32495166" lon="-117.78331346">
      </trkpt>
      <trkpt lat="50.32492197" lon="-117.78363465">
      </trkpt>
      <trkpt lat="50.32490969" lon="-117.78390334">
      </trkpt>
      <trkpt lat="50.32493935" lon="-117.78430103">
      </trkpt>
      <trkpt lat="50.32497796" lon="-117.78456272">
      </trkpt>
      <trkpt lat="50.32507043" lon="-117.78477401">
      </trkpt>
      <trkpt lat="50.32522983" lon="-117.78499457">
      </trkpt>
      <trkpt lat="50.32532169" lon="-117.78520177">
      </trkpt>
      <trkpt lat="50.32540302" lon="-117.78539596">
      </trkpt>
      <trkpt lat="50.32549817" lon="-117.78564735">
      </trkpt>
      <trkpt lat="50.32554072" lon="-117.78583369">
      </trkpt>
      <trkpt lat="50.32561089" lon="-117.78613441">
      </trkpt>
    </trkseg>
  </trk>
</gpx>