<?xml version="1.0" encoding="UTF-8"?>
<gpx xmlns="http://www.topografix.com/GPX/1/1" xmlns:xsi="http://www.w3.org/2001/XMLSchema-instance" xsi:schemaLocation="http://www.topografix.com/GPX/1/1 http://www.topografix.com/GPX/1/1/gpx.xsd" version="1.1" creator="gpx.py -- https://github.com/tkrajina/gpxpy">
  <trk>
    <name>McKean Lake Trail</name>
    <trkseg>
      <trkpt lat="49.801579" lon="-117.848259">
      </trkpt>
      <trkpt lat="49.801592" lon="-117.848261">
      </trkpt>
      <trkpt lat="49.801628" lon="-117.84823899">
      </trkpt>
      <trkpt lat="49.801626" lon="-117.848234">
      </trkpt>
      <trkpt lat="49.801691" lon="-117.848121">
      </trkpt>
      <trkpt lat="49.801718" lon="-117.848037">
      </trkpt>
      <trkpt lat="49.801718" lon="-117.848031">
      </trkpt>
      <trkpt lat="49.801731" lon="-117.847989">
      </trkpt>
      <trkpt lat="49.801764" lon="-117.84775899">
      </trkpt>
      <trkpt lat="49.801772" lon="-117.84767001">
      </trkpt>
      <trkpt lat="49.801774" lon="-117.847643">
      </trkpt>
      <trkpt lat="49.801772" lon="-117.84756">
      </trkpt>
      <trkpt lat="49.801855" lon="-117.847345">
      </trkpt>
      <trkpt lat="49.801869" lon="-117.84730901">
      </trkpt>
      <trkpt lat="49.801916" lon="-117.84728">
      </trkpt>
      <trkpt lat="49.801938" lon="-117.847263">
      </trkpt>
      <trkpt lat="49.801903" lon="-117.847188">
      </trkpt>
      <trkpt lat="49.801904" lon="-117.847172">
      </trkpt>
      <trkpt lat="49.801926" lon="-117.847011">
      </trkpt>
      <trkpt lat="49.801933" lon="-117.84695101">
      </trkpt>
      <trkpt lat="49.801969" lon="-117.84686801">
      </trkpt>
      <trkpt lat="49.802" lon="-117.846759">
      </trkpt>
      <trkpt lat="49.802078" lon="-117.84666199">
      </trkpt>
      <trkpt lat="49.802093" lon="-117.846643">
      </trkpt>
      <trkpt lat="49.802141" lon="-117.846614">
      </trkpt>
      <trkpt lat="49.802182" lon="-117.846476">
      </trkpt>
      <trkpt lat="49.802197" lon="-117.84642101">
      </trkpt>
      <trkpt lat="49.802234" lon="-117.84635901">
      </trkpt>
      <trkpt lat="49.8023" lon="-117.846329">
      </trkpt>
      <trkpt lat="49.802346" lon="-117.846318">
      </trkpt>
      <trkpt lat="49.802446" lon="-117.846239">
      </trkpt>
      <trkpt lat="49.802534" lon="-117.84622499">
      </trkpt>
      <trkpt lat="49.802611" lon="-117.846165">
      </trkpt>
      <trkpt lat="49.80274" lon="-117.846087">
      </trkpt>
      <trkpt lat="49.802781" lon="-117.84606499">
      </trkpt>
      <trkpt lat="49.802876" lon="-117.84603301">
      </trkpt>
      <trkpt lat="49.802963" lon="-117.846003">
      </trkpt>
      <trkpt lat="49.80299" lon="-117.84599">
      </trkpt>
      <trkpt lat="49.803003" lon="-117.845981">
      </trkpt>
      <trkpt lat="49.803071" lon="-117.84579401">
      </trkpt>
      <trkpt lat="49.803133" lon="-117.845728">
      </trkpt>
      <trkpt lat="49.803171" lon="-117.84568399">
      </trkpt>
      <trkpt lat="49.803211" lon="-117.845603">
      </trkpt>
      <trkpt lat="49.803249" lon="-117.845431">
      </trkpt>
      <trkpt lat="49.803252" lon="-117.845401">
      </trkpt>
      <trkpt lat="49.803319" lon="-117.84528701">
      </trkpt>
      <trkpt lat="49.803339" lon="-117.84513801">
      </trkpt>
      <trkpt lat="49.803359" lon="-117.845046">
      </trkpt>
      <trkpt lat="49.803393" lon="-117.844962">
      </trkpt>
      <trkpt lat="49.803396" lon="-117.84496999">
      </trkpt>
      <trkpt lat="49.803386" lon="-117.84491301">
      </trkpt>
      <trkpt lat="49.803413" lon="-117.844825">
      </trkpt>
      <trkpt lat="49.803465" lon="-117.844698">
      </trkpt>
      <trkpt lat="49.803496" lon="-117.844597">
      </trkpt>
      <trkpt lat="49.803523" lon="-117.84453499">
      </trkpt>
      <trkpt lat="49.803647" lon="-117.844424">
      </trkpt>
      <trkpt lat="49.803701" lon="-117.844363">
      </trkpt>
      <trkpt lat="49.803721" lon="-117.84430201">
      </trkpt>
      <trkpt lat="49.803765" lon="-117.84426501">
      </trkpt>
      <trkpt lat="49.803816" lon="-117.844215">
      </trkpt>
      <trkpt lat="49.803896" lon="-117.844128">
      </trkpt>
      <trkpt lat="49.803967" lon="-117.844099">
      </trkpt>
      <trkpt lat="49.804028" lon="-117.843923">
      </trkpt>
      <trkpt lat="49.804058" lon="-117.84389201">
      </trkpt>
      <trkpt lat="49.804128" lon="-117.843823">
      </trkpt>
      <trkpt lat="49.80413" lon="-117.84382">
      </trkpt>
      <trkpt lat="49.804144" lon="-117.843774">
      </trkpt>
      <trkpt lat="49.804155" lon="-117.84373199">
      </trkpt>
      <trkpt lat="49.804144" lon="-117.843694">
      </trkpt>
      <trkpt lat="49.804127" lon="-117.843634">
      </trkpt>
      <trkpt lat="49.804095" lon="-117.843635">
      </trkpt>
      <trkpt lat="49.804089" lon="-117.843588">
      </trkpt>
      <trkpt lat="49.804076" lon="-117.843541">
      </trkpt>
      <trkpt lat="49.804067" lon="-117.843519">
      </trkpt>
      <trkpt lat="49.804061" lon="-117.843518">
      </trkpt>
      <trkpt lat="49.804028" lon="-117.84346699">
      </trkpt>
      <trkpt lat="49.803984" lon="-117.84327799">
      </trkpt>
      <trkpt lat="49.803985" lon="-117.843243">
      </trkpt>
      <trkpt lat="49.803975" lon="-117.84318299">
      </trkpt>
      <trkpt lat="49.803913" lon="-117.843081">
      </trkpt>
      <trkpt lat="49.803889" lon="-117.84302999">
      </trkpt>
      <trkpt lat="49.803848" lon="-117.84299">
      </trkpt>
      <trkpt lat="49.803793" lon="-117.842999">
      </trkpt>
      <trkpt lat="49.803757" lon="-117.84298601">
      </trkpt>
      <trkpt lat="49.803741" lon="-117.842976">
      </trkpt>
      <trkpt lat="49.8037" lon="-117.84297201">
      </trkpt>
      <trkpt lat="49.803666" lon="-117.842945">
      </trkpt>
      <trkpt lat="49.80363" lon="-117.842948">
      </trkpt>
      <trkpt lat="49.803604" lon="-117.842875">
      </trkpt>
      <trkpt lat="49.803583" lon="-117.842855">
      </trkpt>
      <trkpt lat="49.803562" lon="-117.842859">
      </trkpt>
      <trkpt lat="49.803498" lon="-117.842826">
      </trkpt>
      <trkpt lat="49.803389" lon="-117.84285999">
      </trkpt>
      <trkpt lat="49.803335" lon="-117.842742">
      </trkpt>
      <trkpt lat="49.80343" lon="-117.84224701">
      </trkpt>
      <trkpt lat="49.803447" lon="-117.84213">
      </trkpt>
      <trkpt lat="49.803469" lon="-117.842022">
      </trkpt>
      <trkpt lat="49.803481" lon="-117.842006">
      </trkpt>
      <trkpt lat="49.803507" lon="-117.841979">
      </trkpt>
      <trkpt lat="49.803559" lon="-117.841939">
      </trkpt>
      <trkpt lat="49.803611" lon="-117.84189699">
      </trkpt>
      <trkpt lat="49.80361" lon="-117.841884">
      </trkpt>
      <trkpt lat="49.803578" lon="-117.84178099">
      </trkpt>
      <trkpt lat="49.803586" lon="-117.841741">
      </trkpt>
      <trkpt lat="49.803537" lon="-117.841672">
      </trkpt>
      <trkpt lat="49.803522" lon="-117.841556">
      </trkpt>
      <trkpt lat="49.803515" lon="-117.84148599">
      </trkpt>
      <trkpt lat="49.803515" lon="-117.84134001">
      </trkpt>
      <trkpt lat="49.803489" lon="-117.841287">
      </trkpt>
      <trkpt lat="49.803483" lon="-117.841263">
      </trkpt>
      <trkpt lat="49.803457" lon="-117.841185">
      </trkpt>
      <trkpt lat="49.803432" lon="-117.841131">
      </trkpt>
      <trkpt lat="49.80343" lon="-117.841069">
      </trkpt>
      <trkpt lat="49.8034" lon="-117.840962">
      </trkpt>
      <trkpt lat="49.803376" lon="-117.840888">
      </trkpt>
      <trkpt lat="49.803329" lon="-117.84085299">
      </trkpt>
      <trkpt lat="49.803328" lon="-117.840844">
      </trkpt>
      <trkpt lat="49.803188" lon="-117.840828">
      </trkpt>
      <trkpt lat="49.803092" lon="-117.840888">
      </trkpt>
      <trkpt lat="49.80308" lon="-117.84087799">
      </trkpt>
      <trkpt lat="49.80306" lon="-117.840778">
      </trkpt>
      <trkpt lat="49.803003" lon="-117.840695">
      </trkpt>
      <trkpt lat="49.802963" lon="-117.84042899">
      </trkpt>
      <trkpt lat="49.802957" lon="-117.840413">
      </trkpt>
      <trkpt lat="49.802971" lon="-117.84025399">
      </trkpt>
      <trkpt lat="49.802945" lon="-117.840142">
      </trkpt>
      <trkpt lat="49.802937" lon="-117.84012901">
      </trkpt>
      <trkpt lat="49.802924" lon="-117.84013">
      </trkpt>
      <trkpt lat="49.802956" lon="-117.839934">
      </trkpt>
      <trkpt lat="49.80294" lon="-117.839921">
      </trkpt>
      <trkpt lat="49.8029" lon="-117.839954">
      </trkpt>
      <trkpt lat="49.802883" lon="-117.84000501">
      </trkpt>
      <trkpt lat="49.802836" lon="-117.839905">
      </trkpt>
      <trkpt lat="49.802798" lon="-117.839784">
      </trkpt>
      <trkpt lat="49.802806" lon="-117.83977299">
      </trkpt>
      <trkpt lat="49.802845" lon="-117.839602">
      </trkpt>
      <trkpt lat="49.80284" lon="-117.839471">
      </trkpt>
      <trkpt lat="49.802829" lon="-117.83944">
      </trkpt>
      <trkpt lat="49.802786" lon="-117.83941101">
      </trkpt>
      <trkpt lat="49.802772" lon="-117.83938">
      </trkpt>
      <trkpt lat="49.802717" lon="-117.839261">
      </trkpt>
      <trkpt lat="49.802703" lon="-117.83924499">
      </trkpt>
      <trkpt lat="49.802678" lon="-117.839072">
      </trkpt>
      <trkpt lat="49.802664" lon="-117.839057">
      </trkpt>
      <trkpt lat="49.80264" lon="-117.839022">
      </trkpt>
      <trkpt lat="49.802608" lon="-117.838978">
      </trkpt>
      <trkpt lat="49.802579" lon="-117.838964">
      </trkpt>
      <trkpt lat="49.802564" lon="-117.838945">
      </trkpt>
      <trkpt lat="49.80256" lon="-117.838932">
      </trkpt>
      <trkpt lat="49.802499" lon="-117.838931">
      </trkpt>
      <trkpt lat="49.802443" lon="-117.838866">
      </trkpt>
      <trkpt lat="49.802392" lon="-117.838777">
      </trkpt>
      <trkpt lat="49.802326" lon="-117.838788">
      </trkpt>
      <trkpt lat="49.802244" lon="-117.83866401">
      </trkpt>
      <trkpt lat="49.802269" lon="-117.838448">
      </trkpt>
      <trkpt lat="49.802219" lon="-117.838356">
      </trkpt>
      <trkpt lat="49.802164" lon="-117.83825801">
      </trkpt>
      <trkpt lat="49.802163" lon="-117.838171">
      </trkpt>
      <trkpt lat="49.802186" lon="-117.837972">
      </trkpt>
      <trkpt lat="49.802196" lon="-117.83785601">
      </trkpt>
      <trkpt lat="49.802174" lon="-117.83785">
      </trkpt>
      <trkpt lat="49.80217" lon="-117.837843">
      </trkpt>
      <trkpt lat="49.802097" lon="-117.837843">
      </trkpt>
      <trkpt lat="49.802067" lon="-117.837738">
      </trkpt>
      <trkpt lat="49.802009" lon="-117.837746">
      </trkpt>
      <trkpt lat="49.802001" lon="-117.837759">
      </trkpt>
      <trkpt lat="49.801935" lon="-117.837788">
      </trkpt>
      <trkpt lat="49.801877" lon="-117.83770799">
      </trkpt>
      <trkpt lat="49.80187592" lon="-117.83769885">
      </trkpt>
      <trkpt lat="49.80187234" lon="-117.83769697">
      </trkpt>
      <trkpt lat="49.80186957" lon="-117.83769487">
      </trkpt>
      <trkpt lat="49.801874" lon="-117.83753299">
      </trkpt>
      <trkpt lat="49.801926" lon="-117.837262">
      </trkpt>
      <trkpt lat="49.801921" lon="-117.837188">
      </trkpt>
      <trkpt lat="49.801915" lon="-117.83717101">
      </trkpt>
      <trkpt lat="49.80192" lon="-117.837064">
      </trkpt>
      <trkpt lat="49.801937" lon="-117.836973">
      </trkpt>
      <trkpt lat="49.801936" lon="-117.836911">
      </trkpt>
      <trkpt lat="49.801937" lon="-117.836804">
      </trkpt>
      <trkpt lat="49.801966" lon="-117.836679">
      </trkpt>
      <trkpt lat="49.801952" lon="-117.836656">
      </trkpt>
      <trkpt lat="49.801944" lon="-117.836635">
      </trkpt>
      <trkpt lat="49.801972" lon="-117.83653501">
      </trkpt>
      <trkpt lat="49.801962" lon="-117.836511">
      </trkpt>
      <trkpt lat="49.801958" lon="-117.836434">
      </trkpt>
      <trkpt lat="49.801959" lon="-117.836411">
      </trkpt>
      <trkpt lat="49.801969" lon="-117.83635801">
      </trkpt>
      <trkpt lat="49.80197" lon="-117.836351">
      </trkpt>
      <trkpt lat="49.801951" lon="-117.83631301">
      </trkpt>
      <trkpt lat="49.801929" lon="-117.83625">
      </trkpt>
      <trkpt lat="49.801939" lon="-117.83619301">
      </trkpt>
      <trkpt lat="49.801967" lon="-117.836108">
      </trkpt>
      <trkpt lat="49.801907" lon="-117.83604799">
      </trkpt>
      <trkpt lat="49.801864" lon="-117.835949">
      </trkpt>
      <trkpt lat="49.801856" lon="-117.83593401">
      </trkpt>
      <trkpt lat="49.80184" lon="-117.835868">
      </trkpt>
      <trkpt lat="49.801828" lon="-117.83574299">
      </trkpt>
      <trkpt lat="49.801836" lon="-117.835681">
      </trkpt>
      <trkpt lat="49.801821" lon="-117.83557">
      </trkpt>
      <trkpt lat="49.801821" lon="-117.835564">
      </trkpt>
      <trkpt lat="49.801822" lon="-117.835553">
      </trkpt>
      <trkpt lat="49.80181" lon="-117.835546">
      </trkpt>
      <trkpt lat="49.80183" lon="-117.835501">
      </trkpt>
      <trkpt lat="49.801833" lon="-117.83547099">
      </trkpt>
      <trkpt lat="49.801822" lon="-117.835362">
      </trkpt>
      <trkpt lat="49.801856" lon="-117.83534001">
      </trkpt>
      <trkpt lat="49.801905" lon="-117.835193">
      </trkpt>
      <trkpt lat="49.801931" lon="-117.835118">
      </trkpt>
      <trkpt lat="49.801967" lon="-117.835087">
      </trkpt>
      <trkpt lat="49.802008" lon="-117.835062">
      </trkpt>
      <trkpt lat="49.802014" lon="-117.83504299">
      </trkpt>
      <trkpt lat="49.802026" lon="-117.83499999">
      </trkpt>
      <trkpt lat="49.802082" lon="-117.83484601">
      </trkpt>
      <trkpt lat="49.802174" lon="-117.834699">
      </trkpt>
      <trkpt lat="49.802263" lon="-117.834617">
      </trkpt>
      <trkpt lat="49.802337" lon="-117.834579">
      </trkpt>
      <trkpt lat="49.802567" lon="-117.834563">
      </trkpt>
      <trkpt lat="49.802584" lon="-117.834541">
      </trkpt>
      <trkpt lat="49.802605" lon="-117.834473">
      </trkpt>
      <trkpt lat="49.802608" lon="-117.834473">
      </trkpt>
      <trkpt lat="49.8026" lon="-117.83439">
      </trkpt>
      <trkpt lat="49.802615" lon="-117.83435101">
      </trkpt>
      <trkpt lat="49.802699" lon="-117.83434901">
      </trkpt>
      <trkpt lat="49.802747" lon="-117.834386">
      </trkpt>
      <trkpt lat="49.802766" lon="-117.834379">
      </trkpt>
      <trkpt lat="49.802894" lon="-117.834428">
      </trkpt>
      <trkpt lat="49.802963" lon="-117.834515">
      </trkpt>
      <trkpt lat="49.802967" lon="-117.83454">
      </trkpt>
      <trkpt lat="49.802994" lon="-117.83457399">
      </trkpt>
      <trkpt lat="49.803086" lon="-117.834614">
      </trkpt>
      <trkpt lat="49.803121" lon="-117.834684">
      </trkpt>
      <trkpt lat="49.803182" lon="-117.834767">
      </trkpt>
      <trkpt lat="49.803322" lon="-117.834963">
      </trkpt>
      <trkpt lat="49.803367" lon="-117.83506499">
      </trkpt>
      <trkpt lat="49.803437" lon="-117.835169">
      </trkpt>
      <trkpt lat="49.803471" lon="-117.83519101">
      </trkpt>
      <trkpt lat="49.803633" lon="-117.83526301">
      </trkpt>
      <trkpt lat="49.803709" lon="-117.83531901">
      </trkpt>
      <trkpt lat="49.803802" lon="-117.83529801">
      </trkpt>
      <trkpt lat="49.803806" lon="-117.835293">
      </trkpt>
      <trkpt lat="49.803851" lon="-117.83523">
      </trkpt>
      <trkpt lat="49.803936" lon="-117.835143">
      </trkpt>
      <trkpt lat="49.803976" lon="-117.835071">
      </trkpt>
      <trkpt lat="49.804049" lon="-117.835017">
      </trkpt>
      <trkpt lat="49.804154" lon="-117.834984">
      </trkpt>
      <trkpt lat="49.804293" lon="-117.834915">
      </trkpt>
      <trkpt lat="49.804379" lon="-117.83482199">
      </trkpt>
      <trkpt lat="49.804395" lon="-117.834805">
      </trkpt>
      <trkpt lat="49.804471" lon="-117.834769">
      </trkpt>
      <trkpt lat="49.804479" lon="-117.834766">
      </trkpt>
      <trkpt lat="49.804552" lon="-117.834752">
      </trkpt>
      <trkpt lat="49.804621" lon="-117.834758">
      </trkpt>
      <trkpt lat="49.804676" lon="-117.834741">
      </trkpt>
      <trkpt lat="49.80479" lon="-117.83483801">
      </trkpt>
      <trkpt lat="49.804867" lon="-117.83485799">
      </trkpt>
      <trkpt lat="49.804873" lon="-117.834848">
      </trkpt>
      <trkpt lat="49.80489404" lon="-117.83479698">
      </trkpt>
      <trkpt lat="49.804903" lon="-117.83493501">
      </trkpt>
      <trkpt lat="49.804895" lon="-117.834971">
      </trkpt>
      <trkpt lat="49.804891" lon="-117.835">
      </trkpt>
      <trkpt lat="49.804949" lon="-117.835102">
      </trkpt>
      <trkpt lat="49.804959" lon="-117.835116">
      </trkpt>
      <trkpt lat="49.805024" lon="-117.835238">
      </trkpt>
      <trkpt lat="49.805038" lon="-117.835248">
      </trkpt>
      <trkpt lat="49.805086" lon="-117.83526201">
      </trkpt>
      <trkpt lat="49.805191" lon="-117.835245">
      </trkpt>
      <trkpt lat="49.805281" lon="-117.83527799">
      </trkpt>
      <trkpt lat="49.805307" lon="-117.835274">
      </trkpt>
      <trkpt lat="49.80535" lon="-117.83535501">
      </trkpt>
      <trkpt lat="49.805369" lon="-117.83536599">
      </trkpt>
      <trkpt lat="49.80544" lon="-117.835442">
      </trkpt>
      <trkpt lat="49.805456" lon="-117.835472">
      </trkpt>
      <trkpt lat="49.805526" lon="-117.835551">
      </trkpt>
      <trkpt lat="49.805589" lon="-117.835659">
      </trkpt>
      <trkpt lat="49.805619" lon="-117.835698">
      </trkpt>
      <trkpt lat="49.805691" lon="-117.83573">
      </trkpt>
      <trkpt lat="49.805729" lon="-117.835722">
      </trkpt>
      <trkpt lat="49.805829" lon="-117.835747">
      </trkpt>
      <trkpt lat="49.805846" lon="-117.835727">
      </trkpt>
      <trkpt lat="49.805931" lon="-117.835665">
      </trkpt>
      <trkpt lat="49.805955" lon="-117.835678">
      </trkpt>
      <trkpt lat="49.80597" lon="-117.835693">
      </trkpt>
      <trkpt lat="49.806" lon="-117.835683">
      </trkpt>
      <trkpt lat="49.806047" lon="-117.835652">
      </trkpt>
      <trkpt lat="49.806104" lon="-117.835604">
      </trkpt>
      <trkpt lat="49.806161" lon="-117.835501">
      </trkpt>
      <trkpt lat="49.806214" lon="-117.83549599">
      </trkpt>
      <trkpt lat="49.806238" lon="-117.835505">
      </trkpt>
      <trkpt lat="49.806257" lon="-117.835407">
      </trkpt>
      <trkpt lat="49.806307" lon="-117.835336">
      </trkpt>
      <trkpt lat="49.806341" lon="-117.835274">
      </trkpt>
      <trkpt lat="49.806346" lon="-117.83523899">
      </trkpt>
      <trkpt lat="49.806371" lon="-117.83519699">
      </trkpt>
      <trkpt lat="49.806377" lon="-117.835078">
      </trkpt>
      <trkpt lat="49.806382" lon="-117.835063">
      </trkpt>
      <trkpt lat="49.806389" lon="-117.83504501">
      </trkpt>
      <trkpt lat="49.806432" lon="-117.835003">
      </trkpt>
      <trkpt lat="49.806474" lon="-117.835008">
      </trkpt>
      <trkpt lat="49.806499" lon="-117.835012">
      </trkpt>
      <trkpt lat="49.806534" lon="-117.83508199">
      </trkpt>
      <trkpt lat="49.806545" lon="-117.835099">
      </trkpt>
      <trkpt lat="49.806601" lon="-117.835128">
      </trkpt>
      <trkpt lat="49.806626" lon="-117.835151">
      </trkpt>
      <trkpt lat="49.806692" lon="-117.83515">
      </trkpt>
      <trkpt lat="49.806698" lon="-117.835101">
      </trkpt>
      <trkpt lat="49.806701" lon="-117.834971">
      </trkpt>
      <trkpt lat="49.806748" lon="-117.834862">
      </trkpt>
      <trkpt lat="49.806796" lon="-117.834799">
      </trkpt>
      <trkpt lat="49.806794" lon="-117.83475699">
      </trkpt>
      <trkpt lat="49.806796" lon="-117.834644">
      </trkpt>
      <trkpt lat="49.806797" lon="-117.834561">
      </trkpt>
      <trkpt lat="49.806824" lon="-117.834455">
      </trkpt>
      <trkpt lat="49.806827" lon="-117.834397">
      </trkpt>
      <trkpt lat="49.806841" lon="-117.83432">
      </trkpt>
      <trkpt lat="49.806818" lon="-117.834258">
      </trkpt>
      <trkpt lat="49.806797" lon="-117.83421499">
      </trkpt>
      <trkpt lat="49.806749" lon="-117.834161">
      </trkpt>
      <trkpt lat="49.806694" lon="-117.834068">
      </trkpt>
      <trkpt lat="49.80665" lon="-117.83400301">
      </trkpt>
      <trkpt lat="49.806614" lon="-117.833959">
      </trkpt>
      <trkpt lat="49.806563" lon="-117.833913">
      </trkpt>
      <trkpt lat="49.806457" lon="-117.833808">
      </trkpt>
      <trkpt lat="49.806432" lon="-117.83376901">
      </trkpt>
      <trkpt lat="49.806363" lon="-117.833622">
      </trkpt>
      <trkpt lat="49.806338" lon="-117.833486">
      </trkpt>
      <trkpt lat="49.806333" lon="-117.833429">
      </trkpt>
      <trkpt lat="49.806276" lon="-117.83333501">
      </trkpt>
      <trkpt lat="49.806262" lon="-117.833231">
      </trkpt>
      <trkpt lat="49.806259" lon="-117.83321499">
      </trkpt>
      <trkpt lat="49.806299" lon="-117.833101">
      </trkpt>
      <trkpt lat="49.806307" lon="-117.833062">
      </trkpt>
      <trkpt lat="49.806301" lon="-117.83305299">
      </trkpt>
      <trkpt lat="49.80633" lon="-117.832929">
      </trkpt>
      <trkpt lat="49.80634" lon="-117.832917">
      </trkpt>
      <trkpt lat="49.80636" lon="-117.832887">
      </trkpt>
      <trkpt lat="49.806379" lon="-117.83285101">
      </trkpt>
      <trkpt lat="49.806364" lon="-117.83284499">
      </trkpt>
      <trkpt lat="49.806338" lon="-117.832815">
      </trkpt>
      <trkpt lat="49.806331" lon="-117.83280201">
      </trkpt>
      <trkpt lat="49.806353" lon="-117.832754">
      </trkpt>
      <trkpt lat="49.80636" lon="-117.832741">
      </trkpt>
      <trkpt lat="49.806442" lon="-117.832682">
      </trkpt>
      <trkpt lat="49.806487" lon="-117.832684">
      </trkpt>
      <trkpt lat="49.806485" lon="-117.83266299">
      </trkpt>
      <trkpt lat="49.806501" lon="-117.83260399">
      </trkpt>
      <trkpt lat="49.806561" lon="-117.832565">
      </trkpt>
      <trkpt lat="49.806594" lon="-117.832558">
      </trkpt>
      <trkpt lat="49.806583" lon="-117.832502">
      </trkpt>
      <trkpt lat="49.806577" lon="-117.832465">
      </trkpt>
      <trkpt lat="49.806565" lon="-117.832355">
      </trkpt>
      <trkpt lat="49.806588" lon="-117.832335">
      </trkpt>
      <trkpt lat="49.806595" lon="-117.832261">
      </trkpt>
      <trkpt lat="49.806593" lon="-117.83216701">
      </trkpt>
      <trkpt lat="49.80661" lon="-117.83209101">
      </trkpt>
      <trkpt lat="49.806611" lon="-117.832013">
      </trkpt>
      <trkpt lat="49.806601" lon="-117.832004">
      </trkpt>
      <trkpt lat="49.806597" lon="-117.832006">
      </trkpt>
      <trkpt lat="49.806593" lon="-117.831995">
      </trkpt>
      <trkpt lat="49.806583" lon="-117.831959">
      </trkpt>
      <trkpt lat="49.806617" lon="-117.83194001">
      </trkpt>
      <trkpt lat="49.80664" lon="-117.831881">
      </trkpt>
      <trkpt lat="49.806645" lon="-117.831879">
      </trkpt>
      <trkpt lat="49.806691" lon="-117.83189299">
      </trkpt>
      <trkpt lat="49.806726" lon="-117.831848">
      </trkpt>
      <trkpt lat="49.806788" lon="-117.83185499">
      </trkpt>
      <trkpt lat="49.80685" lon="-117.831865">
      </trkpt>
      <trkpt lat="49.806887" lon="-117.831842">
      </trkpt>
      <trkpt lat="49.806942" lon="-117.831767">
      </trkpt>
      <trkpt lat="49.807" lon="-117.831689">
      </trkpt>
      <trkpt lat="49.807028" lon="-117.83160599">
      </trkpt>
      <trkpt lat="49.807051" lon="-117.831593">
      </trkpt>
      <trkpt lat="49.807098" lon="-117.831618">
      </trkpt>
      <trkpt lat="49.807145" lon="-117.83161801">
      </trkpt>
      <trkpt lat="49.807189" lon="-117.831582">
      </trkpt>
      <trkpt lat="49.807257" lon="-117.831458">
      </trkpt>
      <trkpt lat="49.807298" lon="-117.831439">
      </trkpt>
      <trkpt lat="49.807344" lon="-117.831342">
      </trkpt>
      <trkpt lat="49.807415" lon="-117.831255">
      </trkpt>
      <trkpt lat="49.807457" lon="-117.831226">
      </trkpt>
      <trkpt lat="49.807477" lon="-117.83121101">
      </trkpt>
      <trkpt lat="49.807515" lon="-117.831192">
      </trkpt>
      <trkpt lat="49.807615" lon="-117.83116499">
      </trkpt>
      <trkpt lat="49.807666" lon="-117.831085">
      </trkpt>
      <trkpt lat="49.807675" lon="-117.83106999">
      </trkpt>
      <trkpt lat="49.807694" lon="-117.831048">
      </trkpt>
      <trkpt lat="49.807747" lon="-117.830919">
      </trkpt>
      <trkpt lat="49.807762" lon="-117.83089899">
      </trkpt>
      <trkpt lat="49.807815" lon="-117.83077">
      </trkpt>
      <trkpt lat="49.807818" lon="-117.83076199">
      </trkpt>
      <trkpt lat="49.807834" lon="-117.830734">
      </trkpt>
      <trkpt lat="49.807857" lon="-117.830676">
      </trkpt>
      <trkpt lat="49.807966" lon="-117.830603">
      </trkpt>
      <trkpt lat="49.808023" lon="-117.83058899">
      </trkpt>
      <trkpt lat="49.808066" lon="-117.830554">
      </trkpt>
      <trkpt lat="49.808107" lon="-117.83045701">
      </trkpt>
      <trkpt lat="49.80811" lon="-117.830417">
      </trkpt>
      <trkpt lat="49.808143" lon="-117.830384">
      </trkpt>
      <trkpt lat="49.808215" lon="-117.830377">
      </trkpt>
      <trkpt lat="49.808274" lon="-117.830287">
      </trkpt>
      <trkpt lat="49.808321" lon="-117.83011101">
      </trkpt>
      <trkpt lat="49.808332" lon="-117.830103">
      </trkpt>
      <trkpt lat="49.808352" lon="-117.830103">
      </trkpt>
      <trkpt lat="49.808432" lon="-117.830042">
      </trkpt>
      <trkpt lat="49.808505" lon="-117.829916">
      </trkpt>
      <trkpt lat="49.80857" lon="-117.829882">
      </trkpt>
      <trkpt lat="49.808648" lon="-117.82980899">
      </trkpt>
      <trkpt lat="49.808681" lon="-117.82980399">
      </trkpt>
      <trkpt lat="49.808763" lon="-117.829772">
      </trkpt>
      <trkpt lat="49.80878" lon="-117.829757">
      </trkpt>
      <trkpt lat="49.808837" lon="-117.829672">
      </trkpt>
      <trkpt lat="49.808868" lon="-117.829649">
      </trkpt>
      <trkpt lat="49.808927" lon="-117.829558">
      </trkpt>
      <trkpt lat="49.808974" lon="-117.829453">
      </trkpt>
      <trkpt lat="49.80897" lon="-117.82942">
      </trkpt>
      <trkpt lat="49.808976" lon="-117.82936801">
      </trkpt>
      <trkpt lat="49.808977" lon="-117.829233">
      </trkpt>
      <trkpt lat="49.808964" lon="-117.829196">
      </trkpt>
      <trkpt lat="49.808951" lon="-117.829155">
      </trkpt>
      <trkpt lat="49.808932" lon="-117.829075">
      </trkpt>
      <trkpt lat="49.808914" lon="-117.8289">
      </trkpt>
      <trkpt lat="49.808919" lon="-117.828806">
      </trkpt>
      <trkpt lat="49.808953" lon="-117.828699">
      </trkpt>
      <trkpt lat="49.808953" lon="-117.828521">
      </trkpt>
      <trkpt lat="49.808891" lon="-117.82830501">
      </trkpt>
      <trkpt lat="49.808902" lon="-117.828257">
      </trkpt>
      <trkpt lat="49.808914" lon="-117.828184">
      </trkpt>
      <trkpt lat="49.80897" lon="-117.82807901">
      </trkpt>
      <trkpt lat="49.809001" lon="-117.827996">
      </trkpt>
      <trkpt lat="49.809026" lon="-117.827748">
      </trkpt>
      <trkpt lat="49.809018" lon="-117.827674">
      </trkpt>
      <trkpt lat="49.808942" lon="-117.82756">
      </trkpt>
      <trkpt lat="49.80892" lon="-117.827396">
      </trkpt>
      <trkpt lat="49.80884" lon="-117.82727199">
      </trkpt>
      <trkpt lat="49.808828" lon="-117.827114">
      </trkpt>
      <trkpt lat="49.808816" lon="-117.82691501">
      </trkpt>
      <trkpt lat="49.80881" lon="-117.826704">
      </trkpt>
      <trkpt lat="49.808819" lon="-117.826609">
      </trkpt>
      <trkpt lat="49.808732" lon="-117.82646799">
      </trkpt>
      <trkpt lat="49.80864" lon="-117.826395">
      </trkpt>
      <trkpt lat="49.808571" lon="-117.8263">
      </trkpt>
      <trkpt lat="49.808525" lon="-117.826265">
      </trkpt>
      <trkpt lat="49.808522" lon="-117.826274">
      </trkpt>
      <trkpt lat="49.808515" lon="-117.826211">
      </trkpt>
      <trkpt lat="49.8085" lon="-117.826218">
      </trkpt>
      <trkpt lat="49.808462" lon="-117.82624">
      </trkpt>
      <trkpt lat="49.808458" lon="-117.82624199">
      </trkpt>
      <trkpt lat="49.808453" lon="-117.826142">
      </trkpt>
      <trkpt lat="49.80845109" lon="-117.82610761">
      </trkpt>
      <trkpt lat="49.80845108" lon="-117.82610736">
      </trkpt>
      <trkpt lat="49.808451" lon="-117.82610599">
      </trkpt>
      <trkpt lat="49.80845672" lon="-117.82610672">
      </trkpt>
      <trkpt lat="49.808502" lon="-117.826102">
      </trkpt>
      <trkpt lat="49.808535" lon="-117.826054">
      </trkpt>
      <trkpt lat="49.808541" lon="-117.82598999">
      </trkpt>
      <trkpt lat="49.808549" lon="-117.825955">
      </trkpt>
      <trkpt lat="49.808585" lon="-117.82586501">
      </trkpt>
      <trkpt lat="49.808584" lon="-117.825819">
      </trkpt>
      <trkpt lat="49.808589" lon="-117.82579101">
      </trkpt>
      <trkpt lat="49.808604" lon="-117.825747">
      </trkpt>
      <trkpt lat="49.808558" lon="-117.82564599">
      </trkpt>
      <trkpt lat="49.808551" lon="-117.825577">
      </trkpt>
      <trkpt lat="49.808538" lon="-117.825562">
      </trkpt>
      <trkpt lat="49.808523" lon="-117.825548">
      </trkpt>
      <trkpt lat="49.808528" lon="-117.825431">
      </trkpt>
      <trkpt lat="49.808568" lon="-117.82530001">
      </trkpt>
      <trkpt lat="49.808563" lon="-117.82514899">
      </trkpt>
      <trkpt lat="49.808556" lon="-117.82510401">
      </trkpt>
      <trkpt lat="49.808496" lon="-117.82493299">
      </trkpt>
      <trkpt lat="49.808472" lon="-117.824887">
      </trkpt>
      <trkpt lat="49.808437" lon="-117.824779">
      </trkpt>
      <trkpt lat="49.808427" lon="-117.824627">
      </trkpt>
      <trkpt lat="49.808453" lon="-117.824493">
      </trkpt>
      <trkpt lat="49.808447" lon="-117.824448">
      </trkpt>
      <trkpt lat="49.80843" lon="-117.824371">
      </trkpt>
      <trkpt lat="49.808477" lon="-117.824309">
      </trkpt>
      <trkpt lat="49.808494" lon="-117.82434101">
      </trkpt>
      <trkpt lat="49.808563" lon="-117.824245">
      </trkpt>
      <trkpt lat="49.808591" lon="-117.824206">
      </trkpt>
      <trkpt lat="49.80865" lon="-117.824139">
      </trkpt>
      <trkpt lat="49.808653" lon="-117.824126">
      </trkpt>
      <trkpt lat="49.8087" lon="-117.824075">
      </trkpt>
      <trkpt lat="49.808769" lon="-117.82406999">
      </trkpt>
      <trkpt lat="49.808781" lon="-117.824038">
      </trkpt>
      <trkpt lat="49.808827" lon="-117.823997">
      </trkpt>
      <trkpt lat="49.808843" lon="-117.823959">
      </trkpt>
      <trkpt lat="49.808893" lon="-117.823883">
      </trkpt>
      <trkpt lat="49.808955" lon="-117.82383901">
      </trkpt>
      <trkpt lat="49.808974" lon="-117.82383401">
      </trkpt>
      <trkpt lat="49.809009" lon="-117.823878">
      </trkpt>
      <trkpt lat="49.80904" lon="-117.823926">
      </trkpt>
      <trkpt lat="49.80909" lon="-117.82397999">
      </trkpt>
      <trkpt lat="49.80913" lon="-117.823982">
      </trkpt>
      <trkpt lat="49.809234" lon="-117.824051">
      </trkpt>
      <trkpt lat="49.809295" lon="-117.82404999">
      </trkpt>
      <trkpt lat="49.809301" lon="-117.824043">
      </trkpt>
      <trkpt lat="49.809382" lon="-117.82406399">
      </trkpt>
      <trkpt lat="49.809384" lon="-117.82408599">
      </trkpt>
      <trkpt lat="49.80946" lon="-117.824318">
      </trkpt>
      <trkpt lat="49.809492" lon="-117.824331">
      </trkpt>
      <trkpt lat="49.809518" lon="-117.824407">
      </trkpt>
      <trkpt lat="49.809591" lon="-117.82446">
      </trkpt>
      <trkpt lat="49.80961" lon="-117.82447">
      </trkpt>
      <trkpt lat="49.809617" lon="-117.82450601">
      </trkpt>
      <trkpt lat="49.809645" lon="-117.824525">
      </trkpt>
      <trkpt lat="49.809671" lon="-117.82453901">
      </trkpt>
      <trkpt lat="49.809742" lon="-117.824583">
      </trkpt>
      <trkpt lat="49.809788" lon="-117.82459299">
      </trkpt>
      <trkpt lat="49.809884" lon="-117.824604">
      </trkpt>
      <trkpt lat="49.809897" lon="-117.824598">
      </trkpt>
      <trkpt lat="49.809924" lon="-117.82458801">
      </trkpt>
      <trkpt lat="49.809977" lon="-117.824531">
      </trkpt>
      <trkpt lat="49.810006" lon="-117.824467">
      </trkpt>
      <trkpt lat="49.810068" lon="-117.824419">
      </trkpt>
      <trkpt lat="49.810133" lon="-117.82437199">
      </trkpt>
      <trkpt lat="49.810243" lon="-117.824296">
      </trkpt>
      <trkpt lat="49.810268" lon="-117.82427499">
      </trkpt>
      <trkpt lat="49.810301" lon="-117.824232">
      </trkpt>
      <trkpt lat="49.81038" lon="-117.824214">
      </trkpt>
      <trkpt lat="49.81041" lon="-117.824183">
      </trkpt>
      <trkpt lat="49.810477" lon="-117.824152">
      </trkpt>
      <trkpt lat="49.810499" lon="-117.82415">
      </trkpt>
      <trkpt lat="49.810544" lon="-117.824133">
      </trkpt>
      <trkpt lat="49.810606" lon="-117.82405901">
      </trkpt>
      <trkpt lat="49.810689" lon="-117.824062">
      </trkpt>
      <trkpt lat="49.81071" lon="-117.824063">
      </trkpt>
      <trkpt lat="49.810727" lon="-117.824072">
      </trkpt>
      <trkpt lat="49.81076" lon="-117.824038">
      </trkpt>
      <trkpt lat="49.810909" lon="-117.824041">
      </trkpt>
      <trkpt lat="49.810915" lon="-117.82403399">
      </trkpt>
      <trkpt lat="49.810925" lon="-117.823987">
      </trkpt>
      <trkpt lat="49.810944" lon="-117.823946">
      </trkpt>
      <trkpt lat="49.810962" lon="-117.82390299">
      </trkpt>
      <trkpt lat="49.810979" lon="-117.823883">
      </trkpt>
      <trkpt lat="49.811022" lon="-117.823789">
      </trkpt>
      <trkpt lat="49.811034" lon="-117.82375201">
      </trkpt>
      <trkpt lat="49.811059" lon="-117.82371601">
      </trkpt>
      <trkpt lat="49.8111" lon="-117.823663">
      </trkpt>
      <trkpt lat="49.81119" lon="-117.823637">
      </trkpt>
      <trkpt lat="49.81124" lon="-117.82363499">
      </trkpt>
      <trkpt lat="49.811288" lon="-117.823577">
      </trkpt>
      <trkpt lat="49.811325" lon="-117.82356999">
      </trkpt>
      <trkpt lat="49.811358" lon="-117.823536">
      </trkpt>
      <trkpt lat="49.811434" lon="-117.82348">
      </trkpt>
      <trkpt lat="49.811505" lon="-117.823519">
      </trkpt>
      <trkpt lat="49.811522" lon="-117.82352">
      </trkpt>
      <trkpt lat="49.811575" lon="-117.823515">
      </trkpt>
      <trkpt lat="49.81166" lon="-117.82348599">
      </trkpt>
      <trkpt lat="49.811706" lon="-117.823432">
      </trkpt>
      <trkpt lat="49.811735" lon="-117.823408">
      </trkpt>
      <trkpt lat="49.811919" lon="-117.82334">
      </trkpt>
      <trkpt lat="49.811986" lon="-117.82330501">
      </trkpt>
      <trkpt lat="49.812006" lon="-117.823266">
      </trkpt>
      <trkpt lat="49.812101" lon="-117.823171">
      </trkpt>
      <trkpt lat="49.812139" lon="-117.823204">
      </trkpt>
      <trkpt lat="49.812181" lon="-117.823178">
      </trkpt>
      <trkpt lat="49.812185" lon="-117.82317901">
      </trkpt>
      <trkpt lat="49.81219837" lon="-117.8231894">
      </trkpt>
      <trkpt lat="49.81218354" lon="-117.82317046">
      </trkpt>
      <trkpt lat="49.812183" lon="-117.823172">
      </trkpt>
      <trkpt lat="49.812175" lon="-117.823171">
      </trkpt>
      <trkpt lat="49.8121704" lon="-117.82314865">
      </trkpt>
      <trkpt lat="49.812169" lon="-117.823149">
      </trkpt>
      <trkpt lat="49.812151" lon="-117.82313499">
      </trkpt>
      <trkpt lat="49.812146" lon="-117.823136">
      </trkpt>
      <trkpt lat="49.812089" lon="-117.823039">
      </trkpt>
      <trkpt lat="49.81207" lon="-117.822992">
      </trkpt>
      <trkpt lat="49.812073" lon="-117.822956">
      </trkpt>
      <trkpt lat="49.812089" lon="-117.82287">
      </trkpt>
      <trkpt lat="49.812123" lon="-117.822731">
      </trkpt>
      <trkpt lat="49.812251" lon="-117.822667">
      </trkpt>
      <trkpt lat="49.81228" lon="-117.82266899">
      </trkpt>
      <trkpt lat="49.812326" lon="-117.822699">
      </trkpt>
      <trkpt lat="49.812464" lon="-117.822703">
      </trkpt>
      <trkpt lat="49.81248587" lon="-117.82269977">
      </trkpt>
      <trkpt lat="49.812529" lon="-117.822648">
      </trkpt>
      <trkpt lat="49.812538" lon="-117.822637">
      </trkpt>
      <trkpt lat="49.812584" lon="-117.822582">
      </trkpt>
      <trkpt lat="49.812637" lon="-117.822448">
      </trkpt>
      <trkpt lat="49.812656" lon="-117.822445">
      </trkpt>
      <trkpt lat="49.812686" lon="-117.822411">
      </trkpt>
      <trkpt lat="49.812714" lon="-117.822352">
      </trkpt>
      <trkpt lat="49.812779" lon="-117.822219">
      </trkpt>
      <trkpt lat="49.812802" lon="-117.822138">
      </trkpt>
      <trkpt lat="49.812981" lon="-117.821924">
      </trkpt>
      <trkpt lat="49.81305" lon="-117.821855">
      </trkpt>
      <trkpt lat="49.813062" lon="-117.821853">
      </trkpt>
      <trkpt lat="49.81313" lon="-117.821855">
      </trkpt>
      <trkpt lat="49.813211" lon="-117.82180499">
      </trkpt>
      <trkpt lat="49.813325" lon="-117.821754">
      </trkpt>
      <trkpt lat="49.813351" lon="-117.821727">
      </trkpt>
      <trkpt lat="49.813394" lon="-117.821646">
      </trkpt>
      <trkpt lat="49.813488" lon="-117.821512">
      </trkpt>
      <trkpt lat="49.813497" lon="-117.821505">
      </trkpt>
      <trkpt lat="49.813526" lon="-117.821438">
      </trkpt>
      <trkpt lat="49.813565" lon="-117.821423">
      </trkpt>
      <trkpt lat="49.813586" lon="-117.82139">
      </trkpt>
      <trkpt lat="49.813673" lon="-117.821342">
      </trkpt>
      <trkpt lat="49.813682" lon="-117.821334">
      </trkpt>
      <trkpt lat="49.813753" lon="-117.821219">
      </trkpt>
      <trkpt lat="49.813765" lon="-117.821183">
      </trkpt>
      <trkpt lat="49.813832" lon="-117.821104">
      </trkpt>
      <trkpt lat="49.813846" lon="-117.821067">
      </trkpt>
      <trkpt lat="49.813861" lon="-117.821006">
      </trkpt>
      <trkpt lat="49.813923" lon="-117.8209">
      </trkpt>
      <trkpt lat="49.813963" lon="-117.820858">
      </trkpt>
      <trkpt lat="49.814019" lon="-117.820722">
      </trkpt>
      <trkpt lat="49.814072" lon="-117.820646">
      </trkpt>
      <trkpt lat="49.814104" lon="-117.820614">
      </trkpt>
      <trkpt lat="49.814119" lon="-117.82059501">
      </trkpt>
      <trkpt lat="49.814169" lon="-117.820558">
      </trkpt>
      <trkpt lat="49.814225" lon="-117.820403">
      </trkpt>
      <trkpt lat="49.814248" lon="-117.820324">
      </trkpt>
      <trkpt lat="49.814248" lon="-117.820307">
      </trkpt>
      <trkpt lat="49.814185" lon="-117.820212">
      </trkpt>
      <trkpt lat="49.81418" lon="-117.82020501">
      </trkpt>
      <trkpt lat="49.814169" lon="-117.820206">
      </trkpt>
      <trkpt lat="49.814177" lon="-117.820206">
      </trkpt>
    </trkseg>
  </trk>
</gpx>