<?xml version="1.0" encoding="UTF-8"?>
<gpx xmlns="http://www.topografix.com/GPX/1/1" xmlns:xsi="http://www.w3.org/2001/XMLSchema-instance" xsi:schemaLocation="http://www.topografix.com/GPX/1/1 http://www.topografix.com/GPX/1/1/gpx.xsd" version="1.1" creator="gpx.py -- https://github.com/tkrajina/gpxpy">
  <trk>
    <name>Upper MacKenzie Cruise Trail</name>
    <trkseg>
      <trkpt lat="50.35265386" lon="-122.7969696">
      </trkpt>
      <trkpt lat="50.35167728" lon="-122.79741422">
      </trkpt>
      <trkpt lat="50.35163203" lon="-122.79744538">
      </trkpt>
      <trkpt lat="50.35156414" lon="-122.79747663">
      </trkpt>
      <trkpt lat="50.35151606" lon="-122.7975078">
      </trkpt>
      <trkpt lat="50.35149058" lon="-122.7975079">
      </trkpt>
      <trkpt lat="50.35144817" lon="-122.79754346">
      </trkpt>
      <trkpt lat="50.35142267" lon="-122.79753473">
      </trkpt>
      <trkpt lat="50.35136595" lon="-122.7974819">
      </trkpt>
      <trkpt lat="50.35134604" lon="-122.79742448">
      </trkpt>
      <trkpt lat="50.3513375" lon="-122.79739798">
      </trkpt>
      <trkpt lat="50.35130346" lon="-122.79736717">
      </trkpt>
      <trkpt lat="50.35127793" lon="-122.79733631">
      </trkpt>
      <trkpt lat="50.35125803" lon="-122.79729217">
      </trkpt>
      <trkpt lat="50.35124103" lon="-122.79728339">
      </trkpt>
      <trkpt lat="50.35118724" lon="-122.79728362">
      </trkpt>
      <trkpt lat="50.35115324" lon="-122.79727051">
      </trkpt>
      <trkpt lat="50.35111923" lon="-122.79725297">
      </trkpt>
      <trkpt lat="50.3510965" lon="-122.79720882">
      </trkpt>
      <trkpt lat="50.35109357" lon="-122.79714692">
      </trkpt>
      <trkpt lat="50.35107083" lon="-122.7971028">
      </trkpt>
      <trkpt lat="50.35103112" lon="-122.79705873">
      </trkpt>
      <trkpt lat="50.35099715" lon="-122.79705887">
      </trkpt>
      <trkpt lat="50.35089228" lon="-122.79700625">
      </trkpt>
      <trkpt lat="50.35085257" lon="-122.79695777">
      </trkpt>
      <trkpt lat="50.35080156" lon="-122.79693144">
      </trkpt>
      <trkpt lat="50.35076755" lon="-122.79691391">
      </trkpt>
      <trkpt lat="50.35073632" lon="-122.79686539">
      </trkpt>
      <trkpt lat="50.35070793" lon="-122.79681686">
      </trkpt>
      <trkpt lat="50.35067672" lon="-122.79678161">
      </trkpt>
      <trkpt lat="50.35062288" lon="-122.7967553">
      </trkpt>
      <trkpt lat="50.35057471" lon="-122.7967334">
      </trkpt>
      <trkpt lat="50.35056048" lon="-122.79669365">
      </trkpt>
      <trkpt lat="50.35056322" lon="-122.79664056">
      </trkpt>
      <trkpt lat="50.35054336" lon="-122.79661411">
      </trkpt>
      <trkpt lat="50.35052065" lon="-122.79658768">
      </trkpt>
      <trkpt lat="50.35050645" lon="-122.79656119">
      </trkpt>
      <trkpt lat="50.3504753" lon="-122.79655691">
      </trkpt>
      <trkpt lat="50.35043567" lon="-122.7965571">
      </trkpt>
      <trkpt lat="50.35039034" lon="-122.7965396">
      </trkpt>
      <trkpt lat="50.35036201" lon="-122.79652645">
      </trkpt>
      <trkpt lat="50.35034498" lon="-122.79650882">
      </trkpt>
      <trkpt lat="50.35029957" lon="-122.7964471">
      </trkpt>
      <trkpt lat="50.35027123" lon="-122.79642954">
      </trkpt>
      <trkpt lat="50.35024574" lon="-122.79642965">
      </trkpt>
      <trkpt lat="50.35022021" lon="-122.79639879">
      </trkpt>
      <trkpt lat="50.35017767" lon="-122.79635917">
      </trkpt>
      <trkpt lat="50.3501067" lon="-122.79625774">
      </trkpt>
      <trkpt lat="50.35001298" lon="-122.79609451">
      </trkpt>
      <trkpt lat="50.34996472" lon="-122.79601512">
      </trkpt>
      <trkpt lat="50.34994474" lon="-122.79592675">
      </trkpt>
      <trkpt lat="50.3499192" lon="-122.79589147">
      </trkpt>
      <trkpt lat="50.34989646" lon="-122.79583851">
      </trkpt>
      <trkpt lat="50.34984541" lon="-122.79579006">
      </trkpt>
      <trkpt lat="50.34979431" lon="-122.79571068">
      </trkpt>
      <trkpt lat="50.34972055" lon="-122.79562697">
      </trkpt>
      <trkpt lat="50.34966089" lon="-122.79552107">
      </trkpt>
      <trkpt lat="50.34962398" lon="-122.79545932">
      </trkpt>
      <trkpt lat="50.3495956" lon="-122.79541964">
      </trkpt>
      <trkpt lat="50.3495672" lon="-122.79537553">
      </trkpt>
      <trkpt lat="50.34952178" lon="-122.79530497">
      </trkpt>
      <trkpt lat="50.34948775" lon="-122.79527858">
      </trkpt>
      <trkpt lat="50.34944811" lon="-122.79527432">
      </trkpt>
      <trkpt lat="50.34941694" lon="-122.79526118">
      </trkpt>
      <trkpt lat="50.34936883" lon="-122.79527025">
      </trkpt>
      <trkpt lat="50.34933208" lon="-122.79530579">
      </trkpt>
      <trkpt lat="50.34930378" lon="-122.79531474">
      </trkpt>
      <trkpt lat="50.34927544" lon="-122.79529276">
      </trkpt>
      <trkpt lat="50.34924988" lon="-122.79525307">
      </trkpt>
      <trkpt lat="50.34919876" lon="-122.79516041">
      </trkpt>
      <trkpt lat="50.3491647" lon="-122.79511634">
      </trkpt>
      <trkpt lat="50.34911937" lon="-122.79509884">
      </trkpt>
      <trkpt lat="50.34906268" lon="-122.79505927">
      </trkpt>
      <trkpt lat="50.34903997" lon="-122.79502842">
      </trkpt>
      <trkpt lat="50.34895492" lon="-122.79497128">
      </trkpt>
      <trkpt lat="50.34892089" lon="-122.79494489">
      </trkpt>
      <trkpt lat="50.34888411" lon="-122.79495389">
      </trkpt>
      <trkpt lat="50.34885304" lon="-122.79498942">
      </trkpt>
      <trkpt lat="50.3487683" lon="-122.79510918">
      </trkpt>
      <trkpt lat="50.34872599" lon="-122.79519782">
      </trkpt>
      <trkpt lat="50.34871474" lon="-122.79524652">
      </trkpt>
      <trkpt lat="50.34869498" lon="-122.79527755">
      </trkpt>
      <trkpt lat="50.34865534" lon="-122.79528215">
      </trkpt>
      <trkpt lat="50.34858167" lon="-122.79524709">
      </trkpt>
      <trkpt lat="50.34853349" lon="-122.79521634">
      </trkpt>
      <trkpt lat="50.34849104" lon="-122.79522979">
      </trkpt>
      <trkpt lat="50.34843442" lon="-122.79523446">
      </trkpt>
      <trkpt lat="50.34839761" lon="-122.79523019">
      </trkpt>
      <trkpt lat="50.34833244" lon="-122.79520394">
      </trkpt>
      <trkpt lat="50.34828425" lon="-122.79517318">
      </trkpt>
      <trkpt lat="50.34822471" lon="-122.79512036">
      </trkpt>
      <trkpt lat="50.34815103" lon="-122.79508973">
      </trkpt>
      <trkpt lat="50.34809723" lon="-122.7950811">
      </trkpt>
      <trkpt lat="50.3480547" lon="-122.79505477">
      </trkpt>
      <trkpt lat="50.34804611" lon="-122.7949973">
      </trkpt>
      <trkpt lat="50.3480404" lon="-122.79497522">
      </trkpt>
      <trkpt lat="50.34800641" lon="-122.7949621">
      </trkpt>
      <trkpt lat="50.34799506" lon="-122.79494887">
      </trkpt>
      <trkpt lat="50.34798659" lon="-122.79496218">
      </trkpt>
      <trkpt lat="50.34798664" lon="-122.79498872">
      </trkpt>
      <trkpt lat="50.34799245" lon="-122.79507272">
      </trkpt>
      <trkpt lat="50.34800097" lon="-122.79509037">
      </trkpt>
      <trkpt lat="50.34797844" lon="-122.79516122">
      </trkpt>
      <trkpt lat="50.34793326" lon="-122.79522776">
      </trkpt>
      <trkpt lat="50.34790497" lon="-122.79523672">
      </trkpt>
      <trkpt lat="50.34787661" lon="-122.79521474">
      </trkpt>
      <trkpt lat="50.34785678" lon="-122.79520598">
      </trkpt>
      <trkpt lat="50.34782568" lon="-122.79523265">
      </trkpt>
      <trkpt lat="50.347772" lon="-122.79529922">
      </trkpt>
      <trkpt lat="50.34776927" lon="-122.79535229">
      </trkpt>
      <trkpt lat="50.347758" lon="-122.79538772">
      </trkpt>
      <trkpt lat="50.34773256" lon="-122.79540994">
      </trkpt>
      <trkpt lat="50.3477015" lon="-122.79545873">
      </trkpt>
      <trkpt lat="50.34767043" lon="-122.79549866">
      </trkpt>
      <trkpt lat="50.34761671" lon="-122.79553871">
      </trkpt>
      <trkpt lat="50.34761678" lon="-122.79557852">
      </trkpt>
      <trkpt lat="50.34761115" lon="-122.79560064">
      </trkpt>
      <trkpt lat="50.34758859" lon="-122.79564939">
      </trkpt>
      <trkpt lat="50.34758015" lon="-122.79568481">
      </trkpt>
      <trkpt lat="50.34756888" lon="-122.79571138">
      </trkpt>
      <trkpt lat="50.34754622" lon="-122.79570708">
      </trkpt>
      <trkpt lat="50.34751784" lon="-122.7956718">
      </trkpt>
      <trkpt lat="50.3475036" lon="-122.79562322">
      </trkpt>
      <trkpt lat="50.34747805" lon="-122.79558352">
      </trkpt>
      <trkpt lat="50.34744965" lon="-122.7955306">
      </trkpt>
      <trkpt lat="50.34744384" lon="-122.79545101">
      </trkpt>
      <trkpt lat="50.3474125" lon="-122.79533616">
      </trkpt>
      <trkpt lat="50.3473585" lon="-122.79523024">
      </trkpt>
      <trkpt lat="50.34733575" lon="-122.79516843">
      </trkpt>
      <trkpt lat="50.34730457" lon="-122.79514646">
      </trkpt>
      <trkpt lat="50.34728184" lon="-122.79510233">
      </trkpt>
      <trkpt lat="50.34726473" lon="-122.79503605">
      </trkpt>
      <trkpt lat="50.3472703" lon="-122.79498297">
      </trkpt>
      <trkpt lat="50.3472872" lon="-122.79492982">
      </trkpt>
      <trkpt lat="50.34729564" lon="-122.79490325">
      </trkpt>
      <trkpt lat="50.34728147" lon="-122.79489447">
      </trkpt>
      <trkpt lat="50.34727575" lon="-122.79486354">
      </trkpt>
      <trkpt lat="50.34728418" lon="-122.7948237">
      </trkpt>
      <trkpt lat="50.3473068" lon="-122.79480591">
      </trkpt>
      <trkpt lat="50.34732653" lon="-122.79476161">
      </trkpt>
      <trkpt lat="50.347349" lon="-122.79465537">
      </trkpt>
      <trkpt lat="50.34736871" lon="-122.79458895">
      </trkpt>
      <trkpt lat="50.34738273" lon="-122.7945137">
      </trkpt>
      <trkpt lat="50.34736566" lon="-122.79446513">
      </trkpt>
      <trkpt lat="50.34729197" lon="-122.79442565">
      </trkpt>
      <trkpt lat="50.34720689" lon="-122.79434641">
      </trkpt>
      <trkpt lat="50.34712475" lon="-122.79433349">
      </trkpt>
      <trkpt lat="50.34705393" lon="-122.79430726">
      </trkpt>
      <trkpt lat="50.34699437" lon="-122.79425004">
      </trkpt>
      <trkpt lat="50.34695176" lon="-122.7941662">
      </trkpt>
      <trkpt lat="50.34689218" lon="-122.7940957">
      </trkpt>
      <trkpt lat="50.34684115" lon="-122.79406054">
      </trkpt>
      <trkpt lat="50.34679864" lon="-122.7940342">
      </trkpt>
      <trkpt lat="50.34676748" lon="-122.79402549">
      </trkpt>
      <trkpt lat="50.34675045" lon="-122.79400344">
      </trkpt>
      <trkpt lat="50.34673058" lon="-122.79398141">
      </trkpt>
      <trkpt lat="50.34669943" lon="-122.79397711">
      </trkpt>
      <trkpt lat="50.34667394" lon="-122.79397723">
      </trkpt>
      <trkpt lat="50.34665701" lon="-122.79400384">
      </trkpt>
      <trkpt lat="50.3466486" lon="-122.79404811">
      </trkpt>
      <trkpt lat="50.34662323" lon="-122.79411455">
      </trkpt>
      <trkpt lat="50.3466035" lon="-122.79416328">
      </trkpt>
      <trkpt lat="50.34656672" lon="-122.79418114">
      </trkpt>
      <trkpt lat="50.3465271" lon="-122.79418572">
      </trkpt>
      <trkpt lat="50.34646477" lon="-122.79416831">
      </trkpt>
      <trkpt lat="50.34641098" lon="-122.79416854">
      </trkpt>
      <trkpt lat="50.34637129" lon="-122.79414217">
      </trkpt>
      <trkpt lat="50.34634011" lon="-122.79412018">
      </trkpt>
      <trkpt lat="50.3463118" lon="-122.79412031">
      </trkpt>
      <trkpt lat="50.34627215" lon="-122.79412048">
      </trkpt>
      <trkpt lat="50.34620408" lon="-122.79405446">
      </trkpt>
      <trkpt lat="50.3461842" lon="-122.79401473">
      </trkpt>
      <trkpt lat="50.34613029" lon="-122.79395306">
      </trkpt>
      <trkpt lat="50.34610481" lon="-122.79395316">
      </trkpt>
      <trkpt lat="50.34606514" lon="-122.79393565">
      </trkpt>
      <trkpt lat="50.34603112" lon="-122.79390926">
      </trkpt>
      <trkpt lat="50.34598572" lon="-122.79385638">
      </trkpt>
      <trkpt lat="50.34592625" lon="-122.7938478">
      </trkpt>
      <trkpt lat="50.34588095" lon="-122.79385243">
      </trkpt>
      <trkpt lat="50.34586109" lon="-122.7938304">
      </trkpt>
      <trkpt lat="50.34583267" lon="-122.79376861">
      </trkpt>
      <trkpt lat="50.34580714" lon="-122.79373775">
      </trkpt>
      <trkpt lat="50.34576743" lon="-122.79369373">
      </trkpt>
      <trkpt lat="50.34573343" lon="-122.79368503">
      </trkpt>
      <trkpt lat="50.34568806" lon="-122.79364542">
      </trkpt>
      <trkpt lat="50.3456285" lon="-122.79358377">
      </trkpt>
      <trkpt lat="50.34560301" lon="-122.79358389">
      </trkpt>
      <trkpt lat="50.34556054" lon="-122.79358407">
      </trkpt>
      <trkpt lat="50.34549827" lon="-122.79358875">
      </trkpt>
      <trkpt lat="50.34546991" lon="-122.79356676">
      </trkpt>
      <trkpt lat="50.34543009" lon="-122.79346522">
      </trkpt>
      <trkpt lat="50.34540162" lon="-122.79338134">
      </trkpt>
      <trkpt lat="50.34536754" lon="-122.79331957">
      </trkpt>
      <trkpt lat="50.34535336" lon="-122.79330637">
      </trkpt>
      <trkpt lat="50.3453505" lon="-122.79328426">
      </trkpt>
      <trkpt lat="50.34535319" lon="-122.7932135">
      </trkpt>
      <trkpt lat="50.34535586" lon="-122.79312061">
      </trkpt>
      <trkpt lat="50.34534442" lon="-122.79305433">
      </trkpt>
      <trkpt lat="50.34534147" lon="-122.79298359">
      </trkpt>
      <trkpt lat="50.34534135" lon="-122.79292168">
      </trkpt>
      <trkpt lat="50.34534127" lon="-122.79287302">
      </trkpt>
      <trkpt lat="50.34532707" lon="-122.79284657">
      </trkpt>
      <trkpt lat="50.34530435" lon="-122.79281128">
      </trkpt>
      <trkpt lat="50.34530713" lon="-122.79278031">
      </trkpt>
      <trkpt lat="50.34532121" lon="-122.79274487">
      </trkpt>
      <trkpt lat="50.34530982" lon="-122.79270512">
      </trkpt>
      <trkpt lat="50.34528992" lon="-122.79266098">
      </trkpt>
      <trkpt lat="50.34528698" lon="-122.79259909">
      </trkpt>
      <trkpt lat="50.34527278" lon="-122.79257262">
      </trkpt>
      <trkpt lat="50.34526701" lon="-122.79251073">
      </trkpt>
      <trkpt lat="50.34525272" lon="-122.79243562">
      </trkpt>
      <trkpt lat="50.3452072" lon="-122.79231198">
      </trkpt>
      <trkpt lat="50.34516737" lon="-122.79220604">
      </trkpt>
      <trkpt lat="50.34510476" lon="-122.79210381">
      </trkpt>
      <trkpt lat="50.34499715" lon="-122.79201662">
      </trkpt>
      <trkpt lat="50.34493481" lon="-122.79198594">
      </trkpt>
      <trkpt lat="50.34488662" lon="-122.79195518">
      </trkpt>
      <trkpt lat="50.3448384" lon="-122.79191118">
      </trkpt>
      <trkpt lat="50.34479876" lon="-122.79190693">
      </trkpt>
      <trkpt lat="50.3447082" lon="-122.79193385">
      </trkpt>
      <trkpt lat="50.34462051" lon="-122.79197404">
      </trkpt>
      <trkpt lat="50.34457805" lon="-122.79197423">
      </trkpt>
      <trkpt lat="50.34452995" lon="-122.79199213">
      </trkpt>
      <trkpt lat="50.34447615" lon="-122.79199677">
      </trkpt>
      <trkpt lat="50.34445344" lon="-122.7919615">
      </trkpt>
      <trkpt lat="50.34443071" lon="-122.79191296">
      </trkpt>
      <trkpt lat="50.34439377" lon="-122.79184238">
      </trkpt>
      <trkpt lat="50.34436541" lon="-122.79182037">
      </trkpt>
      <trkpt lat="50.3443229" lon="-122.79179403">
      </trkpt>
      <trkpt lat="50.34429165" lon="-122.79173668">
      </trkpt>
      <trkpt lat="50.34424338" lon="-122.7916573">
      </trkpt>
      <trkpt lat="50.34421178" lon="-122.79161956">
      </trkpt>
      <trkpt lat="50.34414984" lon="-122.79160022">
      </trkpt>
      <trkpt lat="50.34404772" lon="-122.79153624">
      </trkpt>
      <trkpt lat="50.34400328" lon="-122.79152486">
      </trkpt>
      <trkpt lat="50.34397339" lon="-122.79137465">
      </trkpt>
      <trkpt lat="50.34395814" lon="-122.79113183">
      </trkpt>
      <trkpt lat="50.34390606" lon="-122.79099328">
      </trkpt>
      <trkpt lat="50.34383915" lon="-122.79084323">
      </trkpt>
      <trkpt lat="50.34378731" lon="-122.79084346">
      </trkpt>
      <trkpt lat="50.34367618" lon="-122.79080925">
      </trkpt>
      <trkpt lat="50.34355746" lon="-122.79068255">
      </trkpt>
      <trkpt lat="50.34345361" lon="-122.79057892">
      </trkpt>
      <trkpt lat="50.34331097" lon="-122.79047478">
      </trkpt>
      <trkpt lat="50.34323117" lon="-122.79041799">
      </trkpt>
      <trkpt lat="50.34318673" lon="-122.79041819">
      </trkpt>
      <trkpt lat="50.34307553" lon="-122.79033772">
      </trkpt>
      <trkpt lat="50.34300582" lon="-122.79033393">
      </trkpt>
      <trkpt lat="50.34288726" lon="-122.79028819">
      </trkpt>
      <trkpt lat="50.34277168" lon="-122.79020027">
      </trkpt>
      <trkpt lat="50.34271986" lon="-122.79021206">
      </trkpt>
      <trkpt lat="50.34266056" lon="-122.79017763">
      </trkpt>
      <trkpt lat="50.34263819" lon="-122.79009677">
      </trkpt>
      <trkpt lat="50.34256405" lon="-122.79003928">
      </trkpt>
      <trkpt lat="50.3424529" lon="-122.79000506">
      </trkpt>
      <trkpt lat="50.34240848" lon="-122.79000526">
      </trkpt>
      <trkpt lat="50.34233447" lon="-122.79002873">
      </trkpt>
      <trkpt lat="50.34225301" lon="-122.79002908">
      </trkpt>
      <trkpt lat="50.34222338" lon="-122.79001765">
      </trkpt>
      <trkpt lat="50.34218623" lon="-122.78994843">
      </trkpt>
      <trkpt lat="50.34215653" lon="-122.7899023">
      </trkpt>
      <trkpt lat="50.34212682" lon="-122.78985617">
      </trkpt>
      <trkpt lat="50.34205975" lon="-122.78981677">
      </trkpt>
      <trkpt lat="50.34203041" lon="-122.7897712">
      </trkpt>
      <trkpt lat="50.34197181" lon="-122.78972576">
      </trkpt>
      <trkpt lat="50.34194247" lon="-122.78968019">
      </trkpt>
      <trkpt lat="50.34193647" lon="-122.78959796">
      </trkpt>
      <trkpt lat="50.34195971" lon="-122.78950646">
      </trkpt>
      <trkpt lat="50.34195376" lon="-122.78945165">
      </trkpt>
      <trkpt lat="50.34192441" lon="-122.78940609">
      </trkpt>
      <trkpt lat="50.34187174" lon="-122.78939718">
      </trkpt>
      <trkpt lat="50.34179569" lon="-122.78941581">
      </trkpt>
      <trkpt lat="50.34170198" lon="-122.78937053">
      </trkpt>
      <trkpt lat="50.34159665" lon="-122.789371">
      </trkpt>
      <trkpt lat="50.34153818" lon="-122.78939867">
      </trkpt>
      <trkpt lat="50.3415148" lon="-122.78941705">
      </trkpt>
      <trkpt lat="50.34147381" lon="-122.78940809">
      </trkpt>
      <trkpt lat="50.34144439" lon="-122.78931682">
      </trkpt>
      <trkpt lat="50.34141506" lon="-122.78928039">
      </trkpt>
      <trkpt lat="50.34138578" lon="-122.78926225">
      </trkpt>
      <trkpt lat="50.34119845" lon="-122.78922652">
      </trkpt>
      <trkpt lat="50.34115162" lon="-122.78921759">
      </trkpt>
      <trkpt lat="50.34110475" lon="-122.78919038">
      </trkpt>
      <trkpt lat="50.34105193" lon="-122.78910836">
      </trkpt>
      <trkpt lat="50.34097571" lon="-122.78902644">
      </trkpt>
      <trkpt lat="50.34088188" lon="-122.78891719">
      </trkpt>
      <trkpt lat="50.3408409" lon="-122.78890824">
      </trkpt>
      <trkpt lat="50.34078245" lon="-122.78894505">
      </trkpt>
      <trkpt lat="50.3407065" lon="-122.78900935">
      </trkpt>
      <trkpt lat="50.3406539" lon="-122.78904616">
      </trkpt>
      <trkpt lat="50.34046078" lon="-122.78904701">
      </trkpt>
      <trkpt lat="50.34041394" lon="-122.78903807">
      </trkpt>
      <trkpt lat="50.34039031" lon="-122.78891024">
      </trkpt>
      <trkpt lat="50.34033738" lon="-122.78876424">
      </trkpt>
      <trkpt lat="50.34026693" lon="-122.78864575">
      </trkpt>
      <trkpt lat="50.34020238" lon="-122.7885455">
      </trkpt>
      <trkpt lat="50.34009685" lon="-122.78843629">
      </trkpt>
      <trkpt lat="50.33999726" lon="-122.7883819">
      </trkpt>
      <trkpt lat="50.33994446" lon="-122.78830903">
      </trkpt>
      <trkpt lat="50.33992105" lon="-122.78830913">
      </trkpt>
      <trkpt lat="50.33989174" lon="-122.78828184">
      </trkpt>
      <trkpt lat="50.33988577" lon="-122.7882179">
      </trkpt>
      <trkpt lat="50.33990319" lon="-122.7881447">
      </trkpt>
      <trkpt lat="50.33992059" lon="-122.78806238">
      </trkpt>
      <trkpt lat="50.33996143" lon="-122.78798909">
      </trkpt>
      <trkpt lat="50.33994962" lon="-122.78792517">
      </trkpt>
      <trkpt lat="50.33990851" lon="-122.78785224">
      </trkpt>
      <trkpt lat="50.33988501" lon="-122.7877975">
      </trkpt>
      <trkpt lat="50.33982056" lon="-122.78775211">
      </trkpt>
      <trkpt lat="50.3397329" lon="-122.7878256">
      </trkpt>
      <trkpt lat="50.33963347" lon="-122.78785345">
      </trkpt>
      <trkpt lat="50.33952227" lon="-122.78784482">
      </trkpt>
      <trkpt lat="50.33943439" lon="-122.78779037">
      </trkpt>
      <trkpt lat="50.33939333" lon="-122.78773573">
      </trkpt>
      <trkpt lat="50.33934058" lon="-122.78769026">
      </trkpt>
      <trkpt lat="50.33923523" lon="-122.7876816">
      </trkpt>
      <trkpt lat="50.33920008" lon="-122.78766347">
      </trkpt>
      <trkpt lat="50.3392" lon="-122.78761779">
      </trkpt>
      <trkpt lat="50.33923489" lon="-122.78749882">
      </trkpt>
      <trkpt lat="50.33923461" lon="-122.78734345">
      </trkpt>
      <trkpt lat="50.3392169" lon="-122.78726129">
      </trkpt>
      <trkpt lat="50.33918762" lon="-122.78724314">
      </trkpt>
      <trkpt lat="50.33910578" lon="-122.78729834">
      </trkpt>
      <trkpt lat="50.33895984" lon="-122.78749091">
      </trkpt>
      <trkpt lat="50.338849" lon="-122.78768332">
      </trkpt>
      <trkpt lat="50.33879653" lon="-122.78779322">
      </trkpt>
      <trkpt lat="50.33875557" lon="-122.7877934">
      </trkpt>
      <trkpt lat="50.33872617" lon="-122.78771129">
      </trkpt>
      <trkpt lat="50.33871438" lon="-122.78766563">
      </trkpt>
      <trkpt lat="50.33865571" lon="-122.78758365">
      </trkpt>
      <trkpt lat="50.33857939" lon="-122.7874469">
      </trkpt>
      <trkpt lat="50.33852663" lon="-122.78740144">
      </trkpt>
      <trkpt lat="50.33844463" lon="-122.78736525">
      </trkpt>
      <trkpt lat="50.33832156" lon="-122.78726528">
      </trkpt>
      <trkpt lat="50.3382513" lon="-122.78724732">
      </trkpt>
      <trkpt lat="50.33815169" lon="-122.78717465">
      </trkpt>
      <trkpt lat="50.33801119" lon="-122.78714786">
      </trkpt>
      <trkpt lat="50.33790588" lon="-122.78715747">
      </trkpt>
      <trkpt lat="50.33778284" lon="-122.78707578">
      </trkpt>
      <trkpt lat="50.33772418" lon="-122.78700293">
      </trkpt>
      <trkpt lat="50.33772374" lon="-122.78675618">
      </trkpt>
      <trkpt lat="50.33770596" lon="-122.78663746">
      </trkpt>
      <trkpt lat="50.33765904" lon="-122.78658284">
      </trkpt>
      <trkpt lat="50.3375947" lon="-122.7866014">
      </trkpt>
      <trkpt lat="50.33748965" lon="-122.78675724">
      </trkpt>
      <trkpt lat="50.33741407" lon="-122.78703173">
      </trkpt>
      <trkpt lat="50.33744361" lon="-122.78717781">
      </trkpt>
      <trkpt lat="50.33744967" lon="-122.78728745">
      </trkpt>
      <trkpt lat="50.33741471" lon="-122.787379">
      </trkpt>
      <trkpt lat="50.33739135" lon="-122.78739737">
      </trkpt>
      <trkpt lat="50.33736802" lon="-122.78744316">
      </trkpt>
      <trkpt lat="50.33736229" lon="-122.78750716">
      </trkpt>
      <trkpt lat="50.33730388" lon="-122.78757139">
      </trkpt>
      <trkpt lat="50.33719866" lon="-122.78763583">
      </trkpt>
      <trkpt lat="50.33715777" lon="-122.78767257">
      </trkpt>
      <trkpt lat="50.33706413" lon="-122.78767299">
      </trkpt>
      <trkpt lat="50.33698215" lon="-122.7876368">
      </trkpt>
      <trkpt lat="50.33695262" lon="-122.78749072">
      </trkpt>
      <trkpt lat="50.33695235" lon="-122.78734449">
      </trkpt>
      <trkpt lat="50.33697555" lon="-122.78723473">
      </trkpt>
      <trkpt lat="50.33702794" lon="-122.78707914">
      </trkpt>
      <trkpt lat="50.33703366" lon="-122.78700601">
      </trkpt>
      <trkpt lat="50.33702766" lon="-122.78692379">
      </trkpt>
      <trkpt lat="50.3370332" lon="-122.78675927">
      </trkpt>
      <trkpt lat="50.33703884" lon="-122.78664045">
      </trkpt>
      <trkpt lat="50.33703868" lon="-122.78654907">
      </trkpt>
      <trkpt lat="50.33704439" lon="-122.78647593">
      </trkpt>
      <trkpt lat="50.33705004" lon="-122.78636623">
      </trkpt>
      <trkpt lat="50.33706748" lon="-122.7863022">
      </trkpt>
      <trkpt lat="50.33708494" lon="-122.78624729">
      </trkpt>
      <trkpt lat="50.33711998" lon="-122.78621058">
      </trkpt>
      <trkpt lat="50.33719572" lon="-122.78602746">
      </trkpt>
      <trkpt lat="50.33721315" lon="-122.78596341">
      </trkpt>
      <trkpt lat="50.33721297" lon="-122.78586288">
      </trkpt>
      <trkpt lat="50.33716015" lon="-122.78578087">
      </trkpt>
      <trkpt lat="50.33711336" lon="-122.78579023">
      </trkpt>
      <trkpt lat="50.33706068" lon="-122.78579047">
      </trkpt>
      <trkpt lat="50.33696706" lon="-122.78579089">
      </trkpt>
      <trkpt lat="50.3368969" lon="-122.78582776">
      </trkpt>
      <trkpt lat="50.33685012" lon="-122.78584625">
      </trkpt>
      <trkpt lat="50.33678568" lon="-122.78580998">
      </trkpt>
      <trkpt lat="50.33677965" lon="-122.7857095">
      </trkpt>
      <trkpt lat="50.33677364" lon="-122.78562726">
      </trkpt>
      <trkpt lat="50.33677347" lon="-122.78553588">
      </trkpt>
      <trkpt lat="50.3368434" lon="-122.78538021">
      </trkpt>
      <trkpt lat="50.33689011" lon="-122.78531604">
      </trkpt>
      <trkpt lat="50.33688406" lon="-122.78521553">
      </trkpt>
      <trkpt lat="50.33682553" lon="-122.78520667">
      </trkpt>
      <trkpt lat="50.33671448" lon="-122.78528026">
      </trkpt>
      <trkpt lat="50.33660333" lon="-122.78529904">
      </trkpt>
      <trkpt lat="50.33653304" lon="-122.78526281">
      </trkpt>
      <trkpt lat="50.33639819" lon="-122.78512635">
      </trkpt>
      <trkpt lat="50.3363304" lon="-122.78506899">
      </trkpt>
    </trkseg>
  </trk>
</gpx>