<?xml version="1.0" encoding="UTF-8"?>
<gpx xmlns="http://www.topografix.com/GPX/1/1" xmlns:xsi="http://www.w3.org/2001/XMLSchema-instance" xsi:schemaLocation="http://www.topografix.com/GPX/1/1 http://www.topografix.com/GPX/1/1/gpx.xsd" version="1.1" creator="gpx.py -- https://github.com/tkrajina/gpxpy">
  <trk>
    <name>Connector Trail</name>
    <trkseg>
      <trkpt lat="50.34205974" lon="-122.78981677">
      </trkpt>
      <trkpt lat="50.34205978" lon="-122.78983504">
      </trkpt>
      <trkpt lat="50.34201296" lon="-122.78983525">
      </trkpt>
      <trkpt lat="50.34197201" lon="-122.78984457">
      </trkpt>
      <trkpt lat="50.34189607" lon="-122.78991802">
      </trkpt>
      <trkpt lat="50.34184345" lon="-122.78994567">
      </trkpt>
      <trkpt lat="50.34180257" lon="-122.78999155">
      </trkpt>
      <trkpt lat="50.34179679" lon="-122.79002812">
      </trkpt>
      <trkpt lat="50.34182035" lon="-122.7901103">
      </trkpt>
      <trkpt lat="50.34185548" lon="-122.79011927">
      </trkpt>
      <trkpt lat="50.34191396" lon="-122.79010073">
      </trkpt>
      <trkpt lat="50.34196078" lon="-122.79010053">
      </trkpt>
      <trkpt lat="50.34196668" lon="-122.79012792">
      </trkpt>
      <trkpt lat="50.34194918" lon="-122.79016456">
      </trkpt>
      <trkpt lat="50.34191423" lon="-122.79024697">
      </trkpt>
      <trkpt lat="50.34191432" lon="-122.7903018">
      </trkpt>
      <trkpt lat="50.34194363" lon="-122.79032909">
      </trkpt>
      <trkpt lat="50.34197876" lon="-122.79033806">
      </trkpt>
      <trkpt lat="50.34204313" lon="-122.79033779">
      </trkpt>
      <trkpt lat="50.34207829" lon="-122.79036505">
      </trkpt>
      <trkpt lat="50.34208418" lon="-122.79039244">
      </trkpt>
      <trkpt lat="50.34207837" lon="-122.79041076">
      </trkpt>
      <trkpt lat="50.34203751" lon="-122.79046577">
      </trkpt>
      <trkpt lat="50.34199661" lon="-122.7905025">
      </trkpt>
      <trkpt lat="50.3419675" lon="-122.79058488">
      </trkpt>
      <trkpt lat="50.34196181" lon="-122.79067631">
      </trkpt>
      <trkpt lat="50.34195021" lon="-122.7907312">
      </trkpt>
      <trkpt lat="50.34186254" lon="-122.79079556">
      </trkpt>
      <trkpt lat="50.34178656" lon="-122.79084159">
      </trkpt>
      <trkpt lat="50.34171056" lon="-122.79088761">
      </trkpt>
      <trkpt lat="50.3416462" lon="-122.79089704">
      </trkpt>
      <trkpt lat="50.34157013" lon="-122.79089737">
      </trkpt>
      <trkpt lat="50.34148812" lon="-122.79085203">
      </trkpt>
      <trkpt lat="50.34140032" lon="-122.79084329">
      </trkpt>
      <trkpt lat="50.34134186" lon="-122.79087096">
      </trkpt>
      <trkpt lat="50.34128333" lon="-122.79087121">
      </trkpt>
      <trkpt lat="50.34118964" lon="-122.79083507">
      </trkpt>
      <trkpt lat="50.34110764" lon="-122.79079888">
      </trkpt>
      <trkpt lat="50.34106668" lon="-122.79079905">
      </trkpt>
      <trkpt lat="50.34101992" lon="-122.79082668">
      </trkpt>
      <trkpt lat="50.34100243" lon="-122.7908633">
      </trkpt>
      <trkpt lat="50.34102006" lon="-122.79090892">
      </trkpt>
      <trkpt lat="50.34113138" lon="-122.79098156">
      </trkpt>
      <trkpt lat="50.34119004" lon="-122.79105442">
      </trkpt>
      <trkpt lat="50.34119008" lon="-122.79108183">
      </trkpt>
      <trkpt lat="50.34115502" lon="-122.7911094">
      </trkpt>
      <trkpt lat="50.34112591" lon="-122.79119179">
      </trkpt>
      <trkpt lat="50.34112018" lon="-122.79125578">
      </trkpt>
      <trkpt lat="50.34109688" lon="-122.79131985">
      </trkpt>
      <trkpt lat="50.34107363" lon="-122.79141136">
      </trkpt>
      <trkpt lat="50.3410914" lon="-122.79153008">
      </trkpt>
      <trkpt lat="50.3411384" lon="-122.79163041">
      </trkpt>
      <trkpt lat="50.3411799" lon="-122.79193183">
      </trkpt>
      <trkpt lat="50.34123864" lon="-122.79205952">
      </trkpt>
      <trkpt lat="50.34127981" lon="-122.79216901">
      </trkpt>
      <trkpt lat="50.34135022" lon="-122.79227837">
      </trkpt>
      <trkpt lat="50.34139713" lon="-122.79232387">
      </trkpt>
      <trkpt lat="50.34143818" lon="-122.7923694">
      </trkpt>
      <trkpt lat="50.34144996" lon="-122.79241503">
      </trkpt>
      <trkpt lat="50.34146769" lon="-122.79251549">
      </trkpt>
      <trkpt lat="50.34145026" lon="-122.79258868">
      </trkpt>
      <trkpt lat="50.34138601" lon="-122.79265294">
      </trkpt>
      <trkpt lat="50.34138039" lon="-122.79279004">
      </trkpt>
      <trkpt lat="50.34144495" lon="-122.7928903">
      </trkpt>
      <trkpt lat="50.34157389" lon="-122.79299941">
      </trkpt>
      <trkpt lat="50.34162089" lon="-122.79310888">
      </trkpt>
      <trkpt lat="50.34162699" lon="-122.79324595">
      </trkpt>
      <trkpt lat="50.34160957" lon="-122.79331914">
      </trkpt>
      <trkpt lat="50.3416097" lon="-122.79339227">
      </trkpt>
      <trkpt lat="50.34162745" lon="-122.79350186">
      </trkpt>
      <trkpt lat="50.34165684" lon="-122.79357483">
      </trkpt>
      <trkpt lat="50.34163947" lon="-122.79368457">
      </trkpt>
      <trkpt lat="50.3416045" lon="-122.79376698">
      </trkpt>
      <trkpt lat="50.34156374" lon="-122.79387684">
      </trkpt>
      <trkpt lat="50.34152882" lon="-122.79398667">
      </trkpt>
      <trkpt lat="50.34152315" lon="-122.79408721">
      </trkpt>
      <trkpt lat="50.34158204" lon="-122.79429717">
      </trkpt>
      <trkpt lat="50.34162927" lon="-122.79453459">
      </trkpt>
      <trkpt lat="50.34166446" lon="-122.79458014">
      </trkpt>
      <trkpt lat="50.34171136" lon="-122.79462563">
      </trkpt>
      <trkpt lat="50.34175836" lon="-122.79472596">
      </trkpt>
      <trkpt lat="50.34179363" lon="-122.79481721">
      </trkpt>
      <trkpt lat="50.34179376" lon="-122.79489031">
      </trkpt>
      <trkpt lat="50.34177637" lon="-122.7949818">
      </trkpt>
      <trkpt lat="50.34177644" lon="-122.79502749">
      </trkpt>
      <trkpt lat="50.34181164" lon="-122.79507303">
      </trkpt>
      <trkpt lat="50.34184099" lon="-122.79512774">
      </trkpt>
      <trkpt lat="50.34184695" lon="-122.7951917">
      </trkpt>
      <trkpt lat="50.34182363" lon="-122.79523749">
      </trkpt>
    </trkseg>
  </trk>
</gpx>