<?xml version="1.0" encoding="UTF-8"?>
<gpx xmlns="http://www.topografix.com/GPX/1/1" xmlns:xsi="http://www.w3.org/2001/XMLSchema-instance" xsi:schemaLocation="http://www.topografix.com/GPX/1/1 http://www.topografix.com/GPX/1/1/gpx.xsd" version="1.1" creator="gpx.py -- https://github.com/tkrajina/gpxpy">
  <trk>
    <name>Nairn to One Mile Trail</name>
    <trkseg>
      <trkpt lat="50.30170674" lon="-122.80839574">
      </trkpt>
      <trkpt lat="50.30175957" lon="-122.808346">
      </trkpt>
      <trkpt lat="50.30192595" lon="-122.8081452">
      </trkpt>
      <trkpt lat="50.30216945" lon="-122.80804417">
      </trkpt>
      <trkpt lat="50.30247727" lon="-122.80806295">
      </trkpt>
      <trkpt lat="50.30288754" lon="-122.80800125">
      </trkpt>
      <trkpt lat="50.3034516" lon="-122.80787891">
      </trkpt>
      <trkpt lat="50.30371275" lon="-122.80778921">
      </trkpt>
      <trkpt lat="50.30381774" lon="-122.8078728">
      </trkpt>
      <trkpt lat="50.30388706" lon="-122.80799998">
      </trkpt>
      <trkpt lat="50.30395002" lon="-122.80807816">
      </trkpt>
      <trkpt lat="50.3040317" lon="-122.80807785">
      </trkpt>
      <trkpt lat="50.30418227" lon="-122.80793997">
      </trkpt>
      <trkpt lat="50.30434516" lon="-122.80766479">
      </trkpt>
      <trkpt lat="50.30458989" lon="-122.80746769">
      </trkpt>
      <trkpt lat="50.3046902" lon="-122.80733982">
      </trkpt>
      <trkpt lat="50.30482199" lon="-122.80725105">
      </trkpt>
      <trkpt lat="50.30487209" lon="-122.80715278">
      </trkpt>
      <trkpt lat="50.30488443" lon="-122.80701547">
      </trkpt>
      <trkpt lat="50.30497198" lon="-122.8067602">
      </trkpt>
      <trkpt lat="50.30510974" lon="-122.80648509">
      </trkpt>
      <trkpt lat="50.30526018" lon="-122.80627856">
      </trkpt>
      <trkpt lat="50.30537323" lon="-122.80624869">
      </trkpt>
      <trkpt lat="50.30548631" lon="-122.80623844">
      </trkpt>
      <trkpt lat="50.30559919" lon="-122.8061105">
      </trkpt>
      <trkpt lat="50.305712" lon="-122.80594336">
      </trkpt>
      <trkpt lat="50.30590648" lon="-122.80576607">
      </trkpt>
      <trkpt lat="50.30607594" lon="-122.80565753">
      </trkpt>
      <trkpt lat="50.30623301" lon="-122.80564707">
      </trkpt>
      <trkpt lat="50.30646576" lon="-122.80581282">
      </trkpt>
      <trkpt lat="50.3065286" lon="-122.80582237">
      </trkpt>
      <trkpt lat="50.30661418" lon="-122.80578612">
      </trkpt>
      <trkpt lat="50.30671873" lon="-122.80572249">
      </trkpt>
      <trkpt lat="50.30684902" lon="-122.80553009">
      </trkpt>
      <trkpt lat="50.3069868" lon="-122.80521771">
      </trkpt>
      <trkpt lat="50.30714782" lon="-122.80501317">
      </trkpt>
      <trkpt lat="50.30729339" lon="-122.80477272">
      </trkpt>
      <trkpt lat="50.30736224" lon="-122.80459254">
      </trkpt>
      <trkpt lat="50.30744342" lon="-122.80433801">
      </trkpt>
      <trkpt lat="50.30771893" lon="-122.80377795">
      </trkpt>
      <trkpt lat="50.30795038" lon="-122.80316905">
      </trkpt>
    </trkseg>
    <trkseg>
      <trkpt lat="50.30661418" lon="-122.80578612">
      </trkpt>
      <trkpt lat="50.30651954" lon="-122.80607109">
      </trkpt>
      <trkpt lat="50.30644322" lon="-122.80638321">
      </trkpt>
      <trkpt lat="50.30632069" lon="-122.80662356">
      </trkpt>
      <trkpt lat="50.30616752" lon="-122.806924">
      </trkpt>
      <trkpt lat="50.3060064" lon="-122.80706856">
      </trkpt>
      <trkpt lat="50.30587603" lon="-122.807213">
      </trkpt>
      <trkpt lat="50.30602973" lon="-122.80723636">
      </trkpt>
      <trkpt lat="50.30624489" lon="-122.80724749">
      </trkpt>
      <trkpt lat="50.30661385" lon="-122.80734193">
      </trkpt>
      <trkpt lat="50.30674449" lon="-122.8073534">
      </trkpt>
      <trkpt lat="50.30691363" lon="-122.80741268">
      </trkpt>
      <trkpt lat="50.30699059" lon="-122.80749632">
      </trkpt>
      <trkpt lat="50.30704437" lon="-122.8074961">
      </trkpt>
      <trkpt lat="50.30730558" lon="-122.80747106">
      </trkpt>
      <trkpt lat="50.30753576" lon="-122.80727824">
      </trkpt>
      <trkpt lat="50.30793515" lon="-122.80718069">
      </trkpt>
      <trkpt lat="50.30824733" lon="-122.80708801">
      </trkpt>
    </trkseg>
    <trkseg>
      <trkpt lat="50.30876596" lon="-122.80704895">
      </trkpt>
      <trkpt lat="50.30899042" lon="-122.80709604">
      </trkpt>
    </trkseg>
  </trk>
</gpx>