<?xml version="1.0" encoding="UTF-8"?>
<gpx xmlns="http://www.topografix.com/GPX/1/1" xmlns:xsi="http://www.w3.org/2001/XMLSchema-instance" xsi:schemaLocation="http://www.topografix.com/GPX/1/1 http://www.topografix.com/GPX/1/1/gpx.xsd" version="1.1" creator="gpx.py -- https://github.com/tkrajina/gpxpy">
  <trk>
    <name>Blood Sweat and Fear</name>
    <trkseg>
      <trkpt lat="50.33107153" lon="-122.77057137">
      </trkpt>
      <trkpt lat="50.33111794" lon="-122.77067281">
      </trkpt>
      <trkpt lat="50.33115514" lon="-122.77074612">
      </trkpt>
      <trkpt lat="50.33115523" lon="-122.77079337">
      </trkpt>
      <trkpt lat="50.33112836" lon="-122.77083025">
      </trkpt>
      <trkpt lat="50.33106101" lon="-122.77084106">
      </trkpt>
      <trkpt lat="50.33104089" lon="-122.7708779">
      </trkpt>
      <trkpt lat="50.33103427" lon="-122.77094091">
      </trkpt>
      <trkpt lat="50.33105462" lon="-122.7710143">
      </trkpt>
      <trkpt lat="50.33109171" lon="-122.77103512">
      </trkpt>
      <trkpt lat="50.33117933" lon="-122.77105569">
      </trkpt>
      <trkpt lat="50.33123658" lon="-122.77105017">
      </trkpt>
      <trkpt lat="50.33128371" lon="-122.77103944">
      </trkpt>
      <trkpt lat="50.3313275" lon="-122.77104449">
      </trkpt>
      <trkpt lat="50.33134782" lon="-122.77109688">
      </trkpt>
      <trkpt lat="50.33136812" lon="-122.77114402">
      </trkpt>
      <trkpt lat="50.33138513" lon="-122.77123317">
      </trkpt>
      <trkpt lat="50.33136846" lon="-122.77132249">
      </trkpt>
      <trkpt lat="50.33133485" lon="-122.77135414">
      </trkpt>
      <trkpt lat="50.33130115" lon="-122.7713438">
      </trkpt>
      <trkpt lat="50.33126757" lon="-122.77139645">
      </trkpt>
      <trkpt lat="50.33123732" lon="-122.7714281">
      </trkpt>
      <trkpt lat="50.33120031" lon="-122.77144402">
      </trkpt>
      <trkpt lat="50.33115651" lon="-122.77144422">
      </trkpt>
      <trkpt lat="50.33112622" lon="-122.77145488">
      </trkpt>
      <trkpt lat="50.33109593" lon="-122.77146552">
      </trkpt>
      <trkpt lat="50.33104197" lon="-122.77142903">
      </trkpt>
      <trkpt lat="50.33100148" lon="-122.77139773">
      </trkpt>
      <trkpt lat="50.33095772" lon="-122.77140843">
      </trkpt>
      <trkpt lat="50.33092411" lon="-122.7714401">
      </trkpt>
      <trkpt lat="50.33088709" lon="-122.77146126">
      </trkpt>
      <trkpt lat="50.33084333" lon="-122.77147197">
      </trkpt>
      <trkpt lat="50.33080635" lon="-122.77150889">
      </trkpt>
      <trkpt lat="50.33080308" lon="-122.77155616">
      </trkpt>
      <trkpt lat="50.33085369" lon="-122.77160315">
      </trkpt>
      <trkpt lat="50.33088749" lon="-122.77166597">
      </trkpt>
      <trkpt lat="50.3309011" lon="-122.77173415">
      </trkpt>
      <trkpt lat="50.33091146" lon="-122.77186531">
      </trkpt>
      <trkpt lat="50.33090824" lon="-122.77193883">
      </trkpt>
      <trkpt lat="50.33090169" lon="-122.77203333">
      </trkpt>
      <trkpt lat="50.33089859" lon="-122.77216981">
      </trkpt>
      <trkpt lat="50.33091563" lon="-122.77227472">
      </trkpt>
      <trkpt lat="50.33095288" lon="-122.77237427">
      </trkpt>
      <trkpt lat="50.33099683" lon="-122.77245279">
      </trkpt>
      <trkpt lat="50.33101379" lon="-122.77252095">
      </trkpt>
      <trkpt lat="50.33098698" lon="-122.77258931">
      </trkpt>
      <trkpt lat="50.33095344" lon="-122.77265771">
      </trkpt>
      <trkpt lat="50.33092327" lon="-122.77273658">
      </trkpt>
      <trkpt lat="50.33090664" lon="-122.77284165">
      </trkpt>
      <trkpt lat="50.33090342" lon="-122.77292039">
      </trkpt>
      <trkpt lat="50.33087995" lon="-122.77297299">
      </trkpt>
      <trkpt lat="50.33088006" lon="-122.77302548">
      </trkpt>
      <trkpt lat="50.33090711" lon="-122.7730831">
      </trkpt>
      <trkpt lat="50.33090049" lon="-122.77314086">
      </trkpt>
      <trkpt lat="50.33088035" lon="-122.77317771">
      </trkpt>
      <trkpt lat="50.33085689" lon="-122.7732408">
      </trkpt>
      <trkpt lat="50.33085369" lon="-122.77331955">
      </trkpt>
      <trkpt lat="50.33085045" lon="-122.77339305">
      </trkpt>
      <trkpt lat="50.33082362" lon="-122.77345093">
      </trkpt>
      <trkpt lat="50.33078998" lon="-122.77347208">
      </trkpt>
      <trkpt lat="50.33075627" lon="-122.77345648">
      </trkpt>
      <trkpt lat="50.33071241" lon="-122.77341996">
      </trkpt>
      <trkpt lat="50.33067534" lon="-122.77340963">
      </trkpt>
      <trkpt lat="50.33062826" lon="-122.77344134">
      </trkpt>
      <trkpt lat="50.33059122" lon="-122.77345203">
      </trkpt>
      <trkpt lat="50.3305575" lon="-122.77343119">
      </trkpt>
      <trkpt lat="50.33053047" lon="-122.77338933">
      </trkpt>
      <trkpt lat="50.33050004" lon="-122.77333173">
      </trkpt>
      <trkpt lat="50.33045285" lon="-122.77331096">
      </trkpt>
      <trkpt lat="50.33041579" lon="-122.77330064">
      </trkpt>
      <trkpt lat="50.33038545" lon="-122.77329028">
      </trkpt>
      <trkpt lat="50.33036857" lon="-122.77326938">
      </trkpt>
      <trkpt lat="50.33034162" lon="-122.77326424">
      </trkpt>
      <trkpt lat="50.33032483" lon="-122.77329581">
      </trkpt>
      <trkpt lat="50.33031822" lon="-122.77335884">
      </trkpt>
      <trkpt lat="50.33030821" lon="-122.77340612">
      </trkpt>
      <trkpt lat="50.33028463" lon="-122.77340623">
      </trkpt>
      <trkpt lat="50.33025425" lon="-122.77336963">
      </trkpt>
      <trkpt lat="50.33019698" lon="-122.77336468">
      </trkpt>
      <trkpt lat="50.3301666" lon="-122.77333331">
      </trkpt>
      <trkpt lat="50.3301227" lon="-122.7732758">
      </trkpt>
      <trkpt lat="50.33010916" lon="-122.77323911">
      </trkpt>
      <trkpt lat="50.33006861" lon="-122.77317107">
      </trkpt>
      <trkpt lat="50.33002809" lon="-122.77312403">
      </trkpt>
      <trkpt lat="50.32999438" lon="-122.77310318">
      </trkpt>
      <trkpt lat="50.3299573" lon="-122.77308762">
      </trkpt>
      <trkpt lat="50.32992358" lon="-122.77306677">
      </trkpt>
      <trkpt lat="50.32988314" lon="-122.77306172">
      </trkpt>
      <trkpt lat="50.32986298" lon="-122.77308281">
      </trkpt>
      <trkpt lat="50.32986309" lon="-122.77314056">
      </trkpt>
      <trkpt lat="50.32984631" lon="-122.77317738">
      </trkpt>
      <trkpt lat="50.32982947" lon="-122.77317221">
      </trkpt>
      <trkpt lat="50.32981255" lon="-122.77313555">
      </trkpt>
      <trkpt lat="50.32978552" lon="-122.77309368">
      </trkpt>
      <trkpt lat="50.32975174" lon="-122.77303612">
      </trkpt>
      <trkpt lat="50.32971459" lon="-122.77298905">
      </trkpt>
      <trkpt lat="50.32969095" lon="-122.77295241">
      </trkpt>
      <trkpt lat="50.32965722" lon="-122.77292634">
      </trkpt>
      <trkpt lat="50.32963356" lon="-122.7728897">
      </trkpt>
      <trkpt lat="50.32960994" lon="-122.77286883">
      </trkpt>
      <trkpt lat="50.32958634" lon="-122.77285318">
      </trkpt>
      <trkpt lat="50.32956944" lon="-122.77282702">
      </trkpt>
      <trkpt lat="50.32956598" lon="-122.77277454">
      </trkpt>
      <trkpt lat="50.3295726" lon="-122.77272205">
      </trkpt>
      <trkpt lat="50.32957922" lon="-122.77265902">
      </trkpt>
      <trkpt lat="50.32955889" lon="-122.77259614">
      </trkpt>
      <trkpt lat="50.32953522" lon="-122.77255426">
      </trkpt>
      <trkpt lat="50.32951158" lon="-122.77251763">
      </trkpt>
      <trkpt lat="50.32948123" lon="-122.77249676">
      </trkpt>
      <trkpt lat="50.32945758" lon="-122.77246014">
      </trkpt>
      <trkpt lat="50.32942385" lon="-122.77243931">
      </trkpt>
      <trkpt lat="50.32938682" lon="-122.77244998">
      </trkpt>
      <trkpt lat="50.3293532" lon="-122.77248165">
      </trkpt>
      <trkpt lat="50.32932294" lon="-122.77250804">
      </trkpt>
      <trkpt lat="50.32928254" lon="-122.77251873">
      </trkpt>
      <trkpt lat="50.32924889" lon="-122.77252938">
      </trkpt>
      <trkpt lat="50.32921861" lon="-122.77255051">
      </trkpt>
      <trkpt lat="50.32920186" lon="-122.77259784">
      </trkpt>
      <trkpt lat="50.32919869" lon="-122.77269758">
      </trkpt>
      <trkpt lat="50.32920232" lon="-122.77282877">
      </trkpt>
      <trkpt lat="50.32921256" lon="-122.77290222">
      </trkpt>
      <trkpt lat="50.32925305" lon="-122.7729335">
      </trkpt>
      <trkpt lat="50.32927345" lon="-122.77302789">
      </trkpt>
      <trkpt lat="50.32928041" lon="-122.77314857">
      </trkpt>
      <trkpt lat="50.32927385" lon="-122.77323784">
      </trkpt>
      <trkpt lat="50.32928408" lon="-122.77330078">
      </trkpt>
      <trkpt lat="50.32932123" lon="-122.77335309">
      </trkpt>
      <trkpt lat="50.32933147" lon="-122.77342652">
      </trkpt>
      <trkpt lat="50.32934508" lon="-122.77349469">
      </trkpt>
      <trkpt lat="50.32938225" lon="-122.7735575">
      </trkpt>
      <trkpt lat="50.3294025" lon="-122.77357315">
      </trkpt>
      <trkpt lat="50.32940601" lon="-122.77365186">
      </trkpt>
      <trkpt lat="50.32941964" lon="-122.77373578">
      </trkpt>
      <trkpt lat="50.32940627" lon="-122.77378834">
      </trkpt>
      <trkpt lat="50.32937606" lon="-122.7738357">
      </trkpt>
      <trkpt lat="50.3293358" lon="-122.77391988">
      </trkpt>
      <trkpt lat="50.32932248" lon="-122.77399867">
      </trkpt>
      <trkpt lat="50.32932935" lon="-122.77406688">
      </trkpt>
      <trkpt lat="50.32934637" lon="-122.77416128">
      </trkpt>
      <trkpt lat="50.32939025" lon="-122.77420305">
      </trkpt>
      <trkpt lat="50.32944084" lon="-122.77424482">
      </trkpt>
      <trkpt lat="50.32947467" lon="-122.77431289">
      </trkpt>
      <trkpt lat="50.32950171" lon="-122.77435999">
      </trkpt>
      <trkpt lat="50.32951191" lon="-122.77441767">
      </trkpt>
      <trkpt lat="50.32949518" lon="-122.77447024">
      </trkpt>
      <trkpt lat="50.32948521" lon="-122.77453853">
      </trkpt>
      <trkpt lat="50.32948531" lon="-122.77459102">
      </trkpt>
      <trkpt lat="50.32946186" lon="-122.77465411">
      </trkpt>
      <trkpt lat="50.32943166" lon="-122.77472249">
      </trkpt>
      <trkpt lat="50.32939477" lon="-122.7748014">
      </trkpt>
      <trkpt lat="50.32935449" lon="-122.77487507">
      </trkpt>
      <trkpt lat="50.32933102" lon="-122.77492767">
      </trkpt>
      <trkpt lat="50.32931765" lon="-122.77497498">
      </trkpt>
      <trkpt lat="50.32931108" lon="-122.77506424">
      </trkpt>
      <trkpt lat="50.32932139" lon="-122.77517442">
      </trkpt>
      <trkpt lat="50.32933842" lon="-122.77526879">
      </trkpt>
      <trkpt lat="50.32934191" lon="-122.77533702">
      </trkpt>
      <trkpt lat="50.3293454" lon="-122.77539474">
      </trkpt>
      <trkpt lat="50.32936569" lon="-122.77543663">
      </trkpt>
      <trkpt lat="50.32935573" lon="-122.77551541">
      </trkpt>
      <trkpt lat="50.32933226" lon="-122.77556802">
      </trkpt>
      <trkpt lat="50.32927849" lon="-122.775626">
      </trkpt>
      <trkpt lat="50.32922801" lon="-122.77565247">
      </trkpt>
      <trkpt lat="50.32918425" lon="-122.7756632">
      </trkpt>
      <trkpt lat="50.32915056" lon="-122.77566335">
      </trkpt>
      <trkpt lat="50.32909672" lon="-122.77568984">
      </trkpt>
      <trkpt lat="50.32904624" lon="-122.77570582">
      </trkpt>
      <trkpt lat="50.32900586" lon="-122.77572702">
      </trkpt>
      <trkpt lat="50.32897554" lon="-122.77572716">
      </trkpt>
      <trkpt lat="50.32894522" lon="-122.77572205">
      </trkpt>
      <trkpt lat="50.32890145" lon="-122.77573274">
      </trkpt>
      <trkpt lat="50.328851" lon="-122.77576973">
      </trkpt>
      <trkpt lat="50.32880395" lon="-122.77582244">
      </trkpt>
      <trkpt lat="50.32877375" lon="-122.77587507">
      </trkpt>
      <trkpt lat="50.32874012" lon="-122.77591196">
      </trkpt>
      <trkpt lat="50.32870309" lon="-122.7759174">
      </trkpt>
      <trkpt lat="50.32867274" lon="-122.77590178">
      </trkpt>
      <trkpt lat="50.32864232" lon="-122.77583895">
      </trkpt>
    </trkseg>
  </trk>
</gpx>