<?xml version="1.0" encoding="UTF-8"?>
<gpx xmlns="http://www.topografix.com/GPX/1/1" xmlns:xsi="http://www.w3.org/2001/XMLSchema-instance" xsi:schemaLocation="http://www.topografix.com/GPX/1/1 http://www.topografix.com/GPX/1/1/gpx.xsd" version="1.1" creator="gpx.py -- https://github.com/tkrajina/gpxpy">
  <trk>
    <name>Lower Mackenzie Trail</name>
    <trkseg>
      <trkpt lat="50.3363304" lon="-122.78506901">
      </trkpt>
      <trkpt lat="50.33626923" lon="-122.78501727">
      </trkpt>
      <trkpt lat="50.33620483" lon="-122.78499927">
      </trkpt>
      <trkpt lat="50.33615816" lon="-122.78508174">
      </trkpt>
      <trkpt lat="50.33612321" lon="-122.78516413">
      </trkpt>
      <trkpt lat="50.3360998" lon="-122.78516425">
      </trkpt>
      <trkpt lat="50.33601769" lon="-122.78506408">
      </trkpt>
      <trkpt lat="50.33592396" lon="-122.78500968">
      </trkpt>
      <trkpt lat="50.33580699" lon="-122.78504677">
      </trkpt>
      <trkpt lat="50.3357072" lon="-122.78507447">
      </trkpt>
      <trkpt lat="50.33562979" lon="-122.78498206">
      </trkpt>
      <trkpt lat="50.33558806" lon="-122.78489877">
      </trkpt>
      <trkpt lat="50.335576" lon="-122.78480606">
      </trkpt>
      <trkpt lat="50.3355582" lon="-122.78479686">
      </trkpt>
      <trkpt lat="50.33550463" lon="-122.78474144">
      </trkpt>
      <trkpt lat="50.33547474" lon="-122.78463955">
      </trkpt>
      <trkpt lat="50.33543882" lon="-122.7844913">
      </trkpt>
      <trkpt lat="50.3354328" lon="-122.78444495">
      </trkpt>
      <trkpt lat="50.3354208" lon="-122.78438007">
      </trkpt>
      <trkpt lat="50.33537296" lon="-122.78420405">
      </trkpt>
      <trkpt lat="50.33533702" lon="-122.78404651">
      </trkpt>
      <trkpt lat="50.33531908" lon="-122.78398166">
      </trkpt>
      <trkpt lat="50.33525348" lon="-122.78384283">
      </trkpt>
      <trkpt lat="50.33516409" lon="-122.78368555">
      </trkpt>
      <trkpt lat="50.33513432" lon="-122.78364859">
      </trkpt>
      <trkpt lat="50.33509271" lon="-122.78363949">
      </trkpt>
      <trkpt lat="50.33502738" lon="-122.78363979">
      </trkpt>
      <trkpt lat="50.33493823" lon="-122.78361237">
      </trkpt>
      <trkpt lat="50.3349026" lon="-122.78362181">
      </trkpt>
      <trkpt lat="50.33485509" lon="-122.78362202">
      </trkpt>
      <trkpt lat="50.33480753" lon="-122.78360368">
      </trkpt>
      <trkpt lat="50.33475991" lon="-122.78354825">
      </trkpt>
      <trkpt lat="50.33468251" lon="-122.78345586">
      </trkpt>
      <trkpt lat="50.33456346" lon="-122.78331725">
      </trkpt>
      <trkpt lat="50.33450402" lon="-122.78329896">
      </trkpt>
      <trkpt lat="50.3344565" lon="-122.78329919">
      </trkpt>
      <trkpt lat="50.33442683" lon="-122.78331788">
      </trkpt>
      <trkpt lat="50.33440901" lon="-122.78331796">
      </trkpt>
      <trkpt lat="50.33434954" lon="-122.78328112">
      </trkpt>
      <trkpt lat="50.33430202" lon="-122.78328133">
      </trkpt>
      <trkpt lat="50.33419499" lon="-122.78321689">
      </trkpt>
      <trkpt lat="50.3341534" lon="-122.78321709">
      </trkpt>
      <trkpt lat="50.33413562" lon="-122.78323572">
      </trkpt>
      <trkpt lat="50.33409403" lon="-122.78323591">
      </trkpt>
      <trkpt lat="50.33402864" lon="-122.78320838">
      </trkpt>
      <trkpt lat="50.33392774" lon="-122.78324594">
      </trkpt>
      <trkpt lat="50.3338624" lon="-122.78324624">
      </trkpt>
      <trkpt lat="50.33379687" lon="-122.78315377">
      </trkpt>
      <trkpt lat="50.33369572" lon="-122.78306148">
      </trkpt>
      <trkpt lat="50.33365408" lon="-122.78302456">
      </trkpt>
      <trkpt lat="50.33364806" lon="-122.78298749">
      </trkpt>
      <trkpt lat="50.33361237" lon="-122.78295985">
      </trkpt>
      <trkpt lat="50.3335589" lon="-122.78295079">
      </trkpt>
      <trkpt lat="50.33342795" lon="-122.78281227">
      </trkpt>
      <trkpt lat="50.33336838" lon="-122.78271978">
      </trkpt>
      <trkpt lat="50.333291" lon="-122.78263666">
      </trkpt>
      <trkpt lat="50.33317785" lon="-122.78247949">
      </trkpt>
      <trkpt lat="50.33307666" lon="-122.78236866">
      </trkpt>
      <trkpt lat="50.33302426" lon="-122.78221683">
      </trkpt>
      <trkpt lat="50.33300461" lon="-122.78219808">
      </trkpt>
      <trkpt lat="50.33296223" lon="-122.78212524">
      </trkpt>
      <trkpt lat="50.3329107" lon="-122.78200767">
      </trkpt>
      <trkpt lat="50.33286379" lon="-122.78193721">
      </trkpt>
      <trkpt lat="50.33281392" lon="-122.7818903">
      </trkpt>
      <trkpt lat="50.33275648" lon="-122.78183873">
      </trkpt>
      <trkpt lat="50.33269611" lon="-122.78183194">
      </trkpt>
      <trkpt lat="50.33268704" lon="-122.78182021">
      </trkpt>
      <trkpt lat="50.33268399" lon="-122.78180372">
      </trkpt>
      <trkpt lat="50.3326719" lon="-122.78179199">
      </trkpt>
      <trkpt lat="50.33266133" lon="-122.78178498">
      </trkpt>
      <trkpt lat="50.33265372" lon="-122.78175203">
      </trkpt>
      <trkpt lat="50.33265216" lon="-122.78172611">
      </trkpt>
      <trkpt lat="50.332634" lon="-122.78169794">
      </trkpt>
      <trkpt lat="50.33260529" lon="-122.78167922">
      </trkpt>
      <trkpt lat="50.33257354" lon="-122.78164167">
      </trkpt>
      <trkpt lat="50.3325418" lon="-122.78161354">
      </trkpt>
      <trkpt lat="50.33252515" lon="-122.78158298">
      </trkpt>
      <trkpt lat="50.33249939" lon="-122.78152655">
      </trkpt>
      <trkpt lat="50.33246155" lon="-122.78146076">
      </trkpt>
      <trkpt lat="50.33244027" lon="-122.78138074">
      </trkpt>
      <trkpt lat="50.33240545" lon="-122.781322">
      </trkpt>
      <trkpt lat="50.33238728" lon="-122.78128202">
      </trkpt>
      <trkpt lat="50.332357" lon="-122.78122563">
      </trkpt>
      <trkpt lat="50.33231461" lon="-122.78115749">
      </trkpt>
      <trkpt lat="50.33230399" lon="-122.78112455">
      </trkpt>
      <trkpt lat="50.33228276" lon="-122.78106575">
      </trkpt>
      <trkpt lat="50.33226159" lon="-122.78104229">
      </trkpt>
      <trkpt lat="50.33224495" lon="-122.78102117">
      </trkpt>
      <trkpt lat="50.33222677" lon="-122.78098119">
      </trkpt>
      <trkpt lat="50.33220704" lon="-122.78092237">
      </trkpt>
      <trkpt lat="50.33217221" lon="-122.78085656">
      </trkpt>
      <trkpt lat="50.33216013" lon="-122.7808472">
      </trkpt>
      <trkpt lat="50.33214501" lon="-122.78083784">
      </trkpt>
      <trkpt lat="50.33212537" lon="-122.78082381">
      </trkpt>
      <trkpt lat="50.33210418" lon="-122.78078387">
      </trkpt>
      <trkpt lat="50.33207393" lon="-122.78074865">
      </trkpt>
      <trkpt lat="50.33205409" lon="-122.78073328">
      </trkpt>
    </trkseg>
  </trk>
</gpx>