<?xml version="1.0" encoding="UTF-8"?>
<gpx xmlns="http://www.topografix.com/GPX/1/1" xmlns:xsi="http://www.w3.org/2001/XMLSchema-instance" xsi:schemaLocation="http://www.topografix.com/GPX/1/1 http://www.topografix.com/GPX/1/1/gpx.xsd" version="1.1" creator="gpx.py -- https://github.com/tkrajina/gpxpy">
  <trk>
    <name>Shorepine Bog Trail</name>
    <trkseg>
      <trkpt lat="49.0135008" lon="-125.655193">
      </trkpt>
      <trkpt lat="49.0134164" lon="-125.6552342">
      </trkpt>
      <trkpt lat="49.0133807" lon="-125.6552534">
      </trkpt>
      <trkpt lat="49.0133592" lon="-125.6552625">
      </trkpt>
      <trkpt lat="49.0133478" lon="-125.6553085">
      </trkpt>
      <trkpt lat="49.0133478" lon="-125.6553334">
      </trkpt>
      <trkpt lat="49.0133479" lon="-125.6554151">
      </trkpt>
      <trkpt lat="49.0133425" lon="-125.6554542">
      </trkpt>
      <trkpt lat="49.0133288" lon="-125.6554908">
      </trkpt>
      <trkpt lat="49.0133135" lon="-125.6555266">
      </trkpt>
      <trkpt lat="49.0133016" lon="-125.6555559">
      </trkpt>
      <trkpt lat="49.0133009" lon="-125.6556067">
      </trkpt>
      <trkpt lat="49.0133045" lon="-125.6557048">
      </trkpt>
      <trkpt lat="49.0132937" lon="-125.6557666">
      </trkpt>
      <trkpt lat="49.0132839" lon="-125.655836">
      </trkpt>
      <trkpt lat="49.0132804" lon="-125.6559141">
      </trkpt>
      <trkpt lat="49.0132751" lon="-125.6559761">
      </trkpt>
      <trkpt lat="49.0132724" lon="-125.6560387">
      </trkpt>
      <trkpt lat="49.0132661" lon="-125.6560744">
      </trkpt>
      <trkpt lat="49.0132583" lon="-125.6561074">
      </trkpt>
      <trkpt lat="49.0132367" lon="-125.6561498">
      </trkpt>
      <trkpt lat="49.0132249" lon="-125.6561839">
      </trkpt>
      <trkpt lat="49.0132121" lon="-125.6562132">
      </trkpt>
      <trkpt lat="49.0132093" lon="-125.6562273">
      </trkpt>
      <trkpt lat="49.0132171" lon="-125.6563253">
      </trkpt>
      <trkpt lat="49.0132372" lon="-125.6563831">
      </trkpt>
      <trkpt lat="49.0132612" lon="-125.6564546">
      </trkpt>
      <trkpt lat="49.0132776" lon="-125.656515">
      </trkpt>
      <trkpt lat="49.013292" lon="-125.6565484">
      </trkpt>
      <trkpt lat="49.0133017" lon="-125.6566022">
      </trkpt>
      <trkpt lat="49.013297" lon="-125.6566712">
      </trkpt>
      <trkpt lat="49.0133005" lon="-125.6567439">
      </trkpt>
      <trkpt lat="49.0132832" lon="-125.6569092">
      </trkpt>
      <trkpt lat="49.0132754" lon="-125.6569646">
      </trkpt>
      <trkpt lat="49.0132683" lon="-125.6570427">
      </trkpt>
      <trkpt lat="49.0132605" lon="-125.6571045">
      </trkpt>
      <trkpt lat="49.0132541" lon="-125.6571414">
      </trkpt>
      <trkpt lat="49.0132441" lon="-125.6571717">
      </trkpt>
      <trkpt lat="49.0131687" lon="-125.6573712">
      </trkpt>
      <trkpt lat="49.0131339" lon="-125.6574677">
      </trkpt>
      <trkpt lat="49.0131076" lon="-125.657522">
      </trkpt>
      <trkpt lat="49.012981" lon="-125.657818">
      </trkpt>
      <trkpt lat="49.0129668" lon="-125.6578559">
      </trkpt>
      <trkpt lat="49.0129547" lon="-125.6578982">
      </trkpt>
      <trkpt lat="49.0129469" lon="-125.6579383">
      </trkpt>
      <trkpt lat="49.0129412" lon="-125.6579893">
      </trkpt>
      <trkpt lat="49.0129326" lon="-125.6580359">
      </trkpt>
      <trkpt lat="49.012922" lon="-125.6580641">
      </trkpt>
      <trkpt lat="49.0128112" lon="-125.658368">
      </trkpt>
      <trkpt lat="49.0128015" lon="-125.6584143">
      </trkpt>
      <trkpt lat="49.0127955" lon="-125.6584486">
      </trkpt>
      <trkpt lat="49.0127894" lon="-125.6587013">
      </trkpt>
      <trkpt lat="49.0127808" lon="-125.6587795">
      </trkpt>
      <trkpt lat="49.0127641" lon="-125.6588535">
      </trkpt>
      <trkpt lat="49.0127605" lon="-125.6588719">
      </trkpt>
      <trkpt lat="49.0127506" lon="-125.6589044">
      </trkpt>
      <trkpt lat="49.0127321" lon="-125.6589478">
      </trkpt>
      <trkpt lat="49.0127079" lon="-125.6590042">
      </trkpt>
      <trkpt lat="49.0126659" lon="-125.6590779">
      </trkpt>
      <trkpt lat="49.0126055" lon="-125.6591777">
      </trkpt>
      <trkpt lat="49.0125109" lon="-125.6593208">
      </trkpt>
      <trkpt lat="49.0124533" lon="-125.6594043">
      </trkpt>
      <trkpt lat="49.0124377" lon="-125.659426">
      </trkpt>
      <trkpt lat="49.0124199" lon="-125.6594347">
      </trkpt>
      <trkpt lat="49.0123871" lon="-125.6594281">
      </trkpt>
      <trkpt lat="49.0122922" lon="-125.6593799">
      </trkpt>
      <trkpt lat="49.0122667" lon="-125.6593584">
      </trkpt>
      <trkpt lat="49.0121916" lon="-125.6592937">
      </trkpt>
      <trkpt lat="49.0121717" lon="-125.6592698">
      </trkpt>
      <trkpt lat="49.012119" lon="-125.65922">
      </trkpt>
      <trkpt lat="49.0120787" lon="-125.6591641">
      </trkpt>
      <trkpt lat="49.0120353" lon="-125.6590978">
      </trkpt>
      <trkpt lat="49.0120029" lon="-125.6590046">
      </trkpt>
      <trkpt lat="49.0119537" lon="-125.6588674">
      </trkpt>
      <trkpt lat="49.0119251" lon="-125.6587506">
      </trkpt>
      <trkpt lat="49.0119189" lon="-125.6586238">
      </trkpt>
      <trkpt lat="49.0119178" lon="-125.6584696">
      </trkpt>
      <trkpt lat="49.0119185" lon="-125.658449">
      </trkpt>
      <trkpt lat="49.0119121" lon="-125.658423">
      </trkpt>
      <trkpt lat="49.0118694" lon="-125.6582636">
      </trkpt>
      <trkpt lat="49.0118524" lon="-125.6581964">
      </trkpt>
      <trkpt lat="49.0118474" lon="-125.6581487">
      </trkpt>
      <trkpt lat="49.0118367" lon="-125.6580966">
      </trkpt>
      <trkpt lat="49.0118218" lon="-125.6580077">
      </trkpt>
      <trkpt lat="49.0118139" lon="-125.6579589">
      </trkpt>
      <trkpt lat="49.0118125" lon="-125.6579166">
      </trkpt>
      <trkpt lat="49.0118211" lon="-125.6578895">
      </trkpt>
      <trkpt lat="49.0118431" lon="-125.6578592">
      </trkpt>
      <trkpt lat="49.0118886" lon="-125.6578039">
      </trkpt>
      <trkpt lat="49.0119057" lon="-125.6577952">
      </trkpt>
      <trkpt lat="49.0120138" lon="-125.6577507">
      </trkpt>
      <trkpt lat="49.0120309" lon="-125.657741">
      </trkpt>
      <trkpt lat="49.012043" lon="-125.6577258">
      </trkpt>
      <trkpt lat="49.0120536" lon="-125.6577095">
      </trkpt>
      <trkpt lat="49.0120701" lon="-125.6576876">
      </trkpt>
      <trkpt lat="49.0120807" lon="-125.6576486">
      </trkpt>
      <trkpt lat="49.0120863" lon="-125.6576134">
      </trkpt>
      <trkpt lat="49.0121431" lon="-125.6571902">
      </trkpt>
      <trkpt lat="49.0121494" lon="-125.6571506">
      </trkpt>
      <trkpt lat="49.0121514" lon="-125.6571247">
      </trkpt>
      <trkpt lat="49.0121592" lon="-125.657096">
      </trkpt>
      <trkpt lat="49.0121756" lon="-125.6570778">
      </trkpt>
      <trkpt lat="49.0122889" lon="-125.6569926">
      </trkpt>
      <trkpt lat="49.0123016" lon="-125.6569849">
      </trkpt>
      <trkpt lat="49.0123921" lon="-125.6568914">
      </trkpt>
      <trkpt lat="49.0124282" lon="-125.6568608">
      </trkpt>
      <trkpt lat="49.0124792" lon="-125.6568345">
      </trkpt>
      <trkpt lat="49.0125039" lon="-125.6568222">
      </trkpt>
      <trkpt lat="49.0125198" lon="-125.6568065">
      </trkpt>
      <trkpt lat="49.0125443" lon="-125.6567727">
      </trkpt>
      <trkpt lat="49.0125621" lon="-125.6567402">
      </trkpt>
      <trkpt lat="49.0125842" lon="-125.6566914">
      </trkpt>
      <trkpt lat="49.0125991" lon="-125.6566404">
      </trkpt>
      <trkpt lat="49.012619" lon="-125.6565656">
      </trkpt>
      <trkpt lat="49.0127051" lon="-125.6562013">
      </trkpt>
      <trkpt lat="49.0127122" lon="-125.6561633">
      </trkpt>
      <trkpt lat="49.0127228" lon="-125.6561265">
      </trkpt>
      <trkpt lat="49.0127342" lon="-125.6560983">
      </trkpt>
      <trkpt lat="49.0127477" lon="-125.6560766">
      </trkpt>
      <trkpt lat="49.0127648" lon="-125.6560592">
      </trkpt>
      <trkpt lat="49.012784" lon="-125.6560484">
      </trkpt>
      <trkpt lat="49.0128053" lon="-125.6560386">
      </trkpt>
      <trkpt lat="49.0128317" lon="-125.65603">
      </trkpt>
      <trkpt lat="49.0129846" lon="-125.6560029">
      </trkpt>
      <trkpt lat="49.0130066" lon="-125.6559909">
      </trkpt>
      <trkpt lat="49.0131289" lon="-125.655889">
      </trkpt>
      <trkpt lat="49.0131929" lon="-125.6558131">
      </trkpt>
      <trkpt lat="49.0132256" lon="-125.6557766">
      </trkpt>
      <trkpt lat="49.0132662" lon="-125.6557405">
      </trkpt>
      <trkpt lat="49.0133045" lon="-125.6557048">
      </trkpt>
    </trkseg>
  </trk>
</gpx>