<?xml version="1.0" encoding="UTF-8"?>
<gpx xmlns="http://www.topografix.com/GPX/1/1" xmlns:xsi="http://www.w3.org/2001/XMLSchema-instance" xsi:schemaLocation="http://www.topografix.com/GPX/1/1 http://www.topografix.com/GPX/1/1/gpx.xsd" version="1.1" creator="gpx.py -- https://github.com/tkrajina/gpxpy">
  <trk>
    <name>Sneaking Cougar</name>
    <trkseg>
      <trkpt lat="49.64130673" lon="-116.05237393">
      </trkpt>
      <trkpt lat="49.64131" lon="-116.05236">
      </trkpt>
      <trkpt lat="49.64129964" lon="-116.05226972">
      </trkpt>
      <trkpt lat="49.64129" lon="-116.05214001">
      </trkpt>
      <trkpt lat="49.64133" lon="-116.05174">
      </trkpt>
      <trkpt lat="49.64133" lon="-116.0516">
      </trkpt>
      <trkpt lat="49.64136" lon="-116.05150001">
      </trkpt>
      <trkpt lat="49.64137" lon="-116.05139">
      </trkpt>
      <trkpt lat="49.64135" lon="-116.05124">
      </trkpt>
      <trkpt lat="49.64142" lon="-116.0511">
      </trkpt>
      <trkpt lat="49.64143" lon="-116.05099">
      </trkpt>
      <trkpt lat="49.64149" lon="-116.05091001">
      </trkpt>
      <trkpt lat="49.6415" lon="-116.05084999">
      </trkpt>
      <trkpt lat="49.64154" lon="-116.05079001">
      </trkpt>
      <trkpt lat="49.64163" lon="-116.05056001">
      </trkpt>
      <trkpt lat="49.64174" lon="-116.0502">
      </trkpt>
      <trkpt lat="49.64171" lon="-116.05007">
      </trkpt>
      <trkpt lat="49.64166" lon="-116.04995">
      </trkpt>
      <trkpt lat="49.64164" lon="-116.04992">
      </trkpt>
      <trkpt lat="49.6416" lon="-116.0499">
      </trkpt>
      <trkpt lat="49.64154" lon="-116.04971001">
      </trkpt>
      <trkpt lat="49.64143" lon="-116.04955">
      </trkpt>
      <trkpt lat="49.64131" lon="-116.04898">
      </trkpt>
      <trkpt lat="49.64124" lon="-116.04878">
      </trkpt>
      <trkpt lat="49.64121" lon="-116.04854">
      </trkpt>
      <trkpt lat="49.6412" lon="-116.04807">
      </trkpt>
      <trkpt lat="49.64125" lon="-116.04775">
      </trkpt>
      <trkpt lat="49.64135" lon="-116.04745001">
      </trkpt>
      <trkpt lat="49.64138" lon="-116.04739">
      </trkpt>
      <trkpt lat="49.64144" lon="-116.04734001">
      </trkpt>
      <trkpt lat="49.64157" lon="-116.04737">
      </trkpt>
      <trkpt lat="49.64169" lon="-116.04747">
      </trkpt>
      <trkpt lat="49.64184" lon="-116.04749">
      </trkpt>
      <trkpt lat="49.64194" lon="-116.04745">
      </trkpt>
      <trkpt lat="49.64209" lon="-116.04742">
      </trkpt>
      <trkpt lat="49.64235" lon="-116.04732">
      </trkpt>
      <trkpt lat="49.64254" lon="-116.04712">
      </trkpt>
      <trkpt lat="49.64264" lon="-116.04697001">
      </trkpt>
      <trkpt lat="49.64273" lon="-116.04694">
      </trkpt>
      <trkpt lat="49.64304" lon="-116.04713">
      </trkpt>
      <trkpt lat="49.64309" lon="-116.04713">
      </trkpt>
      <trkpt lat="49.64313" lon="-116.0471">
      </trkpt>
      <trkpt lat="49.6432" lon="-116.04698">
      </trkpt>
      <trkpt lat="49.64321" lon="-116.04690001">
      </trkpt>
      <trkpt lat="49.64319" lon="-116.04669">
      </trkpt>
      <trkpt lat="49.64314" lon="-116.04644">
      </trkpt>
      <trkpt lat="49.64304" lon="-116.04611">
      </trkpt>
      <trkpt lat="49.64294" lon="-116.0457">
      </trkpt>
      <trkpt lat="49.64289" lon="-116.04547">
      </trkpt>
      <trkpt lat="49.64287" lon="-116.04525">
      </trkpt>
      <trkpt lat="49.64297001" lon="-116.04492001">
      </trkpt>
      <trkpt lat="49.64301" lon="-116.04486">
      </trkpt>
      <trkpt lat="49.64306" lon="-116.04482001">
      </trkpt>
      <trkpt lat="49.6432" lon="-116.04483">
      </trkpt>
      <trkpt lat="49.64337" lon="-116.04489">
      </trkpt>
      <trkpt lat="49.64362" lon="-116.04484">
      </trkpt>
      <trkpt lat="49.64375" lon="-116.04473">
      </trkpt>
      <trkpt lat="49.6438" lon="-116.04457">
      </trkpt>
      <trkpt lat="49.64383" lon="-116.04428001">
      </trkpt>
      <trkpt lat="49.64376" lon="-116.04372">
      </trkpt>
      <trkpt lat="49.64377" lon="-116.04356">
      </trkpt>
      <trkpt lat="49.64373" lon="-116.04328">
      </trkpt>
      <trkpt lat="49.64348" lon="-116.04264">
      </trkpt>
      <trkpt lat="49.64332" lon="-116.04207999">
      </trkpt>
      <trkpt lat="49.64326" lon="-116.04171001">
      </trkpt>
      <trkpt lat="49.64314" lon="-116.04131999">
      </trkpt>
      <trkpt lat="49.64286" lon="-116.0407">
      </trkpt>
      <trkpt lat="49.64269" lon="-116.04037">
      </trkpt>
      <trkpt lat="49.64237" lon="-116.03921">
      </trkpt>
      <trkpt lat="49.6423" lon="-116.03887">
      </trkpt>
      <trkpt lat="49.64222" lon="-116.03863">
      </trkpt>
      <trkpt lat="49.64204" lon="-116.03756">
      </trkpt>
      <trkpt lat="49.64200999" lon="-116.03709999">
      </trkpt>
      <trkpt lat="49.64191" lon="-116.03668001">
      </trkpt>
      <trkpt lat="49.64181" lon="-116.03604">
      </trkpt>
      <trkpt lat="49.64178" lon="-116.03593">
      </trkpt>
      <trkpt lat="49.64177" lon="-116.03578">
      </trkpt>
      <trkpt lat="49.64171" lon="-116.03553">
      </trkpt>
      <trkpt lat="49.64171" lon="-116.03508">
      </trkpt>
      <trkpt lat="49.64175" lon="-116.03487999">
      </trkpt>
      <trkpt lat="49.64179991" lon="-116.03482966">
      </trkpt>
    </trkseg>
    <trkseg>
      <trkpt lat="49.63663467" lon="-116.06863585">
      </trkpt>
      <trkpt lat="49.63664" lon="-116.06854">
      </trkpt>
      <trkpt lat="49.63651" lon="-116.06843">
      </trkpt>
      <trkpt lat="49.63645" lon="-116.06828">
      </trkpt>
      <trkpt lat="49.63651" lon="-116.06802999">
      </trkpt>
      <trkpt lat="49.63639" lon="-116.06784">
      </trkpt>
      <trkpt lat="49.63638" lon="-116.06723">
      </trkpt>
      <trkpt lat="49.63642" lon="-116.06713">
      </trkpt>
      <trkpt lat="49.63648" lon="-116.06705001">
      </trkpt>
      <trkpt lat="49.63665" lon="-116.06652">
      </trkpt>
      <trkpt lat="49.63667" lon="-116.06631">
      </trkpt>
      <trkpt lat="49.63671" lon="-116.06612">
      </trkpt>
      <trkpt lat="49.63681" lon="-116.06576">
      </trkpt>
      <trkpt lat="49.63683" lon="-116.06525001">
      </trkpt>
      <trkpt lat="49.63692" lon="-116.065">
      </trkpt>
      <trkpt lat="49.63707" lon="-116.06471999">
      </trkpt>
      <trkpt lat="49.6373" lon="-116.06441">
      </trkpt>
      <trkpt lat="49.63754" lon="-116.06412999">
      </trkpt>
      <trkpt lat="49.63771" lon="-116.06399">
      </trkpt>
      <trkpt lat="49.63798" lon="-116.06399999">
      </trkpt>
      <trkpt lat="49.63815" lon="-116.06403">
      </trkpt>
      <trkpt lat="49.63875" lon="-116.06435">
      </trkpt>
      <trkpt lat="49.63914" lon="-116.06447999">
      </trkpt>
      <trkpt lat="49.63932" lon="-116.06442001">
      </trkpt>
      <trkpt lat="49.63949" lon="-116.06439">
      </trkpt>
      <trkpt lat="49.63967" lon="-116.06430001">
      </trkpt>
      <trkpt lat="49.63996" lon="-116.06425">
      </trkpt>
      <trkpt lat="49.64021" lon="-116.06429">
      </trkpt>
      <trkpt lat="49.6403" lon="-116.06425">
      </trkpt>
      <trkpt lat="49.64039" lon="-116.06424">
      </trkpt>
      <trkpt lat="49.64049" lon="-116.06415999">
      </trkpt>
      <trkpt lat="49.64075" lon="-116.06406">
      </trkpt>
      <trkpt lat="49.64102" lon="-116.06397999">
      </trkpt>
      <trkpt lat="49.64116" lon="-116.06398">
      </trkpt>
      <trkpt lat="49.64127" lon="-116.06395">
      </trkpt>
      <trkpt lat="49.64092" lon="-116.0639">
      </trkpt>
      <trkpt lat="49.64073" lon="-116.06372">
      </trkpt>
      <trkpt lat="49.64067" lon="-116.0636">
      </trkpt>
      <trkpt lat="49.64064" lon="-116.06333">
      </trkpt>
      <trkpt lat="49.64071" lon="-116.06303">
      </trkpt>
      <trkpt lat="49.64089" lon="-116.06268">
      </trkpt>
      <trkpt lat="49.64093" lon="-116.06235001">
      </trkpt>
      <trkpt lat="49.64086" lon="-116.06206001">
      </trkpt>
      <trkpt lat="49.64048" lon="-116.0611">
      </trkpt>
      <trkpt lat="49.64051" lon="-116.06099">
      </trkpt>
      <trkpt lat="49.64051" lon="-116.06088001">
      </trkpt>
      <trkpt lat="49.64055" lon="-116.06066">
      </trkpt>
      <trkpt lat="49.64055" lon="-116.06044">
      </trkpt>
      <trkpt lat="49.64058" lon="-116.06034">
      </trkpt>
      <trkpt lat="49.64057" lon="-116.05968999">
      </trkpt>
      <trkpt lat="49.64056" lon="-116.05952001">
      </trkpt>
      <trkpt lat="49.64047" lon="-116.05919999">
      </trkpt>
      <trkpt lat="49.64036" lon="-116.05867001">
      </trkpt>
      <trkpt lat="49.64023" lon="-116.05831">
      </trkpt>
      <trkpt lat="49.64009" lon="-116.05815">
      </trkpt>
      <trkpt lat="49.63989" lon="-116.05801999">
      </trkpt>
      <trkpt lat="49.63957" lon="-116.058">
      </trkpt>
      <trkpt lat="49.63939" lon="-116.05805">
      </trkpt>
      <trkpt lat="49.63925" lon="-116.05796">
      </trkpt>
      <trkpt lat="49.6392" lon="-116.05787">
      </trkpt>
      <trkpt lat="49.63917" lon="-116.05785">
      </trkpt>
      <trkpt lat="49.6391" lon="-116.05762">
      </trkpt>
      <trkpt lat="49.63908" lon="-116.05749">
      </trkpt>
      <trkpt lat="49.63909" lon="-116.05739">
      </trkpt>
      <trkpt lat="49.63904" lon="-116.05715">
      </trkpt>
      <trkpt lat="49.63903" lon="-116.05698">
      </trkpt>
      <trkpt lat="49.63906" lon="-116.05678">
      </trkpt>
      <trkpt lat="49.63904" lon="-116.05668">
      </trkpt>
      <trkpt lat="49.63904" lon="-116.05636">
      </trkpt>
      <trkpt lat="49.63907" lon="-116.05617">
      </trkpt>
      <trkpt lat="49.63907" lon="-116.05602001">
      </trkpt>
      <trkpt lat="49.63911" lon="-116.05592">
      </trkpt>
      <trkpt lat="49.63914" lon="-116.05590999">
      </trkpt>
      <trkpt lat="49.6392" lon="-116.05606999">
      </trkpt>
      <trkpt lat="49.63917" lon="-116.05639">
      </trkpt>
      <trkpt lat="49.6392" lon="-116.05671">
      </trkpt>
      <trkpt lat="49.6394" lon="-116.05723">
      </trkpt>
      <trkpt lat="49.63944" lon="-116.05723001">
      </trkpt>
      <trkpt lat="49.63948" lon="-116.05709">
      </trkpt>
      <trkpt lat="49.63961" lon="-116.05684">
      </trkpt>
      <trkpt lat="49.63966" lon="-116.05678999">
      </trkpt>
      <trkpt lat="49.63976" lon="-116.05674">
      </trkpt>
      <trkpt lat="49.63989" lon="-116.05662">
      </trkpt>
      <trkpt lat="49.6399" lon="-116.05659">
      </trkpt>
      <trkpt lat="49.64002" lon="-116.05649001">
      </trkpt>
      <trkpt lat="49.64006" lon="-116.0564">
      </trkpt>
      <trkpt lat="49.64011" lon="-116.05635">
      </trkpt>
      <trkpt lat="49.64017" lon="-116.05624">
      </trkpt>
      <trkpt lat="49.6402" lon="-116.05622">
      </trkpt>
      <trkpt lat="49.64026" lon="-116.05611">
      </trkpt>
      <trkpt lat="49.6404" lon="-116.05597001">
      </trkpt>
      <trkpt lat="49.64043" lon="-116.05585001">
      </trkpt>
      <trkpt lat="49.64051" lon="-116.05569">
      </trkpt>
      <trkpt lat="49.64061" lon="-116.05534001">
      </trkpt>
      <trkpt lat="49.64061" lon="-116.05516999">
      </trkpt>
      <trkpt lat="49.64059" lon="-116.05505">
      </trkpt>
      <trkpt lat="49.64055" lon="-116.05496">
      </trkpt>
      <trkpt lat="49.64053" lon="-116.05476">
      </trkpt>
      <trkpt lat="49.6405" lon="-116.05465">
      </trkpt>
      <trkpt lat="49.64051" lon="-116.05451">
      </trkpt>
      <trkpt lat="49.64048" lon="-116.05429">
      </trkpt>
      <trkpt lat="49.64052" lon="-116.05404001">
      </trkpt>
      <trkpt lat="49.64054" lon="-116.05375999">
      </trkpt>
      <trkpt lat="49.64053" lon="-116.05368">
      </trkpt>
      <trkpt lat="49.64048" lon="-116.05371">
      </trkpt>
      <trkpt lat="49.64045" lon="-116.05377">
      </trkpt>
      <trkpt lat="49.64042" lon="-116.05375">
      </trkpt>
      <trkpt lat="49.64041" lon="-116.05368001">
      </trkpt>
      <trkpt lat="49.64052" lon="-116.05326">
      </trkpt>
      <trkpt lat="49.64079" lon="-116.05326001">
      </trkpt>
      <trkpt lat="49.64092" lon="-116.05334">
      </trkpt>
      <trkpt lat="49.64107" lon="-116.05347">
      </trkpt>
      <trkpt lat="49.64117" lon="-116.0535">
      </trkpt>
      <trkpt lat="49.64125" lon="-116.05342999">
      </trkpt>
      <trkpt lat="49.64129" lon="-116.05328">
      </trkpt>
      <trkpt lat="49.64132" lon="-116.05308">
      </trkpt>
      <trkpt lat="49.64127192" lon="-116.05255089">
      </trkpt>
      <trkpt lat="49.64127286" lon="-116.05251784">
      </trkpt>
    </trkseg>
  </trk>
</gpx>