<?xml version="1.0" encoding="UTF-8"?>
<gpx xmlns="http://www.topografix.com/GPX/1/1" xmlns:xsi="http://www.w3.org/2001/XMLSchema-instance" xsi:schemaLocation="http://www.topografix.com/GPX/1/1 http://www.topografix.com/GPX/1/1/gpx.xsd" version="1.1" creator="gpx.py -- https://github.com/tkrajina/gpxpy">
  <trk>
    <name>Into the Mystic</name>
    <trkseg>
      <trkpt lat="50.10597796" lon="-123.02126778">
      </trkpt>
      <trkpt lat="50.10592" lon="-123.02142">
      </trkpt>
      <trkpt lat="50.10585" lon="-123.02188001">
      </trkpt>
      <trkpt lat="50.10589" lon="-123.02202">
      </trkpt>
      <trkpt lat="50.10591" lon="-123.02222999">
      </trkpt>
      <trkpt lat="50.10585" lon="-123.02267">
      </trkpt>
      <trkpt lat="50.10586" lon="-123.02281">
      </trkpt>
      <trkpt lat="50.10579" lon="-123.02295">
      </trkpt>
      <trkpt lat="50.10571" lon="-123.02302">
      </trkpt>
      <trkpt lat="50.1056" lon="-123.02305999">
      </trkpt>
      <trkpt lat="50.10553" lon="-123.02316999">
      </trkpt>
      <trkpt lat="50.10545" lon="-123.02324">
      </trkpt>
      <trkpt lat="50.10535" lon="-123.02326">
      </trkpt>
      <trkpt lat="50.10524" lon="-123.02322001">
      </trkpt>
      <trkpt lat="50.10505" lon="-123.02332999">
      </trkpt>
      <trkpt lat="50.10495" lon="-123.02358999">
      </trkpt>
      <trkpt lat="50.10499" lon="-123.02373">
      </trkpt>
      <trkpt lat="50.10496" lon="-123.02388">
      </trkpt>
      <trkpt lat="50.10508" lon="-123.02413">
      </trkpt>
      <trkpt lat="50.105" lon="-123.02441001">
      </trkpt>
      <trkpt lat="50.10337" lon="-123.025661">
      </trkpt>
      <trkpt lat="50.102779" lon="-123.026309">
      </trkpt>
      <trkpt lat="50.10274" lon="-123.026451">
      </trkpt>
      <trkpt lat="50.10229" lon="-123.027468">
      </trkpt>
      <trkpt lat="50.10188" lon="-123.02849101">
      </trkpt>
      <trkpt lat="50.10175" lon="-123.02872099">
      </trkpt>
      <trkpt lat="50.10165" lon="-123.029271">
      </trkpt>
      <trkpt lat="50.10164" lon="-123.029651">
      </trkpt>
      <trkpt lat="50.10166" lon="-123.029811">
      </trkpt>
      <trkpt lat="50.10163" lon="-123.030291">
      </trkpt>
      <trkpt lat="50.10166" lon="-123.030441">
      </trkpt>
      <trkpt lat="50.10166" lon="-123.030731">
      </trkpt>
      <trkpt lat="50.10168" lon="-123.030901">
      </trkpt>
      <trkpt lat="50.10167" lon="-123.031051">
      </trkpt>
      <trkpt lat="50.10163" lon="-123.031191">
      </trkpt>
      <trkpt lat="50.10149" lon="-123.03143101">
      </trkpt>
      <trkpt lat="50.10147" lon="-123.031731">
      </trkpt>
      <trkpt lat="50.10142" lon="-123.031851">
      </trkpt>
      <trkpt lat="50.10133" lon="-123.031911">
      </trkpt>
      <trkpt lat="50.10129" lon="-123.032071">
      </trkpt>
      <trkpt lat="50.10132" lon="-123.032221">
      </trkpt>
      <trkpt lat="50.10128" lon="-123.032351">
      </trkpt>
      <trkpt lat="50.10119" lon="-123.032371">
      </trkpt>
      <trkpt lat="50.10112" lon="-123.03249101">
      </trkpt>
      <trkpt lat="50.10103" lon="-123.032791">
      </trkpt>
      <trkpt lat="50.1011" lon="-123.033111">
      </trkpt>
      <trkpt lat="50.10105" lon="-123.033271">
      </trkpt>
      <trkpt lat="50.10097" lon="-123.03337101">
      </trkpt>
      <trkpt lat="50.10086" lon="-123.033331">
      </trkpt>
      <trkpt lat="50.10076" lon="-123.033411">
      </trkpt>
      <trkpt lat="50.1007" lon="-123.033581">
      </trkpt>
      <trkpt lat="50.10067" lon="-123.033791">
      </trkpt>
      <trkpt lat="50.1007" lon="-123.034461">
      </trkpt>
      <trkpt lat="50.10053" lon="-123.035211">
      </trkpt>
      <trkpt lat="50.10055" lon="-123.035351">
      </trkpt>
      <trkpt lat="50.10065" lon="-123.035381">
      </trkpt>
      <trkpt lat="50.1007" lon="-123.035511">
      </trkpt>
      <trkpt lat="50.10077" lon="-123.036301">
      </trkpt>
      <trkpt lat="50.10069" lon="-123.036611">
      </trkpt>
      <trkpt lat="50.1006" lon="-123.036771">
      </trkpt>
      <trkpt lat="50.10046" lon="-123.03690401">
      </trkpt>
      <trkpt lat="50.100426" lon="-123.037057">
      </trkpt>
      <trkpt lat="50.100395" lon="-123.037213">
      </trkpt>
      <trkpt lat="50.100306" lon="-123.037495">
      </trkpt>
      <trkpt lat="50.100266" lon="-123.037632">
      </trkpt>
      <trkpt lat="50.100271" lon="-123.037933">
      </trkpt>
      <trkpt lat="50.100431" lon="-123.038553">
      </trkpt>
      <trkpt lat="50.100481" lon="-123.03885301">
      </trkpt>
      <trkpt lat="50.100461" lon="-123.03930299">
      </trkpt>
      <trkpt lat="50.100561" lon="-123.03975299">
      </trkpt>
      <trkpt lat="50.100621" lon="-123.039903">
      </trkpt>
      <trkpt lat="50.100621" lon="-123.040053">
      </trkpt>
      <trkpt lat="50.100521" lon="-123.040213">
      </trkpt>
      <trkpt lat="50.100471" lon="-123.040363">
      </trkpt>
      <trkpt lat="50.100411" lon="-123.040393">
      </trkpt>
      <trkpt lat="50.100321" lon="-123.040323">
      </trkpt>
      <trkpt lat="50.100221" lon="-123.040343">
      </trkpt>
      <trkpt lat="50.100131" lon="-123.040413">
      </trkpt>
      <trkpt lat="50.100061" lon="-123.040523">
      </trkpt>
      <trkpt lat="50.100011" lon="-123.040653">
      </trkpt>
      <trkpt lat="50.100031" lon="-123.040833">
      </trkpt>
      <trkpt lat="50.100121" lon="-123.040923">
      </trkpt>
      <trkpt lat="50.100211" lon="-123.040983">
      </trkpt>
      <trkpt lat="50.100311" lon="-123.04095301">
      </trkpt>
      <trkpt lat="50.100311" lon="-123.04079299">
      </trkpt>
      <trkpt lat="50.100401" lon="-123.040833">
      </trkpt>
      <trkpt lat="50.100491" lon="-123.04090299">
      </trkpt>
      <trkpt lat="50.100571" lon="-123.04081301">
      </trkpt>
      <trkpt lat="50.100661" lon="-123.040763">
      </trkpt>
      <trkpt lat="50.100741" lon="-123.040693">
      </trkpt>
      <trkpt lat="50.100721" lon="-123.040853">
      </trkpt>
      <trkpt lat="50.100651" lon="-123.041143">
      </trkpt>
      <trkpt lat="50.100661" lon="-123.041293">
      </trkpt>
      <trkpt lat="50.100821" lon="-123.041133">
      </trkpt>
      <trkpt lat="50.100861" lon="-123.04098299">
      </trkpt>
      <trkpt lat="50.100961" lon="-123.041033">
      </trkpt>
      <trkpt lat="50.101031" lon="-123.041133">
      </trkpt>
      <trkpt lat="50.100951" lon="-123.041243">
      </trkpt>
      <trkpt lat="50.100961" lon="-123.041393">
      </trkpt>
      <trkpt lat="50.100901" lon="-123.041513">
      </trkpt>
      <trkpt lat="50.100901" lon="-123.041673">
      </trkpt>
      <trkpt lat="50.100871" lon="-123.041813">
      </trkpt>
      <trkpt lat="50.100901" lon="-123.041953">
      </trkpt>
      <trkpt lat="50.100881" lon="-123.04209299">
      </trkpt>
      <trkpt lat="50.100791" lon="-123.042193">
      </trkpt>
      <trkpt lat="50.100761" lon="-123.04234301">
      </trkpt>
      <trkpt lat="50.100871" lon="-123.04278301">
      </trkpt>
      <trkpt lat="50.100891" lon="-123.042953">
      </trkpt>
      <trkpt lat="50.100861" lon="-123.04312301">
      </trkpt>
      <trkpt lat="50.100821" lon="-123.043753">
      </trkpt>
      <trkpt lat="50.100751" lon="-123.043863">
      </trkpt>
      <trkpt lat="50.100531" lon="-123.043833">
      </trkpt>
      <trkpt lat="50.100441" lon="-123.043883">
      </trkpt>
      <trkpt lat="50.100351" lon="-123.04399299">
      </trkpt>
      <trkpt lat="50.100351" lon="-123.044143">
      </trkpt>
      <trkpt lat="50.100411" lon="-123.044253">
      </trkpt>
      <trkpt lat="50.100401" lon="-123.044393">
      </trkpt>
      <trkpt lat="50.100311" lon="-123.044423">
      </trkpt>
      <trkpt lat="50.100231" lon="-123.04452299">
      </trkpt>
      <trkpt lat="50.100181" lon="-123.04464299">
      </trkpt>
      <trkpt lat="50.100251" lon="-123.044913">
      </trkpt>
      <trkpt lat="50.100221" lon="-123.045073">
      </trkpt>
      <trkpt lat="50.100141" lon="-123.045133">
      </trkpt>
      <trkpt lat="50.099921" lon="-123.04509301">
      </trkpt>
      <trkpt lat="50.099831" lon="-123.04515299">
      </trkpt>
      <trkpt lat="50.099761" lon="-123.045253">
      </trkpt>
      <trkpt lat="50.099491" lon="-123.045463">
      </trkpt>
      <trkpt lat="50.099391" lon="-123.04574301">
      </trkpt>
      <trkpt lat="50.099311" lon="-123.045833">
      </trkpt>
      <trkpt lat="50.099141" lon="-123.046193">
      </trkpt>
      <trkpt lat="50.099131" lon="-123.046333">
      </trkpt>
      <trkpt lat="50.099041" lon="-123.046383">
      </trkpt>
      <trkpt lat="50.099001" lon="-123.046523">
      </trkpt>
      <trkpt lat="50.098911" lon="-123.046603">
      </trkpt>
      <trkpt lat="50.098821" lon="-123.04665299">
      </trkpt>
      <trkpt lat="50.098691" lon="-123.04664299">
      </trkpt>
      <trkpt lat="50.098451" lon="-123.04676299">
      </trkpt>
      <trkpt lat="50.098311" lon="-123.046863">
      </trkpt>
      <trkpt lat="50.098181" lon="-123.047003">
      </trkpt>
      <trkpt lat="50.098101" lon="-123.047143">
      </trkpt>
      <trkpt lat="50.098091" lon="-123.047293">
      </trkpt>
      <trkpt lat="50.098271" lon="-123.04766299">
      </trkpt>
      <trkpt lat="50.098471" lon="-123.047993">
      </trkpt>
      <trkpt lat="50.098511" lon="-123.048123">
      </trkpt>
      <trkpt lat="50.098431" lon="-123.048053">
      </trkpt>
      <trkpt lat="50.098481" lon="-123.04818299">
      </trkpt>
      <trkpt lat="50.098481" lon="-123.04832299">
      </trkpt>
      <trkpt lat="50.098381" lon="-123.048413">
      </trkpt>
      <trkpt lat="50.098341" lon="-123.04855299">
      </trkpt>
      <trkpt lat="50.098221" lon="-123.048793">
      </trkpt>
      <trkpt lat="50.098121" lon="-123.048853">
      </trkpt>
      <trkpt lat="50.098041" lon="-123.048973">
      </trkpt>
      <trkpt lat="50.097991" lon="-123.049133">
      </trkpt>
      <trkpt lat="50.097951" lon="-123.049453">
      </trkpt>
      <trkpt lat="50.097871" lon="-123.049563">
      </trkpt>
      <trkpt lat="50.097661" lon="-123.049653">
      </trkpt>
      <trkpt lat="50.097591" lon="-123.049763">
      </trkpt>
      <trkpt lat="50.097531" lon="-123.049883">
      </trkpt>
      <trkpt lat="50.097441" lon="-123.049953">
      </trkpt>
      <trkpt lat="50.097391" lon="-123.050083">
      </trkpt>
      <trkpt lat="50.097301" lon="-123.050123">
      </trkpt>
      <trkpt lat="50.097031" lon="-123.050323">
      </trkpt>
      <trkpt lat="50.096971" lon="-123.050443">
      </trkpt>
      <trkpt lat="50.097001" lon="-123.050583">
      </trkpt>
      <trkpt lat="50.096961" lon="-123.05071301">
      </trkpt>
      <trkpt lat="50.096951" lon="-123.050893">
      </trkpt>
      <trkpt lat="50.096861" lon="-123.051163">
      </trkpt>
      <trkpt lat="50.096841" lon="-123.051493">
      </trkpt>
      <trkpt lat="50.096661" lon="-123.05187299">
      </trkpt>
      <trkpt lat="50.096651" lon="-123.05218301">
      </trkpt>
      <trkpt lat="50.096711" lon="-123.052303">
      </trkpt>
      <trkpt lat="50.096741" lon="-123.05244301">
      </trkpt>
      <trkpt lat="50.096691" lon="-123.052573">
      </trkpt>
      <trkpt lat="50.096731" lon="-123.05270301">
      </trkpt>
      <trkpt lat="50.096801" lon="-123.052783">
      </trkpt>
      <trkpt lat="50.096781" lon="-123.052933">
      </trkpt>
      <trkpt lat="50.096801" lon="-123.05308301">
      </trkpt>
      <trkpt lat="50.096871" lon="-123.053173">
      </trkpt>
      <trkpt lat="50.096941" lon="-123.053463">
      </trkpt>
      <trkpt lat="50.096991" lon="-123.053593">
      </trkpt>
      <trkpt lat="50.097071" lon="-123.053713">
      </trkpt>
      <trkpt lat="50.097121" lon="-123.053833">
      </trkpt>
      <trkpt lat="50.097181" lon="-123.054143">
      </trkpt>
      <trkpt lat="50.097181" lon="-123.054303">
      </trkpt>
      <trkpt lat="50.097351" lon="-123.054863">
      </trkpt>
      <trkpt lat="50.097421" lon="-123.054943">
      </trkpt>
      <trkpt lat="50.097511" lon="-123.055013">
      </trkpt>
      <trkpt lat="50.097551" lon="-123.055163">
      </trkpt>
      <trkpt lat="50.097671" lon="-123.05541301">
      </trkpt>
      <trkpt lat="50.097761" lon="-123.055493">
      </trkpt>
      <trkpt lat="50.097921" lon="-123.05549299">
      </trkpt>
      <trkpt lat="50.098021" lon="-123.05547299">
      </trkpt>
      <trkpt lat="50.098071" lon="-123.055353">
      </trkpt>
      <trkpt lat="50.098171" lon="-123.055343">
      </trkpt>
      <trkpt lat="50.098241" lon="-123.05525301">
      </trkpt>
      <trkpt lat="50.098241" lon="-123.05511299">
      </trkpt>
      <trkpt lat="50.098321" lon="-123.055043">
      </trkpt>
      <trkpt lat="50.098321" lon="-123.054903">
      </trkpt>
      <trkpt lat="50.098361" lon="-123.054763">
      </trkpt>
      <trkpt lat="50.098421" lon="-123.054643">
      </trkpt>
      <trkpt lat="50.098461" lon="-123.054513">
      </trkpt>
      <trkpt lat="50.098431" lon="-123.054373">
      </trkpt>
      <trkpt lat="50.098351" lon="-123.054293">
      </trkpt>
      <trkpt lat="50.098211" lon="-123.054073">
      </trkpt>
      <trkpt lat="50.098181" lon="-123.053933">
      </trkpt>
      <trkpt lat="50.098181" lon="-123.053633">
      </trkpt>
      <trkpt lat="50.098171" lon="-123.053493">
      </trkpt>
      <trkpt lat="50.098261" lon="-123.053543">
      </trkpt>
      <trkpt lat="50.098361" lon="-123.05357299">
      </trkpt>
      <trkpt lat="50.098601" lon="-123.05376299">
      </trkpt>
      <trkpt lat="50.098801" lon="-123.05374299">
      </trkpt>
      <trkpt lat="50.098891" lon="-123.05381301">
      </trkpt>
      <trkpt lat="50.098961" lon="-123.053733">
      </trkpt>
      <trkpt lat="50.099171" lon="-123.054073">
      </trkpt>
      <trkpt lat="50.099321" lon="-123.054263">
      </trkpt>
      <trkpt lat="50.099401" lon="-123.054333">
      </trkpt>
      <trkpt lat="50.099541" lon="-123.054553">
      </trkpt>
      <trkpt lat="50.099621" lon="-123.054623">
      </trkpt>
      <trkpt lat="50.099691" lon="-123.054913">
      </trkpt>
      <trkpt lat="50.099641" lon="-123.055043">
      </trkpt>
      <trkpt lat="50.099671" lon="-123.055173">
      </trkpt>
      <trkpt lat="50.099761" lon="-123.05511299">
      </trkpt>
      <trkpt lat="50.099831" lon="-123.05501301">
      </trkpt>
      <trkpt lat="50.099911" lon="-123.054943">
      </trkpt>
      <trkpt lat="50.099961" lon="-123.054813">
      </trkpt>
      <trkpt lat="50.100031" lon="-123.05472301">
      </trkpt>
      <trkpt lat="50.100041" lon="-123.05457299">
      </trkpt>
      <trkpt lat="50.100021" lon="-123.054433">
      </trkpt>
      <trkpt lat="50.100101" lon="-123.054373">
      </trkpt>
      <trkpt lat="50.100191" lon="-123.05436299">
      </trkpt>
      <trkpt lat="50.100241" lon="-123.054483">
      </trkpt>
      <trkpt lat="50.100241" lon="-123.05463299">
      </trkpt>
      <trkpt lat="50.100261" lon="-123.05477301">
      </trkpt>
      <trkpt lat="50.100411" lon="-123.05498301">
      </trkpt>
      <trkpt lat="50.100501" lon="-123.055033">
      </trkpt>
      <trkpt lat="50.100561" lon="-123.05499299">
      </trkpt>
      <trkpt lat="50.100521" lon="-123.054883">
      </trkpt>
      <trkpt lat="50.100611" lon="-123.054823">
      </trkpt>
      <trkpt lat="50.100531" lon="-123.05475299">
      </trkpt>
      <trkpt lat="50.100511" lon="-123.054613">
      </trkpt>
      <trkpt lat="50.100591" lon="-123.054553">
      </trkpt>
      <trkpt lat="50.100651" lon="-123.05443299">
      </trkpt>
      <trkpt lat="50.100751" lon="-123.05442299">
      </trkpt>
      <trkpt lat="50.100831" lon="-123.054483">
      </trkpt>
      <trkpt lat="50.101101" lon="-123.05440299">
      </trkpt>
      <trkpt lat="50.101211" lon="-123.054433">
      </trkpt>
      <trkpt lat="50.101551" lon="-123.054853">
      </trkpt>
      <trkpt lat="50.101651" lon="-123.054893">
      </trkpt>
      <trkpt lat="50.101731" lon="-123.055013">
      </trkpt>
      <trkpt lat="50.101851" lon="-123.05526301">
      </trkpt>
      <trkpt lat="50.101941" lon="-123.055533">
      </trkpt>
      <trkpt lat="50.102001" lon="-123.055633">
      </trkpt>
      <trkpt lat="50.101991" lon="-123.05578299">
      </trkpt>
      <trkpt lat="50.102051" lon="-123.056083">
      </trkpt>
      <trkpt lat="50.102121" lon="-123.05620301">
      </trkpt>
      <trkpt lat="50.102201" lon="-123.056103">
      </trkpt>
      <trkpt lat="50.102191" lon="-123.055963">
      </trkpt>
      <trkpt lat="50.102281" lon="-123.055913">
      </trkpt>
      <trkpt lat="50.102321" lon="-123.056073">
      </trkpt>
      <trkpt lat="50.102391" lon="-123.055963">
      </trkpt>
      <trkpt lat="50.102461" lon="-123.056053">
      </trkpt>
      <trkpt lat="50.102591" lon="-123.05626301">
      </trkpt>
      <trkpt lat="50.102601" lon="-123.056413">
      </trkpt>
      <trkpt lat="50.102721" lon="-123.056653">
      </trkpt>
      <trkpt lat="50.102791" lon="-123.05691301">
      </trkpt>
      <trkpt lat="50.102991" lon="-123.056913">
      </trkpt>
      <trkpt lat="50.103051" lon="-123.056803">
      </trkpt>
      <trkpt lat="50.103031" lon="-123.056663">
      </trkpt>
      <trkpt lat="50.103071" lon="-123.05654299">
      </trkpt>
      <trkpt lat="50.103171" lon="-123.056563">
      </trkpt>
      <trkpt lat="50.103361" lon="-123.056493">
      </trkpt>
      <trkpt lat="50.103431" lon="-123.05639299">
      </trkpt>
      <trkpt lat="50.103461" lon="-123.056253">
      </trkpt>
      <trkpt lat="50.103541" lon="-123.056193">
      </trkpt>
      <trkpt lat="50.103591" lon="-123.056323">
      </trkpt>
      <trkpt lat="50.103671" lon="-123.056393">
      </trkpt>
      <trkpt lat="50.103781" lon="-123.056643">
      </trkpt>
      <trkpt lat="50.103861" lon="-123.056743">
      </trkpt>
      <trkpt lat="50.103921" lon="-123.056853">
      </trkpt>
      <trkpt lat="50.103921" lon="-123.05669301">
      </trkpt>
      <trkpt lat="50.103881" lon="-123.056553">
      </trkpt>
      <trkpt lat="50.103971" lon="-123.056543">
      </trkpt>
      <trkpt lat="50.104061" lon="-123.056593">
      </trkpt>
      <trkpt lat="50.104141" lon="-123.056683">
      </trkpt>
      <trkpt lat="50.104191" lon="-123.056823">
      </trkpt>
      <trkpt lat="50.104201" lon="-123.05668301">
      </trkpt>
      <trkpt lat="50.104131" lon="-123.056573">
      </trkpt>
      <trkpt lat="50.104101" lon="-123.056293">
      </trkpt>
      <trkpt lat="50.104231" lon="-123.05570301">
      </trkpt>
      <trkpt lat="50.104241" lon="-123.055553">
      </trkpt>
      <trkpt lat="50.104021" lon="-123.054973">
      </trkpt>
      <trkpt lat="50.104001" lon="-123.054463">
      </trkpt>
      <trkpt lat="50.103941" lon="-123.054143">
      </trkpt>
      <trkpt lat="50.103881" lon="-123.054013">
      </trkpt>
      <trkpt lat="50.104001" lon="-123.05358299">
      </trkpt>
      <trkpt lat="50.104021" lon="-123.05343299">
      </trkpt>
      <trkpt lat="50.103971" lon="-123.053303">
      </trkpt>
      <trkpt lat="50.103961" lon="-123.05316301">
      </trkpt>
      <trkpt lat="50.103871" lon="-123.05287301">
      </trkpt>
      <trkpt lat="50.103801" lon="-123.052783">
      </trkpt>
      <trkpt lat="50.103761" lon="-123.052643">
      </trkpt>
      <trkpt lat="50.103821" lon="-123.052523">
      </trkpt>
      <trkpt lat="50.103821" lon="-123.052373">
      </trkpt>
      <trkpt lat="50.104001" lon="-123.052443">
      </trkpt>
      <trkpt lat="50.104091" lon="-123.052443">
      </trkpt>
      <trkpt lat="50.104181" lon="-123.052473">
      </trkpt>
      <trkpt lat="50.104251" lon="-123.052573">
      </trkpt>
      <trkpt lat="50.104331" lon="-123.052843">
      </trkpt>
      <trkpt lat="50.104411" lon="-123.05294301">
      </trkpt>
      <trkpt lat="50.104491" lon="-123.053213">
      </trkpt>
      <trkpt lat="50.104541" lon="-123.053083">
      </trkpt>
      <trkpt lat="50.104631" lon="-123.053163">
      </trkpt>
      <trkpt lat="50.104701" lon="-123.053443">
      </trkpt>
      <trkpt lat="50.104761" lon="-123.05334301">
      </trkpt>
      <trkpt lat="50.104791" lon="-123.053203">
      </trkpt>
      <trkpt lat="50.104791" lon="-123.05305299">
      </trkpt>
      <trkpt lat="50.104871" lon="-123.05296301">
      </trkpt>
      <trkpt lat="50.104931" lon="-123.052853">
      </trkpt>
      <trkpt lat="50.104931" lon="-123.05270299">
      </trkpt>
      <trkpt lat="50.104901" lon="-123.052553">
      </trkpt>
      <trkpt lat="50.104831" lon="-123.052463">
      </trkpt>
      <trkpt lat="50.104851" lon="-123.052313">
      </trkpt>
      <trkpt lat="50.105051" lon="-123.05195301">
      </trkpt>
      <trkpt lat="50.105231" lon="-123.051433">
      </trkpt>
      <trkpt lat="50.105411" lon="-123.05140299">
      </trkpt>
      <trkpt lat="50.105481" lon="-123.05131301">
      </trkpt>
      <trkpt lat="50.105531" lon="-123.051193">
      </trkpt>
      <trkpt lat="50.105581" lon="-123.05132299">
      </trkpt>
      <trkpt lat="50.105591" lon="-123.051463">
      </trkpt>
      <trkpt lat="50.105681" lon="-123.051443">
      </trkpt>
      <trkpt lat="50.105811" lon="-123.051223">
      </trkpt>
      <trkpt lat="50.105901" lon="-123.05115299">
      </trkpt>
      <trkpt lat="50.105991" lon="-123.051133">
      </trkpt>
      <trkpt lat="50.106111" lon="-123.051523">
      </trkpt>
      <trkpt lat="50.106051" lon="-123.051803">
      </trkpt>
      <trkpt lat="50.106061" lon="-123.05194301">
      </trkpt>
      <trkpt lat="50.106131" lon="-123.052053">
      </trkpt>
      <trkpt lat="50.106221" lon="-123.052053">
      </trkpt>
      <trkpt lat="50.106291" lon="-123.05195299">
      </trkpt>
      <trkpt lat="50.106341" lon="-123.051823">
      </trkpt>
      <trkpt lat="50.106501" lon="-123.051683">
      </trkpt>
      <trkpt lat="50.106531" lon="-123.051823">
      </trkpt>
      <trkpt lat="50.106521" lon="-123.05198301">
      </trkpt>
      <trkpt lat="50.106581" lon="-123.052263">
      </trkpt>
      <trkpt lat="50.106671" lon="-123.052283">
      </trkpt>
      <trkpt lat="50.106711" lon="-123.052423">
      </trkpt>
      <trkpt lat="50.106761" lon="-123.052543">
      </trkpt>
      <trkpt lat="50.106801" lon="-123.052823">
      </trkpt>
      <trkpt lat="50.106771" lon="-123.052963">
      </trkpt>
      <trkpt lat="50.106701" lon="-123.053083">
      </trkpt>
      <trkpt lat="50.106671" lon="-123.053223">
      </trkpt>
      <trkpt lat="50.106581" lon="-123.05349301">
      </trkpt>
      <trkpt lat="50.106671" lon="-123.053523">
      </trkpt>
      <trkpt lat="50.106761" lon="-123.053483">
      </trkpt>
      <trkpt lat="50.106851" lon="-123.05352299">
      </trkpt>
      <trkpt lat="50.106841" lon="-123.053673">
      </trkpt>
      <trkpt lat="50.106781" lon="-123.05378301">
      </trkpt>
      <trkpt lat="50.106721" lon="-123.05406299">
      </trkpt>
      <trkpt lat="50.106711" lon="-123.054243">
      </trkpt>
      <trkpt lat="50.106751" lon="-123.054383">
      </trkpt>
      <trkpt lat="50.106821" lon="-123.05449301">
      </trkpt>
      <trkpt lat="50.106861" lon="-123.054633">
      </trkpt>
      <trkpt lat="50.106871" lon="-123.054783">
      </trkpt>
      <trkpt lat="50.106831" lon="-123.055053">
      </trkpt>
      <trkpt lat="50.106951" lon="-123.055283">
      </trkpt>
      <trkpt lat="50.107111" lon="-123.055413">
      </trkpt>
      <trkpt lat="50.107181" lon="-123.055513">
      </trkpt>
      <trkpt lat="50.107271" lon="-123.055463">
      </trkpt>
      <trkpt lat="50.107431" lon="-123.05528301">
      </trkpt>
      <trkpt lat="50.107471" lon="-123.055423">
      </trkpt>
      <trkpt lat="50.107561" lon="-123.05535301">
      </trkpt>
      <trkpt lat="50.107651" lon="-123.055383">
      </trkpt>
      <trkpt lat="50.107671" lon="-123.05566299">
      </trkpt>
      <trkpt lat="50.107761" lon="-123.05561301">
      </trkpt>
      <trkpt lat="50.107821" lon="-123.05551301">
      </trkpt>
      <trkpt lat="50.108001" lon="-123.055353">
      </trkpt>
      <trkpt lat="50.108081" lon="-123.05539301">
      </trkpt>
      <trkpt lat="50.108171" lon="-123.05540301">
      </trkpt>
      <trkpt lat="50.108231" lon="-123.055513">
      </trkpt>
      <trkpt lat="50.108211" lon="-123.055663">
      </trkpt>
      <trkpt lat="50.108121" lon="-123.055933">
      </trkpt>
      <trkpt lat="50.108241" lon="-123.056513">
      </trkpt>
      <trkpt lat="50.108331" lon="-123.05659301">
      </trkpt>
      <trkpt lat="50.108421" lon="-123.056593">
      </trkpt>
      <trkpt lat="50.108481" lon="-123.056703">
      </trkpt>
      <trkpt lat="50.108511" lon="-123.056563">
      </trkpt>
      <trkpt lat="50.108561" lon="-123.056133">
      </trkpt>
      <trkpt lat="50.108671" lon="-123.055723">
      </trkpt>
      <trkpt lat="50.108731" lon="-123.05525301">
      </trkpt>
      <trkpt lat="50.108711" lon="-123.055113">
      </trkpt>
      <trkpt lat="50.108731" lon="-123.05496299">
      </trkpt>
      <trkpt lat="50.108771" lon="-123.054833">
      </trkpt>
      <trkpt lat="50.108871" lon="-123.054803">
      </trkpt>
      <trkpt lat="50.108941" lon="-123.054933">
      </trkpt>
      <trkpt lat="50.108951" lon="-123.055073">
      </trkpt>
      <trkpt lat="50.108951" lon="-123.055233">
      </trkpt>
      <trkpt lat="50.109041" lon="-123.05523301">
      </trkpt>
      <trkpt lat="50.109121" lon="-123.055173">
      </trkpt>
      <trkpt lat="50.109141" lon="-123.05546299">
      </trkpt>
      <trkpt lat="50.109111" lon="-123.05560299">
      </trkpt>
      <trkpt lat="50.109191" lon="-123.05565301">
      </trkpt>
      <trkpt lat="50.109201" lon="-123.056093">
      </trkpt>
      <trkpt lat="50.109281" lon="-123.05614299">
      </trkpt>
      <trkpt lat="50.109371" lon="-123.056103">
      </trkpt>
      <trkpt lat="50.109461" lon="-123.056053">
      </trkpt>
      <trkpt lat="50.109521" lon="-123.056343">
      </trkpt>
      <trkpt lat="50.109591" lon="-123.05644301">
      </trkpt>
      <trkpt lat="50.109781" lon="-123.056483">
      </trkpt>
      <trkpt lat="50.109961" lon="-123.056863">
      </trkpt>
      <trkpt lat="50.110031" lon="-123.056943">
      </trkpt>
      <trkpt lat="50.110331" lon="-123.057163">
      </trkpt>
      <trkpt lat="50.110421" lon="-123.057263">
      </trkpt>
      <trkpt lat="50.110471" lon="-123.057393">
      </trkpt>
      <trkpt lat="50.110511" lon="-123.057703">
      </trkpt>
      <trkpt lat="50.110561" lon="-123.057833">
      </trkpt>
      <trkpt lat="50.110711" lon="-123.05802301">
      </trkpt>
      <trkpt lat="50.110891" lon="-123.058103">
      </trkpt>
      <trkpt lat="50.111041" lon="-123.058283">
      </trkpt>
      <trkpt lat="50.111101" lon="-123.058413">
      </trkpt>
      <trkpt lat="50.111181" lon="-123.058503">
      </trkpt>
      <trkpt lat="50.111351" lon="-123.058623">
      </trkpt>
      <trkpt lat="50.111421" lon="-123.058723">
      </trkpt>
      <trkpt lat="50.111511" lon="-123.058793">
      </trkpt>
      <trkpt lat="50.111641" lon="-123.059013">
      </trkpt>
      <trkpt lat="50.111681" lon="-123.059153">
      </trkpt>
      <trkpt lat="50.111961" lon="-123.059283">
      </trkpt>
      <trkpt lat="50.112151" lon="-123.059423">
      </trkpt>
      <trkpt lat="50.112251" lon="-123.059463">
      </trkpt>
      <trkpt lat="50.112421" lon="-123.059623">
      </trkpt>
      <trkpt lat="50.112651" lon="-123.05989301">
      </trkpt>
      <trkpt lat="50.112911" lon="-123.060063">
      </trkpt>
      <trkpt lat="50.113091" lon="-123.060123">
      </trkpt>
      <trkpt lat="50.113261" lon="-123.060233">
      </trkpt>
      <trkpt lat="50.113321" lon="-123.06034299">
      </trkpt>
      <trkpt lat="50.113601" lon="-123.060403">
      </trkpt>
      <trkpt lat="50.113801" lon="-123.060413">
      </trkpt>
      <trkpt lat="50.113891" lon="-123.060433">
      </trkpt>
      <trkpt lat="50.113981" lon="-123.060503">
      </trkpt>
      <trkpt lat="50.114081" lon="-123.06049301">
      </trkpt>
      <trkpt lat="50.114171" lon="-123.060533">
      </trkpt>
      <trkpt lat="50.114261" lon="-123.060443">
      </trkpt>
      <trkpt lat="50.114351" lon="-123.060443">
      </trkpt>
      <trkpt lat="50.114441" lon="-123.060513">
      </trkpt>
      <trkpt lat="50.114471" lon="-123.060663">
      </trkpt>
      <trkpt lat="50.114561" lon="-123.06072301">
      </trkpt>
      <trkpt lat="50.114661" lon="-123.060703">
      </trkpt>
      <trkpt lat="50.114751" lon="-123.060743">
      </trkpt>
      <trkpt lat="50.114851" lon="-123.060733">
      </trkpt>
      <trkpt lat="50.114951" lon="-123.06070299">
      </trkpt>
      <trkpt lat="50.115241" lon="-123.06074301">
      </trkpt>
      <trkpt lat="50.115331" lon="-123.060813">
      </trkpt>
      <trkpt lat="50.115391" lon="-123.060933">
      </trkpt>
      <trkpt lat="50.115441" lon="-123.061103">
      </trkpt>
      <trkpt lat="50.115481" lon="-123.061423">
      </trkpt>
      <trkpt lat="50.115461" lon="-123.061593">
      </trkpt>
      <trkpt lat="50.115511" lon="-123.061743">
      </trkpt>
      <trkpt lat="50.115541" lon="-123.06193301">
      </trkpt>
      <trkpt lat="50.115511" lon="-123.06209299">
      </trkpt>
      <trkpt lat="50.115371" lon="-123.062523">
      </trkpt>
      <trkpt lat="50.115541" lon="-123.06288301">
      </trkpt>
      <trkpt lat="50.115631" lon="-123.063153">
      </trkpt>
      <trkpt lat="50.115651" lon="-123.06329301">
      </trkpt>
      <trkpt lat="50.115741" lon="-123.063293">
      </trkpt>
      <trkpt lat="50.115781" lon="-123.06358301">
      </trkpt>
      <trkpt lat="50.115881" lon="-123.063163">
      </trkpt>
      <trkpt lat="50.115971" lon="-123.063193">
      </trkpt>
      <trkpt lat="50.116051" lon="-123.063273">
      </trkpt>
      <trkpt lat="50.116271" lon="-123.06355299">
      </trkpt>
      <trkpt lat="50.116371" lon="-123.063593">
      </trkpt>
      <trkpt lat="50.116521" lon="-123.06339301">
      </trkpt>
      <trkpt lat="50.116611" lon="-123.063343">
      </trkpt>
      <trkpt lat="50.116721" lon="-123.063333">
      </trkpt>
      <trkpt lat="50.116841" lon="-123.063363">
      </trkpt>
      <trkpt lat="50.116921" lon="-123.063303">
      </trkpt>
      <trkpt lat="50.117011" lon="-123.063373">
      </trkpt>
      <trkpt lat="50.117061" lon="-123.063493">
      </trkpt>
      <trkpt lat="50.117231" lon="-123.06358301">
      </trkpt>
      <trkpt lat="50.117301" lon="-123.063673">
      </trkpt>
      <trkpt lat="50.117271" lon="-123.06387301">
      </trkpt>
      <trkpt lat="50.117311" lon="-123.063993">
      </trkpt>
      <trkpt lat="50.117411" lon="-123.064063">
      </trkpt>
      <trkpt lat="50.117461" lon="-123.06420299">
      </trkpt>
      <trkpt lat="50.117481" lon="-123.06436301">
      </trkpt>
      <trkpt lat="50.117541" lon="-123.064493">
      </trkpt>
      <trkpt lat="50.117641" lon="-123.064473">
      </trkpt>
      <trkpt lat="50.117771" lon="-123.064213">
      </trkpt>
      <trkpt lat="50.117931" lon="-123.064053">
      </trkpt>
      <trkpt lat="50.118031" lon="-123.064033">
      </trkpt>
      <trkpt lat="50.118061" lon="-123.06389301">
      </trkpt>
      <trkpt lat="50.118121" lon="-123.063783">
      </trkpt>
      <trkpt lat="50.118221" lon="-123.063753">
      </trkpt>
      <trkpt lat="50.118301" lon="-123.063653">
      </trkpt>
      <trkpt lat="50.118391" lon="-123.063623">
      </trkpt>
      <trkpt lat="50.118551" lon="-123.063413">
      </trkpt>
      <trkpt lat="50.118631" lon="-123.06334299">
      </trkpt>
      <trkpt lat="50.118691" lon="-123.063213">
      </trkpt>
      <trkpt lat="50.118781" lon="-123.06315299">
      </trkpt>
      <trkpt lat="50.118861" lon="-123.063063">
      </trkpt>
      <trkpt lat="50.118951" lon="-123.063023">
      </trkpt>
      <trkpt lat="50.119041" lon="-123.062943">
      </trkpt>
      <trkpt lat="50.119141" lon="-123.062953">
      </trkpt>
      <trkpt lat="50.119191" lon="-123.063083">
      </trkpt>
      <trkpt lat="50.119271" lon="-123.063023">
      </trkpt>
      <trkpt lat="50.119401" lon="-123.062793">
      </trkpt>
      <trkpt lat="50.119501" lon="-123.062863">
      </trkpt>
      <trkpt lat="50.119541" lon="-123.06301299">
      </trkpt>
      <trkpt lat="50.119561" lon="-123.06322301">
      </trkpt>
      <trkpt lat="50.119651" lon="-123.063473">
      </trkpt>
      <trkpt lat="50.119681" lon="-123.06381299">
      </trkpt>
      <trkpt lat="50.119731" lon="-123.064113">
      </trkpt>
      <trkpt lat="50.119781" lon="-123.064253">
      </trkpt>
      <trkpt lat="50.119841" lon="-123.064413">
      </trkpt>
      <trkpt lat="50.119921" lon="-123.06451301">
      </trkpt>
      <trkpt lat="50.120131" lon="-123.064903">
      </trkpt>
      <trkpt lat="50.120211" lon="-123.064973">
      </trkpt>
      <trkpt lat="50.120291" lon="-123.065063">
      </trkpt>
      <trkpt lat="50.120381" lon="-123.06534299">
      </trkpt>
      <trkpt lat="50.120451" lon="-123.065473">
      </trkpt>
      <trkpt lat="50.120531" lon="-123.065583">
      </trkpt>
      <trkpt lat="50.120641" lon="-123.065633">
      </trkpt>
      <trkpt lat="50.120731" lon="-123.065653">
      </trkpt>
      <trkpt lat="50.120821" lon="-123.065703">
      </trkpt>
      <trkpt lat="50.121011" lon="-123.06585299">
      </trkpt>
      <trkpt lat="50.121111" lon="-123.065873">
      </trkpt>
      <trkpt lat="50.121311" lon="-123.065783">
      </trkpt>
      <trkpt lat="50.121581" lon="-123.065943">
      </trkpt>
      <trkpt lat="50.121671" lon="-123.065923">
      </trkpt>
      <trkpt lat="50.121771" lon="-123.065933">
      </trkpt>
      <trkpt lat="50.121871" lon="-123.065993">
      </trkpt>
      <trkpt lat="50.122051" lon="-123.066143">
      </trkpt>
      <trkpt lat="50.122121" lon="-123.06626301">
      </trkpt>
      <trkpt lat="50.122227" lon="-123.066297">
      </trkpt>
      <trkpt lat="50.122291" lon="-123.066292">
      </trkpt>
      <trkpt lat="50.12237923" lon="-123.06622942">
      </trkpt>
      <trkpt lat="50.12243178" lon="-123.06619215">
      </trkpt>
      <trkpt lat="50.1225133" lon="-123.06613433">
      </trkpt>
    </trkseg>
  </trk>
</gpx>