<?xml version="1.0" encoding="UTF-8"?>
<gpx xmlns="http://www.topografix.com/GPX/1/1" xmlns:xsi="http://www.w3.org/2001/XMLSchema-instance" xsi:schemaLocation="http://www.topografix.com/GPX/1/1 http://www.topografix.com/GPX/1/1/gpx.xsd" version="1.1" creator="gpx.py -- https://github.com/tkrajina/gpxpy">
  <trk>
    <name>Unnamed ski tour</name>
    <trkseg>
      <trkpt lat="50.1884866" lon="-123.1307326">
      </trkpt>
      <trkpt lat="50.1891495" lon="-123.1310564">
      </trkpt>
      <trkpt lat="50.1903791" lon="-123.1323545">
      </trkpt>
      <trkpt lat="50.1913751" lon="-123.1331699">
      </trkpt>
      <trkpt lat="50.1928533" lon="-123.1352254">
      </trkpt>
      <trkpt lat="50.1939523" lon="-123.1362983">
      </trkpt>
      <trkpt lat="50.1953726" lon="-123.1378155">
      </trkpt>
      <trkpt lat="50.1961281" lon="-123.1378477">
      </trkpt>
      <trkpt lat="50.1970126" lon="-123.1386097">
      </trkpt>
      <trkpt lat="50.1985142" lon="-123.1394551">
      </trkpt>
      <trkpt lat="50.1993746" lon="-123.1401338">
      </trkpt>
      <trkpt lat="50.2004186" lon="-123.1400104">
      </trkpt>
      <trkpt lat="50.2017542" lon="-123.1397959">
      </trkpt>
      <trkpt lat="50.202386" lon="-123.1413408">
      </trkpt>
      <trkpt lat="50.2026191" lon="-123.1431265">
      </trkpt>
      <trkpt lat="50.2026191" lon="-123.1466455">
      </trkpt>
      <trkpt lat="50.2025092" lon="-123.1475897">
      </trkpt>
      <trkpt lat="50.2027565" lon="-123.1481905">
      </trkpt>
      <trkpt lat="50.2032234" lon="-123.1487269">
      </trkpt>
      <trkpt lat="50.2033745" lon="-123.1495852">
      </trkpt>
      <trkpt lat="50.2025779" lon="-123.151216">
      </trkpt>
      <trkpt lat="50.202188" lon="-123.1512982">
      </trkpt>
      <trkpt lat="50.201927" lon="-123.1511051">
      </trkpt>
      <trkpt lat="50.2017279" lon="-123.1506974">
      </trkpt>
      <trkpt lat="50.2013708" lon="-123.150633">
      </trkpt>
      <trkpt lat="50.201048" lon="-123.1507618">
      </trkpt>
      <trkpt lat="50.2002033" lon="-123.1509978">
      </trkpt>
      <trkpt lat="50.1995921" lon="-123.1524569">
      </trkpt>
      <trkpt lat="50.1985261" lon="-123.1554861">
      </trkpt>
      <trkpt lat="50.1973036" lon="-123.1581468">
      </trkpt>
    </trkseg>
    <trkseg>
      <trkpt lat="50.1902397" lon="-123.1569958">
      </trkpt>
      <trkpt lat="50.1910391" lon="-123.1574916">
      </trkpt>
      <trkpt lat="50.1925648" lon="-123.1578847">
      </trkpt>
      <trkpt lat="50.1942545" lon="-123.1583138">
      </trkpt>
      <trkpt lat="50.1946046" lon="-123.1583163">
      </trkpt>
      <trkpt lat="50.1958754" lon="-123.1582495">
      </trkpt>
      <trkpt lat="50.1973036" lon="-123.1581468">
      </trkpt>
    </trkseg>
    <trkseg>
      <trkpt lat="50.1973036" lon="-123.1581468">
      </trkpt>
      <trkpt lat="50.1996245" lon="-123.159337">
      </trkpt>
      <trkpt lat="50.2031681" lon="-123.1595944">
      </trkpt>
      <trkpt lat="50.2039921" lon="-123.1601523">
      </trkpt>
      <trkpt lat="50.2052694" lon="-123.1614398">
      </trkpt>
      <trkpt lat="50.2067672" lon="-123.1624552">
      </trkpt>
      <trkpt lat="50.2080368" lon="-123.1632657">
      </trkpt>
      <trkpt lat="50.2083664" lon="-123.1636949">
      </trkpt>
      <trkpt lat="50.2094039" lon="-123.1649228">
      </trkpt>
      <trkpt lat="50.2108999" lon="-123.1666326">
      </trkpt>
      <trkpt lat="50.2118619" lon="-123.1685492">
      </trkpt>
      <trkpt lat="50.2122327" lon="-123.1704589">
      </trkpt>
      <trkpt lat="50.2125897" lon="-123.1727763">
      </trkpt>
      <trkpt lat="50.2125614" lon="-123.1746363">
      </trkpt>
      <trkpt lat="50.2123563" lon="-123.1773077">
      </trkpt>
      <trkpt lat="50.2106261" lon="-123.1815096">
      </trkpt>
      <trkpt lat="50.2095824" lon="-123.1833764">
      </trkpt>
      <trkpt lat="50.2088691" lon="-123.1847012">
      </trkpt>
      <trkpt lat="50.2060887" lon="-123.1858073">
      </trkpt>
      <trkpt lat="50.2053238" lon="-123.1860634">
      </trkpt>
      <trkpt lat="50.2041356" lon="-123.1858286">
      </trkpt>
      <trkpt lat="50.2027561" lon="-123.1847617">
      </trkpt>
      <trkpt lat="50.1928877" lon="-123.1826809">
      </trkpt>
    </trkseg>
  </trk>
</gpx>