<?xml version="1.0" encoding="UTF-8"?>
<gpx xmlns="http://www.topografix.com/GPX/1/1" xmlns:xsi="http://www.w3.org/2001/XMLSchema-instance" xsi:schemaLocation="http://www.topografix.com/GPX/1/1 http://www.topografix.com/GPX/1/1/gpx.xsd" version="1.1" creator="gpx.py -- https://github.com/tkrajina/gpxpy">
  <trk>
    <name>Callaghan West Mainline</name>
    <trkseg>
      <trkpt lat="50.1158327" lon="-123.1374395">
      </trkpt>
      <trkpt lat="50.1158021" lon="-123.1376664">
      </trkpt>
      <trkpt lat="50.1157376" lon="-123.1378841">
      </trkpt>
      <trkpt lat="50.1155322" lon="-123.1384353">
      </trkpt>
      <trkpt lat="50.1151946" lon="-123.1388972">
      </trkpt>
      <trkpt lat="50.1149873" lon="-123.139165">
      </trkpt>
      <trkpt lat="50.114624" lon="-123.1392974">
      </trkpt>
      <trkpt lat="50.1140928" lon="-123.139396">
      </trkpt>
      <trkpt lat="50.1137157" lon="-123.1396084">
      </trkpt>
      <trkpt lat="50.1134709" lon="-123.1397624">
      </trkpt>
      <trkpt lat="50.1131569" lon="-123.1398455">
      </trkpt>
      <trkpt lat="50.1130601" lon="-123.1399933">
      </trkpt>
      <trkpt lat="50.1130523" lon="-123.1402212">
      </trkpt>
      <trkpt lat="50.1131984" lon="-123.1404306">
      </trkpt>
      <trkpt lat="50.1134649" lon="-123.1405075">
      </trkpt>
      <trkpt lat="50.1137078" lon="-123.140563">
      </trkpt>
      <trkpt lat="50.1140494" lon="-123.140797">
      </trkpt>
      <trkpt lat="50.1143199" lon="-123.1410649">
      </trkpt>
      <trkpt lat="50.1145845" lon="-123.1413789">
      </trkpt>
      <trkpt lat="50.1148273" lon="-123.1415945">
      </trkpt>
      <trkpt lat="50.115163" lon="-123.1419147">
      </trkpt>
      <trkpt lat="50.1156072" lon="-123.1422349">
      </trkpt>
      <trkpt lat="50.1161186" lon="-123.1424966">
      </trkpt>
      <trkpt lat="50.1167603" lon="-123.1428415">
      </trkpt>
      <trkpt lat="50.1173467" lon="-123.143134">
      </trkpt>
      <trkpt lat="50.117939" lon="-123.1433711">
      </trkpt>
      <trkpt lat="50.1182944" lon="-123.1436944">
      </trkpt>
      <trkpt lat="50.118942" lon="-123.1442948">
      </trkpt>
      <trkpt lat="50.1195145" lon="-123.1448244">
      </trkpt>
      <trkpt lat="50.1198975" lon="-123.1450892">
      </trkpt>
      <trkpt lat="50.1201167" lon="-123.1453879">
      </trkpt>
      <trkpt lat="50.1202805" lon="-123.1456958">
      </trkpt>
      <trkpt lat="50.1204286" lon="-123.1461731">
      </trkpt>
      <trkpt lat="50.1204878" lon="-123.146521">
      </trkpt>
      <trkpt lat="50.1205234" lon="-123.1468412">
      </trkpt>
      <trkpt lat="50.1206635" lon="-123.1471676">
      </trkpt>
      <trkpt lat="50.1209597" lon="-123.1476141">
      </trkpt>
      <trkpt lat="50.121394" lon="-123.1482392">
      </trkpt>
      <trkpt lat="50.1217336" lon="-123.1486825">
      </trkpt>
      <trkpt lat="50.12216" lon="-123.1493969">
      </trkpt>
      <trkpt lat="50.1226239" lon="-123.1503206">
      </trkpt>
      <trkpt lat="50.1229516" lon="-123.1507301">
      </trkpt>
      <trkpt lat="50.1232221" lon="-123.1512567">
      </trkpt>
      <trkpt lat="50.1235419" lon="-123.1518325">
      </trkpt>
      <trkpt lat="50.1238834" lon="-123.152359">
      </trkpt>
      <trkpt lat="50.1241045" lon="-123.1528362">
      </trkpt>
      <trkpt lat="50.1242802" lon="-123.1534367">
      </trkpt>
      <trkpt lat="50.1247046" lon="-123.1540894">
      </trkpt>
      <trkpt lat="50.1249339" lon="-123.1545692">
      </trkpt>
      <trkpt lat="50.1250874" lon="-123.1549262">
      </trkpt>
      <trkpt lat="50.1251126" lon="-123.1550874">
      </trkpt>
    </trkseg>
    <trkseg>
      <trkpt lat="50.1158494" lon="-123.1372534">
      </trkpt>
      <trkpt lat="50.1158327" lon="-123.1374395">
      </trkpt>
    </trkseg>
    <trkseg>
      <trkpt lat="50.1093662" lon="-123.1324685">
      </trkpt>
      <trkpt lat="50.1095809" lon="-123.1327051">
      </trkpt>
      <trkpt lat="50.1098356" lon="-123.1329176">
      </trkpt>
      <trkpt lat="50.1100094" lon="-123.1329976">
      </trkpt>
      <trkpt lat="50.1102266" lon="-123.1330222">
      </trkpt>
      <trkpt lat="50.1107341" lon="-123.1330561">
      </trkpt>
      <trkpt lat="50.1109434" lon="-123.1330869">
      </trkpt>
      <trkpt lat="50.1111843" lon="-123.1331023">
      </trkpt>
      <trkpt lat="50.1114528" lon="-123.1331454">
      </trkpt>
      <trkpt lat="50.1116977" lon="-123.1332501">
      </trkpt>
      <trkpt lat="50.1120788" lon="-123.1334779">
      </trkpt>
      <trkpt lat="50.1123572" lon="-123.133595">
      </trkpt>
      <trkpt lat="50.112604" lon="-123.1336719">
      </trkpt>
      <trkpt lat="50.1130345" lon="-123.1337058">
      </trkpt>
      <trkpt lat="50.1133208" lon="-123.133792">
      </trkpt>
      <trkpt lat="50.1135498" lon="-123.1338998">
      </trkpt>
      <trkpt lat="50.1139684" lon="-123.1341307">
      </trkpt>
      <trkpt lat="50.1143594" lon="-123.1345187">
      </trkpt>
      <trkpt lat="50.1147286" lon="-123.1350452">
      </trkpt>
      <trkpt lat="50.1151512" lon="-123.1356949">
      </trkpt>
      <trkpt lat="50.115625" lon="-123.1366125">
      </trkpt>
      <trkpt lat="50.1157909" lon="-123.1370836">
      </trkpt>
      <trkpt lat="50.1158494" lon="-123.1372534">
      </trkpt>
    </trkseg>
  </trk>
</gpx>