<?xml version="1.0" encoding="UTF-8"?>
<gpx xmlns="http://www.topografix.com/GPX/1/1" xmlns:xsi="http://www.w3.org/2001/XMLSchema-instance" xsi:schemaLocation="http://www.topografix.com/GPX/1/1 http://www.topografix.com/GPX/1/1/gpx.xsd" version="1.1" creator="gpx.py -- https://github.com/tkrajina/gpxpy">
  <trk>
    <name>Slalom Run</name>
    <trkseg>
      <trkpt lat="49.3993494" lon="-123.1813075">
      </trkpt>
      <trkpt lat="49.3989025" lon="-123.1802775">
      </trkpt>
      <trkpt lat="49.3981704" lon="-123.1790957">
      </trkpt>
      <trkpt lat="49.3977654" lon="-123.1784949">
      </trkpt>
    </trkseg>
  </trk>
</gpx>