<?xml version="1.0" encoding="UTF-8"?>
<gpx xmlns="http://www.topografix.com/GPX/1/1" xmlns:xsi="http://www.w3.org/2001/XMLSchema-instance" xsi:schemaLocation="http://www.topografix.com/GPX/1/1 http://www.topografix.com/GPX/1/1/gpx.xsd" version="1.1" creator="gpx.py -- https://github.com/tkrajina/gpxpy">
  <trk>
    <name>The Lions</name>
    <trkseg>
      <trkpt lat="49.470851" lon="-123.2347738">
      </trkpt>
      <trkpt lat="49.4708781" lon="-123.2347686">
      </trkpt>
      <trkpt lat="49.4711595" lon="-123.2347143">
      </trkpt>
      <trkpt lat="49.4712483" lon="-123.2346804">
      </trkpt>
      <trkpt lat="49.4713145" lon="-123.2346311">
      </trkpt>
      <trkpt lat="49.4714622" lon="-123.2345008">
      </trkpt>
      <trkpt lat="49.4716537" lon="-123.2343387">
      </trkpt>
      <trkpt lat="49.4717445" lon="-123.234281">
      </trkpt>
      <trkpt lat="49.4720087" lon="-123.234147">
      </trkpt>
      <trkpt lat="49.4721446" lon="-123.2340604">
      </trkpt>
      <trkpt lat="49.472221" lon="-123.2340237">
      </trkpt>
      <trkpt lat="49.4723115" lon="-123.2340007">
      </trkpt>
      <trkpt lat="49.4724477" lon="-123.233992">
      </trkpt>
      <trkpt lat="49.4725739" lon="-123.2339758">
      </trkpt>
      <trkpt lat="49.4726406" lon="-123.2339687">
      </trkpt>
      <trkpt lat="49.4726819" lon="-123.2339702">
      </trkpt>
      <trkpt lat="49.4726874" lon="-123.2339704">
      </trkpt>
      <trkpt lat="49.4727402" lon="-123.2339816">
      </trkpt>
      <trkpt lat="49.4728054" lon="-123.2340076">
      </trkpt>
      <trkpt lat="49.4728534" lon="-123.2340569">
      </trkpt>
      <trkpt lat="49.4728857" lon="-123.234093">
      </trkpt>
      <trkpt lat="49.4729193" lon="-123.2341581">
      </trkpt>
      <trkpt lat="49.4729627" lon="-123.2342254">
      </trkpt>
      <trkpt lat="49.473024" lon="-123.2342754">
      </trkpt>
      <trkpt lat="49.4730785" lon="-123.2343102">
      </trkpt>
      <trkpt lat="49.4731339" lon="-123.2343319">
      </trkpt>
      <trkpt lat="49.4732104" lon="-123.2343395">
      </trkpt>
      <trkpt lat="49.473278" lon="-123.2343353">
      </trkpt>
      <trkpt lat="49.4733153" lon="-123.2343213">
      </trkpt>
      <trkpt lat="49.4733609" lon="-123.2342861">
      </trkpt>
      <trkpt lat="49.4734339" lon="-123.2342087">
      </trkpt>
      <trkpt lat="49.4734936" lon="-123.23411">
      </trkpt>
      <trkpt lat="49.4735301" lon="-123.234021">
      </trkpt>
      <trkpt lat="49.4735649" lon="-123.2339065">
      </trkpt>
      <trkpt lat="49.4735835" lon="-123.2337681">
      </trkpt>
      <trkpt lat="49.4735742" lon="-123.2336827">
      </trkpt>
    </trkseg>
    <trkseg>
      <trkpt lat="49.4735742" lon="-123.2336827">
      </trkpt>
      <trkpt lat="49.4735688" lon="-123.2336333">
      </trkpt>
      <trkpt lat="49.4735308" lon="-123.2335013">
      </trkpt>
      <trkpt lat="49.4734714" lon="-123.2333944">
      </trkpt>
      <trkpt lat="49.4733794" lon="-123.2332472">
      </trkpt>
      <trkpt lat="49.4732861" lon="-123.2331634">
      </trkpt>
      <trkpt lat="49.4728807" lon="-123.2329466">
      </trkpt>
      <trkpt lat="49.4724761" lon="-123.2327567">
      </trkpt>
      <trkpt lat="49.4724054" lon="-123.2327236">
      </trkpt>
      <trkpt lat="49.4721945" lon="-123.2325286">
      </trkpt>
      <trkpt lat="49.4720609" lon="-123.2323804">
      </trkpt>
      <trkpt lat="49.471947" lon="-123.232297">
      </trkpt>
      <trkpt lat="49.4717895" lon="-123.2322212">
      </trkpt>
      <trkpt lat="49.4717023" lon="-123.2321561">
      </trkpt>
      <trkpt lat="49.4715198" lon="-123.2319424">
      </trkpt>
      <trkpt lat="49.4714108" lon="-123.2318427">
      </trkpt>
      <trkpt lat="49.4713638" lon="-123.2318072">
      </trkpt>
      <trkpt lat="49.4712601" lon="-123.2317843">
      </trkpt>
      <trkpt lat="49.4711806" lon="-123.2317923">
      </trkpt>
      <trkpt lat="49.4711298" lon="-123.2317844">
      </trkpt>
      <trkpt lat="49.4711151" lon="-123.2317821">
      </trkpt>
      <trkpt lat="49.4710328" lon="-123.2317568">
      </trkpt>
      <trkpt lat="49.4709757" lon="-123.2317184">
      </trkpt>
      <trkpt lat="49.4709349" lon="-123.2316688">
      </trkpt>
      <trkpt lat="49.4709044" lon="-123.2316007">
      </trkpt>
      <trkpt lat="49.4708926" lon="-123.2315235">
      </trkpt>
      <trkpt lat="49.4709027" lon="-123.2314118">
      </trkpt>
      <trkpt lat="49.4709328" lon="-123.2313268">
      </trkpt>
      <trkpt lat="49.4709689" lon="-123.2312811">
      </trkpt>
      <trkpt lat="49.4710044" lon="-123.23124">
      </trkpt>
      <trkpt lat="49.471139" lon="-123.2311636">
      </trkpt>
      <trkpt lat="49.4712699" lon="-123.2311123">
      </trkpt>
      <trkpt lat="49.4714086" lon="-123.2310906">
      </trkpt>
      <trkpt lat="49.4715726" lon="-123.2311219">
      </trkpt>
      <trkpt lat="49.4718125" lon="-123.2311806">
      </trkpt>
      <trkpt lat="49.4720835" lon="-123.2311852">
      </trkpt>
      <trkpt lat="49.4722582" lon="-123.2311982">
      </trkpt>
      <trkpt lat="49.4724579" lon="-123.231232">
      </trkpt>
      <trkpt lat="49.4725986" lon="-123.2313046">
      </trkpt>
      <trkpt lat="49.4727845" lon="-123.2313747">
      </trkpt>
      <trkpt lat="49.4728874" lon="-123.2313905">
      </trkpt>
      <trkpt lat="49.4729718" lon="-123.2313883">
      </trkpt>
      <trkpt lat="49.4730512" lon="-123.2313492">
      </trkpt>
      <trkpt lat="49.4731002" lon="-123.231293">
      </trkpt>
      <trkpt lat="49.4731179" lon="-123.2312564">
      </trkpt>
      <trkpt lat="49.4731356" lon="-123.2312199">
      </trkpt>
      <trkpt lat="49.4731483" lon="-123.2311473">
      </trkpt>
      <trkpt lat="49.4731442" lon="-123.231058">
      </trkpt>
      <trkpt lat="49.4731227" lon="-123.2309311">
      </trkpt>
      <trkpt lat="49.4730853" lon="-123.2308299">
      </trkpt>
    </trkseg>
    <trkseg>
      <trkpt lat="49.4730853" lon="-123.2308299">
      </trkpt>
      <trkpt lat="49.4729593" lon="-123.2307121">
      </trkpt>
      <trkpt lat="49.4728149" lon="-123.2305776">
      </trkpt>
      <trkpt lat="49.4726216" lon="-123.2304515">
      </trkpt>
      <trkpt lat="49.4724165" lon="-123.2303384">
      </trkpt>
      <trkpt lat="49.4721486" lon="-123.2302418">
      </trkpt>
      <trkpt lat="49.4720902" lon="-123.2301863">
      </trkpt>
      <trkpt lat="49.4720569" lon="-123.2301264">
      </trkpt>
      <trkpt lat="49.4720442" lon="-123.2300564">
      </trkpt>
      <trkpt lat="49.4720536" lon="-123.2299786">
      </trkpt>
      <trkpt lat="49.4720738" lon="-123.2299189">
      </trkpt>
      <trkpt lat="49.472114" lon="-123.2298706">
      </trkpt>
      <trkpt lat="49.4721759" lon="-123.2298452">
      </trkpt>
      <trkpt lat="49.4722796" lon="-123.2298713">
      </trkpt>
      <trkpt lat="49.4724562" lon="-123.229904">
      </trkpt>
      <trkpt lat="49.4725309" lon="-123.2299017">
      </trkpt>
      <trkpt lat="49.4725688" lon="-123.2298669">
      </trkpt>
      <trkpt lat="49.4726007" lon="-123.2298032">
      </trkpt>
      <trkpt lat="49.4726109" lon="-123.2297251">
      </trkpt>
      <trkpt lat="49.4726092" lon="-123.2296275">
      </trkpt>
      <trkpt lat="49.4725874" lon="-123.2295326">
      </trkpt>
      <trkpt lat="49.4725494" lon="-123.2294404">
      </trkpt>
      <trkpt lat="49.4724976" lon="-123.2293664">
      </trkpt>
      <trkpt lat="49.4724315" lon="-123.2293205">
      </trkpt>
      <trkpt lat="49.4717174" lon="-123.2291711">
      </trkpt>
      <trkpt lat="49.4715528" lon="-123.2290593">
      </trkpt>
      <trkpt lat="49.4712307" lon="-123.228848">
      </trkpt>
      <trkpt lat="49.4709494" lon="-123.2287414">
      </trkpt>
      <trkpt lat="49.4707327" lon="-123.2286457">
      </trkpt>
      <trkpt lat="49.4704952" lon="-123.2286123">
      </trkpt>
      <trkpt lat="49.4703466" lon="-123.228573">
      </trkpt>
      <trkpt lat="49.4701711" lon="-123.2285267">
      </trkpt>
      <trkpt lat="49.4700274" lon="-123.2283838">
      </trkpt>
      <trkpt lat="49.4698961" lon="-123.2282549">
      </trkpt>
      <trkpt lat="49.4698033" lon="-123.2281057">
      </trkpt>
      <trkpt lat="49.4697356" lon="-123.2280011">
      </trkpt>
      <trkpt lat="49.4696158" lon="-123.2278477">
      </trkpt>
      <trkpt lat="49.4695687" lon="-123.227821">
      </trkpt>
      <trkpt lat="49.4694711" lon="-123.2278091">
      </trkpt>
      <trkpt lat="49.4692408" lon="-123.2278527">
      </trkpt>
      <trkpt lat="49.4689678" lon="-123.2278674">
      </trkpt>
      <trkpt lat="49.4688615" lon="-123.2278844">
      </trkpt>
      <trkpt lat="49.4688179" lon="-123.2278829">
      </trkpt>
      <trkpt lat="49.468755" lon="-123.2278485">
      </trkpt>
      <trkpt lat="49.4687188" lon="-123.2278047">
      </trkpt>
      <trkpt lat="49.4687037" lon="-123.2277344">
      </trkpt>
      <trkpt lat="49.468714" lon="-123.2276142">
      </trkpt>
      <trkpt lat="49.4687599" lon="-123.2274948">
      </trkpt>
      <trkpt lat="49.4688251" lon="-123.2273667">
      </trkpt>
      <trkpt lat="49.4690526" lon="-123.2271227">
      </trkpt>
      <trkpt lat="49.4691735" lon="-123.2269789">
      </trkpt>
      <trkpt lat="49.4692789" lon="-123.2267887">
      </trkpt>
      <trkpt lat="49.4694363" lon="-123.2266186">
      </trkpt>
      <trkpt lat="49.4696469" lon="-123.2264558">
      </trkpt>
      <trkpt lat="49.4699277" lon="-123.2263758">
      </trkpt>
      <trkpt lat="49.4701057" lon="-123.2264001">
      </trkpt>
      <trkpt lat="49.4702903" lon="-123.2264927">
      </trkpt>
      <trkpt lat="49.470443" lon="-123.2265888">
      </trkpt>
      <trkpt lat="49.4705322" lon="-123.2266006">
      </trkpt>
      <trkpt lat="49.4706027" lon="-123.2265876">
      </trkpt>
      <trkpt lat="49.4706664" lon="-123.2265541">
      </trkpt>
      <trkpt lat="49.4707314" lon="-123.2264991">
      </trkpt>
      <trkpt lat="49.4708509" lon="-123.2263962">
      </trkpt>
      <trkpt lat="49.4709175" lon="-123.2262597">
      </trkpt>
      <trkpt lat="49.4709688" lon="-123.2261204">
      </trkpt>
    </trkseg>
    <trkseg>
      <trkpt lat="49.4709688" lon="-123.2261204">
      </trkpt>
      <trkpt lat="49.4708783" lon="-123.2259835">
      </trkpt>
      <trkpt lat="49.4707477" lon="-123.2258576">
      </trkpt>
      <trkpt lat="49.4705661" lon="-123.2256913">
      </trkpt>
      <trkpt lat="49.4702813" lon="-123.2255658">
      </trkpt>
      <trkpt lat="49.4700784" lon="-123.2254992">
      </trkpt>
      <trkpt lat="49.4698873" lon="-123.2254192">
      </trkpt>
      <trkpt lat="49.4695798" lon="-123.2253146">
      </trkpt>
      <trkpt lat="49.4695187" lon="-123.2253085">
      </trkpt>
      <trkpt lat="49.469226" lon="-123.225327">
      </trkpt>
      <trkpt lat="49.4689239" lon="-123.2254075">
      </trkpt>
      <trkpt lat="49.4681734" lon="-123.2255589">
      </trkpt>
      <trkpt lat="49.4680167" lon="-123.2255685">
      </trkpt>
      <trkpt lat="49.4678974" lon="-123.2255275">
      </trkpt>
      <trkpt lat="49.4677418" lon="-123.2254629">
      </trkpt>
      <trkpt lat="49.4676282" lon="-123.2253865">
      </trkpt>
      <trkpt lat="49.4674798" lon="-123.2253179">
      </trkpt>
      <trkpt lat="49.4673166" lon="-123.2252008">
      </trkpt>
      <trkpt lat="49.4671961" lon="-123.2251787">
      </trkpt>
      <trkpt lat="49.4670021" lon="-123.2251812">
      </trkpt>
      <trkpt lat="49.466845" lon="-123.2252098">
      </trkpt>
      <trkpt lat="49.4667079" lon="-123.2252586">
      </trkpt>
      <trkpt lat="49.4665666" lon="-123.2253644">
      </trkpt>
      <trkpt lat="49.4664988" lon="-123.2253852">
      </trkpt>
      <trkpt lat="49.466433" lon="-123.2253849">
      </trkpt>
      <trkpt lat="49.4663679" lon="-123.2253418">
      </trkpt>
      <trkpt lat="49.4663197" lon="-123.2252711">
      </trkpt>
      <trkpt lat="49.466279" lon="-123.2250829">
      </trkpt>
    </trkseg>
    <trkseg>
      <trkpt lat="49.466279" lon="-123.2250829">
      </trkpt>
      <trkpt lat="49.4662155" lon="-123.2249863">
      </trkpt>
      <trkpt lat="49.4659406" lon="-123.2247205">
      </trkpt>
      <trkpt lat="49.4655471" lon="-123.2244311">
      </trkpt>
      <trkpt lat="49.4654063" lon="-123.2242832">
      </trkpt>
      <trkpt lat="49.4652932" lon="-123.2241269">
      </trkpt>
      <trkpt lat="49.4651878" lon="-123.2239658">
      </trkpt>
      <trkpt lat="49.4651026" lon="-123.2237268">
      </trkpt>
      <trkpt lat="49.4649876" lon="-123.2232822">
      </trkpt>
      <trkpt lat="49.464829" lon="-123.2222738">
      </trkpt>
      <trkpt lat="49.4647833" lon="-123.2218608">
      </trkpt>
    </trkseg>
    <trkseg>
      <trkpt lat="49.4647833" lon="-123.2218608">
      </trkpt>
      <trkpt lat="49.4648273" lon="-123.2209597">
      </trkpt>
      <trkpt lat="49.4648034" lon="-123.2202714">
      </trkpt>
      <trkpt lat="49.4647624" lon="-123.220071">
      </trkpt>
      <trkpt lat="49.464714" lon="-123.2199236">
      </trkpt>
      <trkpt lat="49.4646878" lon="-123.2198604">
      </trkpt>
    </trkseg>
    <trkseg>
      <trkpt lat="49.4646878" lon="-123.2198604">
      </trkpt>
      <trkpt lat="49.4646342" lon="-123.2198276">
      </trkpt>
    </trkseg>
    <trkseg>
      <trkpt lat="49.4646342" lon="-123.2198276">
      </trkpt>
      <trkpt lat="49.4645618" lon="-123.2198413">
      </trkpt>
      <trkpt lat="49.4644303" lon="-123.2199252">
      </trkpt>
      <trkpt lat="49.4641754" lon="-123.2201343">
      </trkpt>
      <trkpt lat="49.4640041" lon="-123.2202259">
      </trkpt>
      <trkpt lat="49.46391" lon="-123.2202514">
      </trkpt>
      <trkpt lat="49.4638326" lon="-123.220253">
      </trkpt>
      <trkpt lat="49.4637695" lon="-123.2202325">
      </trkpt>
      <trkpt lat="49.4637075" lon="-123.2201972">
      </trkpt>
      <trkpt lat="49.4636408" lon="-123.2201158">
      </trkpt>
      <trkpt lat="49.4635805" lon="-123.2199913">
      </trkpt>
      <trkpt lat="49.4635326" lon="-123.2197827">
      </trkpt>
      <trkpt lat="49.4634735" lon="-123.2195273">
      </trkpt>
      <trkpt lat="49.4633754" lon="-123.2193277">
      </trkpt>
      <trkpt lat="49.4633198" lon="-123.2192064">
      </trkpt>
      <trkpt lat="49.4632344" lon="-123.2190484">
      </trkpt>
      <trkpt lat="49.4631887" lon="-123.2189892">
      </trkpt>
      <trkpt lat="49.4631388" lon="-123.2189576">
      </trkpt>
      <trkpt lat="49.4630707" lon="-123.2189371">
      </trkpt>
      <trkpt lat="49.4629992" lon="-123.2189361">
      </trkpt>
      <trkpt lat="49.462886" lon="-123.2189478">
      </trkpt>
      <trkpt lat="49.4625409" lon="-123.219046">
      </trkpt>
      <trkpt lat="49.4623151" lon="-123.2190585">
      </trkpt>
      <trkpt lat="49.4621225" lon="-123.2190676">
      </trkpt>
      <trkpt lat="49.4619366" lon="-123.219">
      </trkpt>
      <trkpt lat="49.4618511" lon="-123.2189953">
      </trkpt>
      <trkpt lat="49.4617223" lon="-123.2190066">
      </trkpt>
      <trkpt lat="49.4616354" lon="-123.2189869">
      </trkpt>
      <trkpt lat="49.4615838" lon="-123.2189536">
      </trkpt>
      <trkpt lat="49.4615229" lon="-123.2188777">
      </trkpt>
      <trkpt lat="49.4614651" lon="-123.2187695">
      </trkpt>
      <trkpt lat="49.4614138" lon="-123.2186662">
      </trkpt>
      <trkpt lat="49.461312" lon="-123.2184984">
      </trkpt>
      <trkpt lat="49.4612394" lon="-123.2184355">
      </trkpt>
      <trkpt lat="49.4609067" lon="-123.2183129">
      </trkpt>
      <trkpt lat="49.4608208" lon="-123.2182469">
      </trkpt>
      <trkpt lat="49.4607033" lon="-123.2180569">
      </trkpt>
      <trkpt lat="49.4605387" lon="-123.2177665">
      </trkpt>
      <trkpt lat="49.4603762" lon="-123.2172875">
      </trkpt>
      <trkpt lat="49.4601854" lon="-123.2167784">
      </trkpt>
      <trkpt lat="49.4601191" lon="-123.2164938">
      </trkpt>
      <trkpt lat="49.4600917" lon="-123.2161915">
      </trkpt>
      <trkpt lat="49.4600431" lon="-123.2159276">
      </trkpt>
      <trkpt lat="49.46004" lon="-123.2156507">
      </trkpt>
      <trkpt lat="49.4599829" lon="-123.2153961">
      </trkpt>
      <trkpt lat="49.4599533" lon="-123.2152461">
      </trkpt>
      <trkpt lat="49.4599555" lon="-123.2151597">
      </trkpt>
      <trkpt lat="49.4599766" lon="-123.2150928">
      </trkpt>
      <trkpt lat="49.4600653" lon="-123.2148576">
      </trkpt>
      <trkpt lat="49.4600737" lon="-123.2147688">
      </trkpt>
    </trkseg>
    <trkseg>
      <trkpt lat="49.4600737" lon="-123.2147688">
      </trkpt>
      <trkpt lat="49.4600633" lon="-123.2146637">
      </trkpt>
    </trkseg>
    <trkseg>
      <trkpt lat="49.4600633" lon="-123.2146637">
      </trkpt>
      <trkpt lat="49.4599744" lon="-123.2145071">
      </trkpt>
    </trkseg>
    <trkseg>
      <trkpt lat="49.4599744" lon="-123.2145071">
      </trkpt>
      <trkpt lat="49.459916" lon="-123.2144494">
      </trkpt>
      <trkpt lat="49.4596319" lon="-123.2142997">
      </trkpt>
      <trkpt lat="49.4594789" lon="-123.2142417">
      </trkpt>
      <trkpt lat="49.4593523" lon="-123.214094">
      </trkpt>
      <trkpt lat="49.4592657" lon="-123.21385">
      </trkpt>
      <trkpt lat="49.4591472" lon="-123.2133732">
      </trkpt>
      <trkpt lat="49.4590901" lon="-123.2130701">
      </trkpt>
      <trkpt lat="49.4590398" lon="-123.212661">
      </trkpt>
      <trkpt lat="49.4590436" lon="-123.2124421">
      </trkpt>
      <trkpt lat="49.4590639" lon="-123.2122181">
      </trkpt>
      <trkpt lat="49.4590549" lon="-123.2119989">
      </trkpt>
      <trkpt lat="49.4590175" lon="-123.2117882">
      </trkpt>
      <trkpt lat="49.4589817" lon="-123.2115713">
      </trkpt>
      <trkpt lat="49.4589669" lon="-123.2112946">
      </trkpt>
      <trkpt lat="49.4590206" lon="-123.2106862">
      </trkpt>
      <trkpt lat="49.4590205" lon="-123.2104447">
      </trkpt>
      <trkpt lat="49.4590024" lon="-123.2101925">
      </trkpt>
      <trkpt lat="49.4590106" lon="-123.2100747">
      </trkpt>
      <trkpt lat="49.4591514" lon="-123.2096407">
      </trkpt>
      <trkpt lat="49.4592497" lon="-123.2093937">
      </trkpt>
      <trkpt lat="49.459279" lon="-123.2092207">
      </trkpt>
      <trkpt lat="49.4592846" lon="-123.2090503">
      </trkpt>
      <trkpt lat="49.459353" lon="-123.2087833">
      </trkpt>
      <trkpt lat="49.4596639" lon="-123.2080075">
      </trkpt>
      <trkpt lat="49.4597913" lon="-123.2076138">
      </trkpt>
      <trkpt lat="49.4599041" lon="-123.2070339">
      </trkpt>
      <trkpt lat="49.4599643" lon="-123.2067473">
      </trkpt>
      <trkpt lat="49.4600136" lon="-123.2066134">
      </trkpt>
      <trkpt lat="49.4601246" lon="-123.2064216">
      </trkpt>
      <trkpt lat="49.4602883" lon="-123.2061476">
      </trkpt>
      <trkpt lat="49.460432" lon="-123.2058639">
      </trkpt>
    </trkseg>
    <trkseg>
      <trkpt lat="49.460432" lon="-123.2058639">
      </trkpt>
      <trkpt lat="49.4603002" lon="-123.2055511">
      </trkpt>
      <trkpt lat="49.4602368" lon="-123.2053333">
      </trkpt>
      <trkpt lat="49.460178" lon="-123.2053431">
      </trkpt>
      <trkpt lat="49.4601992" lon="-123.2052686">
      </trkpt>
      <trkpt lat="49.4601382" lon="-123.2051928">
      </trkpt>
      <trkpt lat="49.4600437" lon="-123.2052048">
      </trkpt>
      <trkpt lat="49.460041" lon="-123.2051418">
      </trkpt>
      <trkpt lat="49.4599734" lon="-123.2051535">
      </trkpt>
    </trkseg>
    <trkseg>
      <trkpt lat="49.4599734" lon="-123.2051535">
      </trkpt>
      <trkpt lat="49.4598766" lon="-123.2050817">
      </trkpt>
    </trkseg>
    <trkseg>
      <trkpt lat="49.4598766" lon="-123.2050817">
      </trkpt>
      <trkpt lat="49.4597825" lon="-123.2050273">
      </trkpt>
      <trkpt lat="49.459725" lon="-123.2050051">
      </trkpt>
      <trkpt lat="49.4596038" lon="-123.2049356">
      </trkpt>
      <trkpt lat="49.4595476" lon="-123.2048887">
      </trkpt>
      <trkpt lat="49.4595197" lon="-123.2048185">
      </trkpt>
      <trkpt lat="49.4594433" lon="-123.2047058">
      </trkpt>
      <trkpt lat="49.459359" lon="-123.2047149">
      </trkpt>
      <trkpt lat="49.4592798" lon="-123.204659">
      </trkpt>
      <trkpt lat="49.4591392" lon="-123.2047002">
      </trkpt>
      <trkpt lat="49.4590496" lon="-123.2046681">
      </trkpt>
      <trkpt lat="49.4590351" lon="-123.2045558">
      </trkpt>
      <trkpt lat="49.4590675" lon="-123.2044067">
      </trkpt>
      <trkpt lat="49.4590732" lon="-123.204198">
      </trkpt>
      <trkpt lat="49.4589926" lon="-123.2040719">
      </trkpt>
      <trkpt lat="49.4589006" lon="-123.2039986">
      </trkpt>
      <trkpt lat="49.4587251" lon="-123.2040091">
      </trkpt>
      <trkpt lat="49.4586307" lon="-123.2039156">
      </trkpt>
      <trkpt lat="49.4585601" lon="-123.2039059">
      </trkpt>
      <trkpt lat="49.4584713" lon="-123.20384">
      </trkpt>
      <trkpt lat="49.4582693" lon="-123.203709">
      </trkpt>
      <trkpt lat="49.4581218" lon="-123.2035915">
      </trkpt>
      <trkpt lat="49.4579967" lon="-123.2035254">
      </trkpt>
      <trkpt lat="49.4578016" lon="-123.2035057">
      </trkpt>
      <trkpt lat="49.4576272" lon="-123.2035488">
      </trkpt>
      <trkpt lat="49.4575858" lon="-123.2035169">
      </trkpt>
      <trkpt lat="49.4575122" lon="-123.2035466">
      </trkpt>
      <trkpt lat="49.4573697" lon="-123.2035555">
      </trkpt>
      <trkpt lat="49.4573651" lon="-123.2034949">
      </trkpt>
      <trkpt lat="49.457399" lon="-123.2034215">
      </trkpt>
      <trkpt lat="49.4574857" lon="-123.2033286">
      </trkpt>
      <trkpt lat="49.4576045" lon="-123.2032306">
      </trkpt>
      <trkpt lat="49.4577384" lon="-123.2031807">
      </trkpt>
      <trkpt lat="49.4578732" lon="-123.2031285">
      </trkpt>
      <trkpt lat="49.4579136" lon="-123.2030611">
      </trkpt>
      <trkpt lat="49.4578838" lon="-123.2030146">
      </trkpt>
      <trkpt lat="49.4577522" lon="-123.2030109">
      </trkpt>
      <trkpt lat="49.4576657" lon="-123.2029709">
      </trkpt>
      <trkpt lat="49.4575682" lon="-123.2029463">
      </trkpt>
      <trkpt lat="49.4574306" lon="-123.2029306">
      </trkpt>
      <trkpt lat="49.4573645" lon="-123.2028648">
      </trkpt>
      <trkpt lat="49.4573556" lon="-123.2027903">
      </trkpt>
      <trkpt lat="49.4574436" lon="-123.2026807">
      </trkpt>
      <trkpt lat="49.4574675" lon="-123.202578">
      </trkpt>
      <trkpt lat="49.4574905" lon="-123.2024823">
      </trkpt>
      <trkpt lat="49.4575198" lon="-123.2024224">
      </trkpt>
      <trkpt lat="49.4575583" lon="-123.2023885">
      </trkpt>
      <trkpt lat="49.457607" lon="-123.2023244">
      </trkpt>
      <trkpt lat="49.4576612" lon="-123.2023832">
      </trkpt>
      <trkpt lat="49.457708" lon="-123.2023811">
      </trkpt>
      <trkpt lat="49.4577453" lon="-123.2023496">
      </trkpt>
      <trkpt lat="49.4577413" lon="-123.2022669">
      </trkpt>
      <trkpt lat="49.4577131" lon="-123.2021536">
      </trkpt>
      <trkpt lat="49.4576757" lon="-123.2020231">
      </trkpt>
      <trkpt lat="49.4576253" lon="-123.2019237">
      </trkpt>
      <trkpt lat="49.4575317" lon="-123.2018407">
      </trkpt>
      <trkpt lat="49.4574554" lon="-123.2016903">
      </trkpt>
      <trkpt lat="49.4573742" lon="-123.2015489">
      </trkpt>
      <trkpt lat="49.4573521" lon="-123.2014378">
      </trkpt>
      <trkpt lat="49.4573467" lon="-123.2013094">
      </trkpt>
      <trkpt lat="49.4573225" lon="-123.2011881">
      </trkpt>
      <trkpt lat="49.4572427" lon="-123.2009672">
      </trkpt>
      <trkpt lat="49.4571722" lon="-123.2007614">
      </trkpt>
      <trkpt lat="49.4570742" lon="-123.2005869">
      </trkpt>
      <trkpt lat="49.4570023" lon="-123.2003988">
      </trkpt>
      <trkpt lat="49.4569854" lon="-123.2002616">
      </trkpt>
      <trkpt lat="49.4569451" lon="-123.2001673">
      </trkpt>
      <trkpt lat="49.4568984" lon="-123.2000816">
      </trkpt>
      <trkpt lat="49.4568503" lon="-123.2000216">
      </trkpt>
      <trkpt lat="49.4568849" lon="-123.199937">
      </trkpt>
      <trkpt lat="49.4569444" lon="-123.1998989">
      </trkpt>
      <trkpt lat="49.4569817" lon="-123.1998178">
      </trkpt>
      <trkpt lat="49.456968" lon="-123.1997377">
      </trkpt>
      <trkpt lat="49.4569073" lon="-123.1996667">
      </trkpt>
      <trkpt lat="49.4569723" lon="-123.1996028">
      </trkpt>
      <trkpt lat="49.4570061" lon="-123.1995385">
      </trkpt>
      <trkpt lat="49.4571039" lon="-123.1994407">
      </trkpt>
      <trkpt lat="49.4571011" lon="-123.1992872">
      </trkpt>
      <trkpt lat="49.4570674" lon="-123.1992135">
      </trkpt>
      <trkpt lat="49.4570935" lon="-123.1991474">
      </trkpt>
      <trkpt lat="49.4571638" lon="-123.1991287">
      </trkpt>
      <trkpt lat="49.4571818" lon="-123.1990626">
      </trkpt>
      <trkpt lat="49.4569683" lon="-123.1987775">
      </trkpt>
      <trkpt lat="49.4569456" lon="-123.1986126">
      </trkpt>
      <trkpt lat="49.4569924" lon="-123.198492">
      </trkpt>
      <trkpt lat="49.4569374" lon="-123.1983405">
      </trkpt>
      <trkpt lat="49.4569985" lon="-123.1981891">
      </trkpt>
      <trkpt lat="49.4570467" lon="-123.1981549">
      </trkpt>
      <trkpt lat="49.4571329" lon="-123.1981631">
      </trkpt>
      <trkpt lat="49.4571932" lon="-123.1981084">
      </trkpt>
      <trkpt lat="49.4572392" lon="-123.198039">
      </trkpt>
      <trkpt lat="49.4572493" lon="-123.1979565">
      </trkpt>
      <trkpt lat="49.4571457" lon="-123.1978458">
      </trkpt>
      <trkpt lat="49.45705" lon="-123.1977153">
      </trkpt>
      <trkpt lat="49.4570428" lon="-123.1975938">
      </trkpt>
      <trkpt lat="49.457196" lon="-123.1975278">
      </trkpt>
      <trkpt lat="49.4572789" lon="-123.1974666">
      </trkpt>
      <trkpt lat="49.4573568" lon="-123.1971983">
      </trkpt>
      <trkpt lat="49.4573959" lon="-123.1970858">
      </trkpt>
      <trkpt lat="49.457425" lon="-123.1969732">
      </trkpt>
      <trkpt lat="49.4575592" lon="-123.1967157">
      </trkpt>
      <trkpt lat="49.4575598" lon="-123.1965976">
      </trkpt>
      <trkpt lat="49.4574849" lon="-123.1965403">
      </trkpt>
      <trkpt lat="49.4574147" lon="-123.1963462">
      </trkpt>
      <trkpt lat="49.4573509" lon="-123.1962644">
      </trkpt>
      <trkpt lat="49.4573256" lon="-123.1961945">
      </trkpt>
      <trkpt lat="49.4573584" lon="-123.1961323">
      </trkpt>
      <trkpt lat="49.4573421" lon="-123.196018">
      </trkpt>
      <trkpt lat="49.4573128" lon="-123.1959318">
      </trkpt>
      <trkpt lat="49.4573124" lon="-123.1958019">
      </trkpt>
      <trkpt lat="49.4573644" lon="-123.1957615">
      </trkpt>
      <trkpt lat="49.4574721" lon="-123.1957114">
      </trkpt>
      <trkpt lat="49.457567" lon="-123.1957532">
      </trkpt>
      <trkpt lat="49.4576726" lon="-123.1957972">
      </trkpt>
      <trkpt lat="49.4578255" lon="-123.1958543">
      </trkpt>
      <trkpt lat="49.4579781" lon="-123.1959356">
      </trkpt>
      <trkpt lat="49.4580359" lon="-123.196007">
      </trkpt>
      <trkpt lat="49.4581033" lon="-123.1961032">
      </trkpt>
      <trkpt lat="49.4581926" lon="-123.1960815">
      </trkpt>
      <trkpt lat="49.4582576" lon="-123.1961644">
      </trkpt>
      <trkpt lat="49.4583475" lon="-123.1961387">
      </trkpt>
      <trkpt lat="49.4584085" lon="-123.1959635">
      </trkpt>
      <trkpt lat="49.4584276" lon="-123.1958689">
      </trkpt>
      <trkpt lat="49.4584028" lon="-123.1956974">
      </trkpt>
      <trkpt lat="49.4583305" lon="-123.1955644">
      </trkpt>
      <trkpt lat="49.4582084" lon="-123.1954366">
      </trkpt>
      <trkpt lat="49.4581279" lon="-123.195311">
      </trkpt>
      <trkpt lat="49.4581027" lon="-123.1952122">
      </trkpt>
      <trkpt lat="49.4581379" lon="-123.1951233">
      </trkpt>
      <trkpt lat="49.4581217" lon="-123.1950056">
      </trkpt>
      <trkpt lat="49.4580557" lon="-123.1949804">
      </trkpt>
      <trkpt lat="49.4579798" lon="-123.1949074">
      </trkpt>
      <trkpt lat="49.4579554" lon="-123.1948297">
      </trkpt>
      <trkpt lat="49.4579224" lon="-123.1945991">
      </trkpt>
      <trkpt lat="49.4577917" lon="-123.1944662">
      </trkpt>
      <trkpt lat="49.4576864" lon="-123.194324">
      </trkpt>
      <trkpt lat="49.4575811" lon="-123.1940952">
      </trkpt>
      <trkpt lat="49.45756" lon="-123.193911">
      </trkpt>
      <trkpt lat="49.4575106" lon="-123.1938555">
      </trkpt>
      <trkpt lat="49.4573993" lon="-123.1937668">
      </trkpt>
      <trkpt lat="49.4573093" lon="-123.1936305">
      </trkpt>
      <trkpt lat="49.4572364" lon="-123.193604">
      </trkpt>
      <trkpt lat="49.4571042" lon="-123.1936212">
      </trkpt>
      <trkpt lat="49.4569533" lon="-123.1935641">
      </trkpt>
      <trkpt lat="49.4568279" lon="-123.1935908">
      </trkpt>
      <trkpt lat="49.4567562" lon="-123.1935477">
      </trkpt>
      <trkpt lat="49.456709" lon="-123.1934626">
      </trkpt>
      <trkpt lat="49.4567009" lon="-123.193363">
      </trkpt>
      <trkpt lat="49.4566375" lon="-123.1932649">
      </trkpt>
      <trkpt lat="49.4565167" lon="-123.1932373">
      </trkpt>
      <trkpt lat="49.4564505" lon="-123.1931597">
      </trkpt>
      <trkpt lat="49.4564" lon="-123.1931339">
      </trkpt>
      <trkpt lat="49.4563357" lon="-123.1931326">
      </trkpt>
      <trkpt lat="49.4562767" lon="-123.1930933">
      </trkpt>
      <trkpt lat="49.4561912" lon="-123.1930416">
      </trkpt>
      <trkpt lat="49.4561174" lon="-123.1930628">
      </trkpt>
      <trkpt lat="49.4560648" lon="-123.1930488">
      </trkpt>
      <trkpt lat="49.4560253" lon="-123.193049">
      </trkpt>
      <trkpt lat="49.4559521" lon="-123.193039">
      </trkpt>
      <trkpt lat="49.4558825" lon="-123.1930139">
      </trkpt>
      <trkpt lat="49.4558435" lon="-123.1929834">
      </trkpt>
      <trkpt lat="49.4557879" lon="-123.1929448">
      </trkpt>
      <trkpt lat="49.4557081" lon="-123.1928591">
      </trkpt>
      <trkpt lat="49.4555619" lon="-123.1927919">
      </trkpt>
      <trkpt lat="49.455467" lon="-123.1926619">
      </trkpt>
      <trkpt lat="49.4553631" lon="-123.192603">
      </trkpt>
      <trkpt lat="49.4552869" lon="-123.1925162">
      </trkpt>
      <trkpt lat="49.4552454" lon="-123.192458">
      </trkpt>
      <trkpt lat="49.4551776" lon="-123.1922731">
      </trkpt>
      <trkpt lat="49.455121" lon="-123.1921154">
      </trkpt>
      <trkpt lat="49.4550675" lon="-123.1920311">
      </trkpt>
      <trkpt lat="49.4549958" lon="-123.1919562">
      </trkpt>
      <trkpt lat="49.4549178" lon="-123.191865">
      </trkpt>
      <trkpt lat="49.4549174" lon="-123.1918317">
      </trkpt>
      <trkpt lat="49.4548248" lon="-123.1917106">
      </trkpt>
      <trkpt lat="49.454773" lon="-123.1916504">
      </trkpt>
      <trkpt lat="49.4547332" lon="-123.1916098">
      </trkpt>
      <trkpt lat="49.4546998" lon="-123.1915537">
      </trkpt>
      <trkpt lat="49.454702" lon="-123.1914832">
      </trkpt>
      <trkpt lat="49.454644" lon="-123.1914216">
      </trkpt>
      <trkpt lat="49.4545703" lon="-123.1912736">
      </trkpt>
      <trkpt lat="49.4545196" lon="-123.1912329">
      </trkpt>
      <trkpt lat="49.4544373" lon="-123.191167">
      </trkpt>
      <trkpt lat="49.4543021" lon="-123.1910744">
      </trkpt>
      <trkpt lat="49.4542362" lon="-123.1910586">
      </trkpt>
      <trkpt lat="49.454182" lon="-123.1910233">
      </trkpt>
      <trkpt lat="49.4541449" lon="-123.191024">
      </trkpt>
      <trkpt lat="49.4541183" lon="-123.1909919">
      </trkpt>
      <trkpt lat="49.4540974" lon="-123.1909364">
      </trkpt>
      <trkpt lat="49.4540543" lon="-123.1908918">
      </trkpt>
      <trkpt lat="49.4539688" lon="-123.1909126">
      </trkpt>
      <trkpt lat="49.4539048" lon="-123.1908883">
      </trkpt>
      <trkpt lat="49.453845" lon="-123.190923">
      </trkpt>
      <trkpt lat="49.4538065" lon="-123.1909382">
      </trkpt>
      <trkpt lat="49.4537252" lon="-123.1909287">
      </trkpt>
      <trkpt lat="49.4536981" lon="-123.190888">
      </trkpt>
      <trkpt lat="49.4536453" lon="-123.1908861">
      </trkpt>
      <trkpt lat="49.453614" lon="-123.1908842">
      </trkpt>
      <trkpt lat="49.4535997" lon="-123.1908692">
      </trkpt>
      <trkpt lat="49.4535693" lon="-123.1908049">
      </trkpt>
      <trkpt lat="49.4535104" lon="-123.1906938">
      </trkpt>
      <trkpt lat="49.453437" lon="-123.1906667">
      </trkpt>
      <trkpt lat="49.4533278" lon="-123.1904455">
      </trkpt>
    </trkseg>
    <trkseg>
      <trkpt lat="49.4533278" lon="-123.1904455">
      </trkpt>
      <trkpt lat="49.4533901" lon="-123.1903499">
      </trkpt>
      <trkpt lat="49.4534056" lon="-123.1902987">
      </trkpt>
      <trkpt lat="49.4534072" lon="-123.1902185">
      </trkpt>
      <trkpt lat="49.4534125" lon="-123.190173">
      </trkpt>
      <trkpt lat="49.4534253" lon="-123.1901472">
      </trkpt>
      <trkpt lat="49.4534736" lon="-123.1901183">
      </trkpt>
      <trkpt lat="49.4535545" lon="-123.1900454">
      </trkpt>
      <trkpt lat="49.453701" lon="-123.1899595">
      </trkpt>
      <trkpt lat="49.4537479" lon="-123.1899721">
      </trkpt>
      <trkpt lat="49.4538125" lon="-123.1899312">
      </trkpt>
      <trkpt lat="49.4538334" lon="-123.1898786">
      </trkpt>
      <trkpt lat="49.4538805" lon="-123.1898649">
      </trkpt>
      <trkpt lat="49.4539682" lon="-123.1897968">
      </trkpt>
      <trkpt lat="49.4539946" lon="-123.1897167">
      </trkpt>
      <trkpt lat="49.4539751" lon="-123.1896131">
      </trkpt>
      <trkpt lat="49.4539834" lon="-123.1894783">
      </trkpt>
      <trkpt lat="49.4540437" lon="-123.1894429">
      </trkpt>
      <trkpt lat="49.4540737" lon="-123.1894731">
      </trkpt>
      <trkpt lat="49.4541462" lon="-123.1894117">
      </trkpt>
      <trkpt lat="49.4542209" lon="-123.1894111">
      </trkpt>
      <trkpt lat="49.4543075" lon="-123.1894365">
      </trkpt>
      <trkpt lat="49.4543573" lon="-123.189366">
      </trkpt>
      <trkpt lat="49.454369" lon="-123.189338">
      </trkpt>
      <trkpt lat="49.454408" lon="-123.1892545">
      </trkpt>
      <trkpt lat="49.4545197" lon="-123.1891834">
      </trkpt>
      <trkpt lat="49.4545457" lon="-123.1891159">
      </trkpt>
      <trkpt lat="49.4546995" lon="-123.1891335">
      </trkpt>
      <trkpt lat="49.4547896" lon="-123.1891576">
      </trkpt>
      <trkpt lat="49.4548094" lon="-123.1891636">
      </trkpt>
      <trkpt lat="49.4548566" lon="-123.189165">
      </trkpt>
      <trkpt lat="49.454868" lon="-123.1890976">
      </trkpt>
      <trkpt lat="49.4549265" lon="-123.1891234">
      </trkpt>
      <trkpt lat="49.4550072" lon="-123.1890575">
      </trkpt>
      <trkpt lat="49.455015" lon="-123.189004">
      </trkpt>
      <trkpt lat="49.4550623" lon="-123.1889511">
      </trkpt>
      <trkpt lat="49.455086" lon="-123.1888931">
      </trkpt>
      <trkpt lat="49.4551169" lon="-123.1888417">
      </trkpt>
      <trkpt lat="49.4551495" lon="-123.1888342">
      </trkpt>
      <trkpt lat="49.4551779" lon="-123.1888989">
      </trkpt>
      <trkpt lat="49.4552189" lon="-123.1888705">
      </trkpt>
      <trkpt lat="49.4552302" lon="-123.188844">
      </trkpt>
      <trkpt lat="49.4552497" lon="-123.1888414">
      </trkpt>
      <trkpt lat="49.4552771" lon="-123.1887886">
      </trkpt>
      <trkpt lat="49.4553206" lon="-123.1888004">
      </trkpt>
      <trkpt lat="49.4553647" lon="-123.188786">
      </trkpt>
      <trkpt lat="49.4553767" lon="-123.1887642">
      </trkpt>
      <trkpt lat="49.4553976" lon="-123.1887863">
      </trkpt>
      <trkpt lat="49.4554073" lon="-123.1887462">
      </trkpt>
      <trkpt lat="49.4555125" lon="-123.1888004">
      </trkpt>
      <trkpt lat="49.4555695" lon="-123.1887706">
      </trkpt>
      <trkpt lat="49.4556289" lon="-123.1886866">
      </trkpt>
      <trkpt lat="49.4556609" lon="-123.1887412">
      </trkpt>
      <trkpt lat="49.455839" lon="-123.1887433">
      </trkpt>
      <trkpt lat="49.4558928" lon="-123.1887772">
      </trkpt>
      <trkpt lat="49.4559227" lon="-123.1887454">
      </trkpt>
      <trkpt lat="49.4560089" lon="-123.1887818">
      </trkpt>
      <trkpt lat="49.4560882" lon="-123.1887647">
      </trkpt>
      <trkpt lat="49.4561265" lon="-123.1887102">
      </trkpt>
      <trkpt lat="49.4561778" lon="-123.1887156">
      </trkpt>
      <trkpt lat="49.4562182" lon="-123.1886701">
      </trkpt>
      <trkpt lat="49.4563083" lon="-123.1885783">
      </trkpt>
      <trkpt lat="49.4563558" lon="-123.1884965">
      </trkpt>
      <trkpt lat="49.4564007" lon="-123.188364">
      </trkpt>
      <trkpt lat="49.4564812" lon="-123.1883036">
      </trkpt>
      <trkpt lat="49.4565268" lon="-123.188213">
      </trkpt>
      <trkpt lat="49.4565794" lon="-123.1881376">
      </trkpt>
      <trkpt lat="49.4566274" lon="-123.1881342">
      </trkpt>
      <trkpt lat="49.4566578" lon="-123.1880465">
      </trkpt>
      <trkpt lat="49.4567072" lon="-123.188026">
      </trkpt>
      <trkpt lat="49.4567528" lon="-123.1879676">
      </trkpt>
      <trkpt lat="49.4567869" lon="-123.1878616">
      </trkpt>
      <trkpt lat="49.4568069" lon="-123.1876429">
      </trkpt>
      <trkpt lat="49.4568605" lon="-123.18748">
      </trkpt>
      <trkpt lat="49.4569199" lon="-123.1872692">
      </trkpt>
      <trkpt lat="49.4569114" lon="-123.1872125">
      </trkpt>
      <trkpt lat="49.4569186" lon="-123.1871658">
      </trkpt>
      <trkpt lat="49.4569532" lon="-123.1871041">
      </trkpt>
      <trkpt lat="49.4569561" lon="-123.1870793">
      </trkpt>
      <trkpt lat="49.4569493" lon="-123.1870479">
      </trkpt>
      <trkpt lat="49.4569269" lon="-123.1870362">
      </trkpt>
      <trkpt lat="49.4569001" lon="-123.187027">
      </trkpt>
      <trkpt lat="49.4568798" lon="-123.186989">
      </trkpt>
      <trkpt lat="49.4568664" lon="-123.186951">
      </trkpt>
    </trkseg>
    <trkseg>
      <trkpt lat="49.4569493" lon="-123.1870479">
      </trkpt>
      <trkpt lat="49.4570502" lon="-123.1868492">
      </trkpt>
      <trkpt lat="49.4570776" lon="-123.1867143">
      </trkpt>
      <trkpt lat="49.4571133" lon="-123.1864677">
      </trkpt>
      <trkpt lat="49.4570807" lon="-123.1863452">
      </trkpt>
      <trkpt lat="49.4571113" lon="-123.1861874">
      </trkpt>
      <trkpt lat="49.4571591" lon="-123.1861003">
      </trkpt>
      <trkpt lat="49.4572203" lon="-123.1861936">
      </trkpt>
      <trkpt lat="49.457294" lon="-123.1860769">
      </trkpt>
      <trkpt lat="49.4573792" lon="-123.186181">
      </trkpt>
      <trkpt lat="49.4574718" lon="-123.1861321">
      </trkpt>
      <trkpt lat="49.4575385" lon="-123.1860559">
      </trkpt>
      <trkpt lat="49.4575897" lon="-123.18613">
      </trkpt>
      <trkpt lat="49.457651" lon="-123.1861137">
      </trkpt>
      <trkpt lat="49.4577124" lon="-123.1861681">
      </trkpt>
      <trkpt lat="49.457785" lon="-123.1861824">
      </trkpt>
      <trkpt lat="49.4578507" lon="-123.1862249">
      </trkpt>
    </trkseg>
  </trk>
</gpx>