<?xml version="1.0" encoding="UTF-8"?>
<gpx xmlns="http://www.topografix.com/GPX/1/1" xmlns:xsi="http://www.w3.org/2001/XMLSchema-instance" xsi:schemaLocation="http://www.topografix.com/GPX/1/1 http://www.topografix.com/GPX/1/1/gpx.xsd" version="1.1" creator="gpx.py -- https://github.com/tkrajina/gpxpy">
  <trk>
    <name>Red Mountain Cabin and Trail</name>
    <trkseg>
      <trkpt lat="53.83736" lon="-121.27701999">
      </trkpt>
      <trkpt lat="53.83744" lon="-121.27692">
      </trkpt>
      <trkpt lat="53.83751" lon="-121.27682">
      </trkpt>
      <trkpt lat="53.83758" lon="-121.27674">
      </trkpt>
      <trkpt lat="53.83766" lon="-121.27666001">
      </trkpt>
      <trkpt lat="53.83774" lon="-121.27655">
      </trkpt>
      <trkpt lat="53.83782" lon="-121.27648">
      </trkpt>
      <trkpt lat="53.83791" lon="-121.2764">
      </trkpt>
      <trkpt lat="53.838" lon="-121.27634">
      </trkpt>
      <trkpt lat="53.83809" lon="-121.27627999">
      </trkpt>
      <trkpt lat="53.83817" lon="-121.27623">
      </trkpt>
      <trkpt lat="53.83827" lon="-121.2762">
      </trkpt>
      <trkpt lat="53.83836" lon="-121.2762">
      </trkpt>
      <trkpt lat="53.83841" lon="-121.27629001">
      </trkpt>
      <trkpt lat="53.83852" lon="-121.27637">
      </trkpt>
      <trkpt lat="53.83862" lon="-121.27638">
      </trkpt>
      <trkpt lat="53.83872" lon="-121.27638">
      </trkpt>
      <trkpt lat="53.83876" lon="-121.27633999">
      </trkpt>
      <trkpt lat="53.83885" lon="-121.27635">
      </trkpt>
      <trkpt lat="53.83895" lon="-121.27636999">
      </trkpt>
      <trkpt lat="53.83906" lon="-121.27638">
      </trkpt>
      <trkpt lat="53.83918" lon="-121.27634001">
      </trkpt>
      <trkpt lat="53.83925" lon="-121.27617001">
      </trkpt>
      <trkpt lat="53.83933" lon="-121.27597">
      </trkpt>
      <trkpt lat="53.83942" lon="-121.27587">
      </trkpt>
      <trkpt lat="53.83947" lon="-121.27569999">
      </trkpt>
      <trkpt lat="53.83947" lon="-121.27553001">
      </trkpt>
      <trkpt lat="53.83948" lon="-121.27536">
      </trkpt>
      <trkpt lat="53.83957" lon="-121.27512">
      </trkpt>
      <trkpt lat="53.83967" lon="-121.27494999">
      </trkpt>
      <trkpt lat="53.83976" lon="-121.27483">
      </trkpt>
      <trkpt lat="53.83982" lon="-121.27468">
      </trkpt>
      <trkpt lat="53.83989" lon="-121.27446">
      </trkpt>
      <trkpt lat="53.83991" lon="-121.27429">
      </trkpt>
      <trkpt lat="53.83998" lon="-121.27416001">
      </trkpt>
      <trkpt lat="53.84005" lon="-121.27404">
      </trkpt>
      <trkpt lat="53.84013" lon="-121.27393999">
      </trkpt>
      <trkpt lat="53.84023" lon="-121.27385001">
      </trkpt>
      <trkpt lat="53.84032" lon="-121.27381001">
      </trkpt>
      <trkpt lat="53.84041" lon="-121.2737">
      </trkpt>
      <trkpt lat="53.84047" lon="-121.27355999">
      </trkpt>
      <trkpt lat="53.84053" lon="-121.27341">
      </trkpt>
      <trkpt lat="53.84057" lon="-121.27324">
      </trkpt>
      <trkpt lat="53.84058" lon="-121.27302">
      </trkpt>
      <trkpt lat="53.84058" lon="-121.27281">
      </trkpt>
      <trkpt lat="53.84062" lon="-121.27265001">
      </trkpt>
      <trkpt lat="53.84068" lon="-121.27252">
      </trkpt>
      <trkpt lat="53.84071" lon="-121.27238">
      </trkpt>
      <trkpt lat="53.84074" lon="-121.27226">
      </trkpt>
      <trkpt lat="53.84079" lon="-121.27207">
      </trkpt>
      <trkpt lat="53.84088" lon="-121.27194">
      </trkpt>
      <trkpt lat="53.8409" lon="-121.27181001">
      </trkpt>
      <trkpt lat="53.84084" lon="-121.27166999">
      </trkpt>
      <trkpt lat="53.84079" lon="-121.27147999">
      </trkpt>
      <trkpt lat="53.8408" lon="-121.27130999">
      </trkpt>
      <trkpt lat="53.84081" lon="-121.27111999">
      </trkpt>
      <trkpt lat="53.84072" lon="-121.27096001">
      </trkpt>
      <trkpt lat="53.8408" lon="-121.27082">
      </trkpt>
      <trkpt lat="53.84085" lon="-121.27066999">
      </trkpt>
      <trkpt lat="53.84085" lon="-121.27048">
      </trkpt>
      <trkpt lat="53.84086" lon="-121.27032">
      </trkpt>
      <trkpt lat="53.84086" lon="-121.27011999">
      </trkpt>
      <trkpt lat="53.84092" lon="-121.26999">
      </trkpt>
      <trkpt lat="53.84101" lon="-121.26978999">
      </trkpt>
      <trkpt lat="53.84108" lon="-121.26963001">
      </trkpt>
      <trkpt lat="53.84108" lon="-121.26946">
      </trkpt>
      <trkpt lat="53.84103" lon="-121.26926">
      </trkpt>
      <trkpt lat="53.84092" lon="-121.26899">
      </trkpt>
      <trkpt lat="53.84085" lon="-121.26885">
      </trkpt>
      <trkpt lat="53.84066" lon="-121.26857">
      </trkpt>
      <trkpt lat="53.84057" lon="-121.26832001">
      </trkpt>
      <trkpt lat="53.84057" lon="-121.26816">
      </trkpt>
      <trkpt lat="53.8407" lon="-121.26787999">
      </trkpt>
      <trkpt lat="53.84062" lon="-121.26778">
      </trkpt>
      <trkpt lat="53.84065" lon="-121.26759">
      </trkpt>
      <trkpt lat="53.84068" lon="-121.26735">
      </trkpt>
      <trkpt lat="53.84052" lon="-121.26718001">
      </trkpt>
      <trkpt lat="53.84047" lon="-121.26700999">
      </trkpt>
      <trkpt lat="53.84045" lon="-121.26685">
      </trkpt>
      <trkpt lat="53.84056" lon="-121.26672001">
      </trkpt>
      <trkpt lat="53.84055" lon="-121.26654001">
      </trkpt>
      <trkpt lat="53.84057" lon="-121.2664">
      </trkpt>
      <trkpt lat="53.84058" lon="-121.26623999">
      </trkpt>
      <trkpt lat="53.84059" lon="-121.26600999">
      </trkpt>
      <trkpt lat="53.84058" lon="-121.26586999">
      </trkpt>
      <trkpt lat="53.84063" lon="-121.26568">
      </trkpt>
      <trkpt lat="53.84058" lon="-121.2654">
      </trkpt>
      <trkpt lat="53.84055" lon="-121.26515">
      </trkpt>
      <trkpt lat="53.84056" lon="-121.26486001">
      </trkpt>
      <trkpt lat="53.84058" lon="-121.26469999">
      </trkpt>
      <trkpt lat="53.84051" lon="-121.26440999">
      </trkpt>
      <trkpt lat="53.84028" lon="-121.26398999">
      </trkpt>
      <trkpt lat="53.84007" lon="-121.26383">
      </trkpt>
      <trkpt lat="53.8399" lon="-121.26382">
      </trkpt>
      <trkpt lat="53.83975" lon="-121.26373">
      </trkpt>
      <trkpt lat="53.83964" lon="-121.26356">
      </trkpt>
      <trkpt lat="53.83956" lon="-121.26334">
      </trkpt>
      <trkpt lat="53.8396" lon="-121.26305999">
      </trkpt>
      <trkpt lat="53.83966" lon="-121.26272">
      </trkpt>
      <trkpt lat="53.83969" lon="-121.26246">
      </trkpt>
      <trkpt lat="53.83971" lon="-121.26218">
      </trkpt>
      <trkpt lat="53.83987" lon="-121.26208">
      </trkpt>
      <trkpt lat="53.84049" lon="-121.26187">
      </trkpt>
      <trkpt lat="53.84072" lon="-121.26171">
      </trkpt>
      <trkpt lat="53.84108" lon="-121.26216">
      </trkpt>
      <trkpt lat="53.84123851" lon="-121.26231143">
      </trkpt>
      <trkpt lat="53.84143917" lon="-121.2623619">
      </trkpt>
      <trkpt lat="53.84160424" lon="-121.26237197">
      </trkpt>
      <trkpt lat="53.84191046" lon="-121.26234818">
      </trkpt>
      <trkpt lat="53.84207" lon="-121.26229">
      </trkpt>
      <trkpt lat="53.84229" lon="-121.26225">
      </trkpt>
      <trkpt lat="53.84250857" lon="-121.26233559">
      </trkpt>
      <trkpt lat="53.84272201" lon="-121.26234284">
      </trkpt>
      <trkpt lat="53.84286793" lon="-121.26234313">
      </trkpt>
      <trkpt lat="53.84306269" lon="-121.26232094">
      </trkpt>
      <trkpt lat="53.84325175" lon="-121.26232195">
      </trkpt>
      <trkpt lat="53.84342452" lon="-121.26233044">
      </trkpt>
      <trkpt lat="53.84359795" lon="-121.26235578">
      </trkpt>
      <trkpt lat="53.84371305" lon="-121.2623314">
      </trkpt>
      <trkpt lat="53.84397232" lon="-121.26234696">
      </trkpt>
      <trkpt lat="53.8441563" lon="-121.26230344">
      </trkpt>
      <trkpt lat="53.84424893" lon="-121.26221395">
      </trkpt>
      <trkpt lat="53.84431" lon="-121.26205999">
      </trkpt>
      <trkpt lat="53.84439" lon="-121.26192">
      </trkpt>
      <trkpt lat="53.84442" lon="-121.26175001">
      </trkpt>
      <trkpt lat="53.84446" lon="-121.26164999">
      </trkpt>
      <trkpt lat="53.84455" lon="-121.26158001">
      </trkpt>
      <trkpt lat="53.84466" lon="-121.26148">
      </trkpt>
      <trkpt lat="53.84479" lon="-121.26132">
      </trkpt>
      <trkpt lat="53.84493" lon="-121.26139">
      </trkpt>
      <trkpt lat="53.84508" lon="-121.26159001">
      </trkpt>
      <trkpt lat="53.84524" lon="-121.2616">
      </trkpt>
      <trkpt lat="53.84531" lon="-121.26136001">
      </trkpt>
      <trkpt lat="53.84527" lon="-121.26103">
      </trkpt>
      <trkpt lat="53.8452" lon="-121.26083">
      </trkpt>
      <trkpt lat="53.84512" lon="-121.26056">
      </trkpt>
      <trkpt lat="53.84519" lon="-121.26035">
      </trkpt>
      <trkpt lat="53.84527" lon="-121.26028999">
      </trkpt>
      <trkpt lat="53.84551" lon="-121.26021">
      </trkpt>
      <trkpt lat="53.84559" lon="-121.2601">
      </trkpt>
      <trkpt lat="53.84568" lon="-121.26003">
      </trkpt>
      <trkpt lat="53.84607" lon="-121.25997">
      </trkpt>
      <trkpt lat="53.84617" lon="-121.26004">
      </trkpt>
      <trkpt lat="53.84618" lon="-121.26020001">
      </trkpt>
      <trkpt lat="53.84616" lon="-121.26037">
      </trkpt>
      <trkpt lat="53.84616" lon="-121.26059">
      </trkpt>
      <trkpt lat="53.84617274" lon="-121.26071747">
      </trkpt>
      <trkpt lat="53.84624" lon="-121.26088">
      </trkpt>
      <trkpt lat="53.84636982" lon="-121.26103933">
      </trkpt>
      <trkpt lat="53.84651355" lon="-121.26096193">
      </trkpt>
      <trkpt lat="53.84661" lon="-121.26091">
      </trkpt>
      <trkpt lat="53.84669" lon="-121.26108">
      </trkpt>
      <trkpt lat="53.84678" lon="-121.26119">
      </trkpt>
      <trkpt lat="53.84686" lon="-121.26131999">
      </trkpt>
      <trkpt lat="53.84688" lon="-121.26147001">
      </trkpt>
      <trkpt lat="53.84687" lon="-121.26164001">
      </trkpt>
      <trkpt lat="53.84687" lon="-121.26183">
      </trkpt>
      <trkpt lat="53.84688" lon="-121.26200001">
      </trkpt>
      <trkpt lat="53.84697" lon="-121.26209001">
      </trkpt>
      <trkpt lat="53.84704" lon="-121.26207">
      </trkpt>
      <trkpt lat="53.84712" lon="-121.26215001">
      </trkpt>
      <trkpt lat="53.8472" lon="-121.26223">
      </trkpt>
      <trkpt lat="53.8473" lon="-121.26222001">
      </trkpt>
      <trkpt lat="53.84741" lon="-121.26216">
      </trkpt>
      <trkpt lat="53.84753" lon="-121.26213">
      </trkpt>
      <trkpt lat="53.84763" lon="-121.26211999">
      </trkpt>
      <trkpt lat="53.84773" lon="-121.26207">
      </trkpt>
      <trkpt lat="53.84782" lon="-121.26203">
      </trkpt>
      <trkpt lat="53.84788" lon="-121.26187999">
      </trkpt>
      <trkpt lat="53.848" lon="-121.26183001">
      </trkpt>
      <trkpt lat="53.8481" lon="-121.2618">
      </trkpt>
      <trkpt lat="53.84819" lon="-121.26172">
      </trkpt>
      <trkpt lat="53.84827" lon="-121.26155999">
      </trkpt>
      <trkpt lat="53.84837" lon="-121.26158">
      </trkpt>
      <trkpt lat="53.84846" lon="-121.26163">
      </trkpt>
      <trkpt lat="53.84854" lon="-121.26159001">
      </trkpt>
      <trkpt lat="53.84865" lon="-121.26155">
      </trkpt>
      <trkpt lat="53.84875" lon="-121.26148">
      </trkpt>
      <trkpt lat="53.84885" lon="-121.26138">
      </trkpt>
      <trkpt lat="53.84895" lon="-121.2613">
      </trkpt>
      <trkpt lat="53.84909" lon="-121.26123">
      </trkpt>
      <trkpt lat="53.84918" lon="-121.26124">
      </trkpt>
      <trkpt lat="53.84928" lon="-121.26126">
      </trkpt>
      <trkpt lat="53.84938" lon="-121.26125001">
      </trkpt>
      <trkpt lat="53.8495" lon="-121.26126">
      </trkpt>
      <trkpt lat="53.84962" lon="-121.26129">
      </trkpt>
      <trkpt lat="53.84972" lon="-121.26137">
      </trkpt>
      <trkpt lat="53.84981" lon="-121.26141001">
      </trkpt>
      <trkpt lat="53.84992" lon="-121.26145">
      </trkpt>
      <trkpt lat="53.85003" lon="-121.26154">
      </trkpt>
      <trkpt lat="53.85012" lon="-121.2616">
      </trkpt>
      <trkpt lat="53.85026" lon="-121.26165001">
      </trkpt>
      <trkpt lat="53.85036" lon="-121.26171">
      </trkpt>
      <trkpt lat="53.85044" lon="-121.26178001">
      </trkpt>
      <trkpt lat="53.85053" lon="-121.26178">
      </trkpt>
      <trkpt lat="53.85062" lon="-121.26182999">
      </trkpt>
      <trkpt lat="53.85068" lon="-121.26196999">
      </trkpt>
      <trkpt lat="53.85078" lon="-121.26205001">
      </trkpt>
      <trkpt lat="53.85088" lon="-121.26212">
      </trkpt>
      <trkpt lat="53.85098" lon="-121.26217">
      </trkpt>
      <trkpt lat="53.85107" lon="-121.26228">
      </trkpt>
      <trkpt lat="53.85118" lon="-121.26236">
      </trkpt>
      <trkpt lat="53.85126" lon="-121.26235">
      </trkpt>
      <trkpt lat="53.85137" lon="-121.26236">
      </trkpt>
      <trkpt lat="53.85148" lon="-121.26230001">
      </trkpt>
      <trkpt lat="53.85159" lon="-121.26230999">
      </trkpt>
      <trkpt lat="53.85169" lon="-121.26231">
      </trkpt>
      <trkpt lat="53.85181" lon="-121.26231">
      </trkpt>
      <trkpt lat="53.85193" lon="-121.26226001">
      </trkpt>
      <trkpt lat="53.85204" lon="-121.26224">
      </trkpt>
      <trkpt lat="53.85214" lon="-121.26215">
      </trkpt>
      <trkpt lat="53.85225" lon="-121.26212">
      </trkpt>
      <trkpt lat="53.85236" lon="-121.26216001">
      </trkpt>
      <trkpt lat="53.85247" lon="-121.26216001">
      </trkpt>
      <trkpt lat="53.85256" lon="-121.26196001">
      </trkpt>
      <trkpt lat="53.85268" lon="-121.2619">
      </trkpt>
      <trkpt lat="53.85278" lon="-121.26171">
      </trkpt>
      <trkpt lat="53.8529" lon="-121.26155">
      </trkpt>
      <trkpt lat="53.85301" lon="-121.26153001">
      </trkpt>
      <trkpt lat="53.85308" lon="-121.2616">
      </trkpt>
      <trkpt lat="53.85317" lon="-121.26161999">
      </trkpt>
      <trkpt lat="53.85326" lon="-121.26166001">
      </trkpt>
      <trkpt lat="53.85337" lon="-121.26165">
      </trkpt>
      <trkpt lat="53.85349" lon="-121.26167">
      </trkpt>
      <trkpt lat="53.85362" lon="-121.2617">
      </trkpt>
      <trkpt lat="53.85374" lon="-121.26172">
      </trkpt>
      <trkpt lat="53.85384" lon="-121.2618">
      </trkpt>
      <trkpt lat="53.85395" lon="-121.26181">
      </trkpt>
      <trkpt lat="53.85403" lon="-121.26182">
      </trkpt>
      <trkpt lat="53.85416" lon="-121.26176001">
      </trkpt>
      <trkpt lat="53.85422" lon="-121.26173">
      </trkpt>
      <trkpt lat="53.85434" lon="-121.26168999">
      </trkpt>
      <trkpt lat="53.85444" lon="-121.26160001">
      </trkpt>
      <trkpt lat="53.85455" lon="-121.26159">
      </trkpt>
      <trkpt lat="53.85466" lon="-121.26164">
      </trkpt>
      <trkpt lat="53.85479" lon="-121.26168999">
      </trkpt>
      <trkpt lat="53.85493" lon="-121.26176">
      </trkpt>
      <trkpt lat="53.85505" lon="-121.26173">
      </trkpt>
      <trkpt lat="53.85519" lon="-121.26171">
      </trkpt>
      <trkpt lat="53.85531" lon="-121.26170999">
      </trkpt>
      <trkpt lat="53.85539" lon="-121.26158">
      </trkpt>
      <trkpt lat="53.85545" lon="-121.26144">
      </trkpt>
      <trkpt lat="53.8555272" lon="-121.26125988">
      </trkpt>
      <trkpt lat="53.85561837" lon="-121.26122767">
      </trkpt>
      <trkpt lat="53.85571191" lon="-121.26110871">
      </trkpt>
      <trkpt lat="53.85577391" lon="-121.26104532">
      </trkpt>
      <trkpt lat="53.85583592" lon="-121.26098193">
      </trkpt>
      <trkpt lat="53.85589793" lon="-121.26091853">
      </trkpt>
      <trkpt lat="53.85596936" lon="-121.26088516">
      </trkpt>
      <trkpt lat="53.85605022" lon="-121.26088181">
      </trkpt>
      <trkpt lat="53.85613129" lon="-121.26089365">
      </trkpt>
      <trkpt lat="53.85620361" lon="-121.26092107">
      </trkpt>
      <trkpt lat="53.85627548" lon="-121.26091808">
      </trkpt>
      <trkpt lat="53.85635523" lon="-121.26083875">
      </trkpt>
      <trkpt lat="53.85643498" lon="-121.26075942">
      </trkpt>
      <trkpt lat="53.85651496" lon="-121.26069527">
      </trkpt>
      <trkpt lat="53.85657631" lon="-121.26058629">
      </trkpt>
      <trkpt lat="53.85661946" lon="-121.26046285">
      </trkpt>
      <trkpt lat="53.85662734" lon="-121.26038651">
      </trkpt>
      <trkpt lat="53.85664421" lon="-121.26030978">
      </trkpt>
      <trkpt lat="53.85666108" lon="-121.26023305">
      </trkpt>
      <trkpt lat="53.85669503" lon="-121.26009478">
      </trkpt>
      <trkpt lat="53.85673797" lon="-121.25995616">
      </trkpt>
      <trkpt lat="53.85680874" lon="-121.25987719">
      </trkpt>
      <trkpt lat="53.85688849" lon="-121.25979786">
      </trkpt>
      <trkpt lat="53.85696847" lon="-121.25973371">
      </trkpt>
      <trkpt lat="53.85703924" lon="-121.25965474">
      </trkpt>
      <trkpt lat="53.85709182" lon="-121.25956133">
      </trkpt>
      <trkpt lat="53.85712577" lon="-121.25942307">
      </trkpt>
      <trkpt lat="53.85716826" lon="-121.25925404">
      </trkpt>
      <trkpt lat="53.85718513" lon="-121.25917731">
      </trkpt>
      <trkpt lat="53.85720199" lon="-121.25910058">
      </trkpt>
      <trkpt lat="53.85721864" lon="-121.25900865">
      </trkpt>
      <trkpt lat="53.85727077" lon="-121.25888484">
      </trkpt>
      <trkpt lat="53.85735009" lon="-121.25877512">
      </trkpt>
      <trkpt lat="53.85739456" lon="-121.25874286">
      </trkpt>
      <trkpt lat="53.85743927" lon="-121.25872578">
      </trkpt>
      <trkpt lat="53.85748374" lon="-121.25869353">
      </trkpt>
      <trkpt lat="53.85756327" lon="-121.25859899">
      </trkpt>
      <trkpt lat="53.85763316" lon="-121.25845924">
      </trkpt>
      <trkpt lat="53.85769429" lon="-121.25833505">
      </trkpt>
      <trkpt lat="53.85775585" lon="-121.25824126">
      </trkpt>
      <trkpt lat="53.85781808" lon="-121.25819306">
      </trkpt>
      <trkpt lat="53.85789849" lon="-121.25815929">
      </trkpt>
      <trkpt lat="53.85795085" lon="-121.25805069">
      </trkpt>
      <trkpt lat="53.85800277" lon="-121.25791167">
      </trkpt>
      <trkpt lat="53.85808253" lon="-121.25783233">
      </trkpt>
      <trkpt lat="53.85812678" lon="-121.25778487">
      </trkpt>
      <trkpt lat="53.85817126" lon="-121.25775261">
      </trkpt>
      <trkpt lat="53.85824158" lon="-121.25764325">
      </trkpt>
      <trkpt lat="53.85827554" lon="-121.25750498">
      </trkpt>
      <trkpt lat="53.85828342" lon="-121.25742862">
      </trkpt>
      <trkpt lat="53.85829107" lon="-121.25733707">
      </trkpt>
      <trkpt lat="53.85829873" lon="-121.2572455">
      </trkpt>
      <trkpt lat="53.85830661" lon="-121.25716915">
      </trkpt>
      <trkpt lat="53.85830529" lon="-121.25707797">
      </trkpt>
      <trkpt lat="53.85830419" lon="-121.25700199">
      </trkpt>
      <trkpt lat="53.85830308" lon="-121.256926">
      </trkpt>
      <trkpt lat="53.85830088" lon="-121.25677403">
      </trkpt>
      <trkpt lat="53.85832606" lon="-121.25665133">
      </trkpt>
      <trkpt lat="53.85840559" lon="-121.25655678">
      </trkpt>
      <trkpt lat="53.85845007" lon="-121.25652452">
      </trkpt>
      <trkpt lat="53.85849476" lon="-121.25650746">
      </trkpt>
      <trkpt lat="53.85856553" lon="-121.25642848">
      </trkpt>
      <trkpt lat="53.8586271" lon="-121.25633469">
      </trkpt>
      <trkpt lat="53.85870707" lon="-121.25627053">
      </trkpt>
      <trkpt lat="53.85878705" lon="-121.25620639">
      </trkpt>
      <trkpt lat="53.85883962" lon="-121.25611296">
      </trkpt>
      <trkpt lat="53.85889198" lon="-121.25600434">
      </trkpt>
      <trkpt lat="53.85894455" lon="-121.25591091">
      </trkpt>
      <trkpt lat="53.85903373" lon="-121.25586158">
      </trkpt>
      <trkpt lat="53.85907887" lon="-121.25587491">
      </trkpt>
      <trkpt lat="53.85916916" lon="-121.25590157">
      </trkpt>
      <trkpt lat="53.85925089" lon="-121.255959">
      </trkpt>
      <trkpt lat="53.85931511" lon="-121.25604757">
      </trkpt>
      <trkpt lat="53.85935281" lon="-121.25616766">
      </trkpt>
      <trkpt lat="53.85940804" lon="-121.2562566">
      </trkpt>
      <trkpt lat="53.8594981" lon="-121.25626805">
      </trkpt>
      <trkpt lat="53.85954324" lon="-121.25628138">
      </trkpt>
      <trkpt lat="53.85959714" lon="-121.25627914">
      </trkpt>
      <trkpt lat="53.85969619" lon="-121.25629023">
      </trkpt>
      <trkpt lat="53.85974133" lon="-121.25630356">
      </trkpt>
      <trkpt lat="53.85979545" lon="-121.25631652">
      </trkpt>
      <trkpt lat="53.85984958" lon="-121.25632948">
      </trkpt>
      <trkpt lat="53.85990348" lon="-121.25632724">
      </trkpt>
      <trkpt lat="53.85994862" lon="-121.25634056">
      </trkpt>
      <trkpt lat="53.86002071" lon="-121.25635277">
      </trkpt>
      <trkpt lat="53.86006586" lon="-121.2563661">
      </trkpt>
      <trkpt lat="53.8601202" lon="-121.25639425">
      </trkpt>
      <trkpt lat="53.86019229" lon="-121.25640646">
      </trkpt>
      <trkpt lat="53.86023744" lon="-121.25641979">
      </trkpt>
      <trkpt lat="53.86024642" lon="-121.25641942">
      </trkpt>
      <trkpt lat="53.86031851" lon="-121.25643163">
      </trkpt>
      <trkpt lat="53.86036343" lon="-121.25642975">
      </trkpt>
      <trkpt lat="53.86040835" lon="-121.25642789">
      </trkpt>
      <trkpt lat="53.86045283" lon="-121.25639563">
      </trkpt>
      <trkpt lat="53.86053258" lon="-121.25631627">
      </trkpt>
      <trkpt lat="53.8606029" lon="-121.2562069">
      </trkpt>
      <trkpt lat="53.86066425" lon="-121.25609789">
      </trkpt>
      <trkpt lat="53.86072537" lon="-121.25597371">
      </trkpt>
      <trkpt lat="53.86078671" lon="-121.2558647">
      </trkpt>
      <trkpt lat="53.8608485" lon="-121.25578609">
      </trkpt>
      <trkpt lat="53.86092913" lon="-121.25576752">
      </trkpt>
      <trkpt lat="53.86101043" lon="-121.25579456">
      </trkpt>
      <trkpt lat="53.86108384" lon="-121.25589796">
      </trkpt>
      <trkpt lat="53.86115749" lon="-121.25601656">
      </trkpt>
      <trkpt lat="53.8612401" lon="-121.25613478">
      </trkpt>
      <trkpt lat="53.86130432" lon="-121.25622335">
      </trkpt>
      <trkpt lat="53.8613865" lon="-121.25631118">
      </trkpt>
      <trkpt lat="53.86145992" lon="-121.25641458">
      </trkpt>
      <trkpt lat="53.86153312" lon="-121.25650277">
      </trkpt>
      <trkpt lat="53.86158812" lon="-121.25657652">
      </trkpt>
      <trkpt lat="53.86164313" lon="-121.25665027">
      </trkpt>
      <trkpt lat="53.8617069" lon="-121.25670845">
      </trkpt>
      <trkpt lat="53.86177921" lon="-121.25673586">
      </trkpt>
      <trkpt lat="53.86184232" lon="-121.25674844">
      </trkpt>
      <trkpt lat="53.86191486" lon="-121.25679104">
      </trkpt>
      <trkpt lat="53.86197863" lon="-121.25684923">
      </trkpt>
      <trkpt lat="53.86203275" lon="-121.25686217">
      </trkpt>
      <trkpt lat="53.86208622" lon="-121.25682954">
      </trkpt>
      <trkpt lat="53.862148" lon="-121.25675094">
      </trkpt>
      <trkpt lat="53.86219159" lon="-121.25665788">
      </trkpt>
      <trkpt lat="53.86222599" lon="-121.25654999">
      </trkpt>
      <trkpt lat="53.86228755" lon="-121.25645619">
      </trkpt>
      <trkpt lat="53.86235854" lon="-121.2563924">
      </trkpt>
      <trkpt lat="53.86244772" lon="-121.25634307">
      </trkpt>
      <trkpt lat="53.86249219" lon="-121.2563108">
      </trkpt>
      <trkpt lat="53.86253666" lon="-121.25627854">
      </trkpt>
      <trkpt lat="53.86258115" lon="-121.25624627">
      </trkpt>
      <trkpt lat="53.86266988" lon="-121.25616655">
      </trkpt>
      <trkpt lat="53.86274021" lon="-121.25605716">
      </trkpt>
      <trkpt lat="53.86280133" lon="-121.25593296">
      </trkpt>
      <trkpt lat="53.86286223" lon="-121.25579356">
      </trkpt>
      <trkpt lat="53.8629411" lon="-121.25565341">
      </trkpt>
      <trkpt lat="53.86302062" lon="-121.25555885">
      </trkpt>
      <trkpt lat="53.8631098" lon="-121.25550952">
      </trkpt>
      <trkpt lat="53.8631545" lon="-121.25549244">
      </trkpt>
      <trkpt lat="53.86323513" lon="-121.25547389">
      </trkpt>
      <trkpt lat="53.86331621" lon="-121.25548571">
      </trkpt>
      <trkpt lat="53.86339773" lon="-121.25552794">
      </trkpt>
      <trkpt lat="53.86346194" lon="-121.25561652">
      </trkpt>
      <trkpt lat="53.8635347" lon="-121.25567433">
      </trkpt>
      <trkpt lat="53.86361621" lon="-121.25571656">
      </trkpt>
      <trkpt lat="53.86368853" lon="-121.25574397">
      </trkpt>
      <trkpt lat="53.86376062" lon="-121.25575618">
      </trkpt>
      <trkpt lat="53.86384147" lon="-121.25575282">
      </trkpt>
      <trkpt lat="53.86388551" lon="-121.25569015">
      </trkpt>
      <trkpt lat="53.86390171" lon="-121.25556781">
      </trkpt>
      <trkpt lat="53.8639087" lon="-121.25543064">
      </trkpt>
      <trkpt lat="53.86392491" lon="-121.2553083">
      </trkpt>
      <trkpt lat="53.8639238" lon="-121.25523231">
      </trkpt>
      <trkpt lat="53.8639227" lon="-121.25515632">
      </trkpt>
      <trkpt lat="53.8639216" lon="-121.25508032">
      </trkpt>
      <trkpt lat="53.86391129" lon="-121.2549895">
      </trkpt>
      <trkpt lat="53.8639012" lon="-121.25491388">
      </trkpt>
      <trkpt lat="53.8638819" lon="-121.25482344">
      </trkpt>
      <trkpt lat="53.86386282" lon="-121.25474818">
      </trkpt>
      <trkpt lat="53.86384375" lon="-121.25467293">
      </trkpt>
      <trkpt lat="53.86382446" lon="-121.25458249">
      </trkpt>
      <trkpt lat="53.86381437" lon="-121.25450687">
      </trkpt>
      <trkpt lat="53.86379419" lon="-121.25435563">
      </trkpt>
      <trkpt lat="53.8637841" lon="-121.25428">
      </trkpt>
      <trkpt lat="53.86377379" lon="-121.25418919">
      </trkpt>
      <trkpt lat="53.86376348" lon="-121.25409837">
      </trkpt>
      <trkpt lat="53.86375317" lon="-121.25400754">
      </trkpt>
      <trkpt lat="53.86373387" lon="-121.2539171">
      </trkpt>
      <trkpt lat="53.86372356" lon="-121.25382628">
      </trkpt>
      <trkpt lat="53.86371347" lon="-121.25375066">
      </trkpt>
      <trkpt lat="53.86369418" lon="-121.25366022">
      </trkpt>
      <trkpt lat="53.86368409" lon="-121.2535846">
      </trkpt>
      <trkpt lat="53.86366479" lon="-121.25349416">
      </trkpt>
      <trkpt lat="53.8636547" lon="-121.25341854">
      </trkpt>
      <trkpt lat="53.86364417" lon="-121.25331252">
      </trkpt>
      <trkpt lat="53.86363363" lon="-121.25320649">
      </trkpt>
      <trkpt lat="53.86363231" lon="-121.2531153">
      </trkpt>
      <trkpt lat="53.86363075" lon="-121.25300892">
      </trkpt>
      <trkpt lat="53.86362045" lon="-121.25291809">
      </trkpt>
      <trkpt lat="53.8636189" lon="-121.25281169">
      </trkpt>
      <trkpt lat="53.86361757" lon="-121.2527205">
      </trkpt>
      <trkpt lat="53.86362545" lon="-121.25264414">
      </trkpt>
      <trkpt lat="53.86362257" lon="-121.25244655">
      </trkpt>
      <trkpt lat="53.86363022" lon="-121.25235498">
      </trkpt>
      <trkpt lat="53.86362889" lon="-121.25226379">
      </trkpt>
      <trkpt lat="53.86362735" lon="-121.25215739">
      </trkpt>
      <trkpt lat="53.86362602" lon="-121.2520662">
      </trkpt>
      <trkpt lat="53.86362491" lon="-121.25199021">
      </trkpt>
      <trkpt lat="53.86360517" lon="-121.25186936">
      </trkpt>
      <trkpt lat="53.86360362" lon="-121.25176298">
      </trkpt>
      <trkpt lat="53.86359242" lon="-121.25161137">
      </trkpt>
      <trkpt lat="53.86359132" lon="-121.25153536">
      </trkpt>
      <trkpt lat="53.86358999" lon="-121.25144417">
      </trkpt>
      <trkpt lat="53.86358888" lon="-121.25136818">
      </trkpt>
      <trkpt lat="53.86358755" lon="-121.25127698">
      </trkpt>
      <trkpt lat="53.863586" lon="-121.25117059">
      </trkpt>
      <trkpt lat="53.86359388" lon="-121.25109423">
      </trkpt>
      <trkpt lat="53.86360153" lon="-121.25100266">
      </trkpt>
      <trkpt lat="53.86360941" lon="-121.25092629">
      </trkpt>
      <trkpt lat="53.86361728" lon="-121.25084991">
      </trkpt>
      <trkpt lat="53.86363304" lon="-121.25069718">
      </trkpt>
      <trkpt lat="53.86366719" lon="-121.25057408">
      </trkpt>
      <trkpt lat="53.8637018" lon="-121.25048139">
      </trkpt>
      <trkpt lat="53.86374561" lon="-121.25040352">
      </trkpt>
      <trkpt lat="53.86375305" lon="-121.25029675">
      </trkpt>
      <trkpt lat="53.86376048" lon="-121.25018999">
      </trkpt>
      <trkpt lat="53.86376791" lon="-121.25008322">
      </trkpt>
      <trkpt lat="53.8637657" lon="-121.24993124">
      </trkpt>
      <trkpt lat="53.86376459" lon="-121.24985525">
      </trkpt>
      <trkpt lat="53.86377246" lon="-121.24977887">
      </trkpt>
      <trkpt lat="53.86376237" lon="-121.24970325">
      </trkpt>
      <trkpt lat="53.86376126" lon="-121.24962726">
      </trkpt>
      <trkpt lat="53.86375993" lon="-121.24953607">
      </trkpt>
      <trkpt lat="53.86374962" lon="-121.24944524">
      </trkpt>
      <trkpt lat="53.86374851" lon="-121.24936925">
      </trkpt>
      <trkpt lat="53.86373842" lon="-121.24929363">
      </trkpt>
      <trkpt lat="53.86370924" lon="-121.24914276">
      </trkpt>
      <trkpt lat="53.86368052" lon="-121.2490223">
      </trkpt>
      <trkpt lat="53.86366954" lon="-121.24888588">
      </trkpt>
      <trkpt lat="53.86365856" lon="-121.24874948">
      </trkpt>
      <trkpt lat="53.86365745" lon="-121.24867347">
      </trkpt>
      <trkpt lat="53.86365612" lon="-121.24858228">
      </trkpt>
      <trkpt lat="53.863664" lon="-121.24850592">
      </trkpt>
      <trkpt lat="53.86367098" lon="-121.24836876">
      </trkpt>
      <trkpt lat="53.86368695" lon="-121.24823121">
      </trkpt>
      <trkpt lat="53.86372067" lon="-121.24807772">
      </trkpt>
      <trkpt lat="53.86376359" lon="-121.24793904">
      </trkpt>
      <trkpt lat="53.86379753" lon="-121.24780075">
      </trkpt>
      <trkpt lat="53.86383169" lon="-121.24767767">
      </trkpt>
      <trkpt lat="53.86385664" lon="-121.24753975">
      </trkpt>
      <trkpt lat="53.86389979" lon="-121.24741628">
      </trkpt>
      <trkpt lat="53.86395192" lon="-121.24729244">
      </trkpt>
      <trkpt lat="53.8639589" lon="-121.24715526">
      </trkpt>
      <trkpt lat="53.86398385" lon="-121.24701734">
      </trkpt>
      <trkpt lat="53.86402721" lon="-121.24690907">
      </trkpt>
      <trkpt lat="53.86408922" lon="-121.24684565">
      </trkpt>
      <trkpt lat="53.86415122" lon="-121.24678222">
      </trkpt>
      <trkpt lat="53.86420401" lon="-121.24670397">
      </trkpt>
      <trkpt lat="53.86423883" lon="-121.24662647">
      </trkpt>
      <trkpt lat="53.86424626" lon="-121.2465197">
      </trkpt>
      <trkpt lat="53.86424449" lon="-121.24639811">
      </trkpt>
      <trkpt lat="53.8642335" lon="-121.2462617">
      </trkpt>
      <trkpt lat="53.86420433" lon="-121.24611083">
      </trkpt>
      <trkpt lat="53.86418525" lon="-121.24603559">
      </trkpt>
      <trkpt lat="53.86417516" lon="-121.24595997">
      </trkpt>
      <trkpt lat="53.86417382" lon="-121.24586877">
      </trkpt>
      <trkpt lat="53.86416373" lon="-121.24579315">
      </trkpt>
      <trkpt lat="53.8641624" lon="-121.24570197">
      </trkpt>
      <trkpt lat="53.86416106" lon="-121.24561078">
      </trkpt>
      <trkpt lat="53.86415097" lon="-121.24553516">
      </trkpt>
      <trkpt lat="53.86414087" lon="-121.24545954">
      </trkpt>
      <trkpt lat="53.86412068" lon="-121.2453083">
      </trkpt>
      <trkpt lat="53.86411957" lon="-121.24523229">
      </trkpt>
      <trkpt lat="53.86410947" lon="-121.24515667">
      </trkpt>
      <trkpt lat="53.86410814" lon="-121.24506549">
      </trkpt>
      <trkpt lat="53.86409782" lon="-121.24497467">
      </trkpt>
      <trkpt lat="53.8640875" lon="-121.24488385">
      </trkpt>
      <trkpt lat="53.86408617" lon="-121.24479265">
      </trkpt>
      <trkpt lat="53.86407585" lon="-121.24470184">
      </trkpt>
      <trkpt lat="53.86407451" lon="-121.24461065">
      </trkpt>
      <trkpt lat="53.8640642" lon="-121.24451982">
      </trkpt>
      <trkpt lat="53.8640541" lon="-121.2444442">
      </trkpt>
      <trkpt lat="53.86405277" lon="-121.24435301">
      </trkpt>
      <trkpt lat="53.86404245" lon="-121.2442622">
      </trkpt>
      <trkpt lat="53.86403214" lon="-121.24417138">
      </trkpt>
      <trkpt lat="53.8640308" lon="-121.24408018">
      </trkpt>
      <trkpt lat="53.86402048" lon="-121.24398936">
      </trkpt>
      <trkpt lat="53.86401937" lon="-121.24391337">
      </trkpt>
      <trkpt lat="53.86401736" lon="-121.24377658">
      </trkpt>
      <trkpt lat="53.86401559" lon="-121.24365499">
      </trkpt>
      <trkpt lat="53.86402301" lon="-121.24354822">
      </trkpt>
      <trkpt lat="53.86403021" lon="-121.24342625">
      </trkpt>
      <trkpt lat="53.86405583" lon="-121.24333392">
      </trkpt>
      <trkpt lat="53.86411783" lon="-121.2432705">
      </trkpt>
      <trkpt lat="53.86417285" lon="-121.24334423">
      </trkpt>
      <trkpt lat="53.86421012" lon="-121.24343391">
      </trkpt>
      <trkpt lat="53.86425659" lon="-121.24353843">
      </trkpt>
      <trkpt lat="53.86429386" lon="-121.24362812">
      </trkpt>
      <trkpt lat="53.86434843" lon="-121.24367146">
      </trkpt>
      <trkpt lat="53.8644203" lon="-121.24366844">
      </trkpt>
      <trkpt lat="53.86447377" lon="-121.24363579">
      </trkpt>
      <trkpt lat="53.86453532" lon="-121.24354196">
      </trkpt>
      <trkpt lat="53.86459687" lon="-121.24344814">
      </trkpt>
      <trkpt lat="53.864649" lon="-121.24332427">
      </trkpt>
      <trkpt lat="53.86469235" lon="-121.243216">
      </trkpt>
      <trkpt lat="53.86476334" lon="-121.24315219">
      </trkpt>
      <trkpt lat="53.86483521" lon="-121.24314918">
      </trkpt>
      <trkpt lat="53.86490775" lon="-121.24319177">
      </trkpt>
      <trkpt lat="53.86495378" lon="-121.24326588">
      </trkpt>
      <trkpt lat="53.86499127" lon="-121.24337078">
      </trkpt>
      <trkpt lat="53.86502877" lon="-121.24347566">
      </trkpt>
      <trkpt lat="53.86508378" lon="-121.24354939">
      </trkpt>
      <trkpt lat="53.86513879" lon="-121.24362314">
      </trkpt>
      <trkpt lat="53.86522076" lon="-121.24369575">
      </trkpt>
      <trkpt lat="53.86530295" lon="-121.24378356">
      </trkpt>
      <trkpt lat="53.86536718" lon="-121.24387212">
      </trkpt>
      <trkpt lat="53.86542263" lon="-121.24397625">
      </trkpt>
      <trkpt lat="53.86547788" lon="-121.24406519">
      </trkpt>
      <trkpt lat="53.86553355" lon="-121.24418454">
      </trkpt>
      <trkpt lat="53.86558902" lon="-121.24428867">
      </trkpt>
      <trkpt lat="53.8656447" lon="-121.24440802">
      </trkpt>
      <trkpt lat="53.86570937" lon="-121.24452697">
      </trkpt>
      <trkpt lat="53.86578279" lon="-121.24463035">
      </trkpt>
      <trkpt lat="53.86584746" lon="-121.24474932">
      </trkpt>
      <trkpt lat="53.86590359" lon="-121.24489906">
      </trkpt>
      <trkpt lat="53.86591368" lon="-121.24497469">
      </trkpt>
      <trkpt lat="53.865924" lon="-121.24506551">
      </trkpt>
      <trkpt lat="53.86592511" lon="-121.24514151">
      </trkpt>
      <trkpt lat="53.86591724" lon="-121.24521789">
      </trkpt>
      <trkpt lat="53.86591835" lon="-121.24529388">
      </trkpt>
      <trkpt lat="53.86591946" lon="-121.24536988">
      </trkpt>
      <trkpt lat="53.86591181" lon="-121.24546145">
      </trkpt>
      <trkpt lat="53.86591292" lon="-121.24553745">
      </trkpt>
      <trkpt lat="53.86591403" lon="-121.24561345">
      </trkpt>
      <trkpt lat="53.86591537" lon="-121.24570465">
      </trkpt>
      <trkpt lat="53.86592546" lon="-121.24578027">
      </trkpt>
      <trkpt lat="53.86593578" lon="-121.2458711">
      </trkpt>
      <trkpt lat="53.86595485" lon="-121.24594634">
      </trkpt>
      <trkpt lat="53.86596495" lon="-121.24602196">
      </trkpt>
      <trkpt lat="53.86600311" lon="-121.24617245">
      </trkpt>
      <trkpt lat="53.8660406" lon="-121.24627735">
      </trkpt>
      <trkpt lat="53.86607831" lon="-121.24639745">
      </trkpt>
      <trkpt lat="53.86610749" lon="-121.24654831">
      </trkpt>
      <trkpt lat="53.8661086" lon="-121.24662432">
      </trkpt>
      <trkpt lat="53.86612856" lon="-121.24676036">
      </trkpt>
      <trkpt lat="53.86615707" lon="-121.24686562">
      </trkpt>
      <trkpt lat="53.86622063" lon="-121.2469086">
      </trkpt>
      <trkpt lat="53.86626465" lon="-121.24684592">
      </trkpt>
      <trkpt lat="53.86629904" lon="-121.24673802">
      </trkpt>
      <trkpt lat="53.86631545" lon="-121.24663087">
      </trkpt>
      <trkpt lat="53.86631367" lon="-121.24650926">
      </trkpt>
      <trkpt lat="53.86632088" lon="-121.2463873">
      </trkpt>
      <trkpt lat="53.86632831" lon="-121.24628052">
      </trkpt>
      <trkpt lat="53.86633596" lon="-121.24618895">
      </trkpt>
      <trkpt lat="53.86635237" lon="-121.24608179">
      </trkpt>
      <trkpt lat="53.86636834" lon="-121.24594425">
      </trkpt>
      <trkpt lat="53.86639352" lon="-121.24582152">
      </trkpt>
      <trkpt lat="53.86642812" lon="-121.24572881">
      </trkpt>
      <trkpt lat="53.86647215" lon="-121.24566614">
      </trkpt>
      <trkpt lat="53.86653415" lon="-121.2456027">
      </trkpt>
      <trkpt lat="53.86657862" lon="-121.24557042">
      </trkpt>
      <trkpt lat="53.86664084" lon="-121.24552219">
      </trkpt>
      <trkpt lat="53.86670284" lon="-121.24545876">
      </trkpt>
      <trkpt lat="53.86676483" lon="-121.24539533">
      </trkpt>
      <trkpt lat="53.86682683" lon="-121.24533189">
      </trkpt>
      <trkpt lat="53.86687962" lon="-121.24525364">
      </trkpt>
      <trkpt lat="53.86690503" lon="-121.24514611">
      </trkpt>
      <trkpt lat="53.86692121" lon="-121.24502375">
      </trkpt>
      <trkpt lat="53.86692842" lon="-121.24490179">
      </trkpt>
      <trkpt lat="53.86693495" lon="-121.2447342">
      </trkpt>
      <trkpt lat="53.86693384" lon="-121.24465821">
      </trkpt>
      <trkpt lat="53.86693273" lon="-121.24458221">
      </trkpt>
      <trkpt lat="53.86693139" lon="-121.24449101">
      </trkpt>
      <trkpt lat="53.86692108" lon="-121.24440018">
      </trkpt>
      <trkpt lat="53.86691076" lon="-121.24430935">
      </trkpt>
      <trkpt lat="53.86690942" lon="-121.24421815">
      </trkpt>
      <trkpt lat="53.8669081" lon="-121.24412695">
      </trkpt>
      <trkpt lat="53.86690676" lon="-121.24403575">
      </trkpt>
      <trkpt lat="53.86690543" lon="-121.24394456">
      </trkpt>
      <trkpt lat="53.86689511" lon="-121.24385373">
      </trkpt>
      <trkpt lat="53.866894" lon="-121.24377774">
      </trkpt>
      <trkpt lat="53.86688368" lon="-121.24368691">
      </trkpt>
      <trkpt lat="53.86688256" lon="-121.24361091">
      </trkpt>
      <trkpt lat="53.86688123" lon="-121.24351971">
      </trkpt>
      <trkpt lat="53.86687112" lon="-121.24344409">
      </trkpt>
      <trkpt lat="53.86687811" lon="-121.24330691">
      </trkpt>
      <trkpt lat="53.86691227" lon="-121.2431838">
      </trkpt>
      <trkpt lat="53.86697426" lon="-121.24312037">
      </trkpt>
      <trkpt lat="53.86703715" lon="-121.24311773">
      </trkpt>
      <trkpt lat="53.86709194" lon="-121.24317626">
      </trkpt>
      <trkpt lat="53.86712045" lon="-121.24328154">
      </trkpt>
      <trkpt lat="53.86715817" lon="-121.24340164">
      </trkpt>
      <trkpt lat="53.86719611" lon="-121.24353694">
      </trkpt>
      <trkpt lat="53.86724258" lon="-121.24364146">
      </trkpt>
      <trkpt lat="53.86727176" lon="-121.24379232">
      </trkpt>
      <trkpt lat="53.86728185" lon="-121.24386795">
      </trkpt>
      <trkpt lat="53.86729195" lon="-121.24394357">
      </trkpt>
      <trkpt lat="53.86729328" lon="-121.24403477">
      </trkpt>
      <trkpt lat="53.86730339" lon="-121.2441104">
      </trkpt>
      <trkpt lat="53.86733234" lon="-121.24424607">
      </trkpt>
      <trkpt lat="53.86737027" lon="-121.24438137">
      </trkpt>
      <trkpt lat="53.86741719" lon="-121.24451629">
      </trkpt>
      <trkpt lat="53.86745535" lon="-121.24466678">
      </trkpt>
      <trkpt lat="53.86751126" lon="-121.24480133">
      </trkpt>
      <trkpt lat="53.86755818" lon="-121.24493625">
      </trkpt>
      <trkpt lat="53.86760488" lon="-121.24505597">
      </trkpt>
      <trkpt lat="53.86765158" lon="-121.2451757">
      </trkpt>
      <trkpt lat="53.86769827" lon="-121.24529541">
      </trkpt>
      <trkpt lat="53.86775418" lon="-121.24542996">
      </trkpt>
      <trkpt lat="53.86780986" lon="-121.2455493">
      </trkpt>
      <trkpt lat="53.86785678" lon="-121.24568424">
      </trkpt>
      <trkpt lat="53.8679037" lon="-121.24581915">
      </trkpt>
      <trkpt lat="53.86794119" lon="-121.24592405">
      </trkpt>
      <trkpt lat="53.86800563" lon="-121.24602783">
      </trkpt>
      <trkpt lat="53.86804268" lon="-121.24610233">
      </trkpt>
      <trkpt lat="53.86809814" lon="-121.24620647">
      </trkpt>
      <trkpt lat="53.86816191" lon="-121.24626465">
      </trkpt>
      <trkpt lat="53.86823468" lon="-121.24632244">
      </trkpt>
      <trkpt lat="53.86829911" lon="-121.24642621">
      </trkpt>
      <trkpt lat="53.86831908" lon="-121.24656226">
      </trkpt>
      <trkpt lat="53.86831209" lon="-121.24669944">
      </trkpt>
      <trkpt lat="53.86831343" lon="-121.24679064">
      </trkpt>
      <trkpt lat="53.86831476" lon="-121.24688185">
      </trkpt>
      <trkpt lat="53.86830711" lon="-121.24697344">
      </trkpt>
      <trkpt lat="53.86831743" lon="-121.24706425">
      </trkpt>
      <trkpt lat="53.8683365" lon="-121.24713951">
      </trkpt>
      <trkpt lat="53.86838209" lon="-121.24718323">
      </trkpt>
      <trkpt lat="53.86844453" lon="-121.24715021">
      </trkpt>
      <trkpt lat="53.8685245" lon="-121.24708602">
      </trkpt>
      <trkpt lat="53.86860447" lon="-121.24702183">
      </trkpt>
      <trkpt lat="53.86866624" lon="-121.2469432">
      </trkpt>
      <trkpt lat="53.86870085" lon="-121.2468505">
      </trkpt>
      <trkpt lat="53.86873567" lon="-121.24677299">
      </trkpt>
      <trkpt lat="53.8687523" lon="-121.24668102">
      </trkpt>
      <trkpt lat="53.86876894" lon="-121.24658908">
      </trkpt>
      <trkpt lat="53.8687766" lon="-121.24649749">
      </trkpt>
      <trkpt lat="53.86879346" lon="-121.24642073">
      </trkpt>
      <trkpt lat="53.86881907" lon="-121.24632841">
      </trkpt>
      <trkpt lat="53.86884469" lon="-121.24623608">
      </trkpt>
      <trkpt lat="53.86884424" lon="-121.24620567">
      </trkpt>
      <trkpt lat="53.86885189" lon="-121.24611409">
      </trkpt>
      <trkpt lat="53.86888672" lon="-121.24603658">
      </trkpt>
      <trkpt lat="53.86894849" lon="-121.24595795">
      </trkpt>
      <trkpt lat="53.86901049" lon="-121.24589452">
      </trkpt>
      <trkpt lat="53.86907249" lon="-121.24583108">
      </trkpt>
      <trkpt lat="53.86912551" lon="-121.24576801">
      </trkpt>
      <trkpt lat="53.86918795" lon="-121.24573499">
      </trkpt>
      <trkpt lat="53.86925938" lon="-121.24570158">
      </trkpt>
      <trkpt lat="53.86932204" lon="-121.24568374">
      </trkpt>
      <trkpt lat="53.86938449" lon="-121.2456507">
      </trkpt>
      <trkpt lat="53.86942941" lon="-121.24564883">
      </trkpt>
      <trkpt lat="53.86948242" lon="-121.24558577">
      </trkpt>
      <trkpt lat="53.86953565" lon="-121.24553791">
      </trkpt>
      <trkpt lat="53.86958867" lon="-121.24547484">
      </trkpt>
      <trkpt lat="53.86963248" lon="-121.24539696">
      </trkpt>
      <trkpt lat="53.86968549" lon="-121.2453339">
      </trkpt>
      <trkpt lat="53.86975648" lon="-121.24527009">
      </trkpt>
      <trkpt lat="53.86982746" lon="-121.24520627">
      </trkpt>
      <trkpt lat="53.86989844" lon="-121.24514246">
      </trkpt>
      <trkpt lat="53.8699611" lon="-121.24512463">
      </trkpt>
      <trkpt lat="53.87003297" lon="-121.24512161">
      </trkpt>
      <trkpt lat="53.87008755" lon="-121.24516496">
      </trkpt>
      <trkpt lat="53.87015177" lon="-121.24525354">
      </trkpt>
      <trkpt lat="53.87021576" lon="-121.24532691">
      </trkpt>
      <trkpt lat="53.87029729" lon="-121.24536913">
      </trkpt>
      <trkpt lat="53.87037004" lon="-121.24542692">
      </trkpt>
      <trkpt lat="53.87044281" lon="-121.24548472">
      </trkpt>
      <trkpt lat="53.87048861" lon="-121.24554365">
      </trkpt>
      <trkpt lat="53.87054407" lon="-121.2456478">
      </trkpt>
      <trkpt lat="53.87060852" lon="-121.24575158">
      </trkpt>
      <trkpt lat="53.87067318" lon="-121.24587056">
      </trkpt>
      <trkpt lat="53.87073763" lon="-121.24597433">
      </trkpt>
      <trkpt lat="53.87081105" lon="-121.24607773">
      </trkpt>
      <trkpt lat="53.87088403" lon="-121.24615074">
      </trkpt>
      <trkpt lat="53.870966" lon="-121.24622336">
      </trkpt>
      <trkpt lat="53.87103022" lon="-121.24631194">
      </trkpt>
      <trkpt lat="53.87109466" lon="-121.24641572">
      </trkpt>
      <trkpt lat="53.8711591" lon="-121.24651949">
      </trkpt>
      <trkpt lat="53.87121479" lon="-121.24663886">
      </trkpt>
      <trkpt lat="53.87127047" lon="-121.24675821">
      </trkpt>
      <trkpt lat="53.87133469" lon="-121.2468468">
      </trkpt>
      <trkpt lat="53.87139846" lon="-121.24690497">
      </trkpt>
      <trkpt lat="53.87145281" lon="-121.24693311">
      </trkpt>
      <trkpt lat="53.87149795" lon="-121.24694643">
      </trkpt>
      <trkpt lat="53.87154309" lon="-121.24695976">
      </trkpt>
      <trkpt lat="53.87160598" lon="-121.24695713">
      </trkpt>
      <trkpt lat="53.87166843" lon="-121.24692409">
      </trkpt>
      <trkpt lat="53.871721" lon="-121.24683064">
      </trkpt>
      <trkpt lat="53.87176413" lon="-121.24670714">
      </trkpt>
      <trkpt lat="53.87177112" lon="-121.24656994">
      </trkpt>
      <trkpt lat="53.87176934" lon="-121.24644833">
      </trkpt>
      <trkpt lat="53.87177678" lon="-121.24634154">
      </trkpt>
      <trkpt lat="53.87177499" lon="-121.24621993">
      </trkpt>
      <trkpt lat="53.871773" lon="-121.24608311">
      </trkpt>
      <trkpt lat="53.87177122" lon="-121.2459615">
      </trkpt>
      <trkpt lat="53.87177887" lon="-121.2458699">
      </trkpt>
      <trkpt lat="53.87180449" lon="-121.24577758">
      </trkpt>
      <trkpt lat="53.87185772" lon="-121.24572972">
      </trkpt>
      <trkpt lat="53.87190108" lon="-121.24562141">
      </trkpt>
      <trkpt lat="53.87195365" lon="-121.24552794">
      </trkpt>
      <trkpt lat="53.87201632" lon="-121.24551011">
      </trkpt>
      <trkpt lat="53.8720974" lon="-121.24552193">
      </trkpt>
      <trkpt lat="53.87214277" lon="-121.24555046">
      </trkpt>
      <trkpt lat="53.87219823" lon="-121.24565461">
      </trkpt>
      <trkpt lat="53.87222629" lon="-121.2457295">
      </trkpt>
      <trkpt lat="53.8722548" lon="-121.24583477">
      </trkpt>
      <trkpt lat="53.87228352" lon="-121.24595527">
      </trkpt>
      <trkpt lat="53.87230327" lon="-121.24607613">
      </trkpt>
      <trkpt lat="53.87232323" lon="-121.24621219">
      </trkpt>
      <trkpt lat="53.87236117" lon="-121.24634751">
      </trkpt>
      <trkpt lat="53.87239012" lon="-121.2464832">
      </trkpt>
      <trkpt lat="53.87238292" lon="-121.2466052">
      </trkpt>
      <trkpt lat="53.87234875" lon="-121.24672831">
      </trkpt>
      <trkpt lat="53.87235076" lon="-121.24686513">
      </trkpt>
      <trkpt lat="53.87237948" lon="-121.24698562">
      </trkpt>
      <trkpt lat="53.87243516" lon="-121.24710499">
      </trkpt>
      <trkpt lat="53.87248208" lon="-121.24723992">
      </trkpt>
      <trkpt lat="53.87251979" lon="-121.24736004">
      </trkpt>
      <trkpt lat="53.87257547" lon="-121.2474794">
      </trkpt>
      <trkpt lat="53.87263925" lon="-121.24753757">
      </trkpt>
      <trkpt lat="53.87269404" lon="-121.24759613">
      </trkpt>
      <trkpt lat="53.87274905" lon="-121.24766988">
      </trkpt>
      <trkpt lat="53.87279509" lon="-121.24774402">
      </trkpt>
      <trkpt lat="53.87284987" lon="-121.24780258">
      </trkpt>
      <trkpt lat="53.87292219" lon="-121.24782997">
      </trkpt>
      <trkpt lat="53.87298485" lon="-121.24781214">
      </trkpt>
      <trkpt lat="53.87303832" lon="-121.24777948">
      </trkpt>
      <trkpt lat="53.87310032" lon="-121.24771604">
      </trkpt>
      <trkpt lat="53.87316253" lon="-121.24766781">
      </trkpt>
      <trkpt lat="53.8732252" lon="-121.24764998">
      </trkpt>
      <trkpt lat="53.87329707" lon="-121.24764697">
      </trkpt>
      <trkpt lat="53.87337904" lon="-121.24771961">
      </trkpt>
      <trkpt lat="53.87344325" lon="-121.24780819">
      </trkpt>
      <trkpt lat="53.87348907" lon="-121.24786712">
      </trkpt>
      <trkpt lat="53.87355328" lon="-121.24795571">
      </trkpt>
      <trkpt lat="53.87359909" lon="-121.24801464">
      </trkpt>
      <trkpt lat="53.87366287" lon="-121.24807282">
      </trkpt>
      <trkpt lat="53.87373562" lon="-121.24813062">
      </trkpt>
      <trkpt lat="53.8738086" lon="-121.24820364">
      </trkpt>
      <trkpt lat="53.87386384" lon="-121.2482926">
      </trkpt>
      <trkpt lat="53.87392828" lon="-121.24839638">
      </trkpt>
      <trkpt lat="53.87400192" lon="-121.24851501">
      </trkpt>
      <trkpt lat="53.87407535" lon="-121.24861842">
      </trkpt>
      <trkpt lat="53.87414877" lon="-121.24872184">
      </trkpt>
      <trkpt lat="53.87419547" lon="-121.24884157">
      </trkpt>
      <trkpt lat="53.87423296" lon="-121.24894649">
      </trkpt>
      <trkpt lat="53.87426168" lon="-121.24906699">
      </trkpt>
      <trkpt lat="53.87429108" lon="-121.24923309">
      </trkpt>
      <trkpt lat="53.87430117" lon="-121.24930873">
      </trkpt>
      <trkpt lat="53.87432047" lon="-121.24939919">
      </trkpt>
      <trkpt lat="53.87433056" lon="-121.24947483">
      </trkpt>
      <trkpt lat="53.87434964" lon="-121.2495501">
      </trkpt>
      <trkpt lat="53.87435995" lon="-121.24964093">
      </trkpt>
      <trkpt lat="53.87437903" lon="-121.2497162">
      </trkpt>
      <trkpt lat="53.87438912" lon="-121.24979184">
      </trkpt>
      <trkpt lat="53.87441829" lon="-121.24994275">
      </trkpt>
      <trkpt lat="53.87443825" lon="-121.25007882">
      </trkpt>
      <trkpt lat="53.87447619" lon="-121.25021414">
      </trkpt>
      <trkpt lat="53.87451434" lon="-121.25036468">
      </trkpt>
      <trkpt lat="53.8745343" lon="-121.25050075">
      </trkpt>
      <trkpt lat="53.87455426" lon="-121.25063682">
      </trkpt>
      <trkpt lat="53.87458299" lon="-121.25075731">
      </trkpt>
      <trkpt lat="53.87462946" lon="-121.25086186">
      </trkpt>
      <trkpt lat="53.87469456" lon="-121.25101127">
      </trkpt>
      <trkpt lat="53.87475002" lon="-121.25111543">
      </trkpt>
      <trkpt lat="53.87480525" lon="-121.2512044">
      </trkpt>
      <trkpt lat="53.87486946" lon="-121.251293">
      </trkpt>
      <trkpt lat="53.8749247" lon="-121.25138197">
      </trkpt>
      <trkpt lat="53.87496241" lon="-121.2515021">
      </trkpt>
      <trkpt lat="53.87500888" lon="-121.25160664">
      </trkpt>
      <trkpt lat="53.87505535" lon="-121.25171119">
      </trkpt>
      <trkpt lat="53.8751016" lon="-121.25180053">
      </trkpt>
      <trkpt lat="53.8751428" lon="-121.25192822">
      </trkpt>
      <trkpt lat="53.87515882" lon="-121.25202633">
      </trkpt>
      <trkpt lat="53.87518777" lon="-121.25216203">
      </trkpt>
      <trkpt lat="53.87522547" lon="-121.25228216">
      </trkpt>
      <trkpt lat="53.8752634" lon="-121.25241748">
      </trkpt>
      <trkpt lat="53.87530133" lon="-121.25255282">
      </trkpt>
      <trkpt lat="53.87533926" lon="-121.25268815">
      </trkpt>
      <trkpt lat="53.87536798" lon="-121.25280865">
      </trkpt>
      <trkpt lat="53.87540524" lon="-121.25289836">
      </trkpt>
      <trkpt lat="53.87544251" lon="-121.25298809">
      </trkpt>
      <trkpt lat="53.87546158" lon="-121.25306336">
      </trkpt>
      <trkpt lat="53.87548065" lon="-121.25313862">
      </trkpt>
      <trkpt lat="53.87549995" lon="-121.2532291">
      </trkpt>
      <trkpt lat="53.87552845" lon="-121.25333439">
      </trkpt>
      <trkpt lat="53.87557492" lon="-121.25343894">
      </trkpt>
      <trkpt lat="53.87561241" lon="-121.25354386">
      </trkpt>
      <trkpt lat="53.87568583" lon="-121.25364729">
      </trkpt>
      <trkpt lat="53.87572331" lon="-121.25375223">
      </trkpt>
      <trkpt lat="53.87577877" lon="-121.25385639">
      </trkpt>
      <trkpt lat="53.87583443" lon="-121.25397578">
      </trkpt>
      <trkpt lat="53.87588112" lon="-121.25409553">
      </trkpt>
      <trkpt lat="53.87594556" lon="-121.25419934">
      </trkpt>
      <trkpt lat="53.87601" lon="-121.25430314">
      </trkpt>
      <trkpt lat="53.87606523" lon="-121.25439212">
      </trkpt>
      <trkpt lat="53.87611147" lon="-121.25448146">
      </trkpt>
      <trkpt lat="53.8761402" lon="-121.25460197">
      </trkpt>
      <trkpt lat="53.8761687" lon="-121.25470727">
      </trkpt>
      <trkpt lat="53.87621516" lon="-121.25481183">
      </trkpt>
      <trkpt lat="53.87625286" lon="-121.25493196">
      </trkpt>
      <trkpt lat="53.87629057" lon="-121.25505209">
      </trkpt>
      <trkpt lat="53.87631907" lon="-121.25515738">
      </trkpt>
      <trkpt lat="53.87634757" lon="-121.25526269">
      </trkpt>
      <trkpt lat="53.87638506" lon="-121.25536762">
      </trkpt>
      <trkpt lat="53.87643108" lon="-121.25544177">
      </trkpt>
      <trkpt lat="53.87647755" lon="-121.25554633">
      </trkpt>
      <trkpt lat="53.87652379" lon="-121.25563567">
      </trkpt>
      <trkpt lat="53.87659721" lon="-121.25573911">
      </trkpt>
      <trkpt lat="53.87666142" lon="-121.25582772">
      </trkpt>
      <trkpt lat="53.87671687" lon="-121.25593189">
      </trkpt>
      <trkpt lat="53.8767721" lon="-121.25602087">
      </trkpt>
      <trkpt lat="53.87682755" lon="-121.25612506">
      </trkpt>
      <trkpt lat="53.8768738" lon="-121.25621441">
      </trkpt>
      <trkpt lat="53.87691083" lon="-121.25628893">
      </trkpt>
      <trkpt lat="53.87695708" lon="-121.25637828">
      </trkpt>
      <trkpt lat="53.87700332" lon="-121.25646764">
      </trkpt>
      <trkpt lat="53.87704037" lon="-121.25654217">
      </trkpt>
      <trkpt lat="53.87709515" lon="-121.25660073">
      </trkpt>
      <trkpt lat="53.87715936" lon="-121.25668934">
      </trkpt>
      <trkpt lat="53.87722336" lon="-121.25676274">
      </trkpt>
      <trkpt lat="53.87728757" lon="-121.25685136">
      </trkpt>
      <trkpt lat="53.87735179" lon="-121.25693995">
      </trkpt>
      <trkpt lat="53.87742476" lon="-121.25701299">
      </trkpt>
      <trkpt lat="53.87749707" lon="-121.25704041">
      </trkpt>
      <trkpt lat="53.87757793" lon="-121.25703705">
      </trkpt>
      <trkpt lat="53.87762284" lon="-121.25703518">
      </trkpt>
      <trkpt lat="53.87766776" lon="-121.2570333">
      </trkpt>
      <trkpt lat="53.87772145" lon="-121.25701587">
      </trkpt>
      <trkpt lat="53.87777491" lon="-121.25698321">
      </trkpt>
      <trkpt lat="53.87781939" lon="-121.25695093">
      </trkpt>
      <trkpt lat="53.87789959" lon="-121.25690195">
      </trkpt>
      <trkpt lat="53.8779526" lon="-121.2568389">
      </trkpt>
      <trkpt lat="53.87803169" lon="-121.25671389">
      </trkpt>
      <trkpt lat="53.87808494" lon="-121.25666604">
      </trkpt>
      <trkpt lat="53.87814672" lon="-121.25658741">
      </trkpt>
      <trkpt lat="53.87820828" lon="-121.25649357">
      </trkpt>
      <trkpt lat="53.87824289" lon="-121.25640084">
      </trkpt>
      <trkpt lat="53.87829569" lon="-121.25632258">
      </trkpt>
      <trkpt lat="53.87835857" lon="-121.25631997">
      </trkpt>
      <trkpt lat="53.87840483" lon="-121.25640932">
      </trkpt>
      <trkpt lat="53.8784423" lon="-121.25651425">
      </trkpt>
      <trkpt lat="53.87848" lon="-121.25663439">
      </trkpt>
      <trkpt lat="53.87851749" lon="-121.25673932">
      </trkpt>
      <trkpt lat="53.87854576" lon="-121.25682943">
      </trkpt>
      <trkpt lat="53.87859223" lon="-121.25693399">
      </trkpt>
      <trkpt lat="53.8786387" lon="-121.25703855">
      </trkpt>
      <trkpt lat="53.87867596" lon="-121.25712829">
      </trkpt>
      <trkpt lat="53.87869547" lon="-121.25723397">
      </trkpt>
      <trkpt lat="53.8787152" lon="-121.25735485">
      </trkpt>
      <trkpt lat="53.87875268" lon="-121.2574598">
      </trkpt>
      <trkpt lat="53.87879016" lon="-121.25756473">
      </trkpt>
      <trkpt lat="53.87883641" lon="-121.25765409">
      </trkpt>
      <trkpt lat="53.87888287" lon="-121.25775865">
      </trkpt>
      <trkpt lat="53.87892912" lon="-121.25784802">
      </trkpt>
      <trkpt lat="53.87895784" lon="-121.25796853">
      </trkpt>
      <trkpt lat="53.87899532" lon="-121.25807346">
      </trkpt>
      <trkpt lat="53.8790328" lon="-121.2581784">
      </trkpt>
      <trkpt lat="53.87907028" lon="-121.25828335">
      </trkpt>
      <trkpt lat="53.87909877" lon="-121.25838865">
      </trkpt>
      <trkpt lat="53.87913604" lon="-121.25847839">
      </trkpt>
      <trkpt lat="53.8791825" lon="-121.25858295">
      </trkpt>
      <trkpt lat="53.8792261" lon="-121.25848985">
      </trkpt>
      <trkpt lat="53.87921557" lon="-121.2583838">
      </trkpt>
      <trkpt lat="53.8792138" lon="-121.25826217">
      </trkpt>
      <trkpt lat="53.87920261" lon="-121.25811048">
      </trkpt>
      <trkpt lat="53.87920041" lon="-121.25795845">
      </trkpt>
      <trkpt lat="53.8791993" lon="-121.25788243">
      </trkpt>
      <trkpt lat="53.87919819" lon="-121.25780639">
      </trkpt>
      <trkpt lat="53.87919599" lon="-121.25765436">
      </trkpt>
      <trkpt lat="53.87919488" lon="-121.25757832">
      </trkpt>
      <trkpt lat="53.87919378" lon="-121.2575023">
      </trkpt>
      <trkpt lat="53.87920144" lon="-121.25741071">
      </trkpt>
      <trkpt lat="53.87920034" lon="-121.25733467">
      </trkpt>
      <trkpt lat="53.87919813" lon="-121.25718264">
      </trkpt>
      <trkpt lat="53.87919592" lon="-121.25703058">
      </trkpt>
      <trkpt lat="53.87919371" lon="-121.25687855">
      </trkpt>
      <trkpt lat="53.87920071" lon="-121.25674132">
      </trkpt>
      <trkpt lat="53.87921669" lon="-121.25660374">
      </trkpt>
      <trkpt lat="53.87924188" lon="-121.25648099">
      </trkpt>
      <trkpt lat="53.87926728" lon="-121.25637343">
      </trkpt>
      <trkpt lat="53.87928392" lon="-121.25628145">
      </trkpt>
      <trkpt lat="53.8792918" lon="-121.25620506">
      </trkpt>
      <trkpt lat="53.87933539" lon="-121.25611196">
      </trkpt>
      <trkpt lat="53.87938053" lon="-121.25612529">
      </trkpt>
      <trkpt lat="53.87943576" lon="-121.25621428">
      </trkpt>
      <trkpt lat="53.87946426" lon="-121.25631959">
      </trkpt>
      <trkpt lat="53.87949298" lon="-121.2564401">
      </trkpt>
      <trkpt lat="53.87953967" lon="-121.25655988">
      </trkpt>
      <trkpt lat="53.87958614" lon="-121.25666444">
      </trkpt>
      <trkpt lat="53.8796326" lon="-121.25676899">
      </trkpt>
      <trkpt lat="53.8796703" lon="-121.25688914">
      </trkpt>
      <trkpt lat="53.87970778" lon="-121.25699409">
      </trkpt>
      <trkpt lat="53.87973628" lon="-121.25709939">
      </trkpt>
      <trkpt lat="53.87976478" lon="-121.25720471">
      </trkpt>
      <trkpt lat="53.87978385" lon="-121.25727999">
      </trkpt>
      <trkpt lat="53.87981191" lon="-121.25735489">
      </trkpt>
      <trkpt lat="53.87984916" lon="-121.25744461">
      </trkpt>
      <trkpt lat="53.87989541" lon="-121.25753398">
      </trkpt>
      <trkpt lat="53.87994165" lon="-121.25762334">
      </trkpt>
      <trkpt lat="53.87999667" lon="-121.25769712">
      </trkpt>
      <trkpt lat="53.88004291" lon="-121.25778649">
      </trkpt>
      <trkpt lat="53.88008017" lon="-121.25787622">
      </trkpt>
      <trkpt lat="53.88010867" lon="-121.25798154">
      </trkpt>
      <trkpt lat="53.88016412" lon="-121.25808572">
      </trkpt>
      <trkpt lat="53.88021058" lon="-121.25819029">
      </trkpt>
      <trkpt lat="53.88024828" lon="-121.25831044">
      </trkpt>
      <trkpt lat="53.88028598" lon="-121.25843058">
      </trkpt>
      <trkpt lat="53.88033222" lon="-121.25851996">
      </trkpt>
      <trkpt lat="53.88038767" lon="-121.25862414">
      </trkpt>
      <trkpt lat="53.88043436" lon="-121.25874392">
      </trkpt>
      <trkpt lat="53.88047206" lon="-121.25886407">
      </trkpt>
      <trkpt lat="53.88050953" lon="-121.25896901">
      </trkpt>
      <trkpt lat="53.88055578" lon="-121.25905837">
      </trkpt>
      <trkpt lat="53.88061977" lon="-121.25913178">
      </trkpt>
      <trkpt lat="53.88068332" lon="-121.25917479">
      </trkpt>
      <trkpt lat="53.88074731" lon="-121.2592482">
      </trkpt>
      <trkpt lat="53.88080232" lon="-121.25932198">
      </trkpt>
      <trkpt lat="53.8808663" lon="-121.2593954">
      </trkpt>
      <trkpt lat="53.8809303" lon="-121.25946881">
      </trkpt>
      <trkpt lat="53.88097699" lon="-121.25958859">
      </trkpt>
      <trkpt lat="53.8810057" lon="-121.25970911">
      </trkpt>
      <trkpt lat="53.88100746" lon="-121.25983075">
      </trkpt>
      <trkpt lat="53.88100901" lon="-121.25993719">
      </trkpt>
      <trkpt lat="53.88102851" lon="-121.26004288">
      </trkpt>
      <trkpt lat="53.88107498" lon="-121.26014746">
      </trkpt>
      <trkpt lat="53.88113021" lon="-121.26023645">
      </trkpt>
      <trkpt lat="53.88120296" lon="-121.26029429">
      </trkpt>
      <trkpt lat="53.88126673" lon="-121.26035249">
      </trkpt>
      <trkpt lat="53.88133072" lon="-121.26042591">
      </trkpt>
      <trkpt lat="53.88138616" lon="-121.2605301">
      </trkpt>
      <trkpt lat="53.88142387" lon="-121.26065025">
      </trkpt>
      <trkpt lat="53.88147054" lon="-121.26077004">
      </trkpt>
      <trkpt lat="53.88151723" lon="-121.26088982">
      </trkpt>
      <trkpt lat="53.88154617" lon="-121.26102554">
      </trkpt>
      <trkpt lat="53.88155713" lon="-121.26116202">
      </trkpt>
      <trkpt lat="53.88158585" lon="-121.26128254">
      </trkpt>
      <trkpt lat="53.88161455" lon="-121.26140308">
      </trkpt>
      <trkpt lat="53.8816516" lon="-121.26147761">
      </trkpt>
      <trkpt lat="53.88170704" lon="-121.26158181">
      </trkpt>
      <trkpt lat="53.88175372" lon="-121.26170159">
      </trkpt>
      <trkpt lat="53.88176469" lon="-121.26183806">
      </trkpt>
      <trkpt lat="53.88179362" lon="-121.26197379">
      </trkpt>
      <trkpt lat="53.88180437" lon="-121.26209507">
      </trkpt>
      <trkpt lat="53.88184185" lon="-121.26220003">
      </trkpt>
      <trkpt lat="53.88190605" lon="-121.26228864">
      </trkpt>
      <trkpt lat="53.88197924" lon="-121.26237689">
      </trkpt>
      <trkpt lat="53.88202615" lon="-121.26251189">
      </trkpt>
      <trkpt lat="53.88207305" lon="-121.26264687">
      </trkpt>
      <trkpt lat="53.88209233" lon="-121.26273736">
      </trkpt>
      <trkpt lat="53.88211229" lon="-121.26287346">
      </trkpt>
      <trkpt lat="53.88213223" lon="-121.26300958">
      </trkpt>
      <trkpt lat="53.88215196" lon="-121.26313047">
      </trkpt>
      <trkpt lat="53.8821809" lon="-121.2632662">
      </trkpt>
      <trkpt lat="53.88222736" lon="-121.26337078">
      </trkpt>
      <trkpt lat="53.88226462" lon="-121.26346053">
      </trkpt>
      <trkpt lat="53.88231108" lon="-121.26356511">
      </trkpt>
      <trkpt lat="53.88236651" lon="-121.26366931">
      </trkpt>
      <trkpt lat="53.88241276" lon="-121.26375869">
      </trkpt>
      <trkpt lat="53.8824682" lon="-121.26386289">
      </trkpt>
      <trkpt lat="53.88253241" lon="-121.26395153">
      </trkpt>
      <trkpt lat="53.88256989" lon="-121.26405647">
      </trkpt>
      <trkpt lat="53.88260714" lon="-121.26414622">
      </trkpt>
      <trkpt lat="53.88267157" lon="-121.26425006">
      </trkpt>
      <trkpt lat="53.88273577" lon="-121.26433869">
      </trkpt>
      <trkpt lat="53.88279144" lon="-121.2644581">
      </trkpt>
      <trkpt lat="53.88282913" lon="-121.26457826">
      </trkpt>
      <trkpt lat="53.88283943" lon="-121.26466912">
      </trkpt>
      <trkpt lat="53.88283177" lon="-121.26476074">
      </trkpt>
      <trkpt lat="53.88284229" lon="-121.2648668">
      </trkpt>
      <trkpt lat="53.88285259" lon="-121.26495767">
      </trkpt>
      <trkpt lat="53.88288109" lon="-121.26506299">
      </trkpt>
      <trkpt lat="53.88291856" lon="-121.26516795">
      </trkpt>
      <trkpt lat="53.8829648" lon="-121.26525732">
      </trkpt>
      <trkpt lat="53.88302878" lon="-121.26533075">
      </trkpt>
      <trkpt lat="53.88308423" lon="-121.26543495">
      </trkpt>
      <trkpt lat="53.8831217" lon="-121.26553992">
      </trkpt>
      <trkpt lat="53.88315918" lon="-121.26564487">
      </trkpt>
      <trkpt lat="53.8832144" lon="-121.26573387">
      </trkpt>
      <trkpt lat="53.88327817" lon="-121.26579209">
      </trkpt>
      <trkpt lat="53.88334237" lon="-121.26588073">
      </trkpt>
      <trkpt lat="53.88338839" lon="-121.26595489">
      </trkpt>
      <trkpt lat="53.88343485" lon="-121.26605948">
      </trkpt>
      <trkpt lat="53.88348131" lon="-121.26616406">
      </trkpt>
      <trkpt lat="53.88352776" lon="-121.26626865">
      </trkpt>
      <trkpt lat="53.88356546" lon="-121.26638881">
      </trkpt>
      <trkpt lat="53.88359373" lon="-121.26647893">
      </trkpt>
      <trkpt lat="53.88363098" lon="-121.26656869">
      </trkpt>
      <trkpt lat="53.88365925" lon="-121.26665881">
      </trkpt>
      <trkpt lat="53.8836965" lon="-121.26674855">
      </trkpt>
      <trkpt lat="53.88371579" lon="-121.26683906">
      </trkpt>
      <trkpt lat="53.88374428" lon="-121.26694438">
      </trkpt>
      <trkpt lat="53.88378197" lon="-121.26706454">
      </trkpt>
      <trkpt lat="53.88381944" lon="-121.2671695">
      </trkpt>
      <trkpt lat="53.88386546" lon="-121.26724368">
      </trkpt>
      <trkpt lat="53.8839209" lon="-121.2673479">
      </trkpt>
      <trkpt lat="53.88396692" lon="-121.26742206">
      </trkpt>
      <trkpt lat="53.88400417" lon="-121.26751182">
      </trkpt>
      <trkpt lat="53.88407758" lon="-121.26761529">
      </trkpt>
      <trkpt lat="53.8841328" lon="-121.2677043">
      </trkpt>
      <trkpt lat="53.88418824" lon="-121.26780851">
      </trkpt>
      <trkpt lat="53.88422571" lon="-121.26791348">
      </trkpt>
      <trkpt lat="53.88425442" lon="-121.26803402">
      </trkpt>
      <trkpt lat="53.88430088" lon="-121.2681386">
      </trkpt>
      <trkpt lat="53.88434734" lon="-121.26824319">
      </trkpt>
      <trkpt lat="53.88440299" lon="-121.26836261">
      </trkpt>
      <trkpt lat="53.88445843" lon="-121.26846684">
      </trkpt>
      <trkpt lat="53.88451366" lon="-121.26855585">
      </trkpt>
      <trkpt lat="53.88456888" lon="-121.26864486">
      </trkpt>
      <trkpt lat="53.8846241" lon="-121.26873388">
      </trkpt>
      <trkpt lat="53.88467077" lon="-121.26885366">
      </trkpt>
      <trkpt lat="53.88469947" lon="-121.2689742">
      </trkpt>
      <trkpt lat="53.8847192" lon="-121.26909512">
      </trkpt>
      <trkpt lat="53.88474834" lon="-121.26924608">
      </trkpt>
      <trkpt lat="53.88476784" lon="-121.26935178">
      </trkpt>
      <trkpt lat="53.88477814" lon="-121.26944264">
      </trkpt>
      <trkpt lat="53.88477946" lon="-121.26953388">
      </trkpt>
      <trkpt lat="53.8847902" lon="-121.26965516">
      </trkpt>
      <trkpt lat="53.88482723" lon="-121.26972971">
      </trkpt>
      <trkpt lat="53.88488223" lon="-121.26980352">
      </trkpt>
      <trkpt lat="53.88492825" lon="-121.2698777">
      </trkpt>
      <trkpt lat="53.88498347" lon="-121.26996672">
      </trkpt>
      <trkpt lat="53.88502948" lon="-121.2700409">
      </trkpt>
      <trkpt lat="53.88508448" lon="-121.27011471">
      </trkpt>
      <trkpt lat="53.88513971" lon="-121.27020372">
      </trkpt>
      <trkpt lat="53.88516797" lon="-121.27029385">
      </trkpt>
      <trkpt lat="53.88520522" lon="-121.2703836">
      </trkpt>
      <trkpt lat="53.88525211" lon="-121.27051862">
      </trkpt>
      <trkpt lat="53.8852898" lon="-121.27063879">
      </trkpt>
      <trkpt lat="53.88533648" lon="-121.27075858">
      </trkpt>
      <trkpt lat="53.88538315" lon="-121.27087839">
      </trkpt>
      <trkpt lat="53.88542105" lon="-121.27101376">
      </trkpt>
      <trkpt lat="53.88546751" lon="-121.27111835">
      </trkpt>
      <trkpt lat="53.88553149" lon="-121.27119179">
      </trkpt>
      <trkpt lat="53.88559526" lon="-121.27125002">
      </trkpt>
      <trkpt lat="53.88566801" lon="-121.27130788">
      </trkpt>
      <trkpt lat="53.88574206" lon="-121.27145699">
      </trkpt>
      <trkpt lat="53.88577011" lon="-121.27153192">
      </trkpt>
      <trkpt lat="53.88581656" lon="-121.27163652">
      </trkpt>
      <trkpt lat="53.88586302" lon="-121.27174112">
      </trkpt>
      <trkpt lat="53.88590925" lon="-121.2718305">
      </trkpt>
      <trkpt lat="53.88595548" lon="-121.27191989">
      </trkpt>
      <trkpt lat="53.88600216" lon="-121.2720397">
      </trkpt>
      <trkpt lat="53.88604861" lon="-121.2721443">
      </trkpt>
      <trkpt lat="53.8860863" lon="-121.27226447">
      </trkpt>
      <trkpt lat="53.88613297" lon="-121.27238427">
      </trkpt>
      <trkpt lat="53.88615203" lon="-121.27245957">
      </trkpt>
      <trkpt lat="53.88617153" lon="-121.27256528">
      </trkpt>
      <trkpt lat="53.88619125" lon="-121.27268619">
      </trkpt>
      <trkpt lat="53.88622105" lon="-121.27288278">
      </trkpt>
      <trkpt lat="53.88624164" lon="-121.27306452">
      </trkpt>
      <trkpt lat="53.88627998" lon="-121.27323032">
      </trkpt>
      <trkpt lat="53.88629926" lon="-121.27332082">
      </trkpt>
      <trkpt lat="53.88632753" lon="-121.27341095">
      </trkpt>
      <trkpt lat="53.88636543" lon="-121.27354634">
      </trkpt>
      <trkpt lat="53.88639414" lon="-121.27366689">
      </trkpt>
      <trkpt lat="53.88642218" lon="-121.27374181">
      </trkpt>
      <trkpt lat="53.88644168" lon="-121.27384752">
      </trkpt>
      <trkpt lat="53.88646074" lon="-121.27392282">
      </trkpt>
      <trkpt lat="53.88648024" lon="-121.27402853">
      </trkpt>
      <trkpt lat="53.88650851" lon="-121.27411867">
      </trkpt>
      <trkpt lat="53.88654597" lon="-121.27422364">
      </trkpt>
      <trkpt lat="53.886583" lon="-121.27429819">
      </trkpt>
      <trkpt lat="53.886638" lon="-121.27437201">
      </trkpt>
      <trkpt lat="53.88667546" lon="-121.27447699">
      </trkpt>
      <trkpt lat="53.88670373" lon="-121.27456712">
      </trkpt>
      <trkpt lat="53.88675018" lon="-121.27467173">
      </trkpt>
      <trkpt lat="53.8868146" lon="-121.27477558">
      </trkpt>
      <trkpt lat="53.88687858" lon="-121.27484903">
      </trkpt>
      <trkpt lat="53.88696031" lon="-121.27490652">
      </trkpt>
      <trkpt lat="53.8870416" lon="-121.27493362">
      </trkpt>
      <trkpt lat="53.8871045" lon="-121.27493102">
      </trkpt>
      <trkpt lat="53.88718557" lon="-121.2749429">
      </trkpt>
      <trkpt lat="53.88727606" lon="-121.27498483">
      </trkpt>
      <trkpt lat="53.88735714" lon="-121.2749967">
      </trkpt>
      <trkpt lat="53.88744632" lon="-121.27494738">
      </trkpt>
      <trkpt lat="53.88751776" lon="-121.274914">
      </trkpt>
      <trkpt lat="53.88758941" lon="-121.27489584">
      </trkpt>
      <trkpt lat="53.88765208" lon="-121.27487804">
      </trkpt>
      <trkpt lat="53.88772373" lon="-121.27485987">
      </trkpt>
      <trkpt lat="53.88779561" lon="-121.2748569">
      </trkpt>
      <trkpt lat="53.88786748" lon="-121.27485395">
      </trkpt>
      <trkpt lat="53.8879216" lon="-121.27486693">
      </trkpt>
      <trkpt lat="53.88796674" lon="-121.27488029">
      </trkpt>
      <trkpt lat="53.88802963" lon="-121.2748777">
      </trkpt>
      <trkpt lat="53.88810128" lon="-121.27485954">
      </trkpt>
      <trkpt lat="53.88818148" lon="-121.27481059">
      </trkpt>
      <trkpt lat="53.88825248" lon="-121.27474678">
      </trkpt>
      <trkpt lat="53.88830551" lon="-121.27468374">
      </trkpt>
      <trkpt lat="53.88835854" lon="-121.27462068">
      </trkpt>
      <trkpt lat="53.88840236" lon="-121.27454279">
      </trkpt>
      <trkpt lat="53.88843634" lon="-121.27440444">
      </trkpt>
      <trkpt lat="53.88844357" lon="-121.2742824">
      </trkpt>
      <trkpt lat="53.88845978" lon="-121.27416">
      </trkpt>
      <trkpt lat="53.8885034" lon="-121.27406691">
      </trkpt>
      <trkpt lat="53.88854722" lon="-121.27398902">
      </trkpt>
      <trkpt lat="53.88860046" lon="-121.27394117">
      </trkpt>
      <trkpt lat="53.88865416" lon="-121.27392374">
      </trkpt>
      <trkpt lat="53.88869907" lon="-121.27392188">
      </trkpt>
      <trkpt lat="53.88876196" lon="-121.27391929">
      </trkpt>
      <trkpt lat="53.88884325" lon="-121.27394637">
      </trkpt>
      <trkpt lat="53.88890702" lon="-121.27400461">
      </trkpt>
      <trkpt lat="53.8889355" lon="-121.27410996">
      </trkpt>
      <trkpt lat="53.88895544" lon="-121.27424609">
      </trkpt>
      <trkpt lat="53.88896595" lon="-121.27435219">
      </trkpt>
      <trkpt lat="53.88895828" lon="-121.27444381">
      </trkpt>
      <trkpt lat="53.88895959" lon="-121.27453506">
      </trkpt>
      <trkpt lat="53.88896091" lon="-121.27462631">
      </trkpt>
      <trkpt lat="53.88898062" lon="-121.27474723">
      </trkpt>
      <trkpt lat="53.88901808" lon="-121.27485221">
      </trkpt>
      <trkpt lat="53.8890641" lon="-121.2749264">
      </trkpt>
      <trkpt lat="53.88911055" lon="-121.275031">
      </trkpt>
      <trkpt lat="53.88915678" lon="-121.2751204">
      </trkpt>
      <trkpt lat="53.88921244" lon="-121.27523986">
      </trkpt>
      <trkpt lat="53.88926743" lon="-121.27531368">
      </trkpt>
      <trkpt lat="53.88933119" lon="-121.27537192">
      </trkpt>
      <trkpt lat="53.88940394" lon="-121.27542979">
      </trkpt>
      <trkpt lat="53.88946814" lon="-121.27551846">
      </trkpt>
      <trkpt lat="53.88955009" lon="-121.27559117">
      </trkpt>
      <trkpt lat="53.88962305" lon="-121.27566426">
      </trkpt>
      <trkpt lat="53.88968747" lon="-121.27576812">
      </trkpt>
      <trkpt lat="53.88973392" lon="-121.27587274">
      </trkpt>
      <trkpt lat="53.88978979" lon="-121.27600739">
      </trkpt>
      <trkpt lat="53.88984544" lon="-121.27612684">
      </trkpt>
      <trkpt lat="53.88989211" lon="-121.27624667">
      </trkpt>
      <trkpt lat="53.88995609" lon="-121.27632012">
      </trkpt>
      <trkpt lat="53.89002905" lon="-121.2763932">
      </trkpt>
      <trkpt lat="53.89011122" lon="-121.27648113">
      </trkpt>
      <trkpt lat="53.89017542" lon="-121.2765698">
      </trkpt>
      <trkpt lat="53.89023085" lon="-121.27667403">
      </trkpt>
      <trkpt lat="53.89027751" lon="-121.27679386">
      </trkpt>
      <trkpt lat="53.89032418" lon="-121.27691367">
      </trkpt>
      <trkpt lat="53.89034346" lon="-121.2770042">
      </trkpt>
      <trkpt lat="53.89039035" lon="-121.27713922">
      </trkpt>
      <trkpt lat="53.89043745" lon="-121.27728946">
      </trkpt>
      <trkpt lat="53.89046702" lon="-121.27747086">
      </trkpt>
      <trkpt lat="53.89049572" lon="-121.27759142">
      </trkpt>
      <trkpt lat="53.890515" lon="-121.27768193">
      </trkpt>
      <trkpt lat="53.89053405" lon="-121.27775724">
      </trkpt>
      <trkpt lat="53.8905621" lon="-121.27783217">
      </trkpt>
      <trkpt lat="53.89058116" lon="-121.27790748">
      </trkpt>
      <trkpt lat="53.8906092" lon="-121.27798242">
      </trkpt>
      <trkpt lat="53.89066528" lon="-121.2781323">
      </trkpt>
      <trkpt lat="53.89072949" lon="-121.27822095">
      </trkpt>
      <trkpt lat="53.8907939" lon="-121.27832484">
      </trkpt>
      <trkpt lat="53.89084013" lon="-121.27841425">
      </trkpt>
      <trkpt lat="53.89090433" lon="-121.27850291">
      </trkpt>
      <trkpt lat="53.8909499" lon="-121.2785467">
      </trkpt>
      <trkpt lat="53.89100446" lon="-121.27859011">
      </trkpt>
      <trkpt lat="53.89106844" lon="-121.27866357">
      </trkpt>
      <trkpt lat="53.89111467" lon="-121.27875298">
      </trkpt>
      <trkpt lat="53.8911609" lon="-121.27884238">
      </trkpt>
      <trkpt lat="53.89120734" lon="-121.278947">
      </trkpt>
      <trkpt lat="53.89124481" lon="-121.27905198">
      </trkpt>
      <trkpt lat="53.89128227" lon="-121.27915698">
      </trkpt>
      <trkpt lat="53.89132872" lon="-121.2792616">
      </trkpt>
      <trkpt lat="53.89136618" lon="-121.27936658">
      </trkpt>
      <trkpt lat="53.89139466" lon="-121.27947193">
      </trkpt>
      <trkpt lat="53.89141436" lon="-121.27959287">
      </trkpt>
      <trkpt lat="53.89144328" lon="-121.27972865">
      </trkpt>
      <trkpt lat="53.89147176" lon="-121.27983401">
      </trkpt>
      <trkpt lat="53.89150002" lon="-121.27992416">
      </trkpt>
      <trkpt lat="53.89151031" lon="-121.28001504">
      </trkpt>
      <trkpt lat="53.8915114" lon="-121.2800911">
      </trkpt>
      <trkpt lat="53.89151293" lon="-121.28019755">
      </trkpt>
      <trkpt lat="53.89151402" lon="-121.28027359">
      </trkpt>
      <trkpt lat="53.89151575" lon="-121.28039528">
      </trkpt>
      <trkpt lat="53.89151772" lon="-121.28053216">
      </trkpt>
      <trkpt lat="53.89152888" lon="-121.28068388">
      </trkpt>
      <trkpt lat="53.89155736" lon="-121.28078924">
      </trkpt>
      <trkpt lat="53.89161214" lon="-121.28084786">
      </trkpt>
      <trkpt lat="53.89166495" lon="-121.28076961">
      </trkpt>
      <trkpt lat="53.89169936" lon="-121.28066166">
      </trkpt>
      <trkpt lat="53.8917158" lon="-121.28055447">
      </trkpt>
      <trkpt lat="53.89173225" lon="-121.28044725">
      </trkpt>
      <trkpt lat="53.89175767" lon="-121.28033969">
      </trkpt>
      <trkpt lat="53.89179186" lon="-121.28021654">
      </trkpt>
      <trkpt lat="53.89183504" lon="-121.28009301">
      </trkpt>
      <trkpt lat="53.89187822" lon="-121.2799695">
      </trkpt>
      <trkpt lat="53.89190408" lon="-121.27989235">
      </trkpt>
      <trkpt lat="53.89192075" lon="-121.27980035">
      </trkpt>
      <trkpt lat="53.89198341" lon="-121.27978255">
      </trkpt>
      <trkpt lat="53.89205594" lon="-121.27982523">
      </trkpt>
      <trkpt lat="53.89210239" lon="-121.27992985">
      </trkpt>
      <trkpt lat="53.89214006" lon="-121.28005005">
      </trkpt>
      <trkpt lat="53.89217796" lon="-121.28018546">
      </trkpt>
      <trkpt lat="53.89221542" lon="-121.28029045">
      </trkpt>
      <trkpt lat="53.89228838" lon="-121.28036355">
      </trkpt>
      <trkpt lat="53.89234294" lon="-121.28040697">
      </trkpt>
      <trkpt lat="53.89240583" lon="-121.28040438">
      </trkpt>
      <trkpt lat="53.89245974" lon="-121.28040216">
      </trkpt>
      <trkpt lat="53.89252132" lon="-121.28030833">
      </trkpt>
      <trkpt lat="53.89257435" lon="-121.28024527">
      </trkpt>
      <trkpt lat="53.89262738" lon="-121.28018221">
      </trkpt>
      <trkpt lat="53.89268939" lon="-121.28011879">
      </trkpt>
      <trkpt lat="53.89275141" lon="-121.28005537">
      </trkpt>
      <trkpt lat="53.89281387" lon="-121.28002238">
      </trkpt>
      <trkpt lat="53.89287632" lon="-121.27998937">
      </trkpt>
      <trkpt lat="53.89293921" lon="-121.2799868">
      </trkpt>
      <trkpt lat="53.89300253" lon="-121.28001463">
      </trkpt>
      <trkpt lat="53.89307549" lon="-121.28008772">
      </trkpt>
      <trkpt lat="53.89315787" lon="-121.28019088">
      </trkpt>
      <trkpt lat="53.89322272" lon="-121.28032517">
      </trkpt>
      <trkpt lat="53.89326063" lon="-121.28046059">
      </trkpt>
      <trkpt lat="53.89328055" lon="-121.28059674">
      </trkpt>
      <trkpt lat="53.8932915" lon="-121.28073327">
      </trkpt>
      <trkpt lat="53.89331142" lon="-121.28086941">
      </trkpt>
      <trkpt lat="53.8933399" lon="-121.28097478">
      </trkpt>
      <trkpt lat="53.89339468" lon="-121.2810334">
      </trkpt>
      <trkpt lat="53.89346742" lon="-121.28109129">
      </trkpt>
      <trkpt lat="53.89353139" lon="-121.28116476">
      </trkpt>
      <trkpt lat="53.89357763" lon="-121.28125417">
      </trkpt>
      <trkpt lat="53.89362385" lon="-121.2813436">
      </trkpt>
      <trkpt lat="53.89367008" lon="-121.28143301">
      </trkpt>
      <trkpt lat="53.89371652" lon="-121.28153764">
      </trkpt>
      <trkpt lat="53.89376297" lon="-121.28164227">
      </trkpt>
      <trkpt lat="53.89382694" lon="-121.28171574">
      </trkpt>
      <trkpt lat="53.89390889" lon="-121.28178847">
      </trkpt>
      <trkpt lat="53.89398185" lon="-121.28186158">
      </trkpt>
      <trkpt lat="53.8940638" lon="-121.28193431">
      </trkpt>
      <trkpt lat="53.89414596" lon="-121.28202225">
      </trkpt>
      <trkpt lat="53.89422812" lon="-121.2821102">
      </trkpt>
      <trkpt lat="53.89430173" lon="-121.28222892">
      </trkpt>
      <trkpt lat="53.89437513" lon="-121.28233245">
      </trkpt>
      <trkpt lat="53.89443056" lon="-121.28243671">
      </trkpt>
      <trkpt lat="53.8944862" lon="-121.28255618">
      </trkpt>
      <trkpt lat="53.89455083" lon="-121.28267529">
      </trkpt>
      <trkpt lat="53.89460648" lon="-121.28279476">
      </trkpt>
      <trkpt lat="53.89464415" lon="-121.28291497">
      </trkpt>
      <trkpt lat="53.89469959" lon="-121.28301924">
      </trkpt>
      <trkpt lat="53.89476378" lon="-121.28310791">
      </trkpt>
      <trkpt lat="53.89483673" lon="-121.28318102">
      </trkpt>
      <trkpt lat="53.8949005" lon="-121.28323928">
      </trkpt>
      <trkpt lat="53.89496447" lon="-121.28331276">
      </trkpt>
      <trkpt lat="53.89505583" lon="-121.28341554">
      </trkpt>
      <trkpt lat="53.89511959" lon="-121.2834738">
      </trkpt>
      <trkpt lat="53.89519255" lon="-121.28354692">
      </trkpt>
      <trkpt lat="53.89524733" lon="-121.28360556">
      </trkpt>
      <trkpt lat="53.89529289" lon="-121.28364934">
      </trkpt>
      <trkpt lat="53.89532116" lon="-121.2837395">
      </trkpt>
      <trkpt lat="53.89537615" lon="-121.28381334">
      </trkpt>
      <trkpt lat="53.89542172" lon="-121.28385713">
      </trkpt>
      <trkpt lat="53.89548483" lon="-121.28386977">
      </trkpt>
      <trkpt lat="53.89549402" lon="-121.28388461">
      </trkpt>
      <trkpt lat="53.89554004" lon="-121.28395883">
      </trkpt>
      <trkpt lat="53.89555953" lon="-121.28406457">
      </trkpt>
      <trkpt lat="53.89558821" lon="-121.28418515">
      </trkpt>
      <trkpt lat="53.89561669" lon="-121.28429051">
      </trkpt>
      <trkpt lat="53.89564516" lon="-121.28439589">
      </trkpt>
      <trkpt lat="53.89570016" lon="-121.28446973">
      </trkpt>
      <trkpt lat="53.89578188" lon="-121.28452726">
      </trkpt>
      <trkpt lat="53.89585419" lon="-121.28455475">
      </trkpt>
      <trkpt lat="53.89589954" lon="-121.28458332">
      </trkpt>
      <trkpt lat="53.8959541" lon="-121.28462674">
      </trkpt>
      <trkpt lat="53.89601829" lon="-121.28471544">
      </trkpt>
      <trkpt lat="53.89608292" lon="-121.28483455">
      </trkpt>
      <trkpt lat="53.89614689" lon="-121.28490802">
      </trkpt>
      <trkpt lat="53.89622818" lon="-121.28493514">
      </trkpt>
      <trkpt lat="53.89631846" lon="-121.28496188">
      </trkpt>
      <trkpt lat="53.89636382" lon="-121.28499046">
      </trkpt>
      <trkpt lat="53.89640939" lon="-121.28503426">
      </trkpt>
      <trkpt lat="53.89649199" lon="-121.28515263">
      </trkpt>
      <trkpt lat="53.89656581" lon="-121.28528659">
      </trkpt>
      <trkpt lat="53.89663087" lon="-121.28543612">
      </trkpt>
      <trkpt lat="53.89664993" lon="-121.28551144">
      </trkpt>
      <trkpt lat="53.89666898" lon="-121.28558676">
      </trkpt>
      <trkpt lat="53.89668804" lon="-121.28566208">
      </trkpt>
      <trkpt lat="53.89670709" lon="-121.28573741">
      </trkpt>
      <trkpt lat="53.89671716" lon="-121.2858131">
      </trkpt>
      <trkpt lat="53.8967452" lon="-121.28588804">
      </trkpt>
      <trkpt lat="53.89676426" lon="-121.28596337">
      </trkpt>
      <trkpt lat="53.89682011" lon="-121.28609807">
      </trkpt>
      <trkpt lat="53.89686655" lon="-121.28620269">
      </trkpt>
      <trkpt lat="53.89690379" lon="-121.28629249">
      </trkpt>
      <trkpt lat="53.89694168" lon="-121.28642793">
      </trkpt>
      <trkpt lat="53.89695197" lon="-121.28651882">
      </trkpt>
      <trkpt lat="53.89697124" lon="-121.28660936">
      </trkpt>
      <trkpt lat="53.89699029" lon="-121.28668468">
      </trkpt>
      <trkpt lat="53.89701877" lon="-121.28679006">
      </trkpt>
      <trkpt lat="53.89702927" lon="-121.28689617">
      </trkpt>
      <trkpt lat="53.89708448" lon="-121.28698523">
      </trkpt>
      <trkpt lat="53.89709476" lon="-121.28707614">
      </trkpt>
      <trkpt lat="53.89711425" lon="-121.28718188">
      </trkpt>
      <trkpt lat="53.89714316" lon="-121.28731767">
      </trkpt>
      <trkpt lat="53.89715323" lon="-121.28739336">
      </trkpt>
      <trkpt lat="53.89716351" lon="-121.28748426">
      </trkpt>
      <trkpt lat="53.89717358" lon="-121.28755995">
      </trkpt>
      <trkpt lat="53.89719285" lon="-121.28765048">
      </trkpt>
      <trkpt lat="53.89720314" lon="-121.28774139">
      </trkpt>
      <trkpt lat="53.89721429" lon="-121.28789313">
      </trkpt>
      <trkpt lat="53.8972064" lon="-121.28796956">
      </trkpt>
      <trkpt lat="53.8972077" lon="-121.28806083">
      </trkpt>
      <trkpt lat="53.89720878" lon="-121.28813688">
      </trkpt>
      <trkpt lat="53.89721008" lon="-121.28822815">
      </trkpt>
      <trkpt lat="53.89722015" lon="-121.28830384">
      </trkpt>
      <trkpt lat="53.89722145" lon="-121.28839511">
      </trkpt>
      <trkpt lat="53.89725035" lon="-121.28853091">
      </trkpt>
      <trkpt lat="53.89728802" lon="-121.28865113">
      </trkpt>
      <trkpt lat="53.89734323" lon="-121.2887402">
      </trkpt>
      <trkpt lat="53.89740699" lon="-121.28879847">
      </trkpt>
      <trkpt lat="53.8974793" lon="-121.28882596">
      </trkpt>
      <trkpt lat="53.8975608" lon="-121.28886829">
      </trkpt>
      <trkpt lat="53.89764252" lon="-121.28892583">
      </trkpt>
      <trkpt lat="53.89771613" lon="-121.28904459">
      </trkpt>
      <trkpt lat="53.89778996" lon="-121.28917855">
      </trkpt>
      <trkpt lat="53.89783683" lon="-121.28931362">
      </trkpt>
      <trkpt lat="53.89787449" lon="-121.28943384">
      </trkpt>
      <trkpt lat="53.89792115" lon="-121.28955371">
      </trkpt>
      <trkpt lat="53.89795839" lon="-121.2896435">
      </trkpt>
      <trkpt lat="53.89802258" lon="-121.28973221">
      </trkpt>
      <trkpt lat="53.89808611" lon="-121.28977527">
      </trkpt>
      <trkpt lat="53.89815821" lon="-121.28978754">
      </trkpt>
      <trkpt lat="53.89823008" lon="-121.28978462">
      </trkpt>
      <trkpt lat="53.89829232" lon="-121.2897364">
      </trkpt>
      <trkpt lat="53.89834536" lon="-121.28967337">
      </trkpt>
      <trkpt lat="53.89838876" lon="-121.28956504">
      </trkpt>
      <trkpt lat="53.89839644" lon="-121.2894734">
      </trkpt>
      <trkpt lat="53.8983947" lon="-121.28935171">
      </trkpt>
      <trkpt lat="53.89836623" lon="-121.28924633">
      </trkpt>
      <trkpt lat="53.89832001" lon="-121.2891569">
      </trkpt>
      <trkpt lat="53.89829176" lon="-121.28906673">
      </trkpt>
      <trkpt lat="53.89829132" lon="-121.28903631">
      </trkpt>
      <trkpt lat="53.8982896" lon="-121.2889146">
      </trkpt>
      <trkpt lat="53.89831503" lon="-121.28880703">
      </trkpt>
      <trkpt lat="53.89835843" lon="-121.2886987">
      </trkpt>
      <trkpt lat="53.89841104" lon="-121.28860523">
      </trkpt>
      <trkpt lat="53.89845487" lon="-121.28852733">
      </trkpt>
      <trkpt lat="53.89852588" lon="-121.28846355">
      </trkpt>
      <trkpt lat="53.89857891" lon="-121.28840049">
      </trkpt>
      <trkpt lat="53.89862275" lon="-121.2883226">
      </trkpt>
      <trkpt lat="53.89866637" lon="-121.28822949">
      </trkpt>
      <trkpt lat="53.89868303" lon="-121.28813749">
      </trkpt>
      <trkpt lat="53.89870868" lon="-121.28804512">
      </trkpt>
      <trkpt lat="53.89871636" lon="-121.28795348">
      </trkpt>
      <trkpt lat="53.89873281" lon="-121.28784625">
      </trkpt>
      <trkpt lat="53.89873086" lon="-121.28770935">
      </trkpt>
      <trkpt lat="53.89872978" lon="-121.28763329">
      </trkpt>
      <trkpt lat="53.89871971" lon="-121.2875576">
      </trkpt>
      <trkpt lat="53.89871775" lon="-121.28742069">
      </trkpt>
      <trkpt lat="53.89872522" lon="-121.28731384">
      </trkpt>
      <trkpt lat="53.8987329" lon="-121.2872222">
      </trkpt>
      <trkpt lat="53.89874978" lon="-121.28714541">
      </trkpt>
      <trkpt lat="53.89876644" lon="-121.2870534">
      </trkpt>
      <trkpt lat="53.8987737" lon="-121.28693134">
      </trkpt>
      <trkpt lat="53.89879014" lon="-121.28682411">
      </trkpt>
      <trkpt lat="53.89880616" lon="-121.28668648">
      </trkpt>
      <trkpt lat="53.89884057" lon="-121.28657853">
      </trkpt>
      <trkpt lat="53.89889317" lon="-121.28648505">
      </trkpt>
      <trkpt lat="53.89894599" lon="-121.28640677">
      </trkpt>
      <trkpt lat="53.89898983" lon="-121.28632887">
      </trkpt>
      <trkpt lat="53.8990512" lon="-121.28621982">
      </trkpt>
      <trkpt lat="53.89910445" lon="-121.28617197">
      </trkpt>
      <trkpt lat="53.89914937" lon="-121.28617013">
      </trkpt>
      <trkpt lat="53.89921226" lon="-121.28616756">
      </trkpt>
      <trkpt lat="53.8992574" lon="-121.28618094">
      </trkpt>
      <trkpt lat="53.89929333" lon="-121.28617947">
      </trkpt>
    </trkseg>
  </trk>
</gpx>