<?xml version="1.0" encoding="UTF-8"?>
<gpx xmlns="http://www.topografix.com/GPX/1/1" xmlns:xsi="http://www.w3.org/2001/XMLSchema-instance" xsi:schemaLocation="http://www.topografix.com/GPX/1/1 http://www.topografix.com/GPX/1/1/gpx.xsd" version="1.1" creator="gpx.py -- https://github.com/tkrajina/gpxpy">
  <trk>
    <name>Burkholder Trail</name>
    <trkseg>
      <trkpt lat="50.93971408" lon="-122.31490678">
      </trkpt>
      <trkpt lat="50.93986708" lon="-122.31499621">
      </trkpt>
      <trkpt lat="50.93998463" lon="-122.31508319">
      </trkpt>
      <trkpt lat="50.94011079" lon="-122.31516875">
      </trkpt>
      <trkpt lat="50.94014817" lon="-122.31523036">
      </trkpt>
      <trkpt lat="50.94033157" lon="-122.31549959">
      </trkpt>
      <trkpt lat="50.9403898" lon="-122.31556731">
      </trkpt>
      <trkpt lat="50.94062061" lon="-122.31579953">
      </trkpt>
      <trkpt lat="50.94081941" lon="-122.31597874">
      </trkpt>
      <trkpt lat="50.94095394" lon="-122.31604529">
      </trkpt>
      <trkpt lat="50.94116756" lon="-122.31609276">
      </trkpt>
      <trkpt lat="50.94132486" lon="-122.31602406">
      </trkpt>
      <trkpt lat="50.94144336" lon="-122.31600958">
      </trkpt>
      <trkpt lat="50.94159365" lon="-122.31593087">
      </trkpt>
      <trkpt lat="50.94167482" lon="-122.31587021">
      </trkpt>
      <trkpt lat="50.94175047" lon="-122.31581882">
      </trkpt>
      <trkpt lat="50.94181039" lon="-122.31581397">
      </trkpt>
      <trkpt lat="50.94187441" lon="-122.31582538">
      </trkpt>
      <trkpt lat="50.94200278" lon="-122.31587562">
      </trkpt>
      <trkpt lat="50.94209971" lon="-122.31591641">
      </trkpt>
      <trkpt lat="50.94213617" lon="-122.31591344">
      </trkpt>
      <trkpt lat="50.9421743" lon="-122.31593169">
      </trkpt>
      <trkpt lat="50.94220644" lon="-122.31598977">
      </trkpt>
      <trkpt lat="50.9422393" lon="-122.31601853">
      </trkpt>
      <trkpt lat="50.94225076" lon="-122.31600528">
      </trkpt>
      <trkpt lat="50.94230877" lon="-122.31593604">
      </trkpt>
      <trkpt lat="50.9423816" lon="-122.31584397">
      </trkpt>
      <trkpt lat="50.94247304" lon="-122.31577671">
      </trkpt>
      <trkpt lat="50.94256012" lon="-122.31572999">
      </trkpt>
      <trkpt lat="50.94258716" lon="-122.31571017">
      </trkpt>
      <trkpt lat="50.94261805" lon="-122.31573342">
      </trkpt>
      <trkpt lat="50.9426408" lon="-122.31576829">
      </trkpt>
      <trkpt lat="50.94266855" lon="-122.31583867">
      </trkpt>
      <trkpt lat="50.942698" lon="-122.31590808">
      </trkpt>
      <trkpt lat="50.94274754" lon="-122.3159611">
      </trkpt>
      <trkpt lat="50.94276527" lon="-122.3159698">
      </trkpt>
      <trkpt lat="50.94280145" lon="-122.31602172">
      </trkpt>
      <trkpt lat="50.94278253" lon="-122.31617838">
      </trkpt>
      <trkpt lat="50.94281294" lon="-122.31624437">
      </trkpt>
      <trkpt lat="50.94286657" lon="-122.31634588">
      </trkpt>
      <trkpt lat="50.94293824" lon="-122.31647056">
      </trkpt>
      <trkpt lat="50.94296834" lon="-122.31649471">
      </trkpt>
      <trkpt lat="50.94297668" lon="-122.31653654">
      </trkpt>
      <trkpt lat="50.94300006" lon="-122.31659515">
      </trkpt>
      <trkpt lat="50.94302521" lon="-122.31664985">
      </trkpt>
      <trkpt lat="50.943034" lon="-122.31667739">
      </trkpt>
      <trkpt lat="50.94303812" lon="-122.31672444">
      </trkpt>
      <trkpt lat="50.94301833" lon="-122.31677328">
      </trkpt>
      <trkpt lat="50.94300478" lon="-122.31679747">
      </trkpt>
      <trkpt lat="50.943017" lon="-122.3168733">
      </trkpt>
      <trkpt lat="50.94302992" lon="-122.31694837">
      </trkpt>
      <trkpt lat="50.94304372" lon="-122.31699545">
      </trkpt>
      <trkpt lat="50.94307816" lon="-122.31701352">
      </trkpt>
      <trkpt lat="50.94310394" lon="-122.31703252">
      </trkpt>
      <trkpt lat="50.94311747" lon="-122.31703103">
      </trkpt>
      <trkpt lat="50.94313251" lon="-122.31702636">
      </trkpt>
      <trkpt lat="50.94314532" lon="-122.31704556">
      </trkpt>
      <trkpt lat="50.94315827" lon="-122.31707525">
      </trkpt>
      <trkpt lat="50.94316805" lon="-122.31704421">
      </trkpt>
      <trkpt lat="50.94320574" lon="-122.31698647">
      </trkpt>
      <trkpt lat="50.94323611" lon="-122.31692418">
      </trkpt>
      <trkpt lat="50.94327653" lon="-122.31686823">
      </trkpt>
      <trkpt lat="50.94329433" lon="-122.31687082">
      </trkpt>
      <trkpt lat="50.94331307" lon="-122.31690417">
      </trkpt>
      <trkpt lat="50.94333314" lon="-122.3169554">
      </trkpt>
      <trkpt lat="50.94336007" lon="-122.31703395">
      </trkpt>
      <trkpt lat="50.94339431" lon="-122.3170801">
      </trkpt>
      <trkpt lat="50.94343109" lon="-122.31713094">
      </trkpt>
      <trkpt lat="50.94345902" lon="-122.3171649">
      </trkpt>
      <trkpt lat="50.9434876" lon="-122.31715648">
      </trkpt>
      <trkpt lat="50.94353527" lon="-122.3171314">
      </trkpt>
      <trkpt lat="50.94358093" lon="-122.31709779">
      </trkpt>
      <trkpt lat="50.94362222" lon="-122.31708142">
      </trkpt>
      <trkpt lat="50.94365183" lon="-122.3169945">
      </trkpt>
      <trkpt lat="50.94371561" lon="-122.31692812">
      </trkpt>
      <trkpt lat="50.94377928" lon="-122.31687542">
      </trkpt>
      <trkpt lat="50.94382755" lon="-122.31686469">
      </trkpt>
      <trkpt lat="50.94385756" lon="-122.31686897">
      </trkpt>
      <trkpt lat="50.94390721" lon="-122.31687477">
      </trkpt>
      <trkpt lat="50.94393313" lon="-122.31690391">
      </trkpt>
      <trkpt lat="50.94396949" lon="-122.31688895">
      </trkpt>
      <trkpt lat="50.94401213" lon="-122.31695063">
      </trkpt>
      <trkpt lat="50.94403951" lon="-122.31695744">
      </trkpt>
      <trkpt lat="50.94405328" lon="-122.3169613">
      </trkpt>
      <trkpt lat="50.94408956" lon="-122.31704882">
      </trkpt>
      <trkpt lat="50.94413481" lon="-122.31713431">
      </trkpt>
      <trkpt lat="50.94414712" lon="-122.31719488">
      </trkpt>
      <trkpt lat="50.94417553" lon="-122.31721535">
      </trkpt>
      <trkpt lat="50.94425117" lon="-122.31722248">
      </trkpt>
      <trkpt lat="50.94432325" lon="-122.31721551">
      </trkpt>
      <trkpt lat="50.94438073" lon="-122.31719019">
      </trkpt>
      <trkpt lat="50.94442133" lon="-122.31719608">
      </trkpt>
      <trkpt lat="50.94445603" lon="-122.31719128">
      </trkpt>
      <trkpt lat="50.94451025" lon="-122.3171558">
      </trkpt>
      <trkpt lat="50.94454389" lon="-122.31712986">
      </trkpt>
      <trkpt lat="50.94456348" lon="-122.31713895">
      </trkpt>
      <trkpt lat="50.94460971" lon="-122.31717481">
      </trkpt>
      <trkpt lat="50.94463084" lon="-122.31718665">
      </trkpt>
      <trkpt lat="50.94464774" lon="-122.31718616">
      </trkpt>
      <trkpt lat="50.94468914" lon="-122.31713231">
      </trkpt>
      <trkpt lat="50.9447374" lon="-122.31710223">
      </trkpt>
      <trkpt lat="50.94477798" lon="-122.31708155">
      </trkpt>
      <trkpt lat="50.94480868" lon="-122.31713619">
      </trkpt>
      <trkpt lat="50.94484031" lon="-122.31714898">
      </trkpt>
      <trkpt lat="50.94489541" lon="-122.31711475">
      </trkpt>
      <trkpt lat="50.94493216" lon="-122.31710922">
      </trkpt>
      <trkpt lat="50.9449855" lon="-122.31710049">
      </trkpt>
      <trkpt lat="50.94503138" lon="-122.31711303">
      </trkpt>
      <trkpt lat="50.94505983" lon="-122.31715853">
      </trkpt>
      <trkpt lat="50.94510031" lon="-122.31721144">
      </trkpt>
      <trkpt lat="50.94512593" lon="-122.31722953">
      </trkpt>
      <trkpt lat="50.94515518" lon="-122.31721365">
      </trkpt>
      <trkpt lat="50.945201" lon="-122.31725811">
      </trkpt>
      <trkpt lat="50.94522138" lon="-122.31728553">
      </trkpt>
      <trkpt lat="50.94521904" lon="-122.31736604">
      </trkpt>
      <trkpt lat="50.94522965" lon="-122.3174307">
      </trkpt>
      <trkpt lat="50.94525213" lon="-122.31750695">
      </trkpt>
      <trkpt lat="50.94526844" lon="-122.31755446">
      </trkpt>
      <trkpt lat="50.94528768" lon="-122.3175949">
      </trkpt>
      <trkpt lat="50.9453215" lon="-122.31768397">
      </trkpt>
      <trkpt lat="50.94534144" lon="-122.31777068">
      </trkpt>
      <trkpt lat="50.94535911" lon="-122.31783066">
      </trkpt>
      <trkpt lat="50.9453667" lon="-122.31790012">
      </trkpt>
      <trkpt lat="50.94538575" lon="-122.31791907">
      </trkpt>
      <trkpt lat="50.94540428" lon="-122.31797302">
      </trkpt>
      <trkpt lat="50.94542806" lon="-122.31801354">
      </trkpt>
      <trkpt lat="50.94545295" lon="-122.31807319">
      </trkpt>
      <trkpt lat="50.9454624" lon="-122.31813548">
      </trkpt>
      <trkpt lat="50.94545556" lon="-122.31820821">
      </trkpt>
      <trkpt lat="50.94546374" lon="-122.31824552">
      </trkpt>
      <trkpt lat="50.9454681" lon="-122.31826385">
      </trkpt>
      <trkpt lat="50.94548377" lon="-122.31828141">
      </trkpt>
      <trkpt lat="50.94550337" lon="-122.31829563">
      </trkpt>
      <trkpt lat="50.94553578" lon="-122.3183148">
      </trkpt>
      <trkpt lat="50.94558788" lon="-122.31831354">
      </trkpt>
      <trkpt lat="50.9456241" lon="-122.31830494">
      </trkpt>
      <trkpt lat="50.94564541" lon="-122.31830094">
      </trkpt>
      <trkpt lat="50.94569657" lon="-122.31831607">
      </trkpt>
      <trkpt lat="50.94572452" lon="-122.31831668">
      </trkpt>
      <trkpt lat="50.94574123" lon="-122.3183454">
      </trkpt>
      <trkpt lat="50.94577146" lon="-122.31837076">
      </trkpt>
      <trkpt lat="50.9458263" lon="-122.31840463">
      </trkpt>
      <trkpt lat="50.94584931" lon="-122.31841186">
      </trkpt>
      <trkpt lat="50.9458658" lon="-122.31837719">
      </trkpt>
      <trkpt lat="50.94591992" lon="-122.31832744">
      </trkpt>
      <trkpt lat="50.94596185" lon="-122.31831253">
      </trkpt>
      <trkpt lat="50.9459862" lon="-122.31829645">
      </trkpt>
      <trkpt lat="50.9460056" lon="-122.31830933">
      </trkpt>
      <trkpt lat="50.94603183" lon="-122.31835772">
      </trkpt>
      <trkpt lat="50.94604805" lon="-122.31837746">
      </trkpt>
      <trkpt lat="50.94607586" lon="-122.31839695">
      </trkpt>
      <trkpt lat="50.94610927" lon="-122.31838978">
      </trkpt>
      <trkpt lat="50.94617148" lon="-122.31840961">
      </trkpt>
      <trkpt lat="50.94620567" lon="-122.31843588">
      </trkpt>
      <trkpt lat="50.94624259" lon="-122.31846141">
      </trkpt>
      <trkpt lat="50.94627305" lon="-122.31849306">
      </trkpt>
      <trkpt lat="50.94629783" lon="-122.3185087">
      </trkpt>
      <trkpt lat="50.94633225" lon="-122.31851795">
      </trkpt>
      <trkpt lat="50.94636939" lon="-122.31856214">
      </trkpt>
      <trkpt lat="50.94639146" lon="-122.31861637">
      </trkpt>
      <trkpt lat="50.94639924" lon="-122.31866694">
      </trkpt>
      <trkpt lat="50.94641523" lon="-122.31874695">
      </trkpt>
      <trkpt lat="50.9464327" lon="-122.31876957">
      </trkpt>
      <trkpt lat="50.94647138" lon="-122.31879099">
      </trkpt>
      <trkpt lat="50.94650887" lon="-122.31880698">
      </trkpt>
      <trkpt lat="50.94652441" lon="-122.31881839">
      </trkpt>
      <trkpt lat="50.94655549" lon="-122.31882122">
      </trkpt>
      <trkpt lat="50.94659025" lon="-122.31882509">
      </trkpt>
      <trkpt lat="50.94660722" lon="-122.31883186">
      </trkpt>
      <trkpt lat="50.94661965" lon="-122.31884633">
      </trkpt>
      <trkpt lat="50.94663053" lon="-122.31888601">
      </trkpt>
      <trkpt lat="50.94664503" lon="-122.31892206">
      </trkpt>
      <trkpt lat="50.94667896" lon="-122.31894251">
      </trkpt>
      <trkpt lat="50.94670296" lon="-122.31895435">
      </trkpt>
      <trkpt lat="50.9467194" lon="-122.31900488">
      </trkpt>
      <trkpt lat="50.94674207" lon="-122.31905802">
      </trkpt>
      <trkpt lat="50.94677528" lon="-122.31909787">
      </trkpt>
      <trkpt lat="50.94681925" lon="-122.31914185">
      </trkpt>
      <trkpt lat="50.94685042" lon="-122.31919678">
      </trkpt>
      <trkpt lat="50.94685082" lon="-122.31921732">
      </trkpt>
      <trkpt lat="50.94689072" lon="-122.31927765">
      </trkpt>
      <trkpt lat="50.94693604" lon="-122.31931708">
      </trkpt>
      <trkpt lat="50.94697771" lon="-122.31935894">
      </trkpt>
      <trkpt lat="50.94699785" lon="-122.31939729">
      </trkpt>
      <trkpt lat="50.94700188" lon="-122.31944646">
      </trkpt>
      <trkpt lat="50.94700839" lon="-122.31948311">
      </trkpt>
      <trkpt lat="50.94701156" lon="-122.31950072">
      </trkpt>
      <trkpt lat="50.94704921" lon="-122.31953017">
      </trkpt>
      <trkpt lat="50.94708639" lon="-122.31957547">
      </trkpt>
      <trkpt lat="50.94709595" lon="-122.31960191">
      </trkpt>
      <trkpt lat="50.94711187" lon="-122.31966142">
      </trkpt>
      <trkpt lat="50.94712817" lon="-122.31970622">
      </trkpt>
      <trkpt lat="50.9471366" lon="-122.31976178">
      </trkpt>
      <trkpt lat="50.94716387" lon="-122.31980321">
      </trkpt>
      <trkpt lat="50.94719927" lon="-122.31984435">
      </trkpt>
      <trkpt lat="50.94723811" lon="-122.31987692">
      </trkpt>
      <trkpt lat="50.94727482" lon="-122.31988885">
      </trkpt>
      <trkpt lat="50.94729224" lon="-122.31987988">
      </trkpt>
      <trkpt lat="50.94731433" lon="-122.31986589">
      </trkpt>
      <trkpt lat="50.94733289" lon="-122.31984132">
      </trkpt>
      <trkpt lat="50.94735524" lon="-122.31983322">
      </trkpt>
      <trkpt lat="50.94740705" lon="-122.31987147">
      </trkpt>
      <trkpt lat="50.9474637" lon="-122.31990675">
      </trkpt>
      <trkpt lat="50.94748864" lon="-122.31996387">
      </trkpt>
      <trkpt lat="50.94752321" lon="-122.32003484">
      </trkpt>
      <trkpt lat="50.94755366" lon="-122.32008061">
      </trkpt>
      <trkpt lat="50.94757217" lon="-122.32010294">
      </trkpt>
      <trkpt lat="50.94761458" lon="-122.3201242">
      </trkpt>
      <trkpt lat="50.94763571" lon="-122.32012192">
      </trkpt>
      <trkpt lat="50.9476529" lon="-122.32011782">
      </trkpt>
      <trkpt lat="50.94773071" lon="-122.32014968">
      </trkpt>
      <trkpt lat="50.94779161" lon="-122.32017777">
      </trkpt>
      <trkpt lat="50.94787104" lon="-122.3202092">
      </trkpt>
      <trkpt lat="50.9479176" lon="-122.32022977">
      </trkpt>
      <trkpt lat="50.94796474" lon="-122.320241">
      </trkpt>
      <trkpt lat="50.94807404" lon="-122.32030979">
      </trkpt>
      <trkpt lat="50.94811378" lon="-122.32030722">
      </trkpt>
      <trkpt lat="50.94817024" lon="-122.32032936">
      </trkpt>
      <trkpt lat="50.94822474" lon="-122.32036332">
      </trkpt>
      <trkpt lat="50.94828257" lon="-122.32039598">
      </trkpt>
      <trkpt lat="50.9483141" lon="-122.32043073">
      </trkpt>
      <trkpt lat="50.94837313" lon="-122.32044768">
      </trkpt>
      <trkpt lat="50.94844742" lon="-122.32045938">
      </trkpt>
      <trkpt lat="50.94847153" lon="-122.32045782">
      </trkpt>
      <trkpt lat="50.94848821" lon="-122.32046849">
      </trkpt>
      <trkpt lat="50.94849148" lon="-122.32052685">
      </trkpt>
      <trkpt lat="50.94852521" lon="-122.32055661">
      </trkpt>
      <trkpt lat="50.94858568" lon="-122.32060176">
      </trkpt>
      <trkpt lat="50.94869739" lon="-122.32065899">
      </trkpt>
      <trkpt lat="50.94876559" lon="-122.3207044">
      </trkpt>
      <trkpt lat="50.94880853" lon="-122.32071921">
      </trkpt>
      <trkpt lat="50.94885762" lon="-122.32073369">
      </trkpt>
      <trkpt lat="50.94894186" lon="-122.32076223">
      </trkpt>
      <trkpt lat="50.9489845" lon="-122.32082951">
      </trkpt>
      <trkpt lat="50.94903758" lon="-122.3209017">
      </trkpt>
      <trkpt lat="50.9490453" lon="-122.32091541">
      </trkpt>
      <trkpt lat="50.94906423" lon="-122.32100478">
      </trkpt>
      <trkpt lat="50.94908272" lon="-122.32112144">
      </trkpt>
      <trkpt lat="50.94913016" lon="-122.32116739">
      </trkpt>
      <trkpt lat="50.94917283" lon="-122.32119648">
      </trkpt>
      <trkpt lat="50.94921885" lon="-122.32126965">
      </trkpt>
      <trkpt lat="50.94925162" lon="-122.32133774">
      </trkpt>
      <trkpt lat="50.94926303" lon="-122.32136069">
      </trkpt>
      <trkpt lat="50.94927062" lon="-122.32144563">
      </trkpt>
      <trkpt lat="50.94929744" lon="-122.32150013">
      </trkpt>
      <trkpt lat="50.94932748" lon="-122.32153876">
      </trkpt>
      <trkpt lat="50.94939679" lon="-122.32159821">
      </trkpt>
      <trkpt lat="50.94944918" lon="-122.32178926">
      </trkpt>
      <trkpt lat="50.94947571" lon="-122.32187111">
      </trkpt>
      <trkpt lat="50.94952906" lon="-122.32191151">
      </trkpt>
      <trkpt lat="50.9495764" lon="-122.32195841">
      </trkpt>
      <trkpt lat="50.94959795" lon="-122.32200542">
      </trkpt>
      <trkpt lat="50.94965116" lon="-122.32199862">
      </trkpt>
      <trkpt lat="50.94967845" lon="-122.32199795">
      </trkpt>
      <trkpt lat="50.94972907" lon="-122.3220152">
      </trkpt>
      <trkpt lat="50.94974441" lon="-122.32204035">
      </trkpt>
      <trkpt lat="50.94975004" lon="-122.32207567">
      </trkpt>
      <trkpt lat="50.94974887" lon="-122.32211237">
      </trkpt>
      <trkpt lat="50.94975322" lon="-122.32216779">
      </trkpt>
      <trkpt lat="50.94978051" lon="-122.32224101">
      </trkpt>
      <trkpt lat="50.94983496" lon="-122.32232209">
      </trkpt>
      <trkpt lat="50.94986633" lon="-122.322356">
      </trkpt>
      <trkpt lat="50.94990182" lon="-122.32238206">
      </trkpt>
      <trkpt lat="50.949964" lon="-122.32245105">
      </trkpt>
      <trkpt lat="50.94996738" lon="-122.32252764">
      </trkpt>
      <trkpt lat="50.94998932" lon="-122.32261757">
      </trkpt>
      <trkpt lat="50.95001933" lon="-122.32267984">
      </trkpt>
      <trkpt lat="50.95003939" lon="-122.32269974">
      </trkpt>
      <trkpt lat="50.95004196" lon="-122.32274334">
      </trkpt>
      <trkpt lat="50.95002363" lon="-122.32281933">
      </trkpt>
      <trkpt lat="50.95000142" lon="-122.3229131">
      </trkpt>
      <trkpt lat="50.94997437" lon="-122.32300425">
      </trkpt>
      <trkpt lat="50.94997442" lon="-122.3230844">
      </trkpt>
      <trkpt lat="50.94997934" lon="-122.32319544">
      </trkpt>
      <trkpt lat="50.94997295" lon="-122.32323947">
      </trkpt>
      <trkpt lat="50.94995717" lon="-122.32333539">
      </trkpt>
      <trkpt lat="50.94997335" lon="-122.32340256">
      </trkpt>
      <trkpt lat="50.9499772" lon="-122.32348909">
      </trkpt>
      <trkpt lat="50.94997211" lon="-122.32360393">
      </trkpt>
      <trkpt lat="50.9499759" lon="-122.3236464">
      </trkpt>
      <trkpt lat="50.94995972" lon="-122.32366503">
      </trkpt>
      <trkpt lat="50.94997101" lon="-122.323688">
      </trkpt>
      <trkpt lat="50.94998309" lon="-122.32371402">
      </trkpt>
      <trkpt lat="50.94999851" lon="-122.32373624">
      </trkpt>
      <trkpt lat="50.94999506" lon="-122.32378903">
      </trkpt>
      <trkpt lat="50.94999686" lon="-122.3238591">
      </trkpt>
      <trkpt lat="50.94999906" lon="-122.32386852">
      </trkpt>
      <trkpt lat="50.95000692" lon="-122.32410057">
      </trkpt>
      <trkpt lat="50.95011176" lon="-122.32414988">
      </trkpt>
      <trkpt lat="50.95018854" lon="-122.32414442">
      </trkpt>
      <trkpt lat="50.95024378" lon="-122.32416438">
      </trkpt>
      <trkpt lat="50.95028755" lon="-122.32415727">
      </trkpt>
      <trkpt lat="50.95035405" lon="-122.32415621">
      </trkpt>
      <trkpt lat="50.95043394" lon="-122.32419183">
      </trkpt>
      <trkpt lat="50.95050263" lon="-122.32424269">
      </trkpt>
      <trkpt lat="50.95057094" lon="-122.32429437">
      </trkpt>
      <trkpt lat="50.95063286" lon="-122.32437087">
      </trkpt>
      <trkpt lat="50.95068525" lon="-122.32443542">
      </trkpt>
      <trkpt lat="50.95075292" lon="-122.32448503">
      </trkpt>
      <trkpt lat="50.95080908" lon="-122.3245347">
      </trkpt>
      <trkpt lat="50.95086384" lon="-122.32458242">
      </trkpt>
      <trkpt lat="50.95094325" lon="-122.32467653">
      </trkpt>
      <trkpt lat="50.95100772" lon="-122.3247837">
      </trkpt>
      <trkpt lat="50.95107931" lon="-122.32491229">
      </trkpt>
      <trkpt lat="50.95111224" lon="-122.3249519">
      </trkpt>
      <trkpt lat="50.95113983" lon="-122.32501658">
      </trkpt>
      <trkpt lat="50.95116942" lon="-122.32515439">
      </trkpt>
      <trkpt lat="50.95120817" lon="-122.32525465">
      </trkpt>
      <trkpt lat="50.95127239" lon="-122.32537884">
      </trkpt>
      <trkpt lat="50.95133859" lon="-122.32558349">
      </trkpt>
      <trkpt lat="50.95141246" lon="-122.32577505">
      </trkpt>
      <trkpt lat="50.95142155" lon="-122.32589406">
      </trkpt>
      <trkpt lat="50.95143735" lon="-122.32598059">
      </trkpt>
      <trkpt lat="50.95144542" lon="-122.32611185">
      </trkpt>
      <trkpt lat="50.95145274" lon="-122.3262191">
      </trkpt>
      <trkpt lat="50.95147043" lon="-122.32629374">
      </trkpt>
      <trkpt lat="50.95149253" lon="-122.3263236">
      </trkpt>
      <trkpt lat="50.95150758" lon="-122.32645124">
      </trkpt>
      <trkpt lat="50.95150459" lon="-122.32652894">
      </trkpt>
      <trkpt lat="50.95151248" lon="-122.32659744">
      </trkpt>
      <trkpt lat="50.95152777" lon="-122.32664109">
      </trkpt>
      <trkpt lat="50.95152139" lon="-122.3267628">
      </trkpt>
      <trkpt lat="50.95152024" lon="-122.32683646">
      </trkpt>
      <trkpt lat="50.95154204" lon="-122.32694863">
      </trkpt>
      <trkpt lat="50.95158862" lon="-122.32711988">
      </trkpt>
      <trkpt lat="50.95162811" lon="-122.3272558">
      </trkpt>
      <trkpt lat="50.95165349" lon="-122.32733714">
      </trkpt>
      <trkpt lat="50.95167296" lon="-122.32743874">
      </trkpt>
      <trkpt lat="50.95170238" lon="-122.32752366">
      </trkpt>
      <trkpt lat="50.95172696" lon="-122.32756907">
      </trkpt>
      <trkpt lat="50.95177339" lon="-122.32761537">
      </trkpt>
      <trkpt lat="50.95182847" lon="-122.3277112">
      </trkpt>
      <trkpt lat="50.95187071" lon="-122.32778274">
      </trkpt>
      <trkpt lat="50.951904" lon="-122.32783191">
      </trkpt>
      <trkpt lat="50.95195456" lon="-122.32789717">
      </trkpt>
      <trkpt lat="50.95200973" lon="-122.32790229">
      </trkpt>
      <trkpt lat="50.95203761" lon="-122.32789182">
      </trkpt>
      <trkpt lat="50.95209426" lon="-122.32790492">
      </trkpt>
      <trkpt lat="50.95215728" lon="-122.32789135">
      </trkpt>
      <trkpt lat="50.9522156" lon="-122.32784989">
      </trkpt>
      <trkpt lat="50.95226198" lon="-122.32786496">
      </trkpt>
      <trkpt lat="50.95233717" lon="-122.32783431">
      </trkpt>
      <trkpt lat="50.95241195" lon="-122.32781777">
      </trkpt>
      <trkpt lat="50.95244348" lon="-122.32782325">
      </trkpt>
      <trkpt lat="50.95248495" lon="-122.32776359">
      </trkpt>
      <trkpt lat="50.95256449" lon="-122.32771112">
      </trkpt>
      <trkpt lat="50.95266224" lon="-122.32766294">
      </trkpt>
      <trkpt lat="50.95278813" lon="-122.32758296">
      </trkpt>
      <trkpt lat="50.95291582" lon="-122.32755296">
      </trkpt>
      <trkpt lat="50.95303308" lon="-122.32756501">
      </trkpt>
      <trkpt lat="50.95311796" lon="-122.32757559">
      </trkpt>
      <trkpt lat="50.95324125" lon="-122.32758509">
      </trkpt>
      <trkpt lat="50.9533586" lon="-122.3276021">
      </trkpt>
      <trkpt lat="50.95344471" lon="-122.32768101">
      </trkpt>
      <trkpt lat="50.95353336" lon="-122.32773767">
      </trkpt>
      <trkpt lat="50.95363008" lon="-122.32780377">
      </trkpt>
      <trkpt lat="50.95371297" lon="-122.32789352">
      </trkpt>
      <trkpt lat="50.95379583" lon="-122.3279875">
      </trkpt>
      <trkpt lat="50.95388928" lon="-122.32808015">
      </trkpt>
      <trkpt lat="50.9539684" lon="-122.32816778">
      </trkpt>
      <trkpt lat="50.95404689" lon="-122.328278">
      </trkpt>
      <trkpt lat="50.95407721" lon="-122.32834361">
      </trkpt>
      <trkpt lat="50.95414357" lon="-122.32842326">
      </trkpt>
      <trkpt lat="50.95420796" lon="-122.32858119">
      </trkpt>
      <trkpt lat="50.95423747" lon="-122.32870716">
      </trkpt>
      <trkpt lat="50.95428822" lon="-122.32885154">
      </trkpt>
      <trkpt lat="50.95430567" lon="-122.32888251">
      </trkpt>
      <trkpt lat="50.95433638" lon="-122.32896419">
      </trkpt>
      <trkpt lat="50.95436518" lon="-122.3290147">
      </trkpt>
      <trkpt lat="50.95439532" lon="-122.32908429">
      </trkpt>
      <trkpt lat="50.95443328" lon="-122.32913831">
      </trkpt>
      <trkpt lat="50.95448755" lon="-122.32924063">
      </trkpt>
      <trkpt lat="50.95455666" lon="-122.32938624">
      </trkpt>
      <trkpt lat="50.95461776" lon="-122.32944055">
      </trkpt>
      <trkpt lat="50.95468137" lon="-122.32948632">
      </trkpt>
      <trkpt lat="50.95466807" lon="-122.32948477">
      </trkpt>
      <trkpt lat="50.95485566" lon="-122.32972344">
      </trkpt>
      <trkpt lat="50.95490104" lon="-122.32979901">
      </trkpt>
      <trkpt lat="50.95495354" lon="-122.32986523">
      </trkpt>
      <trkpt lat="50.9549932" lon="-122.32994048">
      </trkpt>
      <trkpt lat="50.95505266" lon="-122.33000426">
      </trkpt>
      <trkpt lat="50.95507903" lon="-122.33001527">
      </trkpt>
      <trkpt lat="50.95512987" lon="-122.33009682">
      </trkpt>
      <trkpt lat="50.95517427" lon="-122.33016737">
      </trkpt>
      <trkpt lat="50.95520461" lon="-122.33020756">
      </trkpt>
      <trkpt lat="50.95521239" lon="-122.33023613">
      </trkpt>
      <trkpt lat="50.95520548" lon="-122.33028089">
      </trkpt>
      <trkpt lat="50.95524113" lon="-122.33031117">
      </trkpt>
      <trkpt lat="50.95528274" lon="-122.33037215">
      </trkpt>
      <trkpt lat="50.95532682" lon="-122.33045213">
      </trkpt>
      <trkpt lat="50.9553551" lon="-122.33052917">
      </trkpt>
      <trkpt lat="50.95542943" lon="-122.33060676">
      </trkpt>
      <trkpt lat="50.95546805" lon="-122.33064907">
      </trkpt>
      <trkpt lat="50.95553599" lon="-122.33070854">
      </trkpt>
      <trkpt lat="50.95561058" lon="-122.33080525">
      </trkpt>
      <trkpt lat="50.95566067" lon="-122.33089218">
      </trkpt>
      <trkpt lat="50.95572355" lon="-122.33098393">
      </trkpt>
      <trkpt lat="50.95578152" lon="-122.33108846">
      </trkpt>
      <trkpt lat="50.95580707" lon="-122.33115978">
      </trkpt>
      <trkpt lat="50.955868" lon="-122.33123882">
      </trkpt>
      <trkpt lat="50.9558936" lon="-122.33131768">
      </trkpt>
      <trkpt lat="50.95593262" lon="-122.33136977">
      </trkpt>
      <trkpt lat="50.95597763" lon="-122.3315099">
      </trkpt>
      <trkpt lat="50.95600555" lon="-122.3316327">
      </trkpt>
      <trkpt lat="50.95602007" lon="-122.33173358">
      </trkpt>
      <trkpt lat="50.95602966" lon="-122.33180566">
      </trkpt>
      <trkpt lat="50.95603255" lon="-122.3318673">
      </trkpt>
      <trkpt lat="50.95606081" lon="-122.33193254">
      </trkpt>
      <trkpt lat="50.95610129" lon="-122.33204225">
      </trkpt>
      <trkpt lat="50.95613434" lon="-122.33218135">
      </trkpt>
      <trkpt lat="50.95614554" lon="-122.33227831">
      </trkpt>
      <trkpt lat="50.95618327" lon="-122.33234614">
      </trkpt>
      <trkpt lat="50.95622203" lon="-122.33242134">
      </trkpt>
      <trkpt lat="50.95625983" lon="-122.3325527">
      </trkpt>
      <trkpt lat="50.95629381" lon="-122.33267449">
      </trkpt>
      <trkpt lat="50.95633537" lon="-122.33286032">
      </trkpt>
      <trkpt lat="50.95637083" lon="-122.33303648">
      </trkpt>
      <trkpt lat="50.95640646" lon="-122.33319867">
      </trkpt>
      <trkpt lat="50.95645646" lon="-122.33330803">
      </trkpt>
      <trkpt lat="50.95648069" lon="-122.33342571">
      </trkpt>
      <trkpt lat="50.95650544" lon="-122.33348923">
      </trkpt>
      <trkpt lat="50.95652306" lon="-122.3335476">
      </trkpt>
      <trkpt lat="50.95650508" lon="-122.33362637">
      </trkpt>
      <trkpt lat="50.95648889" lon="-122.33370338">
      </trkpt>
      <trkpt lat="50.95649274" lon="-122.33376538">
      </trkpt>
      <trkpt lat="50.95653375" lon="-122.33382172">
      </trkpt>
      <trkpt lat="50.95658252" lon="-122.33387531">
      </trkpt>
      <trkpt lat="50.95662856" lon="-122.33391066">
      </trkpt>
      <trkpt lat="50.95667975" lon="-122.33392599">
      </trkpt>
      <trkpt lat="50.95671805" lon="-122.33396256">
      </trkpt>
      <trkpt lat="50.9567617" lon="-122.3340088">
      </trkpt>
      <trkpt lat="50.95681437" lon="-122.33410091">
      </trkpt>
      <trkpt lat="50.9568526" lon="-122.33418377">
      </trkpt>
      <trkpt lat="50.95688942" lon="-122.33427557">
      </trkpt>
      <trkpt lat="50.95693979" lon="-122.33433722">
      </trkpt>
      <trkpt lat="50.95696327" lon="-122.33436046">
      </trkpt>
      <trkpt lat="50.95701345" lon="-122.33441535">
      </trkpt>
      <trkpt lat="50.95705824" lon="-122.3344768">
      </trkpt>
      <trkpt lat="50.95708812" lon="-122.33456295">
      </trkpt>
      <trkpt lat="50.95711878" lon="-122.3346266">
      </trkpt>
      <trkpt lat="50.95717637" lon="-122.3347114">
      </trkpt>
      <trkpt lat="50.9571727" lon="-122.33483143">
      </trkpt>
      <trkpt lat="50.95719246" lon="-122.33486576">
      </trkpt>
      <trkpt lat="50.95723088" lon="-122.33488545">
      </trkpt>
      <trkpt lat="50.95728212" lon="-122.33491559">
      </trkpt>
      <trkpt lat="50.95729834" lon="-122.33492761">
      </trkpt>
      <trkpt lat="50.95731369" lon="-122.33492174">
      </trkpt>
      <trkpt lat="50.95734438" lon="-122.33493855">
      </trkpt>
      <trkpt lat="50.95734986" lon="-122.33496358">
      </trkpt>
      <trkpt lat="50.95743263" lon="-122.33501517">
      </trkpt>
      <trkpt lat="50.95746595" lon="-122.33510677">
      </trkpt>
      <trkpt lat="50.95751715" lon="-122.33520743">
      </trkpt>
      <trkpt lat="50.95755256" lon="-122.33526101">
      </trkpt>
      <trkpt lat="50.95761301" lon="-122.33533784">
      </trkpt>
      <trkpt lat="50.95763424" lon="-122.33536201">
      </trkpt>
      <trkpt lat="50.95765479" lon="-122.33536435">
      </trkpt>
      <trkpt lat="50.95768766" lon="-122.33535513">
      </trkpt>
      <trkpt lat="50.9577219" lon="-122.33538306">
      </trkpt>
      <trkpt lat="50.95778661" lon="-122.33546742">
      </trkpt>
      <trkpt lat="50.95784034" lon="-122.33554806">
      </trkpt>
      <trkpt lat="50.95790647" lon="-122.33565204">
      </trkpt>
      <trkpt lat="50.95792434" lon="-122.33568088">
      </trkpt>
      <trkpt lat="50.95797242" lon="-122.3357671">
      </trkpt>
      <trkpt lat="50.95800395" lon="-122.3358215">
      </trkpt>
      <trkpt lat="50.95803402" lon="-122.33584558">
      </trkpt>
      <trkpt lat="50.95807439" lon="-122.335885">
      </trkpt>
      <trkpt lat="50.95811432" lon="-122.33588483">
      </trkpt>
      <trkpt lat="50.9581402" lon="-122.33584872">
      </trkpt>
      <trkpt lat="50.9581766" lon="-122.33596875">
      </trkpt>
      <trkpt lat="50.95819897" lon="-122.33604876">
      </trkpt>
      <trkpt lat="50.95820774" lon="-122.33611596">
      </trkpt>
      <trkpt lat="50.95821651" lon="-122.33619026">
      </trkpt>
      <trkpt lat="50.95824296" lon="-122.33623631">
      </trkpt>
      <trkpt lat="50.95827686" lon="-122.33628548">
      </trkpt>
      <trkpt lat="50.95830343" lon="-122.33633698">
      </trkpt>
      <trkpt lat="50.95832915" lon="-122.33635254">
      </trkpt>
      <trkpt lat="50.95834966" lon="-122.33638092">
      </trkpt>
      <trkpt lat="50.95838784" lon="-122.33646995">
      </trkpt>
      <trkpt lat="50.95841971" lon="-122.33650742">
      </trkpt>
      <trkpt lat="50.95847141" lon="-122.3364932">
      </trkpt>
      <trkpt lat="50.95847812" lon="-122.33644974">
      </trkpt>
      <trkpt lat="50.95851167" lon="-122.33640661">
      </trkpt>
      <trkpt lat="50.95854898" lon="-122.33637424">
      </trkpt>
      <trkpt lat="50.95861882" lon="-122.33636002">
      </trkpt>
      <trkpt lat="50.9586496" lon="-122.33636192">
      </trkpt>
      <trkpt lat="50.95872428" lon="-122.33641197">
      </trkpt>
      <trkpt lat="50.9587812" lon="-122.33643164">
      </trkpt>
      <trkpt lat="50.9588044" lon="-122.33649236">
      </trkpt>
      <trkpt lat="50.95884022" lon="-122.33654173">
      </trkpt>
      <trkpt lat="50.9589025" lon="-122.3366001">
      </trkpt>
      <trkpt lat="50.95894318" lon="-122.33663282">
      </trkpt>
      <trkpt lat="50.95903413" lon="-122.33665581">
      </trkpt>
      <trkpt lat="50.95909517" lon="-122.33665976">
      </trkpt>
      <trkpt lat="50.95913916" lon="-122.3366842">
      </trkpt>
      <trkpt lat="50.95919364" lon="-122.33673099">
      </trkpt>
      <trkpt lat="50.95923056" lon="-122.33676034">
      </trkpt>
      <trkpt lat="50.95928958" lon="-122.33680138">
      </trkpt>
      <trkpt lat="50.9593433" lon="-122.33685956">
      </trkpt>
      <trkpt lat="50.95938611" lon="-122.33690592">
      </trkpt>
      <trkpt lat="50.95942456" lon="-122.33694769">
      </trkpt>
      <trkpt lat="50.95947337" lon="-122.33699157">
      </trkpt>
      <trkpt lat="50.95951888" lon="-122.3370642">
      </trkpt>
      <trkpt lat="50.95954604" lon="-122.33712177">
      </trkpt>
      <trkpt lat="50.95956874" lon="-122.33716238">
      </trkpt>
      <trkpt lat="50.95957503" lon="-122.33719571">
      </trkpt>
      <trkpt lat="50.95957765" lon="-122.33726771">
      </trkpt>
      <trkpt lat="50.95958349" lon="-122.33730909">
      </trkpt>
      <trkpt lat="50.95958502" lon="-122.3373474">
      </trkpt>
      <trkpt lat="50.95959675" lon="-122.33740717">
      </trkpt>
      <trkpt lat="50.9595936" lon="-122.33747265">
      </trkpt>
      <trkpt lat="50.95958472" lon="-122.33754958">
      </trkpt>
      <trkpt lat="50.95960889" lon="-122.3376214">
      </trkpt>
      <trkpt lat="50.95963107" lon="-122.33767103">
      </trkpt>
      <trkpt lat="50.9596529" lon="-122.33769385">
      </trkpt>
      <trkpt lat="50.95966836" lon="-122.33771675">
      </trkpt>
      <trkpt lat="50.95967356" lon="-122.33776838">
      </trkpt>
      <trkpt lat="50.95967833" lon="-122.33780523">
      </trkpt>
      <trkpt lat="50.9596927" lon="-122.33783774">
      </trkpt>
      <trkpt lat="50.95972301" lon="-122.33784752">
      </trkpt>
      <trkpt lat="50.9597344" lon="-122.33787017">
      </trkpt>
      <trkpt lat="50.95972941" lon="-122.33792762">
      </trkpt>
      <trkpt lat="50.95972037" lon="-122.33798717">
      </trkpt>
      <trkpt lat="50.95971901" lon="-122.33806998">
      </trkpt>
      <trkpt lat="50.95971433" lon="-122.33815443">
      </trkpt>
      <trkpt lat="50.95972949" lon="-122.33825382">
      </trkpt>
      <trkpt lat="50.9597437" lon="-122.33832178">
      </trkpt>
      <trkpt lat="50.95973063" lon="-122.33838803">
      </trkpt>
      <trkpt lat="50.95976618" lon="-122.33846322">
      </trkpt>
      <trkpt lat="50.95981309" lon="-122.3386015">
      </trkpt>
      <trkpt lat="50.95985157" lon="-122.33870387">
      </trkpt>
      <trkpt lat="50.95992642" lon="-122.33883428">
      </trkpt>
      <trkpt lat="50.95997473" lon="-122.33891126">
      </trkpt>
      <trkpt lat="50.9600196" lon="-122.33899737">
      </trkpt>
      <trkpt lat="50.96007445" lon="-122.33906924">
      </trkpt>
      <trkpt lat="50.96012335" lon="-122.33915371">
      </trkpt>
      <trkpt lat="50.96014364" lon="-122.33922031">
      </trkpt>
      <trkpt lat="50.96018944" lon="-122.3393209">
      </trkpt>
      <trkpt lat="50.96024727" lon="-122.33941567">
      </trkpt>
      <trkpt lat="50.96027733" lon="-122.33948354">
      </trkpt>
      <trkpt lat="50.96027358" lon="-122.33956463">
      </trkpt>
      <trkpt lat="50.96027356" lon="-122.33962144">
      </trkpt>
      <trkpt lat="50.96030007" lon="-122.33968934">
      </trkpt>
      <trkpt lat="50.96028617" lon="-122.339762">
      </trkpt>
      <trkpt lat="50.96026278" lon="-122.33989024">
      </trkpt>
      <trkpt lat="50.96024829" lon="-122.33997086">
      </trkpt>
      <trkpt lat="50.9602337" lon="-122.34003728">
      </trkpt>
      <trkpt lat="50.96023107" lon="-122.3400988">
      </trkpt>
      <trkpt lat="50.960236" lon="-122.34018058">
      </trkpt>
      <trkpt lat="50.9602689" lon="-122.34019176">
      </trkpt>
      <trkpt lat="50.96028737" lon="-122.34023301">
      </trkpt>
      <trkpt lat="50.96036752" lon="-122.34041449">
      </trkpt>
      <trkpt lat="50.96035886" lon="-122.34049432">
      </trkpt>
      <trkpt lat="50.96033558" lon="-122.34060817">
      </trkpt>
      <trkpt lat="50.96028483" lon="-122.34074938">
      </trkpt>
      <trkpt lat="50.96027108" lon="-122.34083139">
      </trkpt>
      <trkpt lat="50.96026347" lon="-122.34107273">
      </trkpt>
      <trkpt lat="50.96029742" lon="-122.34135243">
      </trkpt>
      <trkpt lat="50.96031018" lon="-122.34156279">
      </trkpt>
      <trkpt lat="50.96034852" lon="-122.34163146">
      </trkpt>
      <trkpt lat="50.9603844" lon="-122.34177454">
      </trkpt>
      <trkpt lat="50.96046672" lon="-122.34198057">
      </trkpt>
      <trkpt lat="50.96053087" lon="-122.34206122">
      </trkpt>
      <trkpt lat="50.96054262" lon="-122.34213934">
      </trkpt>
      <trkpt lat="50.96053714" lon="-122.34242987">
      </trkpt>
      <trkpt lat="50.9605754" lon="-122.34252764">
      </trkpt>
      <trkpt lat="50.96066256" lon="-122.34278701">
      </trkpt>
      <trkpt lat="50.96069252" lon="-122.34286141">
      </trkpt>
      <trkpt lat="50.96077027" lon="-122.34291806">
      </trkpt>
      <trkpt lat="50.9608387" lon="-122.34293714">
      </trkpt>
      <trkpt lat="50.96094022" lon="-122.34300802">
      </trkpt>
      <trkpt lat="50.96103049" lon="-122.34309077">
      </trkpt>
      <trkpt lat="50.96112459" lon="-122.34325594">
      </trkpt>
      <trkpt lat="50.96131444" lon="-122.34352703">
      </trkpt>
      <trkpt lat="50.96141528" lon="-122.34364469">
      </trkpt>
      <trkpt lat="50.96152969" lon="-122.34377169">
      </trkpt>
      <trkpt lat="50.96162843" lon="-122.34388927">
      </trkpt>
      <trkpt lat="50.9616439" lon="-122.34395447">
      </trkpt>
      <trkpt lat="50.96175522" lon="-122.34408605">
      </trkpt>
      <trkpt lat="50.96183615" lon="-122.34423599">
      </trkpt>
      <trkpt lat="50.96191823" lon="-122.34434507">
      </trkpt>
      <trkpt lat="50.96197757" lon="-122.34441949">
      </trkpt>
      <trkpt lat="50.96206295" lon="-122.34452458">
      </trkpt>
      <trkpt lat="50.96207598" lon="-122.34454894">
      </trkpt>
      <trkpt lat="50.96208708" lon="-122.34486281">
      </trkpt>
      <trkpt lat="50.96217334" lon="-122.34504196">
      </trkpt>
      <trkpt lat="50.96239893" lon="-122.34521106">
      </trkpt>
      <trkpt lat="50.96242925" lon="-122.34520287">
      </trkpt>
      <trkpt lat="50.96247545" lon="-122.34522785">
      </trkpt>
      <trkpt lat="50.96258754" lon="-122.34554441">
      </trkpt>
      <trkpt lat="50.96261489" lon="-122.34563996">
      </trkpt>
      <trkpt lat="50.96264015" lon="-122.34570508">
      </trkpt>
      <trkpt lat="50.96268213" lon="-122.34577647">
      </trkpt>
      <trkpt lat="50.96272233" lon="-122.34583551">
      </trkpt>
      <trkpt lat="50.96275573" lon="-122.34591184">
      </trkpt>
      <trkpt lat="50.96276401" lon="-122.34596388">
      </trkpt>
      <trkpt lat="50.96277759" lon="-122.34603361">
      </trkpt>
      <trkpt lat="50.96280946" lon="-122.34612939">
      </trkpt>
      <trkpt lat="50.96283691" lon="-122.34623013">
      </trkpt>
      <trkpt lat="50.96284787" lon="-122.3463155">
      </trkpt>
      <trkpt lat="50.9628686" lon="-122.34643854">
      </trkpt>
      <trkpt lat="50.96289908" lon="-122.34653321">
      </trkpt>
      <trkpt lat="50.96294236" lon="-122.34663408">
      </trkpt>
      <trkpt lat="50.96298566" lon="-122.34674402">
      </trkpt>
      <trkpt lat="50.96301673" lon="-122.34685593">
      </trkpt>
      <trkpt lat="50.96305349" lon="-122.34695169">
      </trkpt>
      <trkpt lat="50.96310738" lon="-122.34704919">
      </trkpt>
      <trkpt lat="50.96313981" lon="-122.34718654">
      </trkpt>
      <trkpt lat="50.96315774" lon="-122.34729284">
      </trkpt>
      <trkpt lat="50.9632223" lon="-122.34740877">
      </trkpt>
      <trkpt lat="50.96326105" lon="-122.347496">
      </trkpt>
      <trkpt lat="50.9633136" lon="-122.34756706">
      </trkpt>
      <trkpt lat="50.96334352" lon="-122.347628">
      </trkpt>
      <trkpt lat="50.96334829" lon="-122.34767969">
      </trkpt>
      <trkpt lat="50.96339464" lon="-122.34776866">
      </trkpt>
      <trkpt lat="50.96352952" lon="-122.34797633">
      </trkpt>
      <trkpt lat="50.96357674" lon="-122.34803143">
      </trkpt>
      <trkpt lat="50.96359339" lon="-122.34803526">
      </trkpt>
      <trkpt lat="50.96364059" lon="-122.34805608">
      </trkpt>
      <trkpt lat="50.96368973" lon="-122.34810311">
      </trkpt>
      <trkpt lat="50.96372846" lon="-122.34812783">
      </trkpt>
      <trkpt lat="50.9637821" lon="-122.34812898">
      </trkpt>
      <trkpt lat="50.96383334" lon="-122.34819231">
      </trkpt>
      <trkpt lat="50.96386641" lon="-122.34820051">
      </trkpt>
      <trkpt lat="50.96392268" lon="-122.34828279">
      </trkpt>
      <trkpt lat="50.96396456" lon="-122.34839849">
      </trkpt>
      <trkpt lat="50.96398143" lon="-122.34847962">
      </trkpt>
      <trkpt lat="50.9640011" lon="-122.34856061">
      </trkpt>
      <trkpt lat="50.96400535" lon="-122.34868926">
      </trkpt>
      <trkpt lat="50.96399769" lon="-122.34884053">
      </trkpt>
      <trkpt lat="50.96399382" lon="-122.34888209">
      </trkpt>
      <trkpt lat="50.96397936" lon="-122.348892">
      </trkpt>
      <trkpt lat="50.96398025" lon="-122.34900256">
      </trkpt>
      <trkpt lat="50.96397589" lon="-122.34903873">
      </trkpt>
      <trkpt lat="50.96394532" lon="-122.34915334">
      </trkpt>
      <trkpt lat="50.9639107" lon="-122.34930521">
      </trkpt>
      <trkpt lat="50.96390599" lon="-122.34943806">
      </trkpt>
      <trkpt lat="50.96388093" lon="-122.3495207">
      </trkpt>
      <trkpt lat="50.96386538" lon="-122.34962122">
      </trkpt>
      <trkpt lat="50.96384556" lon="-122.34967099">
      </trkpt>
      <trkpt lat="50.9638477" lon="-122.34970531">
      </trkpt>
      <trkpt lat="50.96380822" lon="-122.349812">
      </trkpt>
      <trkpt lat="50.96379323" lon="-122.34987004">
      </trkpt>
      <trkpt lat="50.96378747" lon="-122.34993171">
      </trkpt>
      <trkpt lat="50.963761" lon="-122.34999878">
      </trkpt>
      <trkpt lat="50.96375271" lon="-122.35007421">
      </trkpt>
      <trkpt lat="50.96371809" lon="-122.35012142">
      </trkpt>
      <trkpt lat="50.96365259" lon="-122.35022654">
      </trkpt>
      <trkpt lat="50.96358311" lon="-122.35030033">
      </trkpt>
      <trkpt lat="50.96351402" lon="-122.3504102">
      </trkpt>
      <trkpt lat="50.96350391" lon="-122.35047265">
      </trkpt>
      <trkpt lat="50.9634699" lon="-122.35051492">
      </trkpt>
      <trkpt lat="50.96345423" lon="-122.35054381">
      </trkpt>
      <trkpt lat="50.96342939" lon="-122.35059375">
      </trkpt>
      <trkpt lat="50.96341812" lon="-122.35059667">
      </trkpt>
      <trkpt lat="50.96340728" lon="-122.35064225">
      </trkpt>
      <trkpt lat="50.96338847" lon="-122.3506811">
      </trkpt>
      <trkpt lat="50.96336608" lon="-122.35067861">
      </trkpt>
      <trkpt lat="50.96334953" lon="-122.35073612">
      </trkpt>
      <trkpt lat="50.96333224" lon="-122.35079977">
      </trkpt>
      <trkpt lat="50.96333099" lon="-122.35086421">
      </trkpt>
      <trkpt lat="50.96326862" lon="-122.35100683">
      </trkpt>
      <trkpt lat="50.96325588" lon="-122.35106879">
      </trkpt>
      <trkpt lat="50.96323183" lon="-122.35119048">
      </trkpt>
      <trkpt lat="50.96321762" lon="-122.35128384">
      </trkpt>
      <trkpt lat="50.96318115" lon="-122.35148414">
      </trkpt>
      <trkpt lat="50.96314678" lon="-122.35158554">
      </trkpt>
      <trkpt lat="50.96312638" lon="-122.35167791">
      </trkpt>
      <trkpt lat="50.96314065" lon="-122.3517584">
      </trkpt>
      <trkpt lat="50.96313575" lon="-122.35183476">
      </trkpt>
      <trkpt lat="50.96313425" lon="-122.35192839">
      </trkpt>
      <trkpt lat="50.96311363" lon="-122.35203369">
      </trkpt>
      <trkpt lat="50.96310472" lon="-122.35208814">
      </trkpt>
      <trkpt lat="50.96309056" lon="-122.35211203">
      </trkpt>
      <trkpt lat="50.96308479" lon="-122.35216586">
      </trkpt>
      <trkpt lat="50.96306779" lon="-122.35219489">
      </trkpt>
      <trkpt lat="50.96303998" lon="-122.35227886">
      </trkpt>
      <trkpt lat="50.96303872" lon="-122.35238332">
      </trkpt>
      <trkpt lat="50.96300849" lon="-122.35240728">
      </trkpt>
      <trkpt lat="50.96298624" lon="-122.35247459">
      </trkpt>
      <trkpt lat="50.9627686" lon="-122.35269786">
      </trkpt>
      <trkpt lat="50.96270915" lon="-122.35278994">
      </trkpt>
      <trkpt lat="50.96266881" lon="-122.35283345">
      </trkpt>
      <trkpt lat="50.96265156" lon="-122.35288839">
      </trkpt>
      <trkpt lat="50.96258631" lon="-122.35296543">
      </trkpt>
      <trkpt lat="50.96252532" lon="-122.35306251">
      </trkpt>
      <trkpt lat="50.96249587" lon="-122.35316538">
      </trkpt>
      <trkpt lat="50.96246191" lon="-122.3532778">
      </trkpt>
      <trkpt lat="50.96243819" lon="-122.3533508">
      </trkpt>
      <trkpt lat="50.96241933" lon="-122.35343307">
      </trkpt>
      <trkpt lat="50.96240826" lon="-122.35347052">
      </trkpt>
      <trkpt lat="50.9624125" lon="-122.35352489">
      </trkpt>
      <trkpt lat="50.96237477" lon="-122.35358408">
      </trkpt>
      <trkpt lat="50.96234446" lon="-122.35367463">
      </trkpt>
      <trkpt lat="50.9623491" lon="-122.35371975">
      </trkpt>
      <trkpt lat="50.96232322" lon="-122.35379724">
      </trkpt>
      <trkpt lat="50.96216054" lon="-122.35420658">
      </trkpt>
      <trkpt lat="50.96201636" lon="-122.35471047">
      </trkpt>
      <trkpt lat="50.96199997" lon="-122.35489279">
      </trkpt>
      <trkpt lat="50.96198909" lon="-122.35498137">
      </trkpt>
      <trkpt lat="50.96207233" lon="-122.35504022">
      </trkpt>
      <trkpt lat="50.96235173" lon="-122.35505064">
      </trkpt>
      <trkpt lat="50.9623897" lon="-122.35513894">
      </trkpt>
      <trkpt lat="50.96241547" lon="-122.35518294">
      </trkpt>
      <trkpt lat="50.96244896" lon="-122.35525466">
      </trkpt>
      <trkpt lat="50.96250242" lon="-122.35529987">
      </trkpt>
      <trkpt lat="50.96265031" lon="-122.35526253">
      </trkpt>
      <trkpt lat="50.96271923" lon="-122.35527959">
      </trkpt>
      <trkpt lat="50.96274418" lon="-122.3553299">
      </trkpt>
      <trkpt lat="50.96277587" lon="-122.35546746">
      </trkpt>
      <trkpt lat="50.96282944" lon="-122.35555603">
      </trkpt>
      <trkpt lat="50.96287299" lon="-122.35554756">
      </trkpt>
      <trkpt lat="50.96289915" lon="-122.35560305">
      </trkpt>
      <trkpt lat="50.96292027" lon="-122.35564082">
      </trkpt>
      <trkpt lat="50.96291551" lon="-122.35568749">
      </trkpt>
      <trkpt lat="50.9629181" lon="-122.35574128">
      </trkpt>
      <trkpt lat="50.96295602" lon="-122.35577843">
      </trkpt>
      <trkpt lat="50.96301522" lon="-122.35580586">
      </trkpt>
      <trkpt lat="50.96303531" lon="-122.35581847">
      </trkpt>
      <trkpt lat="50.9630398" lon="-122.35590451">
      </trkpt>
      <trkpt lat="50.96305424" lon="-122.35595407">
      </trkpt>
      <trkpt lat="50.96305001" lon="-122.35604906">
      </trkpt>
      <trkpt lat="50.96304846" lon="-122.3561107">
      </trkpt>
      <trkpt lat="50.96307191" lon="-122.35614448">
      </trkpt>
      <trkpt lat="50.96310133" lon="-122.35615014">
      </trkpt>
      <trkpt lat="50.96312082" lon="-122.35619194">
      </trkpt>
      <trkpt lat="50.96314942" lon="-122.35627458">
      </trkpt>
      <trkpt lat="50.96312074" lon="-122.35637435">
      </trkpt>
      <trkpt lat="50.9631266" lon="-122.35642956">
      </trkpt>
      <trkpt lat="50.96313687" lon="-122.35646516">
      </trkpt>
      <trkpt lat="50.96314273" lon="-122.35648686">
      </trkpt>
      <trkpt lat="50.96317339" lon="-122.35651188">
      </trkpt>
      <trkpt lat="50.96318536" lon="-122.3565674">
      </trkpt>
      <trkpt lat="50.96321628" lon="-122.35661769">
      </trkpt>
      <trkpt lat="50.96323764" lon="-122.35669145">
      </trkpt>
      <trkpt lat="50.96324415" lon="-122.35673214">
      </trkpt>
      <trkpt lat="50.96323348" lon="-122.35680536">
      </trkpt>
      <trkpt lat="50.96325451" lon="-122.35689367">
      </trkpt>
      <trkpt lat="50.96323608" lon="-122.35694591">
      </trkpt>
      <trkpt lat="50.96315034" lon="-122.35710359">
      </trkpt>
      <trkpt lat="50.96312897" lon="-122.3571699">
      </trkpt>
      <trkpt lat="50.96310332" lon="-122.35721577">
      </trkpt>
      <trkpt lat="50.96307816" lon="-122.35724803">
      </trkpt>
      <trkpt lat="50.96305882" lon="-122.35725607">
      </trkpt>
      <trkpt lat="50.9630388" lon="-122.35729278">
      </trkpt>
      <trkpt lat="50.96305" lon="-122.35735006">
      </trkpt>
      <trkpt lat="50.96302679" lon="-122.35740586">
      </trkpt>
      <trkpt lat="50.96300768" lon="-122.3574233">
      </trkpt>
      <trkpt lat="50.96298027" lon="-122.35741976">
      </trkpt>
      <trkpt lat="50.96296106" lon="-122.35742814">
      </trkpt>
      <trkpt lat="50.96291745" lon="-122.35748527">
      </trkpt>
      <trkpt lat="50.96288736" lon="-122.3575476">
      </trkpt>
      <trkpt lat="50.96284714" lon="-122.35765374">
      </trkpt>
      <trkpt lat="50.96280804" lon="-122.35774261">
      </trkpt>
      <trkpt lat="50.96274464" lon="-122.35785832">
      </trkpt>
      <trkpt lat="50.96268684" lon="-122.3579682">
      </trkpt>
      <trkpt lat="50.96263982" lon="-122.35802283">
      </trkpt>
      <trkpt lat="50.96261925" lon="-122.35809084">
      </trkpt>
      <trkpt lat="50.96259417" lon="-122.35815632">
      </trkpt>
      <trkpt lat="50.96257096" lon="-122.35823057">
      </trkpt>
      <trkpt lat="50.96253459" lon="-122.35828847">
      </trkpt>
      <trkpt lat="50.96251266" lon="-122.35839139">
      </trkpt>
      <trkpt lat="50.96250397" lon="-122.35841958">
      </trkpt>
      <trkpt lat="50.96251925" lon="-122.35847266">
      </trkpt>
      <trkpt lat="50.96250352" lon="-122.35856786">
      </trkpt>
      <trkpt lat="50.962463" lon="-122.35872665">
      </trkpt>
      <trkpt lat="50.96243497" lon="-122.35885431">
      </trkpt>
      <trkpt lat="50.96241344" lon="-122.35901371">
      </trkpt>
      <trkpt lat="50.96240295" lon="-122.3591407">
      </trkpt>
      <trkpt lat="50.96240376" lon="-122.35923188">
      </trkpt>
      <trkpt lat="50.96241148" lon="-122.35925336">
      </trkpt>
      <trkpt lat="50.96240071" lon="-122.35932749">
      </trkpt>
      <trkpt lat="50.96239992" lon="-122.35942891">
      </trkpt>
      <trkpt lat="50.96239754" lon="-122.35948841">
      </trkpt>
      <trkpt lat="50.96238747" lon="-122.35957072">
      </trkpt>
      <trkpt lat="50.96236167" lon="-122.35964823">
      </trkpt>
      <trkpt lat="50.96234921" lon="-122.35971446">
      </trkpt>
      <trkpt lat="50.96235108" lon="-122.35979657">
      </trkpt>
      <trkpt lat="50.96235065" lon="-122.35985521">
      </trkpt>
      <trkpt lat="50.96234184" lon="-122.35995327">
      </trkpt>
      <trkpt lat="50.96233654" lon="-122.36001935">
      </trkpt>
      <trkpt lat="50.96233391" lon="-122.3600708">
      </trkpt>
      <trkpt lat="50.96233647" lon="-122.36010968">
      </trkpt>
      <trkpt lat="50.96235797" lon="-122.36011158">
      </trkpt>
      <trkpt lat="50.96235966" lon="-122.36016102">
      </trkpt>
      <trkpt lat="50.96236318" lon="-122.36028082">
      </trkpt>
      <trkpt lat="50.96236035" lon="-122.36035859">
      </trkpt>
      <trkpt lat="50.96235979" lon="-122.36042183">
      </trkpt>
      <trkpt lat="50.96234953" lon="-122.3604741">
      </trkpt>
      <trkpt lat="50.96233769" lon="-122.36054161">
      </trkpt>
      <trkpt lat="50.96236289" lon="-122.3605933">
      </trkpt>
      <trkpt lat="50.96235192" lon="-122.36065566">
      </trkpt>
      <trkpt lat="50.96233444" lon="-122.36072066">
      </trkpt>
      <trkpt lat="50.96234008" lon="-122.36077516">
      </trkpt>
      <trkpt lat="50.96234144" lon="-122.36087004">
      </trkpt>
      <trkpt lat="50.96233187" lon="-122.36091692">
      </trkpt>
      <trkpt lat="50.96231105" lon="-122.36092347">
      </trkpt>
      <trkpt lat="50.96228669" lon="-122.36102012">
      </trkpt>
      <trkpt lat="50.9622683" lon="-122.36118045">
      </trkpt>
      <trkpt lat="50.96226574" lon="-122.36129492">
      </trkpt>
      <trkpt lat="50.9622655" lon="-122.36133017">
      </trkpt>
      <trkpt lat="50.96225817" lon="-122.36139931">
      </trkpt>
      <trkpt lat="50.96227004" lon="-122.36147738">
      </trkpt>
      <trkpt lat="50.9622651" lon="-122.36154475">
      </trkpt>
      <trkpt lat="50.96225101" lon="-122.36162723">
      </trkpt>
      <trkpt lat="50.96225937" lon="-122.36167044">
      </trkpt>
      <trkpt lat="50.96224059" lon="-122.36173341">
      </trkpt>
      <trkpt lat="50.96223961" lon="-122.3618386">
      </trkpt>
      <trkpt lat="50.96222951" lon="-122.36197583">
      </trkpt>
      <trkpt lat="50.96223044" lon="-122.36206724">
      </trkpt>
      <trkpt lat="50.96223689" lon="-122.36217002">
      </trkpt>
      <trkpt lat="50.96224867" lon="-122.36238799">
      </trkpt>
      <trkpt lat="50.96225984" lon="-122.36252055">
      </trkpt>
      <trkpt lat="50.96225008" lon="-122.36266124">
      </trkpt>
      <trkpt lat="50.96226769" lon="-122.36274479">
      </trkpt>
      <trkpt lat="50.96226501" lon="-122.36280983">
      </trkpt>
      <trkpt lat="50.96228019" lon="-122.36292159">
      </trkpt>
      <trkpt lat="50.96228977" lon="-122.36298812">
      </trkpt>
      <trkpt lat="50.96230273" lon="-122.36304767">
      </trkpt>
      <trkpt lat="50.96230436" lon="-122.36313645">
      </trkpt>
      <trkpt lat="50.96230629" lon="-122.36320426">
      </trkpt>
      <trkpt lat="50.96229152" lon="-122.36327859">
      </trkpt>
      <trkpt lat="50.96229452" lon="-122.36334534">
      </trkpt>
      <trkpt lat="50.96230896" lon="-122.36341636">
      </trkpt>
      <trkpt lat="50.96232544" lon="-122.36343486">
      </trkpt>
      <trkpt lat="50.96232963" lon="-122.36347222">
      </trkpt>
      <trkpt lat="50.96231709" lon="-122.36355501">
      </trkpt>
      <trkpt lat="50.96231277" lon="-122.36364271">
      </trkpt>
      <trkpt lat="50.96233385" lon="-122.36375216">
      </trkpt>
      <trkpt lat="50.96232224" lon="-122.36380396">
      </trkpt>
      <trkpt lat="50.96233191" lon="-122.36387536">
      </trkpt>
      <trkpt lat="50.96234169" lon="-122.363931">
      </trkpt>
      <trkpt lat="50.96234741" lon="-122.36397303">
      </trkpt>
      <trkpt lat="50.96234852" lon="-122.3640555">
      </trkpt>
      <trkpt lat="50.96236758" lon="-122.36413235">
      </trkpt>
      <trkpt lat="50.96240634" lon="-122.364218">
      </trkpt>
      <trkpt lat="50.96242561" lon="-122.36427335">
      </trkpt>
      <trkpt lat="50.96245707" lon="-122.36430075">
      </trkpt>
      <trkpt lat="50.96246654" lon="-122.36437312">
      </trkpt>
      <trkpt lat="50.96247352" lon="-122.36445971">
      </trkpt>
      <trkpt lat="50.96247795" lon="-122.36452378">
      </trkpt>
      <trkpt lat="50.96249469" lon="-122.36458858">
      </trkpt>
      <trkpt lat="50.96249949" lon="-122.36463368">
      </trkpt>
      <trkpt lat="50.96250896" lon="-122.36471974">
      </trkpt>
      <trkpt lat="50.96255919" lon="-122.3647712">
      </trkpt>
      <trkpt lat="50.96255549" lon="-122.36485106">
      </trkpt>
      <trkpt lat="50.96253706" lon="-122.3649206">
      </trkpt>
      <trkpt lat="50.96251892" lon="-122.36497927">
      </trkpt>
      <trkpt lat="50.96251905" lon="-122.36507178">
      </trkpt>
      <trkpt lat="50.96250392" lon="-122.36515004">
      </trkpt>
      <trkpt lat="50.96249452" lon="-122.36526111">
      </trkpt>
      <trkpt lat="50.96249727" lon="-122.36530883">
      </trkpt>
      <trkpt lat="50.96246371" lon="-122.36541392">
      </trkpt>
      <trkpt lat="50.96241592" lon="-122.36555692">
      </trkpt>
      <trkpt lat="50.96237138" lon="-122.36555406">
      </trkpt>
      <trkpt lat="50.96232605" lon="-122.3656085">
      </trkpt>
      <trkpt lat="50.96235661" lon="-122.36563777">
      </trkpt>
      <trkpt lat="50.96239177" lon="-122.36565028">
      </trkpt>
      <trkpt lat="50.96240846" lon="-122.36569073">
      </trkpt>
      <trkpt lat="50.96243091" lon="-122.36573111">
      </trkpt>
      <trkpt lat="50.96245999" lon="-122.36580643">
      </trkpt>
      <trkpt lat="50.96247695" lon="-122.36584505">
      </trkpt>
      <trkpt lat="50.96250077" lon="-122.36588314">
      </trkpt>
      <trkpt lat="50.96254673" lon="-122.36592187">
      </trkpt>
      <trkpt lat="50.96257935" lon="-122.36592697">
      </trkpt>
      <trkpt lat="50.96261118" lon="-122.36590583">
      </trkpt>
      <trkpt lat="50.96268438" lon="-122.36593221">
      </trkpt>
      <trkpt lat="50.96277848" lon="-122.3658864">
      </trkpt>
      <trkpt lat="50.96286542" lon="-122.36583179">
      </trkpt>
      <trkpt lat="50.9629487" lon="-122.36578162">
      </trkpt>
      <trkpt lat="50.96303151" lon="-122.36573712">
      </trkpt>
      <trkpt lat="50.96306455" lon="-122.36571258">
      </trkpt>
      <trkpt lat="50.96314562" lon="-122.36563461">
      </trkpt>
      <trkpt lat="50.96322387" lon="-122.36564809">
      </trkpt>
      <trkpt lat="50.96343482" lon="-122.36555057">
      </trkpt>
      <trkpt lat="50.96348791" lon="-122.36556742">
      </trkpt>
      <trkpt lat="50.96356531" lon="-122.36561256">
      </trkpt>
      <trkpt lat="50.96355219" lon="-122.36572246">
      </trkpt>
      <trkpt lat="50.96352896" lon="-122.36580561">
      </trkpt>
      <trkpt lat="50.96357272" lon="-122.36586632">
      </trkpt>
      <trkpt lat="50.96361155" lon="-122.36589712">
      </trkpt>
      <trkpt lat="50.96363752" lon="-122.36594197">
      </trkpt>
      <trkpt lat="50.96370259" lon="-122.36590465">
      </trkpt>
      <trkpt lat="50.96376631" lon="-122.3658775">
      </trkpt>
      <trkpt lat="50.96383928" lon="-122.36583286">
      </trkpt>
      <trkpt lat="50.96391424" lon="-122.36577555">
      </trkpt>
      <trkpt lat="50.96394927" lon="-122.36576709">
      </trkpt>
      <trkpt lat="50.96397529" lon="-122.36577129">
      </trkpt>
      <trkpt lat="50.96399545" lon="-122.36578417">
      </trkpt>
      <trkpt lat="50.96399491" lon="-122.36585875">
      </trkpt>
      <trkpt lat="50.96404353" lon="-122.36586383">
      </trkpt>
      <trkpt lat="50.96410616" lon="-122.36583932">
      </trkpt>
      <trkpt lat="50.96415083" lon="-122.36581666">
      </trkpt>
      <trkpt lat="50.96419444" lon="-122.36583853">
      </trkpt>
      <trkpt lat="50.96422918" lon="-122.36582885">
      </trkpt>
      <trkpt lat="50.96429632" lon="-122.36587117">
      </trkpt>
      <trkpt lat="50.96430236" lon="-122.36594284">
      </trkpt>
      <trkpt lat="50.9643184" lon="-122.36596027">
      </trkpt>
      <trkpt lat="50.96436915" lon="-122.36593333">
      </trkpt>
      <trkpt lat="50.96439701" lon="-122.3659251">
      </trkpt>
      <trkpt lat="50.96444076" lon="-122.365972">
      </trkpt>
      <trkpt lat="50.96446747" lon="-122.36601188">
      </trkpt>
      <trkpt lat="50.964528" lon="-122.36602134">
      </trkpt>
      <trkpt lat="50.96459298" lon="-122.36600907">
      </trkpt>
      <trkpt lat="50.96463603" lon="-122.36597786">
      </trkpt>
      <trkpt lat="50.9647056" lon="-122.36597158">
      </trkpt>
      <trkpt lat="50.96476419" lon="-122.36594537">
      </trkpt>
      <trkpt lat="50.96481346" lon="-122.3659641">
      </trkpt>
      <trkpt lat="50.96488043" lon="-122.36599093">
      </trkpt>
      <trkpt lat="50.96489208" lon="-122.36598083">
      </trkpt>
      <trkpt lat="50.96494431" lon="-122.36590435">
      </trkpt>
      <trkpt lat="50.96496112" lon="-122.36590008">
      </trkpt>
      <trkpt lat="50.96500949" lon="-122.36591795">
      </trkpt>
      <trkpt lat="50.96503875" lon="-122.36595392">
      </trkpt>
      <trkpt lat="50.96510778" lon="-122.36594392">
      </trkpt>
      <trkpt lat="50.9651527" lon="-122.3659482">
      </trkpt>
      <trkpt lat="50.96523601" lon="-122.36594342">
      </trkpt>
    </trkseg>
  </trk>
</gpx>