<?xml version="1.0" encoding="UTF-8"?>
<gpx xmlns="http://www.topografix.com/GPX/1/1" xmlns:xsi="http://www.w3.org/2001/XMLSchema-instance" xsi:schemaLocation="http://www.topografix.com/GPX/1/1 http://www.topografix.com/GPX/1/1/gpx.xsd" version="1.1" creator="gpx.py -- https://github.com/tkrajina/gpxpy">
  <trk>
    <name>Marshall/Providence Lake X/C Trails</name>
    <trkseg>
      <trkpt lat="49.11020186" lon="-118.60128002">
      </trkpt>
      <trkpt lat="49.11023657" lon="-118.60140173">
      </trkpt>
      <trkpt lat="49.11027875" lon="-118.60143556">
      </trkpt>
      <trkpt lat="49.11031431" lon="-118.60147918">
      </trkpt>
      <trkpt lat="49.11031745" lon="-118.6015505">
      </trkpt>
      <trkpt lat="49.11033686" lon="-118.60161912">
      </trkpt>
      <trkpt lat="49.11034406" lon="-118.60169889">
      </trkpt>
      <trkpt lat="49.11037614" lon="-118.60175627">
      </trkpt>
      <trkpt lat="49.11039484" lon="-118.60182554">
      </trkpt>
      <trkpt lat="49.11040878" lon="-118.60190179">
      </trkpt>
      <trkpt lat="49.11041924" lon="-118.60196979">
      </trkpt>
      <trkpt lat="49.11046193" lon="-118.60201355">
      </trkpt>
      <trkpt lat="49.11049051" lon="-118.60195964">
      </trkpt>
      <trkpt lat="49.11048255" lon="-118.6018802">
      </trkpt>
      <trkpt lat="49.11047449" lon="-118.60179826">
      </trkpt>
      <trkpt lat="49.11047524" lon="-118.60172815">
      </trkpt>
      <trkpt lat="49.11048176" lon="-118.60166">
      </trkpt>
      <trkpt lat="49.11050173" lon="-118.60157361">
      </trkpt>
      <trkpt lat="49.11051657" lon="-118.60149775">
      </trkpt>
      <trkpt lat="49.11053014" lon="-118.60142413">
      </trkpt>
      <trkpt lat="49.1105766" lon="-118.60140826">
      </trkpt>
      <trkpt lat="49.11060124" lon="-118.60146789">
      </trkpt>
      <trkpt lat="49.11062919" lon="-118.60154041">
      </trkpt>
      <trkpt lat="49.11066409" lon="-118.60158778">
      </trkpt>
      <trkpt lat="49.11069616" lon="-118.60165092">
      </trkpt>
      <trkpt lat="49.11070301" lon="-118.60172174">
      </trkpt>
      <trkpt lat="49.1107187" lon="-118.60179383">
      </trkpt>
      <trkpt lat="49.11074401" lon="-118.60186259">
      </trkpt>
      <trkpt lat="49.11077856" lon="-118.60192671">
      </trkpt>
      <trkpt lat="49.11080948" lon="-118.60199685">
      </trkpt>
      <trkpt lat="49.11082652" lon="-118.60207315">
      </trkpt>
      <trkpt lat="49.11085495" lon="-118.6021393">
      </trkpt>
      <trkpt lat="49.11089381" lon="-118.60218706">
      </trkpt>
      <trkpt lat="49.11090331" lon="-118.60225907">
      </trkpt>
      <trkpt lat="49.11089406" lon="-118.60232717">
      </trkpt>
      <trkpt lat="49.11088621" lon="-118.602404">
      </trkpt>
      <trkpt lat="49.11086516" lon="-118.60246705">
      </trkpt>
      <trkpt lat="49.11084212" lon="-118.60253179">
      </trkpt>
      <trkpt lat="49.11081333" lon="-118.60258515">
      </trkpt>
      <trkpt lat="49.11078954" lon="-118.6026563">
      </trkpt>
      <trkpt lat="49.11076385" lon="-118.60272299">
      </trkpt>
      <trkpt lat="49.11073801" lon="-118.60278185">
      </trkpt>
      <trkpt lat="49.11073498" lon="-118.60285609">
      </trkpt>
      <trkpt lat="49.11071954" lon="-118.60292052">
      </trkpt>
      <trkpt lat="49.11070998" lon="-118.60299919">
      </trkpt>
      <trkpt lat="49.11068987" lon="-118.60306316">
      </trkpt>
      <trkpt lat="49.11067654" lon="-118.60313199">
      </trkpt>
      <trkpt lat="49.11065611" lon="-118.60319328">
      </trkpt>
      <trkpt lat="49.11065513" lon="-118.60326357">
      </trkpt>
      <trkpt lat="49.11065223" lon="-118.60333235">
      </trkpt>
      <trkpt lat="49.11062522" lon="-118.60338943">
      </trkpt>
      <trkpt lat="49.11058757" lon="-118.60344108">
      </trkpt>
      <trkpt lat="49.11053879" lon="-118.60347858">
      </trkpt>
      <trkpt lat="49.11048573" lon="-118.60349847">
      </trkpt>
      <trkpt lat="49.11043452" lon="-118.60351264">
      </trkpt>
      <trkpt lat="49.11038231" lon="-118.60351411">
      </trkpt>
      <trkpt lat="49.11033161" lon="-118.60350317">
      </trkpt>
      <trkpt lat="49.11027687" lon="-118.60349566">
      </trkpt>
      <trkpt lat="49.1102242" lon="-118.60350272">
      </trkpt>
      <trkpt lat="49.11017803" lon="-118.60348595">
      </trkpt>
      <trkpt lat="49.11012448" lon="-118.60348714">
      </trkpt>
      <trkpt lat="49.1100747" lon="-118.60350131">
      </trkpt>
      <trkpt lat="49.11002163" lon="-118.60351644">
      </trkpt>
      <trkpt lat="49.10997492" lon="-118.60354007">
      </trkpt>
      <trkpt lat="49.10992524" lon="-118.60356036">
      </trkpt>
      <trkpt lat="49.10987819" lon="-118.6035988">
      </trkpt>
      <trkpt lat="49.10983238" lon="-118.60362098">
      </trkpt>
      <trkpt lat="49.10978015" lon="-118.60364059">
      </trkpt>
      <trkpt lat="49.10973219" lon="-118.60367301">
      </trkpt>
      <trkpt lat="49.109685" lon="-118.60367493">
      </trkpt>
      <trkpt lat="49.10963464" lon="-118.60368423">
      </trkpt>
      <trkpt lat="49.10958464" lon="-118.60369349">
      </trkpt>
      <trkpt lat="49.10953457" lon="-118.60368973">
      </trkpt>
      <trkpt lat="49.10945969" lon="-118.60368678">
      </trkpt>
    </trkseg>
    <trkseg>
      <trkpt lat="49.11046592" lon="-118.59991156">
      </trkpt>
      <trkpt lat="49.11044994" lon="-118.59982423">
      </trkpt>
      <trkpt lat="49.11042772" lon="-118.59974602">
      </trkpt>
      <trkpt lat="49.11041077" lon="-118.59964651">
      </trkpt>
      <trkpt lat="49.11039714" lon="-118.59954649">
      </trkpt>
      <trkpt lat="49.1103835" lon="-118.59944645">
      </trkpt>
      <trkpt lat="49.11035622" lon="-118.59934349">
      </trkpt>
      <trkpt lat="49.11033733" lon="-118.59926475">
      </trkpt>
      <trkpt lat="49.11029061" lon="-118.59922109">
      </trkpt>
      <trkpt lat="49.11025421" lon="-118.59918091">
      </trkpt>
      <trkpt lat="49.11021572" lon="-118.5991104">
      </trkpt>
      <trkpt lat="49.11019018" lon="-118.5990327">
      </trkpt>
      <trkpt lat="49.11019616" lon="-118.59892444">
      </trkpt>
      <trkpt lat="49.11021122" lon="-118.59885049">
      </trkpt>
      <trkpt lat="49.11021562" lon="-118.59876803">
      </trkpt>
      <trkpt lat="49.11024101" lon="-118.59869755">
      </trkpt>
      <trkpt lat="49.11027585" lon="-118.59866644">
      </trkpt>
      <trkpt lat="49.11030755" lon="-118.59858985">
      </trkpt>
      <trkpt lat="49.11033383" lon="-118.59848345">
      </trkpt>
      <trkpt lat="49.11036045" lon="-118.59838211">
      </trkpt>
      <trkpt lat="49.11038201" lon="-118.59825603">
      </trkpt>
      <trkpt lat="49.11040706" lon="-118.59818049">
      </trkpt>
      <trkpt lat="49.11043245" lon="-118.59811001">
      </trkpt>
      <trkpt lat="49.1104771" lon="-118.59802624">
      </trkpt>
      <trkpt lat="49.11055694" lon="-118.59791641">
      </trkpt>
      <trkpt lat="49.11063853" lon="-118.59783185">
      </trkpt>
      <trkpt lat="49.11068299" lon="-118.5977941">
      </trkpt>
      <trkpt lat="49.11074951" lon="-118.59778349">
      </trkpt>
      <trkpt lat="49.11081988" lon="-118.59773139">
      </trkpt>
      <trkpt lat="49.11091144" lon="-118.59764524">
      </trkpt>
      <trkpt lat="49.11101701" lon="-118.59756708">
      </trkpt>
      <trkpt lat="49.11105919" lon="-118.59754502">
      </trkpt>
      <trkpt lat="49.1112099" lon="-118.59753631">
      </trkpt>
      <trkpt lat="49.11128446" lon="-118.59754486">
      </trkpt>
      <trkpt lat="49.11132" lon="-118.59752387">
      </trkpt>
      <trkpt lat="49.11135028" lon="-118.59752414">
      </trkpt>
      <trkpt lat="49.1114103" lon="-118.59756567">
      </trkpt>
      <trkpt lat="49.11148889" lon="-118.5975838">
      </trkpt>
      <trkpt lat="49.11158918" lon="-118.59762401">
      </trkpt>
      <trkpt lat="49.11168614" lon="-118.59766476">
      </trkpt>
      <trkpt lat="49.11176559" lon="-118.59774408">
      </trkpt>
      <trkpt lat="49.11182964" lon="-118.59779518">
      </trkpt>
      <trkpt lat="49.11189876" lon="-118.59787103">
      </trkpt>
      <trkpt lat="49.11197752" lon="-118.59794024">
      </trkpt>
      <trkpt lat="49.11204891" lon="-118.5980004">
      </trkpt>
      <trkpt lat="49.11210194" lon="-118.59803793">
      </trkpt>
      <trkpt lat="49.11216074" lon="-118.59811032">
      </trkpt>
      <trkpt lat="49.1122106" lon="-118.59819946">
      </trkpt>
      <trkpt lat="49.11226607" lon="-118.59827238">
      </trkpt>
      <trkpt lat="49.11230982" lon="-118.59832161">
      </trkpt>
      <trkpt lat="49.11234638" lon="-118.59841287">
      </trkpt>
      <trkpt lat="49.11237629" lon="-118.5985052">
      </trkpt>
      <trkpt lat="49.11240621" lon="-118.59859753">
      </trkpt>
      <trkpt lat="49.11244347" lon="-118.5986989">
      </trkpt>
      <trkpt lat="49.11250541" lon="-118.59881678">
      </trkpt>
      <trkpt lat="49.11253357" lon="-118.59888384">
      </trkpt>
      <trkpt lat="49.1125871" lon="-118.59897751">
      </trkpt>
      <trkpt lat="49.11261895" lon="-118.5990491">
      </trkpt>
      <trkpt lat="49.11263591" lon="-118.59914859">
      </trkpt>
      <trkpt lat="49.11265305" lon="-118.59920207">
      </trkpt>
      <trkpt lat="49.11266678" lon="-118.59928943">
      </trkpt>
      <trkpt lat="49.11270606" lon="-118.59933672">
      </trkpt>
      <trkpt lat="49.11277115" lon="-118.59940299">
      </trkpt>
      <trkpt lat="49.11284097" lon="-118.59948896">
      </trkpt>
      <trkpt lat="49.11290467" lon="-118.59953501">
      </trkpt>
      <trkpt lat="49.1129738" lon="-118.59961086">
      </trkpt>
      <trkpt lat="49.11302857" lon="-118.59967368">
      </trkpt>
      <trkpt lat="49.11308929" lon="-118.59972531">
      </trkpt>
      <trkpt lat="49.11314472" lon="-118.59977169">
      </trkpt>
      <trkpt lat="49.11314411" lon="-118.59985342">
      </trkpt>
      <trkpt lat="49.1131407" lon="-118.59991251">
      </trkpt>
      <trkpt lat="49.11313785" lon="-118.59997963">
      </trkpt>
      <trkpt lat="49.11313827" lon="-118.60010965">
      </trkpt>
      <trkpt lat="49.11312581" lon="-118.60025472">
      </trkpt>
      <trkpt lat="49.11313151" lon="-118.6004148">
      </trkpt>
      <trkpt lat="49.11312206" lon="-118.60057241">
      </trkpt>
      <trkpt lat="49.11311968" lon="-118.60072401">
      </trkpt>
      <trkpt lat="49.1131174" lon="-118.60083484">
      </trkpt>
      <trkpt lat="49.11312057" lon="-118.6009598">
      </trkpt>
      <trkpt lat="49.11314821" lon="-118.60105833">
      </trkpt>
      <trkpt lat="49.11316961" lon="-118.60114201">
      </trkpt>
      <trkpt lat="49.11320133" lon="-118.60122405">
      </trkpt>
      <trkpt lat="49.11322867" lon="-118.6013939">
      </trkpt>
      <trkpt lat="49.11324085" lon="-118.60149489">
      </trkpt>
      <trkpt lat="49.11326035" lon="-118.60162639">
      </trkpt>
      <trkpt lat="49.11326683" lon="-118.60172036">
      </trkpt>
      <trkpt lat="49.11326762" lon="-118.60180735">
      </trkpt>
      <trkpt lat="49.11325812" lon="-118.60189596">
      </trkpt>
      <trkpt lat="49.11324914" lon="-118.60199241">
      </trkpt>
      <trkpt lat="49.11324262" lon="-118.60204888">
      </trkpt>
      <trkpt lat="49.11326186" lon="-118.60210123">
      </trkpt>
      <trkpt lat="49.11328625" lon="-118.60215277">
      </trkpt>
      <trkpt lat="49.11329573" lon="-118.60221461">
      </trkpt>
      <trkpt lat="49.1132949" lon="-118.60227808">
      </trkpt>
      <trkpt lat="49.11328946" lon="-118.60235021">
      </trkpt>
      <trkpt lat="49.11327587" lon="-118.60245532">
      </trkpt>
      <trkpt lat="49.11329619" lon="-118.60252334">
      </trkpt>
      <trkpt lat="49.11332221" lon="-118.60259837">
      </trkpt>
      <trkpt lat="49.11331569" lon="-118.60265483">
      </trkpt>
      <trkpt lat="49.1132918" lon="-118.60276159">
      </trkpt>
      <trkpt lat="49.11328174" lon="-118.60284236">
      </trkpt>
      <trkpt lat="49.11328606" lon="-118.60290502">
      </trkpt>
      <trkpt lat="49.11331507" lon="-118.6029479">
      </trkpt>
      <trkpt lat="49.11337716" lon="-118.60301719">
      </trkpt>
      <trkpt lat="49.11342163" lon="-118.60305761">
      </trkpt>
      <trkpt lat="49.11346418" lon="-118.60314585">
      </trkpt>
      <trkpt lat="49.11350129" lon="-118.60330622">
      </trkpt>
      <trkpt lat="49.11351917" lon="-118.60341422">
      </trkpt>
      <trkpt lat="49.11351941" lon="-118.60349336">
      </trkpt>
      <trkpt lat="49.11350637" lon="-118.60360629">
      </trkpt>
      <trkpt lat="49.11348817" lon="-118.60372005">
      </trkpt>
      <trkpt lat="49.1134735" lon="-118.60380948">
      </trkpt>
      <trkpt lat="49.11344338" lon="-118.60390139">
      </trkpt>
      <trkpt lat="49.1134184" lon="-118.60399247">
      </trkpt>
      <trkpt lat="49.11340763" lon="-118.60411002">
      </trkpt>
      <trkpt lat="49.11333015" lon="-118.60418835">
      </trkpt>
      <trkpt lat="49.11322847" lon="-118.60433175">
      </trkpt>
      <trkpt lat="49.11313551" lon="-118.60439956">
      </trkpt>
      <trkpt lat="49.11305226" lon="-118.60437838">
      </trkpt>
      <trkpt lat="49.11304531" lon="-118.60442406">
      </trkpt>
      <trkpt lat="49.11302786" lon="-118.60453421">
      </trkpt>
      <trkpt lat="49.11300676" lon="-118.60463489">
      </trkpt>
      <trkpt lat="49.11298199" lon="-118.60472827">
      </trkpt>
      <trkpt lat="49.11297516" lon="-118.60478685">
      </trkpt>
      <trkpt lat="49.1129663" lon="-118.60481886">
      </trkpt>
      <trkpt lat="49.11289263" lon="-118.60482358">
      </trkpt>
      <trkpt lat="49.11288324" lon="-118.60482419">
      </trkpt>
      <trkpt lat="49.11274833" lon="-118.60481565">
      </trkpt>
      <trkpt lat="49.11263003" lon="-118.6048022">
      </trkpt>
      <trkpt lat="49.11255302" lon="-118.60479427">
      </trkpt>
      <trkpt lat="49.11245797" lon="-118.6048058">
      </trkpt>
      <trkpt lat="49.11236777" lon="-118.60481678">
      </trkpt>
      <trkpt lat="49.11227595" lon="-118.60483593">
      </trkpt>
      <trkpt lat="49.11216406" lon="-118.60483465">
      </trkpt>
      <trkpt lat="49.11211376" lon="-118.60482317">
      </trkpt>
      <trkpt lat="49.11204929" lon="-118.60480625">
      </trkpt>
      <trkpt lat="49.11204337" lon="-118.60480257">
      </trkpt>
      <trkpt lat="49.11198434" lon="-118.60487819">
      </trkpt>
      <trkpt lat="49.11188668" lon="-118.60497293">
      </trkpt>
      <trkpt lat="49.1116499" lon="-118.60508984">
      </trkpt>
      <trkpt lat="49.11152839" lon="-118.60514087">
      </trkpt>
      <trkpt lat="49.1114744" lon="-118.60518907">
      </trkpt>
      <trkpt lat="49.11141498" lon="-118.60530939">
      </trkpt>
      <trkpt lat="49.11135718" lon="-118.60545319">
      </trkpt>
      <trkpt lat="49.11130045" lon="-118.60561267">
      </trkpt>
      <trkpt lat="49.11125212" lon="-118.60581831">
      </trkpt>
      <trkpt lat="49.11119485" lon="-118.60596995">
      </trkpt>
      <trkpt lat="49.11108551" lon="-118.60612198">
      </trkpt>
      <trkpt lat="49.11100116" lon="-118.60618292">
      </trkpt>
      <trkpt lat="49.11092386" lon="-118.60619524">
      </trkpt>
      <trkpt lat="49.11083356" lon="-118.60617003">
      </trkpt>
      <trkpt lat="49.11074427" lon="-118.60610271">
      </trkpt>
      <trkpt lat="49.11068279" lon="-118.60609904">
      </trkpt>
      <trkpt lat="49.11058302" lon="-118.60601201">
      </trkpt>
      <trkpt lat="49.11053614" lon="-118.60586113">
      </trkpt>
      <trkpt lat="49.11052072" lon="-118.60571314">
      </trkpt>
      <trkpt lat="49.11052754" lon="-118.60558538">
      </trkpt>
      <trkpt lat="49.11051343" lon="-118.60539324">
      </trkpt>
      <trkpt lat="49.1104962" lon="-118.60538762">
      </trkpt>
      <trkpt lat="49.11045043" lon="-118.60532973">
      </trkpt>
      <trkpt lat="49.11041414" lon="-118.60525036">
      </trkpt>
      <trkpt lat="49.11036952" lon="-118.60513621">
      </trkpt>
      <trkpt lat="49.11032135" lon="-118.60505188">
      </trkpt>
      <trkpt lat="49.11025294" lon="-118.60497602">
      </trkpt>
      <trkpt lat="49.11018679" lon="-118.60490331">
      </trkpt>
      <trkpt lat="49.1101374" lon="-118.60485353">
      </trkpt>
      <trkpt lat="49.11009292" lon="-118.60479521">
      </trkpt>
      <trkpt lat="49.11002659" lon="-118.60471351">
      </trkpt>
      <trkpt lat="49.10995314" lon="-118.60466516">
      </trkpt>
      <trkpt lat="49.10990099" lon="-118.60462728">
      </trkpt>
      <trkpt lat="49.10985849" lon="-118.60459596">
      </trkpt>
      <trkpt lat="49.10980355" lon="-118.60458302">
      </trkpt>
      <trkpt lat="49.10976088" lon="-118.60457177">
      </trkpt>
      <trkpt lat="49.10970194" lon="-118.60455994">
      </trkpt>
      <trkpt lat="49.10965202" lon="-118.60453775">
      </trkpt>
      <trkpt lat="49.10960075" lon="-118.60449665">
      </trkpt>
      <trkpt lat="49.10956532" lon="-118.60439493">
      </trkpt>
      <trkpt lat="49.10953021" lon="-118.60433716">
      </trkpt>
      <trkpt lat="49.10950371" lon="-118.60427366">
      </trkpt>
      <trkpt lat="49.10950326" lon="-118.60426332">
      </trkpt>
    </trkseg>
    <trkseg>
      <trkpt lat="49.10748745" lon="-118.59587554">
      </trkpt>
      <trkpt lat="49.10782206" lon="-118.59546801">
      </trkpt>
      <trkpt lat="49.1079208" lon="-118.59518215">
      </trkpt>
      <trkpt lat="49.10788482" lon="-118.59513787">
      </trkpt>
      <trkpt lat="49.10754902" lon="-118.59504139">
      </trkpt>
      <trkpt lat="49.1072636" lon="-118.59489754">
      </trkpt>
      <trkpt lat="49.10726257" lon="-118.59489702">
      </trkpt>
      <trkpt lat="49.10721119" lon="-118.59472514">
      </trkpt>
      <trkpt lat="49.10731644" lon="-118.59443824">
      </trkpt>
      <trkpt lat="49.10724724" lon="-118.59438926">
      </trkpt>
      <trkpt lat="49.10709029" lon="-118.5944043">
      </trkpt>
      <trkpt lat="49.10693168" lon="-118.59410947">
      </trkpt>
      <trkpt lat="49.10691869" lon="-118.59392147">
      </trkpt>
      <trkpt lat="49.10670797" lon="-118.59370899">
      </trkpt>
      <trkpt lat="49.10678172" lon="-118.59327308">
      </trkpt>
      <trkpt lat="49.10681261" lon="-118.59295804">
      </trkpt>
      <trkpt lat="49.10671533" lon="-118.59269345">
      </trkpt>
      <trkpt lat="49.1064706" lon="-118.59200035">
      </trkpt>
      <trkpt lat="49.10646323" lon="-118.59197946">
      </trkpt>
      <trkpt lat="49.1065381" lon="-118.59180212">
      </trkpt>
      <trkpt lat="49.10666468" lon="-118.59153872">
      </trkpt>
      <trkpt lat="49.10684244" lon="-118.59124398">
      </trkpt>
      <trkpt lat="49.1072642" lon="-118.59084081">
      </trkpt>
      <trkpt lat="49.10692859" lon="-118.59083648">
      </trkpt>
      <trkpt lat="49.10670643" lon="-118.59092985">
      </trkpt>
      <trkpt lat="49.10662272" lon="-118.59093163">
      </trkpt>
      <trkpt lat="49.10652673" lon="-118.5908659">
      </trkpt>
      <trkpt lat="49.10649069" lon="-118.59074023">
      </trkpt>
      <trkpt lat="49.10673619" lon="-118.58992282">
      </trkpt>
      <trkpt lat="49.1067245" lon="-118.5893692">
      </trkpt>
      <trkpt lat="49.10696048" lon="-118.58912952">
      </trkpt>
      <trkpt lat="49.1073563" lon="-118.58889462">
      </trkpt>
      <trkpt lat="49.10763382" lon="-118.5884867">
      </trkpt>
      <trkpt lat="49.10788985" lon="-118.58834482">
      </trkpt>
      <trkpt lat="49.10824553" lon="-118.58810621">
      </trkpt>
      <trkpt lat="49.10847498" lon="-118.58748375">
      </trkpt>
      <trkpt lat="49.10874341" lon="-118.58719542">
      </trkpt>
    </trkseg>
    <trkseg>
      <trkpt lat="49.11314472" lon="-118.59977169">
      </trkpt>
      <trkpt lat="49.11317137" lon="-118.59979399">
      </trkpt>
      <trkpt lat="49.11325607" lon="-118.59985204">
      </trkpt>
      <trkpt lat="49.11337175" lon="-118.59992047">
      </trkpt>
      <trkpt lat="49.11351948" lon="-118.59991734">
      </trkpt>
      <trkpt lat="49.11360823" lon="-118.59988786">
      </trkpt>
      <trkpt lat="49.11371446" lon="-118.59991691">
      </trkpt>
      <trkpt lat="49.11378184" lon="-118.5999675">
      </trkpt>
      <trkpt lat="49.11384571" lon="-118.60006464">
      </trkpt>
      <trkpt lat="49.11391325" lon="-118.60016629">
      </trkpt>
      <trkpt lat="49.11399375" lon="-118.60026078">
      </trkpt>
      <trkpt lat="49.11410242" lon="-118.60032522">
      </trkpt>
      <trkpt lat="49.11420742" lon="-118.60038514">
      </trkpt>
      <trkpt lat="49.11426273" lon="-118.60040698">
      </trkpt>
      <trkpt lat="49.11431979" lon="-118.6004541">
      </trkpt>
      <trkpt lat="49.11441814" lon="-118.60051507">
      </trkpt>
      <trkpt lat="49.1144934" lon="-118.60053374">
      </trkpt>
      <trkpt lat="49.11457829" lon="-118.60054576">
      </trkpt>
      <trkpt lat="49.11462694" lon="-118.60056866">
      </trkpt>
      <trkpt lat="49.11474718" lon="-118.60060571">
      </trkpt>
      <trkpt lat="49.11483435" lon="-118.60060204">
      </trkpt>
      <trkpt lat="49.11491556" lon="-118.60060952">
      </trkpt>
      <trkpt lat="49.11496868" lon="-118.60064927">
      </trkpt>
    </trkseg>
    <trkseg>
      <trkpt lat="49.11448424" lon="-118.60331548">
      </trkpt>
      <trkpt lat="49.11458821" lon="-118.60322318">
      </trkpt>
      <trkpt lat="49.11469311" lon="-118.60309285">
      </trkpt>
      <trkpt lat="49.11480301" lon="-118.60298336">
      </trkpt>
      <trkpt lat="49.11488844" lon="-118.60293188">
      </trkpt>
      <trkpt lat="49.11502389" lon="-118.60288324">
      </trkpt>
      <trkpt lat="49.11517249" lon="-118.60287037">
      </trkpt>
      <trkpt lat="49.1152757" lon="-118.60287015">
      </trkpt>
      <trkpt lat="49.11535201" lon="-118.60294454">
      </trkpt>
      <trkpt lat="49.11541683" lon="-118.60305864">
      </trkpt>
      <trkpt lat="49.11548589" lon="-118.60328567">
      </trkpt>
      <trkpt lat="49.11555088" lon="-118.60345384">
      </trkpt>
      <trkpt lat="49.11560698" lon="-118.60359637">
      </trkpt>
      <trkpt lat="49.11570314" lon="-118.60359727">
      </trkpt>
      <trkpt lat="49.11581134" lon="-118.6036179">
      </trkpt>
      <trkpt lat="49.11592769" lon="-118.60365346">
      </trkpt>
      <trkpt lat="49.116022" lon="-118.60362761">
      </trkpt>
      <trkpt lat="49.11611427" lon="-118.60362372">
      </trkpt>
      <trkpt lat="49.11620541" lon="-118.60370657">
      </trkpt>
      <trkpt lat="49.11633437" lon="-118.60371847">
      </trkpt>
      <trkpt lat="49.11646425" lon="-118.60369236">
      </trkpt>
      <trkpt lat="49.11653875" lon="-118.6036372">
      </trkpt>
      <trkpt lat="49.1166905" lon="-118.60361843">
      </trkpt>
      <trkpt lat="49.11676886" lon="-118.60367086">
      </trkpt>
      <trkpt lat="49.11685596" lon="-118.60359206">
      </trkpt>
      <trkpt lat="49.1169829" lon="-118.60352314">
      </trkpt>
      <trkpt lat="49.11710092" lon="-118.60353137">
      </trkpt>
      <trkpt lat="49.11717596" lon="-118.60353563">
      </trkpt>
      <trkpt lat="49.11725508" lon="-118.60349597">
      </trkpt>
      <trkpt lat="49.1173559" lon="-118.60340957">
      </trkpt>
      <trkpt lat="49.11745468" lon="-118.60334513">
      </trkpt>
      <trkpt lat="49.11751974" lon="-118.60320493">
      </trkpt>
      <trkpt lat="49.11754052" lon="-118.6030934">
      </trkpt>
      <trkpt lat="49.1175728" lon="-118.60294218">
      </trkpt>
      <trkpt lat="49.11759063" lon="-118.60278786">
      </trkpt>
      <trkpt lat="49.11759957" lon="-118.60260789">
      </trkpt>
      <trkpt lat="49.11763224" lon="-118.60235923">
      </trkpt>
      <trkpt lat="49.11767897" lon="-118.60221111">
      </trkpt>
      <trkpt lat="49.11776109" lon="-118.60200866">
      </trkpt>
      <trkpt lat="49.11786341" lon="-118.60184087">
      </trkpt>
      <trkpt lat="49.11794478" lon="-118.60173051">
      </trkpt>
      <trkpt lat="49.1179574" lon="-118.60160407">
      </trkpt>
      <trkpt lat="49.11794706" lon="-118.60145422">
      </trkpt>
      <trkpt lat="49.11794121" lon="-118.60116301">
      </trkpt>
      <trkpt lat="49.11792737" lon="-118.60091093">
      </trkpt>
      <trkpt lat="49.11791092" lon="-118.6007242">
      </trkpt>
      <trkpt lat="49.11793874" lon="-118.60061156">
      </trkpt>
      <trkpt lat="49.1179912" lon="-118.60049498">
      </trkpt>
      <trkpt lat="49.11801087" lon="-118.60036741">
      </trkpt>
      <trkpt lat="49.1179672" lon="-118.60014715">
      </trkpt>
      <trkpt lat="49.11801394" lon="-118.59989624">
      </trkpt>
      <trkpt lat="49.11803955" lon="-118.59975149">
      </trkpt>
      <trkpt lat="49.11802327" lon="-118.59961882">
      </trkpt>
      <trkpt lat="49.11799885" lon="-118.59947123">
      </trkpt>
      <trkpt lat="49.11796443" lon="-118.59928196">
      </trkpt>
      <trkpt lat="49.11796207" lon="-118.59909297">
      </trkpt>
      <trkpt lat="49.11795415" lon="-118.59882371">
      </trkpt>
      <trkpt lat="49.11788211" lon="-118.59865667">
      </trkpt>
      <trkpt lat="49.11781212" lon="-118.59846765">
      </trkpt>
      <trkpt lat="49.11781568" lon="-118.5982615">
      </trkpt>
      <trkpt lat="49.11784073" lon="-118.59805732">
      </trkpt>
      <trkpt lat="49.11781873" lon="-118.59789311">
      </trkpt>
      <trkpt lat="49.11775966" lon="-118.59770777">
      </trkpt>
      <trkpt lat="49.11770729" lon="-118.59741316">
      </trkpt>
      <trkpt lat="49.11763785" lon="-118.59718076">
      </trkpt>
      <trkpt lat="49.11760196" lon="-118.59686729">
      </trkpt>
      <trkpt lat="49.11759645" lon="-118.59668422">
      </trkpt>
      <trkpt lat="49.11758832" lon="-118.59656649">
      </trkpt>
      <trkpt lat="49.11757191" lon="-118.59645619">
      </trkpt>
    </trkseg>
    <trkseg>
      <trkpt lat="49.11024488" lon="-118.60970665">
      </trkpt>
      <trkpt lat="49.11028688" lon="-118.60983184">
      </trkpt>
      <trkpt lat="49.1103136" lon="-118.60992904">
      </trkpt>
      <trkpt lat="49.11034433" lon="-118.61003574">
      </trkpt>
      <trkpt lat="49.1103679" lon="-118.61018414">
      </trkpt>
      <trkpt lat="49.11038941" lon="-118.61030246">
      </trkpt>
      <trkpt lat="49.11041314" lon="-118.61050155">
      </trkpt>
      <trkpt lat="49.1104416" lon="-118.61062384">
      </trkpt>
      <trkpt lat="49.11053658" lon="-118.61079132">
      </trkpt>
      <trkpt lat="49.1106149" lon="-118.61091072">
      </trkpt>
      <trkpt lat="49.11071632" lon="-118.61102645">
      </trkpt>
      <trkpt lat="49.11082834" lon="-118.61115063">
      </trkpt>
      <trkpt lat="49.11094904" lon="-118.61130388">
      </trkpt>
      <trkpt lat="49.11109199" lon="-118.61139271">
      </trkpt>
      <trkpt lat="49.11116892" lon="-118.61149206">
      </trkpt>
      <trkpt lat="49.11124655" lon="-118.61160143">
      </trkpt>
      <trkpt lat="49.11130698" lon="-118.6117034">
      </trkpt>
      <trkpt lat="49.11140318" lon="-118.61184026">
      </trkpt>
      <trkpt lat="49.11149904" lon="-118.61197209">
      </trkpt>
      <trkpt lat="49.11161905" lon="-118.6121153">
      </trkpt>
      <trkpt lat="49.11174584" lon="-118.61221177">
      </trkpt>
      <trkpt lat="49.11185682" lon="-118.61232091">
      </trkpt>
      <trkpt lat="49.11194296" lon="-118.61240866">
      </trkpt>
      <trkpt lat="49.11206704" lon="-118.61254924">
      </trkpt>
      <trkpt lat="49.11210595" lon="-118.61267954">
      </trkpt>
      <trkpt lat="49.11215606" lon="-118.61288539">
      </trkpt>
      <trkpt lat="49.11221835" lon="-118.61300742">
      </trkpt>
      <trkpt lat="49.11230199" lon="-118.61313515">
      </trkpt>
      <trkpt lat="49.11233653" lon="-118.6132889">
      </trkpt>
      <trkpt lat="49.11235813" lon="-118.613472">
      </trkpt>
      <trkpt lat="49.11238753" lon="-118.61359471">
      </trkpt>
      <trkpt lat="49.11244515" lon="-118.61373568">
      </trkpt>
      <trkpt lat="49.11253144" lon="-118.61385844">
      </trkpt>
      <trkpt lat="49.11264438" lon="-118.61397696">
      </trkpt>
      <trkpt lat="49.1127433" lon="-118.61406587">
      </trkpt>
      <trkpt lat="49.11287338" lon="-118.61417255">
      </trkpt>
      <trkpt lat="49.11295816" lon="-118.61418635">
      </trkpt>
      <trkpt lat="49.11303996" lon="-118.61420064">
      </trkpt>
      <trkpt lat="49.11312645" lon="-118.61419597">
      </trkpt>
      <trkpt lat="49.11318598" lon="-118.61419105">
      </trkpt>
      <trkpt lat="49.11326124" lon="-118.61419727">
      </trkpt>
      <trkpt lat="49.11332202" lon="-118.61421035">
      </trkpt>
      <trkpt lat="49.11340734" lon="-118.61423068">
      </trkpt>
      <trkpt lat="49.11349647" lon="-118.61423273">
      </trkpt>
      <trkpt lat="49.11359189" lon="-118.61422295">
      </trkpt>
      <trkpt lat="49.11365972" lon="-118.61417428">
      </trkpt>
      <trkpt lat="49.11371833" lon="-118.61399185">
      </trkpt>
      <trkpt lat="49.11376008" lon="-118.61382291">
      </trkpt>
      <trkpt lat="49.11377236" lon="-118.61369113">
      </trkpt>
      <trkpt lat="49.11372274" lon="-118.61359083">
      </trkpt>
      <trkpt lat="49.11360438" lon="-118.61347444">
      </trkpt>
      <trkpt lat="49.11346786" lon="-118.6134042">
      </trkpt>
      <trkpt lat="49.11335614" lon="-118.61338411">
      </trkpt>
      <trkpt lat="49.11327074" lon="-118.6133328">
      </trkpt>
      <trkpt lat="49.11318423" lon="-118.61326542">
      </trkpt>
      <trkpt lat="49.11309441" lon="-118.61314989">
      </trkpt>
      <trkpt lat="49.11305871" lon="-118.61299328">
      </trkpt>
      <trkpt lat="49.11310083" lon="-118.6128297">
      </trkpt>
      <trkpt lat="49.11314556" lon="-118.61260079">
      </trkpt>
      <trkpt lat="49.11316561" lon="-118.61247858">
      </trkpt>
      <trkpt lat="49.11315083" lon="-118.61236733">
      </trkpt>
      <trkpt lat="49.1131342" lon="-118.61222933">
      </trkpt>
      <trkpt lat="49.11316243" lon="-118.61201928">
      </trkpt>
      <trkpt lat="49.11320602" lon="-118.61187709">
      </trkpt>
      <trkpt lat="49.11321886" lon="-118.61170195">
      </trkpt>
      <trkpt lat="49.11322708" lon="-118.6115113">
      </trkpt>
      <trkpt lat="49.11325548" lon="-118.61135532">
      </trkpt>
      <trkpt lat="49.11327298" lon="-118.61109287">
      </trkpt>
      <trkpt lat="49.11328231" lon="-118.61091828">
      </trkpt>
      <trkpt lat="49.11329924" lon="-118.61069918">
      </trkpt>
      <trkpt lat="49.11332077" lon="-118.61059838">
      </trkpt>
      <trkpt lat="49.11334266" lon="-118.61050295">
      </trkpt>
      <trkpt lat="49.11337418" lon="-118.61044382">
      </trkpt>
      <trkpt lat="49.11348016" lon="-118.61043237">
      </trkpt>
      <trkpt lat="49.11356834" lon="-118.61047242">
      </trkpt>
      <trkpt lat="49.11365059" lon="-118.61052965">
      </trkpt>
      <trkpt lat="49.11377562" lon="-118.61063956">
      </trkpt>
      <trkpt lat="49.11390085" lon="-118.61070078">
      </trkpt>
      <trkpt lat="49.11401719" lon="-118.61073634">
      </trkpt>
      <trkpt lat="49.11412392" lon="-118.61073557">
      </trkpt>
      <trkpt lat="49.1142334" lon="-118.61082634">
      </trkpt>
      <trkpt lat="49.11432396" lon="-118.61095257">
      </trkpt>
      <trkpt lat="49.11441807" lon="-118.61097546">
      </trkpt>
      <trkpt lat="49.11449311" lon="-118.61097973">
      </trkpt>
      <trkpt lat="49.11451037" lon="-118.6108688">
      </trkpt>
      <trkpt lat="49.11447986" lon="-118.61068431">
      </trkpt>
      <trkpt lat="49.11441394" lon="-118.61055416">
      </trkpt>
      <trkpt lat="49.11434599" lon="-118.61044596">
      </trkpt>
      <trkpt lat="49.11433582" lon="-118.61035021">
      </trkpt>
      <trkpt lat="49.11439329" lon="-118.61025449">
      </trkpt>
      <trkpt lat="49.11443909" lon="-118.61014442">
      </trkpt>
      <trkpt lat="49.11438484" lon="-118.61002864">
      </trkpt>
      <trkpt lat="49.11428777" lon="-118.60996294">
      </trkpt>
      <trkpt lat="49.11425076" lon="-118.60983901">
      </trkpt>
      <trkpt lat="49.11425914" lon="-118.60970242">
      </trkpt>
      <trkpt lat="49.11433958" lon="-118.60963011">
      </trkpt>
      <trkpt lat="49.11447131" lon="-118.60963078">
      </trkpt>
      <trkpt lat="49.11455674" lon="-118.6095793">
      </trkpt>
      <trkpt lat="49.11462387" lon="-118.60941714">
      </trkpt>
      <trkpt lat="49.11468321" lon="-118.60924539">
      </trkpt>
      <trkpt lat="49.11471328" lon="-118.60906207">
      </trkpt>
      <trkpt lat="49.11472944" lon="-118.60893507">
      </trkpt>
      <trkpt lat="49.11467409" lon="-118.60880323">
      </trkpt>
      <trkpt lat="49.11458573" lon="-118.60870912">
      </trkpt>
      <trkpt lat="49.11451556" lon="-118.60856881">
      </trkpt>
      <trkpt lat="49.11450985" lon="-118.60843449">
      </trkpt>
      <trkpt lat="49.11456547" lon="-118.60831202">
      </trkpt>
      <trkpt lat="49.11462793" lon="-118.60823715">
      </trkpt>
      <trkpt lat="49.114645" lon="-118.60817493">
      </trkpt>
      <trkpt lat="49.11460929" lon="-118.60801832">
      </trkpt>
      <trkpt lat="49.11451373" lon="-118.60787124">
      </trkpt>
      <trkpt lat="49.11443151" lon="-118.60771123">
      </trkpt>
      <trkpt lat="49.11433706" lon="-118.60758022">
      </trkpt>
      <trkpt lat="49.11425594" lon="-118.60743625">
      </trkpt>
      <trkpt lat="49.11423374" lon="-118.60732077">
      </trkpt>
      <trkpt lat="49.11424175" lon="-118.60717884">
      </trkpt>
      <trkpt lat="49.11432463" lon="-118.60698712">
      </trkpt>
      <trkpt lat="49.11440529" lon="-118.60676329">
      </trkpt>
      <trkpt lat="49.1144461" lon="-118.60663236">
      </trkpt>
      <trkpt lat="49.11443798" lon="-118.60651464">
      </trkpt>
      <trkpt lat="49.11444689" lon="-118.60643749">
      </trkpt>
      <trkpt lat="49.11446117" lon="-118.60638652">
      </trkpt>
      <trkpt lat="49.1145077" lon="-118.60628714">
      </trkpt>
      <trkpt lat="49.11450069" lon="-118.60618546">
      </trkpt>
      <trkpt lat="49.11446903" lon="-118.60608773">
      </trkpt>
      <trkpt lat="49.11442849" lon="-118.60596436">
      </trkpt>
      <trkpt lat="49.11437572" lon="-118.60586997">
      </trkpt>
      <trkpt lat="49.11433182" lon="-118.60580123">
      </trkpt>
      <trkpt lat="49.11426942" lon="-118.60567052">
      </trkpt>
      <trkpt lat="49.11419237" lon="-118.60558542">
      </trkpt>
      <trkpt lat="49.11409345" lon="-118.60549299">
      </trkpt>
      <trkpt lat="49.11396007" lon="-118.60541687">
      </trkpt>
      <trkpt lat="49.11387912" lon="-118.60532698">
      </trkpt>
      <trkpt lat="49.11381152" lon="-118.60522416">
      </trkpt>
      <trkpt lat="49.11380491" lon="-118.60502504">
      </trkpt>
      <trkpt lat="49.1138496" lon="-118.60489891">
      </trkpt>
      <trkpt lat="49.11398176" lon="-118.60469933">
      </trkpt>
      <trkpt lat="49.11413576" lon="-118.60460987">
      </trkpt>
      <trkpt lat="49.11433332" lon="-118.60437823">
      </trkpt>
      <trkpt lat="49.11441231" lon="-118.6041817">
      </trkpt>
      <trkpt lat="49.11444109" lon="-118.60392827">
      </trkpt>
      <trkpt lat="49.11447468" lon="-118.60374439">
      </trkpt>
      <trkpt lat="49.11446659" lon="-118.60352388">
      </trkpt>
      <trkpt lat="49.11448424" lon="-118.60331548">
      </trkpt>
      <trkpt lat="49.11451836" lon="-118.60319103">
      </trkpt>
      <trkpt lat="49.11456251" lon="-118.60300548">
      </trkpt>
      <trkpt lat="49.11462852" lon="-118.60282725">
      </trkpt>
      <trkpt lat="49.11472881" lon="-118.60257864">
      </trkpt>
      <trkpt lat="49.11485208" lon="-118.6023534">
      </trkpt>
      <trkpt lat="49.11497294" lon="-118.60214479">
      </trkpt>
      <trkpt lat="49.11507841" lon="-118.6019711">
      </trkpt>
      <trkpt lat="49.11514441" lon="-118.60179287">
      </trkpt>
      <trkpt lat="49.11516707" lon="-118.60160532">
      </trkpt>
      <trkpt lat="49.11520712" lon="-118.60146368">
      </trkpt>
      <trkpt lat="49.11525089" lon="-118.60127277">
      </trkpt>
      <trkpt lat="49.11528947" lon="-118.60110973">
      </trkpt>
      <trkpt lat="49.1153227" lon="-118.6008177">
      </trkpt>
      <trkpt lat="49.11535758" lon="-118.60060115">
      </trkpt>
      <trkpt lat="49.11540136" lon="-118.60041024">
      </trkpt>
      <trkpt lat="49.11539685" lon="-118.60027433">
      </trkpt>
      <trkpt lat="49.11537847" lon="-118.60020224">
      </trkpt>
      <trkpt lat="49.11541495" lon="-118.60014299">
      </trkpt>
      <trkpt lat="49.11546091" lon="-118.60008697">
      </trkpt>
      <trkpt lat="49.11549966" lon="-118.59997799">
      </trkpt>
      <trkpt lat="49.11545245" lon="-118.59995524">
      </trkpt>
    </trkseg>
    <trkseg>
      <trkpt lat="49.11453087" lon="-118.60115494">
      </trkpt>
      <trkpt lat="49.11448298" lon="-118.60116076">
      </trkpt>
      <trkpt lat="49.11441103" lon="-118.60115771">
      </trkpt>
      <trkpt lat="49.11429729" lon="-118.60110315">
      </trkpt>
      <trkpt lat="49.11419898" lon="-118.60099526">
      </trkpt>
      <trkpt lat="49.11407974" lon="-118.60099973">
      </trkpt>
      <trkpt lat="49.11392639" lon="-118.60099512">
      </trkpt>
      <trkpt lat="49.11379696" lon="-118.60092127">
      </trkpt>
      <trkpt lat="49.11368943" lon="-118.60088754">
      </trkpt>
      <trkpt lat="49.11356348" lon="-118.60086401">
      </trkpt>
      <trkpt lat="49.11343652" lon="-118.6008261">
      </trkpt>
      <trkpt lat="49.1133367" lon="-118.60083475">
      </trkpt>
      <trkpt lat="49.11327147" lon="-118.60085969">
      </trkpt>
      <trkpt lat="49.11318535" lon="-118.60085888">
      </trkpt>
      <trkpt lat="49.11306227" lon="-118.60081533">
      </trkpt>
      <trkpt lat="49.1130579" lon="-118.60081379">
      </trkpt>
      <trkpt lat="49.11294216" lon="-118.60073049">
      </trkpt>
      <trkpt lat="49.11283691" lon="-118.60052196">
      </trkpt>
      <trkpt lat="49.11273338" lon="-118.60040764">
      </trkpt>
      <trkpt lat="49.11261665" lon="-118.60030996">
      </trkpt>
      <trkpt lat="49.11254498" lon="-118.60024144">
      </trkpt>
      <trkpt lat="49.11250469" lon="-118.60007344">
      </trkpt>
      <trkpt lat="49.11249048" lon="-118.60005458">
      </trkpt>
      <trkpt lat="49.11243625" lon="-118.59998259">
      </trkpt>
      <trkpt lat="49.11235514" lon="-118.59977749">
      </trkpt>
      <trkpt lat="49.11226007" lon="-118.59964728">
      </trkpt>
      <trkpt lat="49.11212095" lon="-118.5995023">
      </trkpt>
      <trkpt lat="49.11198778" lon="-118.59944358">
      </trkpt>
      <trkpt lat="49.11185187" lon="-118.59941438">
      </trkpt>
      <trkpt lat="49.11166019" lon="-118.59940861">
      </trkpt>
      <trkpt lat="49.11147622" lon="-118.59944522">
      </trkpt>
      <trkpt lat="49.11127332" lon="-118.59948484">
      </trkpt>
      <trkpt lat="49.11112395" lon="-118.59953773">
      </trkpt>
      <trkpt lat="49.11099449" lon="-118.59960198">
      </trkpt>
      <trkpt lat="49.11088543" lon="-118.59968478">
      </trkpt>
      <trkpt lat="49.11075922" lon="-118.59972671">
      </trkpt>
      <trkpt lat="49.11063101" lon="-118.59973989">
      </trkpt>
      <trkpt lat="49.11053465" lon="-118.59979886">
      </trkpt>
      <trkpt lat="49.11046592" lon="-118.59991156">
      </trkpt>
      <trkpt lat="49.11045296" lon="-118.60000085">
      </trkpt>
      <trkpt lat="49.11042954" lon="-118.60007725">
      </trkpt>
      <trkpt lat="49.11039342" lon="-118.60017749">
      </trkpt>
      <trkpt lat="49.11037722" lon="-118.60028909">
      </trkpt>
      <trkpt lat="49.11034457" lon="-118.60043966">
      </trkpt>
      <trkpt lat="49.11033123" lon="-118.60055539">
      </trkpt>
      <trkpt lat="49.11032388" lon="-118.60065273">
      </trkpt>
      <trkpt lat="49.11030482" lon="-118.60078401">
      </trkpt>
      <trkpt lat="49.11027002" lon="-118.60089108">
      </trkpt>
      <trkpt lat="49.11024967" lon="-118.60105462">
      </trkpt>
      <trkpt lat="49.11023546" lon="-118.6011044">
      </trkpt>
      <trkpt lat="49.11022954" lon="-118.60115952">
      </trkpt>
      <trkpt lat="49.11022008" lon="-118.60121027">
      </trkpt>
      <trkpt lat="49.11019189" lon="-118.60131819">
      </trkpt>
      <trkpt lat="49.110135" lon="-118.60147992">
      </trkpt>
      <trkpt lat="49.11008777" lon="-118.60167183">
      </trkpt>
      <trkpt lat="49.11002426" lon="-118.60184724">
      </trkpt>
      <trkpt lat="49.1099493" lon="-118.60207587">
      </trkpt>
      <trkpt lat="49.10987066" lon="-118.60228731">
      </trkpt>
      <trkpt lat="49.10984522" lon="-118.60243422">
      </trkpt>
      <trkpt lat="49.10979142" lon="-118.60259927">
      </trkpt>
      <trkpt lat="49.10972773" lon="-118.60271162">
      </trkpt>
      <trkpt lat="49.10967607" lon="-118.60281565">
      </trkpt>
      <trkpt lat="49.10963075" lon="-118.60295061">
      </trkpt>
      <trkpt lat="49.10960578" lon="-118.60307593">
      </trkpt>
      <trkpt lat="49.10953639" lon="-118.6032275">
      </trkpt>
      <trkpt lat="49.1094692" lon="-118.60337466">
      </trkpt>
      <trkpt lat="49.10946911" lon="-118.60346212">
      </trkpt>
      <trkpt lat="49.10945375" lon="-118.60357502">
      </trkpt>
      <trkpt lat="49.10946073" lon="-118.60370653">
      </trkpt>
      <trkpt lat="49.10947913" lon="-118.60388117">
      </trkpt>
      <trkpt lat="49.10948818" lon="-118.60403315">
      </trkpt>
      <trkpt lat="49.10949985" lon="-118.60418547">
      </trkpt>
      <trkpt lat="49.10950326" lon="-118.60426332">
      </trkpt>
      <trkpt lat="49.10949022" lon="-118.60433152">
      </trkpt>
      <trkpt lat="49.10949557" lon="-118.60444219">
      </trkpt>
      <trkpt lat="49.1095002" lon="-118.60454252">
      </trkpt>
      <trkpt lat="49.10950781" lon="-118.60465283">
      </trkpt>
      <trkpt lat="49.10951397" lon="-118.60480868">
      </trkpt>
      <trkpt lat="49.10953279" lon="-118.60494856">
      </trkpt>
      <trkpt lat="49.10956786" lon="-118.60505799">
      </trkpt>
      <trkpt lat="49.10958491" lon="-118.60513891">
      </trkpt>
      <trkpt lat="49.10957282" lon="-118.60526281">
      </trkpt>
      <trkpt lat="49.10955332" lon="-118.60541229">
      </trkpt>
      <trkpt lat="49.10955806" lon="-118.60554746">
      </trkpt>
      <trkpt lat="49.10956923" lon="-118.60570947">
      </trkpt>
      <trkpt lat="49.10958244" lon="-118.60586768">
      </trkpt>
      <trkpt lat="49.10957655" lon="-118.606015">
      </trkpt>
      <trkpt lat="49.10956456" lon="-118.60617374">
      </trkpt>
      <trkpt lat="49.10956021" lon="-118.60637656">
      </trkpt>
      <trkpt lat="49.10957281" lon="-118.60655926">
      </trkpt>
      <trkpt lat="49.10961371" lon="-118.60672003">
      </trkpt>
      <trkpt lat="49.10966882" lon="-118.60685413">
      </trkpt>
      <trkpt lat="49.10975414" lon="-118.60699389">
      </trkpt>
      <trkpt lat="49.10980734" lon="-118.60710042">
      </trkpt>
      <trkpt lat="49.10985675" lon="-118.6071518">
      </trkpt>
      <trkpt lat="49.10990972" lon="-118.60725488">
      </trkpt>
      <trkpt lat="49.10992893" lon="-118.60730061">
      </trkpt>
      <trkpt lat="49.10987082" lon="-118.60742795">
      </trkpt>
      <trkpt lat="49.10984089" lon="-118.60757474">
      </trkpt>
      <trkpt lat="49.10984935" lon="-118.60774585">
      </trkpt>
      <trkpt lat="49.10983801" lon="-118.6079201">
      </trkpt>
      <trkpt lat="49.10983623" lon="-118.60808777">
      </trkpt>
      <trkpt lat="49.10984903" lon="-118.6082734">
      </trkpt>
      <trkpt lat="49.10986843" lon="-118.60845799">
      </trkpt>
      <trkpt lat="49.10988921" lon="-118.60866263">
      </trkpt>
      <trkpt lat="49.10991365" lon="-118.60887177">
      </trkpt>
      <trkpt lat="49.10989623" lon="-118.60900643">
      </trkpt>
      <trkpt lat="49.10990991" lon="-118.6091564">
      </trkpt>
      <trkpt lat="49.11000646" lon="-118.60929827">
      </trkpt>
      <trkpt lat="49.11008252" lon="-118.60943325">
      </trkpt>
      <trkpt lat="49.11018567" lon="-118.60957406">
      </trkpt>
      <trkpt lat="49.11024488" lon="-118.60970665">
      </trkpt>
      <trkpt lat="49.11031714" lon="-118.60978869">
      </trkpt>
      <trkpt lat="49.11036245" lon="-118.60988156">
      </trkpt>
      <trkpt lat="49.11044345" lon="-118.61001424">
      </trkpt>
      <trkpt lat="49.11049049" lon="-118.61008864">
      </trkpt>
      <trkpt lat="49.11060842" lon="-118.61019271">
      </trkpt>
      <trkpt lat="49.11069815" lon="-118.61027851">
      </trkpt>
      <trkpt lat="49.1107622" lon="-118.61029561">
      </trkpt>
      <trkpt lat="49.11088656" lon="-118.6102758">
      </trkpt>
      <trkpt lat="49.11098179" lon="-118.61022424">
      </trkpt>
      <trkpt lat="49.11109073" lon="-118.6101978">
      </trkpt>
      <trkpt lat="49.11123069" lon="-118.61014367">
      </trkpt>
      <trkpt lat="49.11135567" lon="-118.61013286">
      </trkpt>
      <trkpt lat="49.11147987" lon="-118.61015404">
      </trkpt>
      <trkpt lat="49.11158954" lon="-118.61026851">
      </trkpt>
      <trkpt lat="49.11166196" lon="-118.61040712">
      </trkpt>
      <trkpt lat="49.11171599" lon="-118.61053957">
      </trkpt>
      <trkpt lat="49.11182721" lon="-118.61067655">
      </trkpt>
      <trkpt lat="49.11191835" lon="-118.61073938">
      </trkpt>
      <trkpt lat="49.11202101" lon="-118.61088228">
      </trkpt>
      <trkpt lat="49.11208158" lon="-118.61102277">
      </trkpt>
      <trkpt lat="49.11214511" lon="-118.6111628">
      </trkpt>
      <trkpt lat="49.11223512" lon="-118.61133955">
      </trkpt>
      <trkpt lat="49.11229462" lon="-118.61142107">
      </trkpt>
      <trkpt lat="49.11237314" lon="-118.61151776">
      </trkpt>
      <trkpt lat="49.11244121" lon="-118.61159337">
      </trkpt>
      <trkpt lat="49.11251738" lon="-118.61169954">
      </trkpt>
      <trkpt lat="49.11259619" lon="-118.61180075">
      </trkpt>
      <trkpt lat="49.11268093" lon="-118.611901">
      </trkpt>
      <trkpt lat="49.1127817" lon="-118.61210334">
      </trkpt>
      <trkpt lat="49.11282292" lon="-118.61231062">
      </trkpt>
      <trkpt lat="49.11285154" lon="-118.61246531">
      </trkpt>
      <trkpt lat="49.11290935" lon="-118.61247885">
      </trkpt>
      <trkpt lat="49.11296968" lon="-118.61244195">
      </trkpt>
      <trkpt lat="49.11300648" lon="-118.61236785">
      </trkpt>
      <trkpt lat="49.11304672" lon="-118.61225679">
      </trkpt>
      <trkpt lat="49.11308276" lon="-118.6121282">
      </trkpt>
      <trkpt lat="49.113123" lon="-118.61201716">
      </trkpt>
      <trkpt lat="49.11320602" lon="-118.61187709">
      </trkpt>
      <trkpt lat="49.1132585" lon="-118.61176055">
      </trkpt>
      <trkpt lat="49.11331133" lon="-118.61164935">
      </trkpt>
      <trkpt lat="49.11337659" lon="-118.61156323">
      </trkpt>
      <trkpt lat="49.11341015" lon="-118.61148215">
      </trkpt>
      <trkpt lat="49.11343409" lon="-118.61136474">
      </trkpt>
      <trkpt lat="49.11345283" lon="-118.61127521">
      </trkpt>
      <trkpt lat="49.1134753" lon="-118.61113639">
      </trkpt>
      <trkpt lat="49.11347034" lon="-118.61101276">
      </trkpt>
      <trkpt lat="49.1134474" lon="-118.61088657">
      </trkpt>
      <trkpt lat="49.1134126" lon="-118.61079474">
      </trkpt>
      <trkpt lat="49.11338299" lon="-118.61067503">
      </trkpt>
      <trkpt lat="49.11337729" lon="-118.6105407">
      </trkpt>
      <trkpt lat="49.11337418" lon="-118.61044382">
      </trkpt>
      <trkpt lat="49.1133731" lon="-118.61032498">
      </trkpt>
      <trkpt lat="49.11341817" lon="-118.61020421">
      </trkpt>
      <trkpt lat="49.11343895" lon="-118.6100927">
      </trkpt>
      <trkpt lat="49.11347235" lon="-118.60995756">
      </trkpt>
      <trkpt lat="49.11351909" lon="-118.60980946">
      </trkpt>
      <trkpt lat="49.11356714" lon="-118.60962869">
      </trkpt>
      <trkpt lat="49.11361276" lon="-118.60946455">
      </trkpt>
      <trkpt lat="49.11365377" lon="-118.60928492">
      </trkpt>
      <trkpt lat="49.11364659" lon="-118.60912918">
      </trkpt>
      <trkpt lat="49.11361977" lon="-118.6089982">
      </trkpt>
      <trkpt lat="49.1135642" lon="-118.6089151">
      </trkpt>
      <trkpt lat="49.11349198" lon="-118.60879676">
      </trkpt>
      <trkpt lat="49.11342127" lon="-118.60859705">
      </trkpt>
      <trkpt lat="49.11338186" lon="-118.60838694">
      </trkpt>
      <trkpt lat="49.11333596" lon="-118.60823738">
      </trkpt>
      <trkpt lat="49.11332674" lon="-118.6081036">
      </trkpt>
      <trkpt lat="49.11338105" lon="-118.60801381">
      </trkpt>
      <trkpt lat="49.11346762" lon="-118.60787559">
      </trkpt>
      <trkpt lat="49.11354379" lon="-118.60779313">
      </trkpt>
      <trkpt lat="49.11363073" lon="-118.60766026">
      </trkpt>
      <trkpt lat="49.11367211" lon="-118.60748597">
      </trkpt>
      <trkpt lat="49.11367049" lon="-118.60730772">
      </trkpt>
      <trkpt lat="49.11365757" lon="-118.60712044">
      </trkpt>
      <trkpt lat="49.11362002" lon="-118.60693708">
      </trkpt>
      <trkpt lat="49.11359691" lon="-118.60675683">
      </trkpt>
      <trkpt lat="49.1135313" lon="-118.60670016">
      </trkpt>
      <trkpt lat="49.11344892" lon="-118.60661789">
      </trkpt>
      <trkpt lat="49.11330774" lon="-118.606492">
      </trkpt>
      <trkpt lat="49.11320433" lon="-118.60630709">
      </trkpt>
      <trkpt lat="49.11311254" lon="-118.60608851">
      </trkpt>
      <trkpt lat="49.11307956" lon="-118.60591359">
      </trkpt>
      <trkpt lat="49.11309886" lon="-118.60568793">
      </trkpt>
      <trkpt lat="49.11310436" lon="-118.60546446">
      </trkpt>
      <trkpt lat="49.11307066" lon="-118.60527905">
      </trkpt>
      <trkpt lat="49.11299484" lon="-118.60508974">
      </trkpt>
      <trkpt lat="49.11294805" lon="-118.60491701">
      </trkpt>
      <trkpt lat="49.11289263" lon="-118.60482358">
      </trkpt>
      <trkpt lat="49.1129663" lon="-118.60481886">
      </trkpt>
      <trkpt lat="49.11297516" lon="-118.60478685">
      </trkpt>
      <trkpt lat="49.11298199" lon="-118.60472827">
      </trkpt>
      <trkpt lat="49.11300676" lon="-118.60463489">
      </trkpt>
      <trkpt lat="49.11303113" lon="-118.60452661">
      </trkpt>
      <trkpt lat="49.11304531" lon="-118.60442406">
      </trkpt>
      <trkpt lat="49.11305226" lon="-118.60437838">
      </trkpt>
      <trkpt lat="49.11313551" lon="-118.60439956">
      </trkpt>
      <trkpt lat="49.11322847" lon="-118.60433175">
      </trkpt>
      <trkpt lat="49.11333015" lon="-118.60418835">
      </trkpt>
      <trkpt lat="49.11346706" lon="-118.60404994">
      </trkpt>
      <trkpt lat="49.1135811" lon="-118.60388338">
      </trkpt>
      <trkpt lat="49.11368606" lon="-118.60368646">
      </trkpt>
      <trkpt lat="49.11377578" lon="-118.60347076">
      </trkpt>
      <trkpt lat="49.11385243" lon="-118.60326776">
      </trkpt>
      <trkpt lat="49.11391346" lon="-118.60314144">
      </trkpt>
      <trkpt lat="49.11400535" lon="-118.60295719">
      </trkpt>
      <trkpt lat="49.1141339" lon="-118.60279891">
      </trkpt>
      <trkpt lat="49.11425628" lon="-118.6026522">
      </trkpt>
      <trkpt lat="49.11435363" lon="-118.60244589">
      </trkpt>
      <trkpt lat="49.11442555" lon="-118.60227543">
      </trkpt>
      <trkpt lat="49.11445609" lon="-118.60211157">
      </trkpt>
      <trkpt lat="49.11448301" lon="-118.60189529">
      </trkpt>
      <trkpt lat="49.1145023" lon="-118.60166961">
      </trkpt>
      <trkpt lat="49.11452233" lon="-118.60145443">
      </trkpt>
      <trkpt lat="49.11453723" lon="-118.60136725">
      </trkpt>
      <trkpt lat="49.11453091" lon="-118.60115494">
      </trkpt>
      <trkpt lat="49.11453963" lon="-118.6011265">
      </trkpt>
      <trkpt lat="49.11457912" lon="-118.60102823">
      </trkpt>
      <trkpt lat="49.11461861" lon="-118.60092997">
      </trkpt>
      <trkpt lat="49.11471757" lon="-118.60081681">
      </trkpt>
      <trkpt lat="49.114803" lon="-118.60076533">
      </trkpt>
      <trkpt lat="49.1149594" lon="-118.60065924">
      </trkpt>
      <trkpt lat="49.11496574" lon="-118.60065192">
      </trkpt>
      <trkpt lat="49.11496868" lon="-118.60064927">
      </trkpt>
      <trkpt lat="49.11504224" lon="-118.60057029">
      </trkpt>
      <trkpt lat="49.11516233" lon="-118.60045376">
      </trkpt>
      <trkpt lat="49.11525017" lon="-118.60038566">
      </trkpt>
      <trkpt lat="49.11531856" lon="-118.6002936">
      </trkpt>
      <trkpt lat="49.11536693" lon="-118.60022098">
      </trkpt>
      <trkpt lat="49.11537847" lon="-118.60020224">
      </trkpt>
    </trkseg>
    <trkseg>
      <trkpt lat="49.11446117" lon="-118.60638652">
      </trkpt>
      <trkpt lat="49.11439967" lon="-118.60632057">
      </trkpt>
      <trkpt lat="49.11433798" lon="-118.60630336">
      </trkpt>
      <trkpt lat="49.11421181" lon="-118.60628019">
      </trkpt>
      <trkpt lat="49.11410935" lon="-118.6062911">
      </trkpt>
      <trkpt lat="49.11395277" lon="-118.60634309">
      </trkpt>
      <trkpt lat="49.11382194" lon="-118.60640721">
      </trkpt>
      <trkpt lat="49.11373725" lon="-118.6064694">
      </trkpt>
      <trkpt lat="49.11364122" lon="-118.60662535">
      </trkpt>
      <trkpt lat="49.11360248" lon="-118.6067343">
      </trkpt>
      <trkpt lat="49.11359691" lon="-118.60675683">
      </trkpt>
    </trkseg>
    <trkseg>
      <trkpt lat="49.10699192" lon="-118.59901247">
      </trkpt>
      <trkpt lat="49.10702645" lon="-118.5990894">
      </trkpt>
      <trkpt lat="49.10708135" lon="-118.59917761">
      </trkpt>
      <trkpt lat="49.10714254" lon="-118.59925294">
      </trkpt>
      <trkpt lat="49.10720456" lon="-118.59929507">
      </trkpt>
      <trkpt lat="49.10727404" lon="-118.59926507">
      </trkpt>
      <trkpt lat="49.10735212" lon="-118.59913444">
      </trkpt>
      <trkpt lat="49.10738341" lon="-118.59900181">
      </trkpt>
      <trkpt lat="49.1073985" lon="-118.59891411">
      </trkpt>
      <trkpt lat="49.10741951" lon="-118.59882319">
      </trkpt>
      <trkpt lat="49.10741859" lon="-118.59872193">
      </trkpt>
      <trkpt lat="49.10742398" lon="-118.59862427">
      </trkpt>
      <trkpt lat="49.10742448" lon="-118.59849975">
      </trkpt>
      <trkpt lat="49.10743272" lon="-118.59841546">
      </trkpt>
      <trkpt lat="49.10746431" lon="-118.59828597">
      </trkpt>
      <trkpt lat="49.1074915" lon="-118.59815257">
      </trkpt>
      <trkpt lat="49.10750717" lon="-118.59804604">
      </trkpt>
      <trkpt lat="49.10754146" lon="-118.59793605">
      </trkpt>
      <trkpt lat="49.10754497" lon="-118.59793276">
      </trkpt>
      <trkpt lat="49.10760577" lon="-118.59779483">
      </trkpt>
      <trkpt lat="49.10766199" lon="-118.5976416">
      </trkpt>
      <trkpt lat="49.10772132" lon="-118.59748254">
      </trkpt>
      <trkpt lat="49.10777532" lon="-118.59739913">
      </trkpt>
      <trkpt lat="49.10781214" lon="-118.59727036">
      </trkpt>
      <trkpt lat="49.10789233" lon="-118.59710796">
      </trkpt>
      <trkpt lat="49.10797508" lon="-118.59698257">
      </trkpt>
      <trkpt lat="49.10805362" lon="-118.59684715">
      </trkpt>
      <trkpt lat="49.10813272" lon="-118.5966689">
      </trkpt>
      <trkpt lat="49.10823946" lon="-118.59643281">
      </trkpt>
      <trkpt lat="49.10833595" lon="-118.59625179">
      </trkpt>
      <trkpt lat="49.10843976" lon="-118.59607493">
      </trkpt>
      <trkpt lat="49.10853075" lon="-118.59591616">
      </trkpt>
      <trkpt lat="49.10860033" lon="-118.59570202">
      </trkpt>
      <trkpt lat="49.10860735" lon="-118.59539634">
      </trkpt>
      <trkpt lat="49.10861034" lon="-118.59503253">
      </trkpt>
      <trkpt lat="49.10867447" lon="-118.5946376">
      </trkpt>
      <trkpt lat="49.10874827" lon="-118.59443348">
      </trkpt>
      <trkpt lat="49.1088074" lon="-118.59432252">
      </trkpt>
      <trkpt lat="49.10886615" lon="-118.59430781">
      </trkpt>
      <trkpt lat="49.10889505" lon="-118.59442074">
      </trkpt>
      <trkpt lat="49.10886867" lon="-118.59454785">
      </trkpt>
      <trkpt lat="49.10885893" lon="-118.59476312">
      </trkpt>
      <trkpt lat="49.10888268" lon="-118.59500512">
      </trkpt>
      <trkpt lat="49.10893701" lon="-118.59513002">
      </trkpt>
      <trkpt lat="49.10903986" lon="-118.59519377">
      </trkpt>
      <trkpt lat="49.10916121" lon="-118.59516906">
      </trkpt>
      <trkpt lat="49.1092897" lon="-118.59509513">
      </trkpt>
      <trkpt lat="49.10942899" lon="-118.59502481">
      </trkpt>
      <trkpt lat="49.1095659" lon="-118.59497092">
      </trkpt>
      <trkpt lat="49.1096781" lon="-118.59491561">
      </trkpt>
      <trkpt lat="49.1098011" lon="-118.59486392">
      </trkpt>
      <trkpt lat="49.1099541" lon="-118.59483951">
      </trkpt>
      <trkpt lat="49.11010619" lon="-118.59485264">
      </trkpt>
      <trkpt lat="49.11021178" lon="-118.59490526">
      </trkpt>
      <trkpt lat="49.11027931" lon="-118.59491585">
      </trkpt>
      <trkpt lat="49.11033111" lon="-118.59490225">
      </trkpt>
      <trkpt lat="49.11038364" lon="-118.59489921">
      </trkpt>
      <trkpt lat="49.11045099" lon="-118.59485641">
      </trkpt>
      <trkpt lat="49.1104576" lon="-118.59474848">
      </trkpt>
      <trkpt lat="49.11043053" lon="-118.59466196">
      </trkpt>
      <trkpt lat="49.11038717" lon="-118.59459407">
      </trkpt>
      <trkpt lat="49.11033174" lon="-118.59445332">
      </trkpt>
      <trkpt lat="49.1103109" lon="-118.59435512">
      </trkpt>
      <trkpt lat="49.11023643" lon="-118.59424411">
      </trkpt>
      <trkpt lat="49.11019911" lon="-118.59411113">
      </trkpt>
      <trkpt lat="49.1101984" lon="-118.59399904">
      </trkpt>
      <trkpt lat="49.11025972" lon="-118.59391979">
      </trkpt>
      <trkpt lat="49.11038472" lon="-118.59394794">
      </trkpt>
      <trkpt lat="49.11050386" lon="-118.59399305">
      </trkpt>
      <trkpt lat="49.11061898" lon="-118.59398001">
      </trkpt>
      <trkpt lat="49.11072313" lon="-118.59390996">
      </trkpt>
      <trkpt lat="49.11080111" lon="-118.59381737">
      </trkpt>
      <trkpt lat="49.11096493" lon="-118.59369504">
      </trkpt>
      <trkpt lat="49.1110753" lon="-118.59361331">
      </trkpt>
      <trkpt lat="49.11117928" lon="-118.59348985">
      </trkpt>
      <trkpt lat="49.1112805" lon="-118.59337751">
      </trkpt>
      <trkpt lat="49.11137935" lon="-118.59328159">
      </trkpt>
      <trkpt lat="49.11151939" lon="-118.59312031">
      </trkpt>
      <trkpt lat="49.11163049" lon="-118.59304914">
      </trkpt>
      <trkpt lat="49.11175458" lon="-118.5930133">
      </trkpt>
      <trkpt lat="49.11188655" lon="-118.5929388">
      </trkpt>
      <trkpt lat="49.11200937" lon="-118.5928337">
      </trkpt>
      <trkpt lat="49.11212432" lon="-118.59276727">
      </trkpt>
      <trkpt lat="49.11222701" lon="-118.59267607">
      </trkpt>
      <trkpt lat="49.11235037" lon="-118.59262966">
      </trkpt>
      <trkpt lat="49.11251692" lon="-118.59259773">
      </trkpt>
      <trkpt lat="49.11271074" lon="-118.5926042">
      </trkpt>
      <trkpt lat="49.112794" lon="-118.592639">
      </trkpt>
      <trkpt lat="49.11291003" lon="-118.59268994">
      </trkpt>
      <trkpt lat="49.11299512" lon="-118.59275117">
      </trkpt>
      <trkpt lat="49.11307893" lon="-118.59284468">
      </trkpt>
      <trkpt lat="49.11313785" lon="-118.59288335">
      </trkpt>
      <trkpt lat="49.11321179" lon="-118.59293567">
      </trkpt>
      <trkpt lat="49.11330016" lon="-118.59304448">
      </trkpt>
      <trkpt lat="49.11339091" lon="-118.5932384">
      </trkpt>
      <trkpt lat="49.11346117" lon="-118.59333939">
      </trkpt>
      <trkpt lat="49.11361618" lon="-118.59339482">
      </trkpt>
      <trkpt lat="49.11376771" lon="-118.59345079">
      </trkpt>
      <trkpt lat="49.11393113" lon="-118.59352623">
      </trkpt>
      <trkpt lat="49.11407955" lon="-118.59358805">
      </trkpt>
      <trkpt lat="49.11423071" lon="-118.59363872">
      </trkpt>
      <trkpt lat="49.1144516" lon="-118.59373173">
      </trkpt>
      <trkpt lat="49.11461247" lon="-118.59377018">
      </trkpt>
      <trkpt lat="49.11482238" lon="-118.59380614">
      </trkpt>
      <trkpt lat="49.1149525" lon="-118.59380676">
      </trkpt>
      <trkpt lat="49.11505427" lon="-118.59375311">
      </trkpt>
      <trkpt lat="49.11516098" lon="-118.59372005">
      </trkpt>
      <trkpt lat="49.11526255" lon="-118.59371451">
      </trkpt>
      <trkpt lat="49.11535151" lon="-118.59367895">
      </trkpt>
      <trkpt lat="49.11545034" lon="-118.59368454">
      </trkpt>
      <trkpt lat="49.11556378" lon="-118.59380004">
      </trkpt>
      <trkpt lat="49.11567066" lon="-118.59382039">
      </trkpt>
      <trkpt lat="49.11581193" lon="-118.59393143">
      </trkpt>
      <trkpt lat="49.11593747" lon="-118.59401828">
      </trkpt>
      <trkpt lat="49.11606594" lon="-118.59404586">
      </trkpt>
      <trkpt lat="49.11618634" lon="-118.59416025">
      </trkpt>
      <trkpt lat="49.11632925" lon="-118.59434586">
      </trkpt>
      <trkpt lat="49.11647071" lon="-118.59440879">
      </trkpt>
      <trkpt lat="49.11661565" lon="-118.59447116">
      </trkpt>
      <trkpt lat="49.11674227" lon="-118.59457386">
      </trkpt>
      <trkpt lat="49.11682406" lon="-118.59468906">
      </trkpt>
      <trkpt lat="49.11686614" lon="-118.59478924">
      </trkpt>
      <trkpt lat="49.11690216" lon="-118.59495449">
      </trkpt>
      <trkpt lat="49.11696363" lon="-118.59513173">
      </trkpt>
      <trkpt lat="49.11702893" lon="-118.59531369">
      </trkpt>
      <trkpt lat="49.11711473" lon="-118.59548704">
      </trkpt>
      <trkpt lat="49.11721007" lon="-118.59559474">
      </trkpt>
      <trkpt lat="49.11728673" lon="-118.59573749">
      </trkpt>
      <trkpt lat="49.11736997" lon="-118.59587383">
      </trkpt>
      <trkpt lat="49.11740599" lon="-118.5960391">
      </trkpt>
      <trkpt lat="49.11742426" lon="-118.59620186">
      </trkpt>
      <trkpt lat="49.11746012" lon="-118.5963137">
      </trkpt>
      <trkpt lat="49.11754116" lon="-118.59641834">
      </trkpt>
      <trkpt lat="49.11757191" lon="-118.59645619">
      </trkpt>
      <trkpt lat="49.11756808" lon="-118.59634991">
      </trkpt>
      <trkpt lat="49.11755366" lon="-118.5961919">
      </trkpt>
      <trkpt lat="49.11751397" lon="-118.59607531">
      </trkpt>
      <trkpt lat="49.11749569" lon="-118.59591256">
      </trkpt>
      <trkpt lat="49.11751622" lon="-118.5958024">
      </trkpt>
      <trkpt lat="49.11754899" lon="-118.59571701">
      </trkpt>
      <trkpt lat="49.11757844" lon="-118.59578713">
      </trkpt>
      <trkpt lat="49.11759873" lon="-118.59592818">
      </trkpt>
      <trkpt lat="49.1176386" lon="-118.59609818">
      </trkpt>
      <trkpt lat="49.11769568" lon="-118.59621199">
      </trkpt>
      <trkpt lat="49.11777836" lon="-118.59639118">
      </trkpt>
      <trkpt lat="49.11786068" lon="-118.59656509">
      </trkpt>
      <trkpt lat="49.11792271" lon="-118.59669949">
      </trkpt>
      <trkpt lat="49.11802351" lon="-118.59688648">
      </trkpt>
      <trkpt lat="49.11809523" lon="-118.59700864">
      </trkpt>
      <trkpt lat="49.11818414" lon="-118.59717616">
      </trkpt>
      <trkpt lat="49.11829739" lon="-118.59733979">
      </trkpt>
      <trkpt lat="49.11835246" lon="-118.59747529">
      </trkpt>
      <trkpt lat="49.11838794" lon="-118.59758186">
      </trkpt>
      <trkpt lat="49.11845343" lon="-118.5977157">
      </trkpt>
      <trkpt lat="49.11851581" lon="-118.59785539">
      </trkpt>
      <trkpt lat="49.1185974" lon="-118.59801874">
      </trkpt>
      <trkpt lat="49.11867826" lon="-118.59817151">
      </trkpt>
      <trkpt lat="49.1187518" lon="-118.59832011">
      </trkpt>
      <trkpt lat="49.1188151" lon="-118.59842223">
      </trkpt>
      <trkpt lat="49.11886102" lon="-118.59852714">
      </trkpt>
      <trkpt lat="49.11889485" lon="-118.59866069">
      </trkpt>
      <trkpt lat="49.11890927" lon="-118.59881872">
      </trkpt>
      <trkpt lat="49.11889496" lon="-118.59901874">
      </trkpt>
      <trkpt lat="49.11889822" lon="-118.59916786">
      </trkpt>
      <trkpt lat="49.11890421" lon="-118.5994074">
      </trkpt>
      <trkpt lat="49.11894057" lon="-118.5996795">
      </trkpt>
      <trkpt lat="49.1189956" lon="-118.59991655">
      </trkpt>
      <trkpt lat="49.11901294" lon="-118.60011687">
      </trkpt>
      <trkpt lat="49.11900521" lon="-118.60031049">
      </trkpt>
      <trkpt lat="49.11897418" lon="-118.60072694">
      </trkpt>
      <trkpt lat="49.11897027" lon="-118.60102685">
      </trkpt>
      <trkpt lat="49.11898228" lon="-118.60130283">
      </trkpt>
      <trkpt lat="49.11901241" lon="-118.60158661">
      </trkpt>
      <trkpt lat="49.11905829" lon="-118.60179306">
      </trkpt>
      <trkpt lat="49.11906905" lon="-118.60199977">
      </trkpt>
      <trkpt lat="49.11906588" lon="-118.60220871">
      </trkpt>
      <trkpt lat="49.11904132" lon="-118.60236226">
      </trkpt>
      <trkpt lat="49.11899811" lon="-118.60244931">
      </trkpt>
      <trkpt lat="49.11890035" lon="-118.60256109">
      </trkpt>
      <trkpt lat="49.11883206" lon="-118.60264145">
      </trkpt>
      <trkpt lat="49.11877458" lon="-118.60272544">
      </trkpt>
      <trkpt lat="49.11875259" lon="-118.60281444">
      </trkpt>
      <trkpt lat="49.11877012" lon="-118.60296664">
      </trkpt>
      <trkpt lat="49.1187902" lon="-118.60315583">
      </trkpt>
      <trkpt lat="49.11886831" lon="-118.60331973">
      </trkpt>
      <trkpt lat="49.11890965" lon="-118.60340933">
      </trkpt>
      <trkpt lat="49.11893063" lon="-118.60366251">
      </trkpt>
      <trkpt lat="49.11887441" lon="-118.60381577">
      </trkpt>
      <trkpt lat="49.11879897" lon="-118.60394536">
      </trkpt>
      <trkpt lat="49.11870707" lon="-118.60404017">
      </trkpt>
      <trkpt lat="49.11858606" lon="-118.60417169">
      </trkpt>
      <trkpt lat="49.11845442" lon="-118.60435299">
      </trkpt>
      <trkpt lat="49.11833653" lon="-118.60447867">
      </trkpt>
      <trkpt lat="49.11821442" lon="-118.60459432">
      </trkpt>
      <trkpt lat="49.11811904" lon="-118.60468969">
      </trkpt>
      <trkpt lat="49.11800902" lon="-118.60477669">
      </trkpt>
      <trkpt lat="49.11791401" lon="-118.60487734">
      </trkpt>
      <trkpt lat="49.11779502" lon="-118.60498715">
      </trkpt>
      <trkpt lat="49.11769617" lon="-118.60508306">
      </trkpt>
      <trkpt lat="49.11766613" lon="-118.60515733">
      </trkpt>
      <trkpt lat="49.11766389" lon="-118.60532869">
      </trkpt>
      <trkpt lat="49.11771765" lon="-118.60549647">
      </trkpt>
      <trkpt lat="49.1177791" lon="-118.60567373">
      </trkpt>
      <trkpt lat="49.11784494" lon="-118.60581286">
      </trkpt>
      <trkpt lat="49.11791774" lon="-118.6059509">
      </trkpt>
      <trkpt lat="49.11800283" lon="-118.60601216">
      </trkpt>
      <trkpt lat="49.11811663" lon="-118.60613297">
      </trkpt>
      <trkpt lat="49.11822036" lon="-118.60626073">
      </trkpt>
      <trkpt lat="49.11828933" lon="-118.60639404">
      </trkpt>
      <trkpt lat="49.11832242" lon="-118.60651702">
      </trkpt>
      <trkpt lat="49.11830935" lon="-118.60678631">
      </trkpt>
      <trkpt lat="49.11829484" lon="-118.60693291">
      </trkpt>
      <trkpt lat="49.11826259" lon="-118.60707699">
      </trkpt>
      <trkpt lat="49.11819828" lon="-118.60731703">
      </trkpt>
      <trkpt lat="49.11814387" lon="-118.60749671">
      </trkpt>
      <trkpt lat="49.11809423" lon="-118.60764356">
      </trkpt>
      <trkpt lat="49.11801402" lon="-118.60780598">
      </trkpt>
      <trkpt lat="49.11792466" lon="-118.60793778">
      </trkpt>
      <trkpt lat="49.11780345" lon="-118.60811741">
      </trkpt>
      <trkpt lat="49.11771116" lon="-118.60830847">
      </trkpt>
      <trkpt lat="49.11764174" lon="-118.6084745">
      </trkpt>
      <trkpt lat="49.11759814" lon="-118.6086578">
      </trkpt>
      <trkpt lat="49.11758582" lon="-118.60883612">
      </trkpt>
      <trkpt lat="49.11757734" lon="-118.60901916">
      </trkpt>
      <trkpt lat="49.11763348" lon="-118.60917053">
      </trkpt>
      <trkpt lat="49.11770591" lon="-118.60930329">
      </trkpt>
      <trkpt lat="49.11780176" lon="-118.60946972">
      </trkpt>
      <trkpt lat="49.11790824" lon="-118.60958635">
      </trkpt>
      <trkpt lat="49.11795193" lon="-118.6097611">
      </trkpt>
      <trkpt lat="49.11794911" lon="-118.60997531">
      </trkpt>
      <trkpt lat="49.11794136" lon="-118.61016893">
      </trkpt>
      <trkpt lat="49.11794988" lon="-118.61044545">
      </trkpt>
      <trkpt lat="49.11796497" lon="-118.6107156">
      </trkpt>
      <trkpt lat="49.1179819" lon="-118.61101217">
      </trkpt>
      <trkpt lat="49.11803876" lon="-118.61117413">
      </trkpt>
      <trkpt lat="49.11813882" lon="-118.61135058">
      </trkpt>
      <trkpt lat="49.11821488" lon="-118.61153619">
      </trkpt>
      <trkpt lat="49.11823896" lon="-118.61178353">
      </trkpt>
      <trkpt lat="49.11825426" lon="-118.61200555">
      </trkpt>
      <trkpt lat="49.11826515" lon="-118.61226567">
      </trkpt>
      <trkpt lat="49.11825737" lon="-118.61256083">
      </trkpt>
      <trkpt lat="49.11824941" lon="-118.61280258">
      </trkpt>
      <trkpt lat="49.11825869" lon="-118.61298815">
      </trkpt>
      <trkpt lat="49.11825332" lon="-118.61316536">
      </trkpt>
      <trkpt lat="49.11822817" lon="-118.61336174">
      </trkpt>
      <trkpt lat="49.11819936" lon="-118.61360681">
      </trkpt>
      <trkpt lat="49.11816725" lon="-118.61380431">
      </trkpt>
      <trkpt lat="49.11810386" lon="-118.61400678">
      </trkpt>
      <trkpt lat="49.11802582" lon="-118.61420089">
      </trkpt>
      <trkpt lat="49.11797836" lon="-118.61437946">
      </trkpt>
      <trkpt lat="49.11793636" lon="-118.61463731">
      </trkpt>
      <trkpt lat="49.1179417" lon="-118.61502123">
      </trkpt>
      <trkpt lat="49.11792801" lon="-118.6154349">
      </trkpt>
      <trkpt lat="49.11789992" lon="-118.61569054">
      </trkpt>
      <trkpt lat="49.11786704" lon="-118.615979">
      </trkpt>
      <trkpt lat="49.11787481" lon="-118.61624496">
      </trkpt>
      <trkpt lat="49.11789558" lon="-118.61635121">
      </trkpt>
      <trkpt lat="49.11791645" lon="-118.61649937">
      </trkpt>
      <trkpt lat="49.11791195" lon="-118.61664075">
      </trkpt>
      <trkpt lat="49.11784282" lon="-118.61672208">
      </trkpt>
      <trkpt lat="49.11773368" lon="-118.61673945">
      </trkpt>
      <trkpt lat="49.11761939" lon="-118.61668189">
      </trkpt>
      <trkpt lat="49.11747692" lon="-118.61662882">
      </trkpt>
      <trkpt lat="49.1172848" lon="-118.61657823">
      </trkpt>
      <trkpt lat="49.11712883" lon="-118.61648403">
      </trkpt>
      <trkpt lat="49.11700156" lon="-118.61644478">
      </trkpt>
      <trkpt lat="49.11691559" lon="-118.61643681">
      </trkpt>
      <trkpt lat="49.11676388" lon="-118.61635275">
      </trkpt>
      <trkpt lat="49.11663644" lon="-118.61625943">
      </trkpt>
      <trkpt lat="49.11656435" lon="-118.61629795">
      </trkpt>
      <trkpt lat="49.11650205" lon="-118.61642688">
      </trkpt>
      <trkpt lat="49.11646938" lon="-118.61657273">
      </trkpt>
      <trkpt lat="49.11639999" lon="-118.61680558">
      </trkpt>
      <trkpt lat="49.11632062" lon="-118.61699673">
      </trkpt>
      <trkpt lat="49.11622606" lon="-118.61717407">
      </trkpt>
      <trkpt lat="49.11614525" lon="-118.61724102">
      </trkpt>
      <trkpt lat="49.11601519" lon="-118.61721303">
      </trkpt>
      <trkpt lat="49.11582622" lon="-118.61715654">
      </trkpt>
      <trkpt lat="49.11566301" lon="-118.61711218">
      </trkpt>
      <trkpt lat="49.11558335" lon="-118.61709239">
      </trkpt>
      <trkpt lat="49.11551371" lon="-118.61701151">
      </trkpt>
      <trkpt lat="49.1153972" lon="-118.61692184">
      </trkpt>
      <trkpt lat="49.11531369" lon="-118.61679447">
      </trkpt>
      <trkpt lat="49.11523055" lon="-118.61667245">
      </trkpt>
      <trkpt lat="49.11516075" lon="-118.6165375">
      </trkpt>
      <trkpt lat="49.11509705" lon="-118.61643944">
      </trkpt>
      <trkpt lat="49.11493939" lon="-118.61637256">
      </trkpt>
      <trkpt lat="49.1148197" lon="-118.6163916">
      </trkpt>
      <trkpt lat="49.11463179" lon="-118.61645395">
      </trkpt>
      <trkpt lat="49.11448876" lon="-118.61644426">
      </trkpt>
      <trkpt lat="49.11437021" lon="-118.61637656">
      </trkpt>
      <trkpt lat="49.11425591" lon="-118.61631901">
      </trkpt>
      <trkpt lat="49.11412847" lon="-118.61622568">
      </trkpt>
      <trkpt lat="49.11404197" lon="-118.61615831">
      </trkpt>
      <trkpt lat="49.11391821" lon="-118.6161185">
      </trkpt>
      <trkpt lat="49.11384113" lon="-118.61613617">
      </trkpt>
      <trkpt lat="49.11377498" lon="-118.61615751">
      </trkpt>
      <trkpt lat="49.11365806" lon="-118.6161653">
      </trkpt>
      <trkpt lat="49.11354893" lon="-118.61618266">
      </trkpt>
      <trkpt lat="49.11350205" lon="-118.61617389">
      </trkpt>
      <trkpt lat="49.11347613" lon="-118.61610769">
      </trkpt>
      <trkpt lat="49.11346709" lon="-118.61602799">
      </trkpt>
      <trkpt lat="49.11346065" lon="-118.61588295">
      </trkpt>
      <trkpt lat="49.11345792" lon="-118.61579142">
      </trkpt>
      <trkpt lat="49.11341832" lon="-118.61563003">
      </trkpt>
      <trkpt lat="49.11330329" lon="-118.61556177">
      </trkpt>
      <trkpt lat="49.11321441" lon="-118.61540822">
      </trkpt>
      <trkpt lat="49.11315628" lon="-118.61528764">
      </trkpt>
      <trkpt lat="49.11306477" lon="-118.61519941">
      </trkpt>
      <trkpt lat="49.11295605" lon="-118.61511934">
      </trkpt>
      <trkpt lat="49.11290679" lon="-118.61502441">
      </trkpt>
      <trkpt lat="49.11293483" lon="-118.61486306">
      </trkpt>
      <trkpt lat="49.11299583" lon="-118.61476681">
      </trkpt>
      <trkpt lat="49.11308981" lon="-118.61463284">
      </trkpt>
      <trkpt lat="49.11316918" lon="-118.61444169">
      </trkpt>
      <trkpt lat="49.11323427" lon="-118.61430151">
      </trkpt>
      <trkpt lat="49.11334471" lon="-118.61425148">
      </trkpt>
      <trkpt lat="49.11340734" lon="-118.61423068">
      </trkpt>
    </trkseg>
    <trkseg>
      <trkpt lat="49.10745588" lon="-118.59832052">
      </trkpt>
      <trkpt lat="49.10731105" lon="-118.59804308">
      </trkpt>
      <trkpt lat="49.10722706" lon="-118.59796208">
      </trkpt>
      <trkpt lat="49.10714564" lon="-118.59785219">
      </trkpt>
      <trkpt lat="49.1070516" lon="-118.59771223">
      </trkpt>
      <trkpt lat="49.10697147" lon="-118.59757007">
      </trkpt>
      <trkpt lat="49.10687029" lon="-118.59737784">
      </trkpt>
      <trkpt lat="49.10680591" lon="-118.59715837">
      </trkpt>
      <trkpt lat="49.10679808" lon="-118.59699399">
      </trkpt>
      <trkpt lat="49.10683217" lon="-118.59677483">
      </trkpt>
      <trkpt lat="49.10687649" lon="-118.59660214">
      </trkpt>
      <trkpt lat="49.1068703" lon="-118.59641078">
      </trkpt>
      <trkpt lat="49.10685551" lon="-118.59624751">
      </trkpt>
      <trkpt lat="49.10681912" lon="-118.596077">
      </trkpt>
      <trkpt lat="49.10676187" lon="-118.59590982">
      </trkpt>
      <trkpt lat="49.10674872" lon="-118.59571957">
      </trkpt>
      <trkpt lat="49.10674546" lon="-118.59557049">
      </trkpt>
      <trkpt lat="49.1068099" lon="-118.59548541">
      </trkpt>
      <trkpt lat="49.10691057" lon="-118.59541592">
      </trkpt>
      <trkpt lat="49.1070204" lon="-118.59537704">
      </trkpt>
      <trkpt lat="49.10709909" lon="-118.59539653">
      </trkpt>
      <trkpt lat="49.10721545" lon="-118.59555429">
      </trkpt>
      <trkpt lat="49.10732872" lon="-118.59571787">
      </trkpt>
      <trkpt lat="49.1074224" lon="-118.59585253">
      </trkpt>
      <trkpt lat="49.10748745" lon="-118.59587554">
      </trkpt>
      <trkpt lat="49.1075161" lon="-118.59588568">
      </trkpt>
      <trkpt lat="49.10752012" lon="-118.5959438">
      </trkpt>
      <trkpt lat="49.10744726" lon="-118.59600886">
      </trkpt>
      <trkpt lat="49.10739362" lon="-118.59609756">
      </trkpt>
      <trkpt lat="49.1073632" lon="-118.59626804">
      </trkpt>
      <trkpt lat="49.10736683" lon="-118.59642241">
      </trkpt>
      <trkpt lat="49.10743123" lon="-118.59654036">
      </trkpt>
      <trkpt lat="49.10751448" lon="-118.59667669">
      </trkpt>
      <trkpt lat="49.10756331" lon="-118.59682384">
      </trkpt>
      <trkpt lat="49.10771042" lon="-118.59701944">
      </trkpt>
      <trkpt lat="49.10778142" lon="-118.597131">
      </trkpt>
      <trkpt lat="49.10778872" lon="-118.59723669">
      </trkpt>
      <trkpt lat="49.10777532" lon="-118.59739913">
      </trkpt>
      <trkpt lat="49.10785109" lon="-118.59737635">
      </trkpt>
      <trkpt lat="49.10792761" lon="-118.59736415">
      </trkpt>
      <trkpt lat="49.10805335" lon="-118.59730135">
      </trkpt>
      <trkpt lat="49.1081273" lon="-118.59725216">
      </trkpt>
      <trkpt lat="49.10823473" lon="-118.59722967">
      </trkpt>
      <trkpt lat="49.10838006" lon="-118.5971958">
      </trkpt>
      <trkpt lat="49.10857114" lon="-118.5971119">
      </trkpt>
      <trkpt lat="49.10874978" lon="-118.59705135">
      </trkpt>
      <trkpt lat="49.10893555" lon="-118.59704308">
      </trkpt>
      <trkpt lat="49.10906091" lon="-118.59707653">
      </trkpt>
      <trkpt lat="49.10917453" lon="-118.59724541">
      </trkpt>
      <trkpt lat="49.10928266" lon="-118.59743655">
      </trkpt>
      <trkpt lat="49.10938164" lon="-118.59759709">
      </trkpt>
      <trkpt lat="49.10949288" lon="-118.59778237">
      </trkpt>
      <trkpt lat="49.10956732" lon="-118.59799492">
      </trkpt>
      <trkpt lat="49.10962419" lon="-118.59825834">
      </trkpt>
      <trkpt lat="49.10963986" lon="-118.59858712">
      </trkpt>
      <trkpt lat="49.10966394" lon="-118.59893593">
      </trkpt>
      <trkpt lat="49.10969663" lon="-118.59925666">
      </trkpt>
      <trkpt lat="49.1097557" lon="-118.59945028">
      </trkpt>
      <trkpt lat="49.10987735" lon="-118.59973544">
      </trkpt>
      <trkpt lat="49.11000981" lon="-118.5999227">
      </trkpt>
      <trkpt lat="49.11009634" lon="-118.6001066">
      </trkpt>
      <trkpt lat="49.11018031" lon="-118.60025351">
      </trkpt>
      <trkpt lat="49.11027965" lon="-118.60041934">
      </trkpt>
      <trkpt lat="49.11033123" lon="-118.60055539">
      </trkpt>
      <trkpt lat="49.11032388" lon="-118.60065273">
      </trkpt>
      <trkpt lat="49.11030482" lon="-118.60078401">
      </trkpt>
      <trkpt lat="49.11027002" lon="-118.60089108">
      </trkpt>
      <trkpt lat="49.11024967" lon="-118.60105462">
      </trkpt>
      <trkpt lat="49.11011517" lon="-118.60099057">
      </trkpt>
      <trkpt lat="49.10996272" lon="-118.60097214">
      </trkpt>
      <trkpt lat="49.10985365" lon="-118.60092006">
      </trkpt>
      <trkpt lat="49.10973983" lon="-118.60079928">
      </trkpt>
      <trkpt lat="49.10969008" lon="-118.60068966">
      </trkpt>
      <trkpt lat="49.10967767" lon="-118.60050998">
      </trkpt>
      <trkpt lat="49.10963157" lon="-118.60045321">
      </trkpt>
      <trkpt lat="49.10951703" lon="-118.60032186">
      </trkpt>
      <trkpt lat="49.10942776" lon="-118.60014908">
      </trkpt>
      <trkpt lat="49.1094029" lon="-118.59999276">
      </trkpt>
      <trkpt lat="49.10939378" lon="-118.59986063">
      </trkpt>
      <trkpt lat="49.10935628" lon="-118.59977578">
      </trkpt>
      <trkpt lat="49.10924485" lon="-118.59963859">
      </trkpt>
      <trkpt lat="49.10916416" lon="-118.59953925">
      </trkpt>
      <trkpt lat="49.10915339" lon="-118.59943411">
      </trkpt>
      <trkpt lat="49.10914575" lon="-118.5992216">
      </trkpt>
      <trkpt lat="49.10913811" lon="-118.5990091">
      </trkpt>
      <trkpt lat="49.10913998" lon="-118.59883247">
      </trkpt>
      <trkpt lat="49.1091283" lon="-118.59866336">
      </trkpt>
      <trkpt lat="49.10909905" lon="-118.59854513">
      </trkpt>
      <trkpt lat="49.10906045" lon="-118.59844443">
      </trkpt>
      <trkpt lat="49.10899532" lon="-118.5983159">
      </trkpt>
      <trkpt lat="49.10891152" lon="-118.5982224">
      </trkpt>
      <trkpt lat="49.10883246" lon="-118.59819761">
      </trkpt>
      <trkpt lat="49.10875102" lon="-118.59818922">
      </trkpt>
      <trkpt lat="49.10864249" lon="-118.59819584">
      </trkpt>
      <trkpt lat="49.1085431" lon="-118.59823307">
      </trkpt>
      <trkpt lat="49.10842706" lon="-118.59828363">
      </trkpt>
      <trkpt lat="49.10830296" lon="-118.59831946">
      </trkpt>
      <trkpt lat="49.10816532" lon="-118.59836277">
      </trkpt>
      <trkpt lat="49.1080641" lon="-118.59837357">
      </trkpt>
      <trkpt lat="49.10800756" lon="-118.59831848">
      </trkpt>
      <trkpt lat="49.10795543" lon="-118.59822527">
      </trkpt>
      <trkpt lat="49.10790914" lon="-118.59811511">
      </trkpt>
      <trkpt lat="49.10787147" lon="-118.59797685">
      </trkpt>
      <trkpt lat="49.10784148" lon="-118.59784807">
      </trkpt>
      <trkpt lat="49.10782925" lon="-118.59772179">
      </trkpt>
      <trkpt lat="49.10777858" lon="-118.59754821">
      </trkpt>
      <trkpt lat="49.10777532" lon="-118.59739918">
      </trkpt>
    </trkseg>
  </trk>
</gpx>