<?xml version="1.0" encoding="UTF-8"?>
<gpx xmlns="http://www.topografix.com/GPX/1/1" xmlns:xsi="http://www.w3.org/2001/XMLSchema-instance" xsi:schemaLocation="http://www.topografix.com/GPX/1/1 http://www.topografix.com/GPX/1/1/gpx.xsd" version="1.1" creator="gpx.py -- https://github.com/tkrajina/gpxpy">
  <trk>
    <name>Woss Lookout Trail</name>
    <trkseg>
      <trkpt lat="50.23054835" lon="-126.62293696">
      </trkpt>
      <trkpt lat="50.23054308" lon="-126.62294676">
      </trkpt>
      <trkpt lat="50.23053004" lon="-126.62295414">
      </trkpt>
      <trkpt lat="50.23052304" lon="-126.62297249">
      </trkpt>
      <trkpt lat="50.23051286" lon="-126.62300447">
      </trkpt>
      <trkpt lat="50.23051028" lon="-126.62301001">
      </trkpt>
      <trkpt lat="50.23047946" lon="-126.62306944">
      </trkpt>
      <trkpt lat="50.23046671" lon="-126.62308554">
      </trkpt>
      <trkpt lat="50.23045315" lon="-126.62309888">
      </trkpt>
      <trkpt lat="50.23043879" lon="-126.62310944">
      </trkpt>
      <trkpt lat="50.23042696" lon="-126.62311418">
      </trkpt>
      <trkpt lat="50.23041258" lon="-126.62311521">
      </trkpt>
      <trkpt lat="50.23034903" lon="-126.62310493">
      </trkpt>
      <trkpt lat="50.23033691" lon="-126.62310646">
      </trkpt>
      <trkpt lat="50.23032657" lon="-126.6231108">
      </trkpt>
      <trkpt lat="50.23031681" lon="-126.6231186">
      </trkpt>
      <trkpt lat="50.23030694" lon="-126.62313031">
      </trkpt>
      <trkpt lat="50.23026594" lon="-126.62319941">
      </trkpt>
      <trkpt lat="50.23025525" lon="-126.62321345">
      </trkpt>
      <trkpt lat="50.23024478" lon="-126.62322312">
      </trkpt>
      <trkpt lat="50.2302126" lon="-126.62324017">
      </trkpt>
      <trkpt lat="50.2301707" lon="-126.62325122">
      </trkpt>
      <trkpt lat="50.23013947" lon="-126.62325402">
      </trkpt>
      <trkpt lat="50.23010691" lon="-126.62325172">
      </trkpt>
      <trkpt lat="50.23007421" lon="-126.62324439">
      </trkpt>
      <trkpt lat="50.23004251" lon="-126.6232323">
      </trkpt>
      <trkpt lat="50.23001299" lon="-126.62321597">
      </trkpt>
      <trkpt lat="50.22998615" lon="-126.62319571">
      </trkpt>
      <trkpt lat="50.22996257" lon="-126.62317199">
      </trkpt>
      <trkpt lat="50.22994261" lon="-126.62314517">
      </trkpt>
      <trkpt lat="50.22993065" lon="-126.62312245">
      </trkpt>
      <trkpt lat="50.22990615" lon="-126.62306129">
      </trkpt>
      <trkpt lat="50.22989361" lon="-126.62303604">
      </trkpt>
      <trkpt lat="50.22988141" lon="-126.62301919">
      </trkpt>
      <trkpt lat="50.22986542" lon="-126.62300334">
      </trkpt>
      <trkpt lat="50.22980723" lon="-126.62296141">
      </trkpt>
      <trkpt lat="50.2297886" lon="-126.62294548">
      </trkpt>
      <trkpt lat="50.2297735" lon="-126.6229269">
      </trkpt>
      <trkpt lat="50.22976366" lon="-126.62290634">
      </trkpt>
      <trkpt lat="50.22975665" lon="-126.62288099">
      </trkpt>
      <trkpt lat="50.22975108" lon="-126.62285094">
      </trkpt>
      <trkpt lat="50.22974737" lon="-126.62281849">
      </trkpt>
      <trkpt lat="50.22974578" lon="-126.62278598">
      </trkpt>
      <trkpt lat="50.22974637" lon="-126.62275612">
      </trkpt>
      <trkpt lat="50.22974907" lon="-126.62272949">
      </trkpt>
      <trkpt lat="50.22975377" lon="-126.62270705">
      </trkpt>
      <trkpt lat="50.22976037" lon="-126.6226893">
      </trkpt>
      <trkpt lat="50.2297678" lon="-126.62267884">
      </trkpt>
      <trkpt lat="50.22977894" lon="-126.62267039">
      </trkpt>
      <trkpt lat="50.22982324" lon="-126.62265249">
      </trkpt>
      <trkpt lat="50.2298378" lon="-126.62264446">
      </trkpt>
      <trkpt lat="50.22984862" lon="-126.62263434">
      </trkpt>
      <trkpt lat="50.22985584" lon="-126.62262172">
      </trkpt>
      <trkpt lat="50.22986505" lon="-126.62259173">
      </trkpt>
      <trkpt lat="50.22986886" lon="-126.62256473">
      </trkpt>
      <trkpt lat="50.22986613" lon="-126.62254244">
      </trkpt>
      <trkpt lat="50.22985663" lon="-126.62251866">
      </trkpt>
      <trkpt lat="50.22984105" lon="-126.62249392">
      </trkpt>
      <trkpt lat="50.22981307" lon="-126.62245823">
      </trkpt>
      <trkpt lat="50.22979149" lon="-126.62243869">
      </trkpt>
      <trkpt lat="50.22973758" lon="-126.62240765">
      </trkpt>
      <trkpt lat="50.22971859" lon="-126.62238826">
      </trkpt>
      <trkpt lat="50.22970217" lon="-126.62236067">
      </trkpt>
      <trkpt lat="50.22968559" lon="-126.62232657">
      </trkpt>
      <trkpt lat="50.22967165" lon="-126.62229174">
      </trkpt>
      <trkpt lat="50.22966157" lon="-126.62225927">
      </trkpt>
      <trkpt lat="50.22965612" lon="-126.62223231">
      </trkpt>
      <trkpt lat="50.22965486" lon="-126.62221006">
      </trkpt>
      <trkpt lat="50.22965784" lon="-126.62219295">
      </trkpt>
      <trkpt lat="50.22966501" lon="-126.62218122">
      </trkpt>
      <trkpt lat="50.22969173" lon="-126.6221697">
      </trkpt>
      <trkpt lat="50.2296986" lon="-126.6221642">
      </trkpt>
      <trkpt lat="50.22970179" lon="-126.62215521">
      </trkpt>
      <trkpt lat="50.22970126" lon="-126.62214216">
      </trkpt>
      <trkpt lat="50.22968243" lon="-126.62207465">
      </trkpt>
      <trkpt lat="50.22968011" lon="-126.62205957">
      </trkpt>
      <trkpt lat="50.22968049" lon="-126.62204751">
      </trkpt>
      <trkpt lat="50.22968347" lon="-126.62203699">
      </trkpt>
      <trkpt lat="50.22968919" lon="-126.62202608">
      </trkpt>
      <trkpt lat="50.22972174" lon="-126.62198247">
      </trkpt>
      <trkpt lat="50.22972643" lon="-126.62197119">
      </trkpt>
      <trkpt lat="50.22972806" lon="-126.62196009">
      </trkpt>
      <trkpt lat="50.22972623" lon="-126.62194608">
      </trkpt>
      <trkpt lat="50.22971753" lon="-126.62191454">
      </trkpt>
      <trkpt lat="50.2297165" lon="-126.62190422">
      </trkpt>
      <trkpt lat="50.22971953" lon="-126.62189463">
      </trkpt>
      <trkpt lat="50.22972752" lon="-126.62188897">
      </trkpt>
      <trkpt lat="50.22978574" lon="-126.6218851">
      </trkpt>
      <trkpt lat="50.22979829" lon="-126.62188015">
      </trkpt>
      <trkpt lat="50.22980672" lon="-126.62187159">
      </trkpt>
      <trkpt lat="50.22981831" lon="-126.62184859">
      </trkpt>
      <trkpt lat="50.22982552" lon="-126.62182514">
      </trkpt>
      <trkpt lat="50.2298281" lon="-126.62180452">
      </trkpt>
      <trkpt lat="50.22982815" lon="-126.62178215">
      </trkpt>
      <trkpt lat="50.22982568" lon="-126.62176123">
      </trkpt>
      <trkpt lat="50.22982096" lon="-126.621744">
      </trkpt>
      <trkpt lat="50.22981597" lon="-126.621735">
      </trkpt>
      <trkpt lat="50.22980003" lon="-126.62171673">
      </trkpt>
      <trkpt lat="50.22979412" lon="-126.62170702">
      </trkpt>
      <trkpt lat="50.22978327" lon="-126.62167573">
      </trkpt>
      <trkpt lat="50.22978141" lon="-126.62166345">
      </trkpt>
      <trkpt lat="50.22978194" lon="-126.62165349">
      </trkpt>
      <trkpt lat="50.22978519" lon="-126.62164587">
      </trkpt>
      <trkpt lat="50.22979861" lon="-126.6216293">
      </trkpt>
      <trkpt lat="50.2298021" lon="-126.62162189">
      </trkpt>
      <trkpt lat="50.22980198" lon="-126.62161438">
      </trkpt>
      <trkpt lat="50.22979931" lon="-126.62160465">
      </trkpt>
      <trkpt lat="50.22978739" lon="-126.62158179">
      </trkpt>
      <trkpt lat="50.22977276" lon="-126.62156518">
      </trkpt>
      <trkpt lat="50.22976727" lon="-126.62156277">
      </trkpt>
      <trkpt lat="50.22976372" lon="-126.62156474">
      </trkpt>
      <trkpt lat="50.22975685" lon="-126.62159944">
      </trkpt>
      <trkpt lat="50.22975228" lon="-126.62160405">
      </trkpt>
      <trkpt lat="50.22974496" lon="-126.62160475">
      </trkpt>
      <trkpt lat="50.22973525" lon="-126.62160148">
      </trkpt>
      <trkpt lat="50.2297241" lon="-126.62159455">
      </trkpt>
      <trkpt lat="50.22970323" lon="-126.62157328">
      </trkpt>
      <trkpt lat="50.2296975" lon="-126.6215628">
      </trkpt>
      <trkpt lat="50.22969596" lon="-126.62155406">
      </trkpt>
      <trkpt lat="50.22970081" lon="-126.6215429">
      </trkpt>
      <trkpt lat="50.22972103" lon="-126.62151523">
      </trkpt>
      <trkpt lat="50.22972303" lon="-126.62150706">
      </trkpt>
      <trkpt lat="50.22971832" lon="-126.62150472">
      </trkpt>
      <trkpt lat="50.22969922" lon="-126.62150436">
      </trkpt>
      <trkpt lat="50.2296935" lon="-126.62150122">
      </trkpt>
      <trkpt lat="50.22969183" lon="-126.62149596">
      </trkpt>
      <trkpt lat="50.22969186" lon="-126.62148717">
      </trkpt>
      <trkpt lat="50.22969812" lon="-126.62144488">
      </trkpt>
      <trkpt lat="50.22969777" lon="-126.62143976">
      </trkpt>
      <trkpt lat="50.22969614" lon="-126.62143751">
      </trkpt>
      <trkpt lat="50.22967432" lon="-126.6214505">
      </trkpt>
      <trkpt lat="50.22967042" lon="-126.62144763">
      </trkpt>
      <trkpt lat="50.22966934" lon="-126.62143797">
      </trkpt>
      <trkpt lat="50.22968106" lon="-126.62135436">
      </trkpt>
      <trkpt lat="50.22968072" lon="-126.62133908">
      </trkpt>
      <trkpt lat="50.22967687" lon="-126.621332">
      </trkpt>
      <trkpt lat="50.22967003" lon="-126.62133157">
      </trkpt>
      <trkpt lat="50.2296486" lon="-126.62133907">
      </trkpt>
      <trkpt lat="50.22964126" lon="-126.62133917">
      </trkpt>
      <trkpt lat="50.22963767" lon="-126.62133206">
      </trkpt>
      <trkpt lat="50.22963862" lon="-126.62131634">
      </trkpt>
      <trkpt lat="50.22964415" lon="-126.62129126">
      </trkpt>
      <trkpt lat="50.22966234" lon="-126.62122536">
      </trkpt>
      <trkpt lat="50.22966394" lon="-126.62121372">
      </trkpt>
      <trkpt lat="50.22966178" lon="-126.6212102">
      </trkpt>
      <trkpt lat="50.22965523" lon="-126.62121493">
      </trkpt>
      <trkpt lat="50.2296341" lon="-126.62124013">
      </trkpt>
      <trkpt lat="50.22962451" lon="-126.621249">
      </trkpt>
      <trkpt lat="50.22960742" lon="-126.62125442">
      </trkpt>
      <trkpt lat="50.22958651" lon="-126.62125052">
      </trkpt>
      <trkpt lat="50.2295622" lon="-126.62123735">
      </trkpt>
      <trkpt lat="50.22953549" lon="-126.62121544">
      </trkpt>
      <trkpt lat="50.2295051" lon="-126.62118264">
      </trkpt>
      <trkpt lat="50.22947805" lon="-126.62114544">
      </trkpt>
      <trkpt lat="50.22945991" lon="-126.62111153">
      </trkpt>
      <trkpt lat="50.22945568" lon="-126.62109845">
      </trkpt>
      <trkpt lat="50.22945502" lon="-126.62108889">
      </trkpt>
      <trkpt lat="50.22945724" lon="-126.62108411">
      </trkpt>
      <trkpt lat="50.22946234" lon="-126.62108009">
      </trkpt>
      <trkpt lat="50.2294816" lon="-126.62107414">
      </trkpt>
      <trkpt lat="50.22958344" lon="-126.62106549">
      </trkpt>
      <trkpt lat="50.22961826" lon="-126.62105895">
      </trkpt>
      <trkpt lat="50.22963042" lon="-126.62105376">
      </trkpt>
      <trkpt lat="50.22963814" lon="-126.62104728">
      </trkpt>
      <trkpt lat="50.22964152" lon="-126.62103943">
      </trkpt>
      <trkpt lat="50.22964057" lon="-126.62103014">
      </trkpt>
      <trkpt lat="50.22963324" lon="-126.62101655">
      </trkpt>
      <trkpt lat="50.22960471" lon="-126.62097946">
      </trkpt>
      <trkpt lat="50.22959531" lon="-126.62095958">
      </trkpt>
      <trkpt lat="50.22958985" lon="-126.62093004">
      </trkpt>
      <trkpt lat="50.22958808" lon="-126.62089581">
      </trkpt>
      <trkpt lat="50.2295904" lon="-126.62086577">
      </trkpt>
      <trkpt lat="50.22959641" lon="-126.62084488">
      </trkpt>
      <trkpt lat="50.22960246" lon="-126.62083816">
      </trkpt>
      <trkpt lat="50.22961256" lon="-126.62083453">
      </trkpt>
      <trkpt lat="50.22966462" lon="-126.62083272">
      </trkpt>
      <trkpt lat="50.2296721" lon="-126.6208282">
      </trkpt>
      <trkpt lat="50.22967533" lon="-126.62082044">
      </trkpt>
      <trkpt lat="50.22967461" lon="-126.62080956">
      </trkpt>
      <trkpt lat="50.22966566" lon="-126.62077579">
      </trkpt>
      <trkpt lat="50.22966403" lon="-126.62076086">
      </trkpt>
      <trkpt lat="50.22966597" lon="-126.62075123">
      </trkpt>
      <trkpt lat="50.22967098" lon="-126.62074086">
      </trkpt>
      <trkpt lat="50.22970061" lon="-126.62070041">
      </trkpt>
      <trkpt lat="50.22970366" lon="-126.6206914">
      </trkpt>
      <trkpt lat="50.22970318" lon="-126.62068329">
      </trkpt>
      <trkpt lat="50.22968418" lon="-126.62065462">
      </trkpt>
      <trkpt lat="50.22968531" lon="-126.62065287">
      </trkpt>
      <trkpt lat="50.2296896" lon="-126.62065337">
      </trkpt>
      <trkpt lat="50.22972085" lon="-126.62066584">
      </trkpt>
      <trkpt lat="50.22972843" lon="-126.62066651">
      </trkpt>
      <trkpt lat="50.22972454" lon="-126.62065784">
      </trkpt>
      <trkpt lat="50.22969402" lon="-126.62062104">
      </trkpt>
      <trkpt lat="50.22968954" lon="-126.6206132">
      </trkpt>
      <trkpt lat="50.22968821" lon="-126.62060741">
      </trkpt>
      <trkpt lat="50.22968999" lon="-126.62060241">
      </trkpt>
      <trkpt lat="50.22969492" lon="-126.6205984">
      </trkpt>
      <trkpt lat="50.22973525" lon="-126.62058541">
      </trkpt>
      <trkpt lat="50.22974418" lon="-126.62058006">
      </trkpt>
      <trkpt lat="50.22975006" lon="-126.62057346">
      </trkpt>
      <trkpt lat="50.22975668" lon="-126.62055406">
      </trkpt>
      <trkpt lat="50.22976293" lon="-126.62049919">
      </trkpt>
      <trkpt lat="50.22976845" lon="-126.62047785">
      </trkpt>
      <trkpt lat="50.22978014" lon="-126.62046067">
      </trkpt>
      <trkpt lat="50.22981441" lon="-126.62042926">
      </trkpt>
      <trkpt lat="50.22982026" lon="-126.62042025">
      </trkpt>
      <trkpt lat="50.22982333" lon="-126.62041079">
      </trkpt>
      <trkpt lat="50.22982422" lon="-126.62038777">
      </trkpt>
      <trkpt lat="50.22982047" lon="-126.62035885">
      </trkpt>
      <trkpt lat="50.22981323" lon="-126.62033252">
      </trkpt>
      <trkpt lat="50.22980451" lon="-126.62031625">
      </trkpt>
      <trkpt lat="50.22979828" lon="-126.6203131">
      </trkpt>
      <trkpt lat="50.22978942" lon="-126.62031483">
      </trkpt>
      <trkpt lat="50.22974473" lon="-126.62034043">
      </trkpt>
      <trkpt lat="50.22973649" lon="-126.62034084">
      </trkpt>
      <trkpt lat="50.22973042" lon="-126.62033682">
      </trkpt>
      <trkpt lat="50.22972571" lon="-126.62032646">
      </trkpt>
      <trkpt lat="50.22971755" lon="-126.62029406">
      </trkpt>
      <trkpt lat="50.22971184" lon="-126.62028476">
      </trkpt>
      <trkpt lat="50.22970454" lon="-126.62028375">
      </trkpt>
      <trkpt lat="50.22968508" lon="-126.62029117">
      </trkpt>
      <trkpt lat="50.22967884" lon="-126.62029107">
      </trkpt>
      <trkpt lat="50.22967559" lon="-126.62028547">
      </trkpt>
      <trkpt lat="50.22967566" lon="-126.62027443">
      </trkpt>
      <trkpt lat="50.22969019" lon="-126.62021032">
      </trkpt>
      <trkpt lat="50.22969203" lon="-126.62019627">
      </trkpt>
      <trkpt lat="50.22969177" lon="-126.62018558">
      </trkpt>
      <trkpt lat="50.22968662" lon="-126.62016966">
      </trkpt>
      <trkpt lat="50.22967562" lon="-126.62015473">
      </trkpt>
      <trkpt lat="50.22962699" lon="-126.62011683">
      </trkpt>
      <trkpt lat="50.22961376" lon="-126.62010404">
      </trkpt>
      <trkpt lat="50.22960585" lon="-126.62009153">
      </trkpt>
      <trkpt lat="50.22960242" lon="-126.62007828">
      </trkpt>
      <trkpt lat="50.22960305" lon="-126.62005429">
      </trkpt>
      <trkpt lat="50.22960859" lon="-126.62002507">
      </trkpt>
      <trkpt lat="50.22961865" lon="-126.61999288">
      </trkpt>
      <trkpt lat="50.22963148" lon="-126.61996346">
      </trkpt>
      <trkpt lat="50.2296449" lon="-126.61994661">
      </trkpt>
      <trkpt lat="50.22968342" lon="-126.61991375">
      </trkpt>
      <trkpt lat="50.22968814" lon="-126.61990614">
      </trkpt>
      <trkpt lat="50.22968764" lon="-126.61989971">
      </trkpt>
      <trkpt lat="50.22968154" lon="-126.61989447">
      </trkpt>
      <trkpt lat="50.22966054" lon="-126.61988438">
      </trkpt>
      <trkpt lat="50.22965643" lon="-126.61987981">
      </trkpt>
      <trkpt lat="50.22966052" lon="-126.61987314">
      </trkpt>
      <trkpt lat="50.2296851" lon="-126.61985863">
      </trkpt>
      <trkpt lat="50.22969402" lon="-126.61985066">
      </trkpt>
      <trkpt lat="50.22970045" lon="-126.61983447">
      </trkpt>
      <trkpt lat="50.22970154" lon="-126.61981042">
      </trkpt>
      <trkpt lat="50.2296986" lon="-126.61978373">
      </trkpt>
      <trkpt lat="50.22968766" lon="-126.61971868">
      </trkpt>
      <trkpt lat="50.22968552" lon="-126.61969136">
      </trkpt>
      <trkpt lat="50.22968768" lon="-126.6196719">
      </trkpt>
      <trkpt lat="50.22969421" lon="-126.61965872">
      </trkpt>
      <trkpt lat="50.22972057" lon="-126.61964343">
      </trkpt>
      <trkpt lat="50.22972605" lon="-126.61963694">
      </trkpt>
      <trkpt lat="50.229726" lon="-126.61963148">
      </trkpt>
      <trkpt lat="50.22972273" lon="-126.61962439">
      </trkpt>
      <trkpt lat="50.22969722" lon="-126.61958987">
      </trkpt>
      <trkpt lat="50.22969449" lon="-126.61958285">
      </trkpt>
      <trkpt lat="50.22969436" lon="-126.61957693">
      </trkpt>
      <trkpt lat="50.22969834" lon="-126.61956906">
      </trkpt>
      <trkpt lat="50.22971776" lon="-126.61954613">
      </trkpt>
      <trkpt lat="50.2297197" lon="-126.61953615">
      </trkpt>
      <trkpt lat="50.2297183" lon="-126.61952464">
      </trkpt>
      <trkpt lat="50.22971355" lon="-126.61951177">
      </trkpt>
      <trkpt lat="50.22970558" lon="-126.61949779">
      </trkpt>
      <trkpt lat="50.22967989" lon="-126.61946722">
      </trkpt>
      <trkpt lat="50.22964974" lon="-126.61944324">
      </trkpt>
      <trkpt lat="50.22963839" lon="-126.61943959">
      </trkpt>
      <trkpt lat="50.22961623" lon="-126.619438">
      </trkpt>
      <trkpt lat="50.22961011" lon="-126.61943757">
      </trkpt>
      <trkpt lat="50.22959935" lon="-126.61943194">
      </trkpt>
      <trkpt lat="50.22959307" lon="-126.61942106">
      </trkpt>
      <trkpt lat="50.22958947" lon="-126.61940389">
      </trkpt>
      <trkpt lat="50.22958777" lon="-126.61932731">
      </trkpt>
      <trkpt lat="50.22958422" lon="-126.61929969">
      </trkpt>
      <trkpt lat="50.22956972" lon="-126.61924873">
      </trkpt>
      <trkpt lat="50.22955372" lon="-126.61920748">
      </trkpt>
      <trkpt lat="50.22953626" lon="-126.61917596">
      </trkpt>
      <trkpt lat="50.2295174" lon="-126.61915436">
      </trkpt>
      <trkpt lat="50.2294847" lon="-126.61913946">
      </trkpt>
      <trkpt lat="50.22947708" lon="-126.6191323">
      </trkpt>
      <trkpt lat="50.22947642" lon="-126.61912431">
      </trkpt>
      <trkpt lat="50.22948079" lon="-126.6191131">
      </trkpt>
      <trkpt lat="50.22951729" lon="-126.61905699">
      </trkpt>
      <trkpt lat="50.22952063" lon="-126.61904668">
      </trkpt>
      <trkpt lat="50.22952009" lon="-126.61903862">
      </trkpt>
      <trkpt lat="50.22951344" lon="-126.61903043">
      </trkpt>
      <trkpt lat="50.22948934" lon="-126.61901493">
      </trkpt>
      <trkpt lat="50.22948361" lon="-126.61900563">
      </trkpt>
      <trkpt lat="50.22948594" lon="-126.61899356">
      </trkpt>
      <trkpt lat="50.22950247" lon="-126.61896065">
      </trkpt>
      <trkpt lat="50.22950374" lon="-126.61895368">
      </trkpt>
      <trkpt lat="50.22950234" lon="-126.61894848">
      </trkpt>
      <trkpt lat="50.22949375" lon="-126.61894003">
      </trkpt>
      <trkpt lat="50.22949246" lon="-126.6189336">
      </trkpt>
      <trkpt lat="50.2294945" lon="-126.61892479">
      </trkpt>
      <trkpt lat="50.22951044" lon="-126.61889463">
      </trkpt>
      <trkpt lat="50.22951664" lon="-126.61888524">
      </trkpt>
      <trkpt lat="50.22952487" lon="-126.61887718">
      </trkpt>
      <trkpt lat="50.22957087" lon="-126.61885115">
      </trkpt>
      <trkpt lat="50.22958038" lon="-126.61884283">
      </trkpt>
      <trkpt lat="50.22958727" lon="-126.61883304">
      </trkpt>
      <trkpt lat="50.22960025" lon="-126.6188019">
      </trkpt>
      <trkpt lat="50.22961113" lon="-126.61876381">
      </trkpt>
      <trkpt lat="50.22961559" lon="-126.61873429">
      </trkpt>
      <trkpt lat="50.22961518" lon="-126.61872444">
      </trkpt>
      <trkpt lat="50.22961302" lon="-126.61871833">
      </trkpt>
      <trkpt lat="50.2296089" lon="-126.61871639">
      </trkpt>
      <trkpt lat="50.22960172" lon="-126.618718">
      </trkpt>
      <trkpt lat="50.22955989" lon="-126.61873869">
      </trkpt>
      <trkpt lat="50.22955248" lon="-126.61873922">
      </trkpt>
      <trkpt lat="50.22954804" lon="-126.61873593">
      </trkpt>
      <trkpt lat="50.22954324" lon="-126.61871777">
      </trkpt>
      <trkpt lat="50.22954177" lon="-126.6186901">
      </trkpt>
      <trkpt lat="50.22954419" lon="-126.61866629">
      </trkpt>
      <trkpt lat="50.22954986" lon="-126.61865165">
      </trkpt>
      <trkpt lat="50.22955579" lon="-126.6186471">
      </trkpt>
      <trkpt lat="50.22957595" lon="-126.61863847">
      </trkpt>
      <trkpt lat="50.22957547" lon="-126.6186358">
      </trkpt>
      <trkpt lat="50.22957093" lon="-126.61863297">
      </trkpt>
      <trkpt lat="50.22953437" lon="-126.61861984">
      </trkpt>
      <trkpt lat="50.22952954" lon="-126.61861607">
      </trkpt>
      <trkpt lat="50.2295286" lon="-126.61861222">
      </trkpt>
      <trkpt lat="50.2295528" lon="-126.61858717">
      </trkpt>
      <trkpt lat="50.22955669" lon="-126.6185759">
      </trkpt>
      <trkpt lat="50.22955769" lon="-126.61856091">
      </trkpt>
      <trkpt lat="50.22954929" lon="-126.61849467">
      </trkpt>
      <trkpt lat="50.22954995" lon="-126.61846911">
      </trkpt>
      <trkpt lat="50.22955443" lon="-126.61845463">
      </trkpt>
      <trkpt lat="50.22956283" lon="-126.61843808">
      </trkpt>
      <trkpt lat="50.22960426" lon="-126.61837654">
      </trkpt>
      <trkpt lat="50.22960801" lon="-126.61836619">
      </trkpt>
      <trkpt lat="50.22960674" lon="-126.6183591">
      </trkpt>
      <trkpt lat="50.22959717" lon="-126.61835534">
      </trkpt>
      <trkpt lat="50.2295613" lon="-126.61835607">
      </trkpt>
      <trkpt lat="50.22955095" lon="-126.61835059">
      </trkpt>
      <trkpt lat="50.22954867" lon="-126.61834264">
      </trkpt>
      <trkpt lat="50.22954951" lon="-126.61833079">
      </trkpt>
      <trkpt lat="50.22956775" lon="-126.61826518">
      </trkpt>
      <trkpt lat="50.22957032" lon="-126.61824976">
      </trkpt>
      <trkpt lat="50.22957041" lon="-126.61823726">
      </trkpt>
      <trkpt lat="50.22956372" lon="-126.61819813">
      </trkpt>
      <trkpt lat="50.22955347" lon="-126.61816405">
      </trkpt>
      <trkpt lat="50.22954265" lon="-126.61814488">
      </trkpt>
      <trkpt lat="50.22953722" lon="-126.61814096">
      </trkpt>
      <trkpt lat="50.22953186" lon="-126.6181409">
      </trkpt>
      <trkpt lat="50.22951174" lon="-126.61815915">
      </trkpt>
      <trkpt lat="50.22950765" lon="-126.61815769">
      </trkpt>
      <trkpt lat="50.22950456" lon="-126.61815065">
      </trkpt>
      <trkpt lat="50.22944657" lon="-126.61819289">
      </trkpt>
      <trkpt lat="50.22941244" lon="-126.61819622">
      </trkpt>
      <trkpt lat="50.22934438" lon="-126.6181725">
      </trkpt>
      <trkpt lat="50.22924739" lon="-126.61809138">
      </trkpt>
      <trkpt lat="50.2291966" lon="-126.61802611">
      </trkpt>
      <trkpt lat="50.22916027" lon="-126.61798761">
      </trkpt>
      <trkpt lat="50.22911192" lon="-126.61792236">
      </trkpt>
      <trkpt lat="50.22906846" lon="-126.61785339">
      </trkpt>
      <trkpt lat="50.22903483" lon="-126.61776934">
      </trkpt>
      <trkpt lat="50.22899632" lon="-126.61768523">
      </trkpt>
      <trkpt lat="50.22895044" lon="-126.61761241">
      </trkpt>
      <trkpt lat="50.22893145" lon="-126.61752478">
      </trkpt>
      <trkpt lat="50.22893209" lon="-126.6174108">
      </trkpt>
      <trkpt lat="50.22891059" lon="-126.61733453">
      </trkpt>
      <trkpt lat="50.22887199" lon="-126.6172656">
      </trkpt>
      <trkpt lat="50.22882879" lon="-126.61715104">
      </trkpt>
      <trkpt lat="50.22876639" lon="-126.61698302">
      </trkpt>
      <trkpt lat="50.22875466" lon="-126.61690307">
      </trkpt>
      <trkpt lat="50.2287259" lon="-126.6168191">
      </trkpt>
      <trkpt lat="50.22872137" lon="-126.61675824">
      </trkpt>
      <trkpt lat="50.22870728" lon="-126.61666307">
      </trkpt>
      <trkpt lat="50.22870053" lon="-126.61656419">
      </trkpt>
      <trkpt lat="50.2286964" lon="-126.61643115">
      </trkpt>
      <trkpt lat="50.22870167" lon="-126.61635904">
      </trkpt>
      <trkpt lat="50.22872165" lon="-126.61627192">
      </trkpt>
      <trkpt lat="50.22874393" lon="-126.61620764">
      </trkpt>
      <trkpt lat="50.22878093" lon="-126.61612455">
      </trkpt>
      <trkpt lat="50.2288496" lon="-126.6160419">
      </trkpt>
      <trkpt lat="50.22892314" lon="-126.61595931">
      </trkpt>
      <trkpt lat="50.22901346" lon="-126.61592634">
      </trkpt>
      <trkpt lat="50.22911826" lon="-126.61591637">
      </trkpt>
      <trkpt lat="50.22917911" lon="-126.61592479">
      </trkpt>
      <trkpt lat="50.22925193" lon="-126.61597137">
      </trkpt>
      <trkpt lat="50.22932729" lon="-126.615999">
      </trkpt>
      <trkpt lat="50.22937361" lon="-126.61599203">
      </trkpt>
      <trkpt lat="50.2294541" lon="-126.61597411">
      </trkpt>
      <trkpt lat="50.22956888" lon="-126.61592248">
      </trkpt>
      <trkpt lat="50.22958307" lon="-126.61599867">
      </trkpt>
      <trkpt lat="50.22960685" lon="-126.61610157">
      </trkpt>
      <trkpt lat="50.22961634" lon="-126.61614729">
      </trkpt>
      <trkpt lat="50.22963555" lon="-126.61619695">
      </trkpt>
      <trkpt lat="50.22963494" lon="-126.61630712">
      </trkpt>
      <trkpt lat="50.22964422" lon="-126.61639084">
      </trkpt>
      <trkpt lat="50.22965856" lon="-126.61644042">
      </trkpt>
      <trkpt lat="50.22967275" lon="-126.61651661">
      </trkpt>
      <trkpt lat="50.22968702" lon="-126.61657759">
      </trkpt>
      <trkpt lat="50.2296983" lon="-126.61660849">
      </trkpt>
      <trkpt lat="50.22970648" lon="-126.6166267">
      </trkpt>
      <trkpt lat="50.22972619" lon="-126.61666057">
      </trkpt>
      <trkpt lat="50.2297453" lon="-126.61669096">
      </trkpt>
      <trkpt lat="50.22975821" lon="-126.6167557">
      </trkpt>
      <trkpt lat="50.22976469" lon="-126.61682003">
      </trkpt>
      <trkpt lat="50.22976434" lon="-126.61688187">
      </trkpt>
      <trkpt lat="50.22975715" lon="-126.61694126">
      </trkpt>
      <trkpt lat="50.22975242" lon="-126.61696066">
      </trkpt>
      <trkpt lat="50.22974493" lon="-126.61698172">
      </trkpt>
      <trkpt lat="50.22970704" lon="-126.61706551">
      </trkpt>
      <trkpt lat="50.22969758" lon="-126.61709962">
      </trkpt>
      <trkpt lat="50.22969584" lon="-126.61712066">
      </trkpt>
      <trkpt lat="50.22969728" lon="-126.61714327">
      </trkpt>
      <trkpt lat="50.22970188" lon="-126.61716764">
      </trkpt>
      <trkpt lat="50.22970339" lon="-126.61717274">
      </trkpt>
      <trkpt lat="50.22970974" lon="-126.61719423">
      </trkpt>
      <trkpt lat="50.22973009" lon="-126.61724423">
      </trkpt>
      <trkpt lat="50.22978372" lon="-126.61735572">
      </trkpt>
      <trkpt lat="50.2298015" lon="-126.61740338">
      </trkpt>
      <trkpt lat="50.22980634" lon="-126.61742359">
      </trkpt>
      <trkpt lat="50.22980869" lon="-126.61744207">
      </trkpt>
      <trkpt lat="50.22980857" lon="-126.6174591">
      </trkpt>
      <trkpt lat="50.22980598" lon="-126.61747481">
      </trkpt>
      <trkpt lat="50.22979711" lon="-126.61749626">
      </trkpt>
      <trkpt lat="50.22978129" lon="-126.61751739">
      </trkpt>
      <trkpt lat="50.22976248" lon="-126.61753558">
      </trkpt>
      <trkpt lat="50.22971248" lon="-126.61757781">
      </trkpt>
      <trkpt lat="50.22969039" lon="-126.61760133">
      </trkpt>
      <trkpt lat="50.2296754" lon="-126.61762574">
      </trkpt>
      <trkpt lat="50.22966782" lon="-126.61765145">
      </trkpt>
      <trkpt lat="50.22966712" lon="-126.61766477">
      </trkpt>
      <trkpt lat="50.22966844" lon="-126.61768234">
      </trkpt>
      <trkpt lat="50.22968137" lon="-126.61776729">
      </trkpt>
      <trkpt lat="50.2296801" lon="-126.6177821">
      </trkpt>
      <trkpt lat="50.22967777" lon="-126.61778601">
      </trkpt>
      <trkpt lat="50.22967427" lon="-126.61778769">
      </trkpt>
      <trkpt lat="50.22964864" lon="-126.61777886">
      </trkpt>
      <trkpt lat="50.22964329" lon="-126.61778243">
      </trkpt>
      <trkpt lat="50.22963949" lon="-126.61779124">
      </trkpt>
      <trkpt lat="50.22963736" lon="-126.6178051">
      </trkpt>
      <trkpt lat="50.22963696" lon="-126.61782346">
      </trkpt>
      <trkpt lat="50.22964177" lon="-126.61787129">
      </trkpt>
      <trkpt lat="50.22964645" lon="-126.61789402">
      </trkpt>
      <trkpt lat="50.2296518" lon="-126.61791141">
      </trkpt>
      <trkpt lat="50.22966241" lon="-126.61792815">
      </trkpt>
      <trkpt lat="50.22969499" lon="-126.61795688">
      </trkpt>
      <trkpt lat="50.22970722" lon="-126.61797285">
      </trkpt>
      <trkpt lat="50.22972164" lon="-126.61800181">
      </trkpt>
      <trkpt lat="50.22972714" lon="-126.61802122">
      </trkpt>
      <trkpt lat="50.22972662" lon="-126.61802995">
      </trkpt>
      <trkpt lat="50.22972347" lon="-126.61803865">
      </trkpt>
      <trkpt lat="50.22970939" lon="-126.6180557">
      </trkpt>
      <trkpt lat="50.22968503" lon="-126.61807183">
      </trkpt>
      <trkpt lat="50.22965516" lon="-126.61808384">
      </trkpt>
      <trkpt lat="50.22963822" lon="-126.61808719">
      </trkpt>
      <trkpt lat="50.2296223" lon="-126.61808747">
      </trkpt>
      <trkpt lat="50.22960837" lon="-126.61808471">
      </trkpt>
      <trkpt lat="50.22959671" lon="-126.61807897">
      </trkpt>
      <trkpt lat="50.22958578" lon="-126.61806501">
      </trkpt>
      <trkpt lat="50.22956473" lon="-126.61802009">
      </trkpt>
      <trkpt lat="50.22955928" lon="-126.61801344">
      </trkpt>
      <trkpt lat="50.22955394" lon="-126.61801107">
      </trkpt>
      <trkpt lat="50.22954415" lon="-126.6180139">
      </trkpt>
      <trkpt lat="50.2295324" lon="-126.61802297">
      </trkpt>
      <trkpt lat="50.22952061" lon="-126.61803683">
      </trkpt>
      <trkpt lat="50.22951196" lon="-126.61805181">
      </trkpt>
      <trkpt lat="50.2295049" lon="-126.61808114">
      </trkpt>
      <trkpt lat="50.22950198" lon="-126.61812157">
      </trkpt>
      <trkpt lat="50.22950456" lon="-126.61815065">
      </trkpt>
    </trkseg>
  </trk>
</gpx>