<?xml version="1.0" encoding="UTF-8"?>
<gpx xmlns="http://www.topografix.com/GPX/1/1" xmlns:xsi="http://www.w3.org/2001/XMLSchema-instance" xsi:schemaLocation="http://www.topografix.com/GPX/1/1 http://www.topografix.com/GPX/1/1/gpx.xsd" version="1.1" creator="gpx.py -- https://github.com/tkrajina/gpxpy">
  <trk>
    <name>Hasla Trail</name>
    <trkseg>
      <trkpt lat="49.857669" lon="-124.4648">
      </trkpt>
      <trkpt lat="49.857852" lon="-124.465021">
      </trkpt>
      <trkpt lat="49.858062" lon="-124.465142">
      </trkpt>
      <trkpt lat="49.85866" lon="-124.465232">
      </trkpt>
      <trkpt lat="49.858991" lon="-124.465405">
      </trkpt>
      <trkpt lat="49.859456" lon="-124.465474">
      </trkpt>
      <trkpt lat="49.859902" lon="-124.465405">
      </trkpt>
      <trkpt lat="49.860144" lon="-124.465402">
      </trkpt>
      <trkpt lat="49.860707" lon="-124.465583">
      </trkpt>
      <trkpt lat="49.861308" lon="-124.465948">
      </trkpt>
      <trkpt lat="49.861777" lon="-124.4663">
      </trkpt>
      <trkpt lat="49.862131" lon="-124.466598">
      </trkpt>
      <trkpt lat="49.862912" lon="-124.467331">
      </trkpt>
      <trkpt lat="49.863004" lon="-124.467378">
      </trkpt>
      <trkpt lat="49.863793" lon="-124.467579">
      </trkpt>
      <trkpt lat="49.863985" lon="-124.467649">
      </trkpt>
      <trkpt lat="49.864686" lon="-124.467995">
      </trkpt>
      <trkpt lat="49.865798" lon="-124.468593">
      </trkpt>
      <trkpt lat="49.865935" lon="-124.468697">
      </trkpt>
      <trkpt lat="49.866396" lon="-124.469128">
      </trkpt>
      <trkpt lat="49.866534" lon="-124.469227">
      </trkpt>
      <trkpt lat="49.866929" lon="-124.469354">
      </trkpt>
      <trkpt lat="49.86746" lon="-124.469653">
      </trkpt>
      <trkpt lat="49.867557" lon="-124.469673">
      </trkpt>
      <trkpt lat="49.867636" lon="-124.469656">
      </trkpt>
      <trkpt lat="49.867703" lon="-124.469616">
      </trkpt>
      <trkpt lat="49.867856" lon="-124.469471">
      </trkpt>
      <trkpt lat="49.867949" lon="-124.469307">
      </trkpt>
      <trkpt lat="49.868234" lon="-124.468442">
      </trkpt>
      <trkpt lat="49.868385" lon="-124.468132">
      </trkpt>
      <trkpt lat="49.868484" lon="-124.467972">
      </trkpt>
      <trkpt lat="49.868632" lon="-124.467816">
      </trkpt>
      <trkpt lat="49.869123" lon="-124.467471">
      </trkpt>
      <trkpt lat="49.869383" lon="-124.467367">
      </trkpt>
      <trkpt lat="49.869894" lon="-124.467335">
      </trkpt>
      <trkpt lat="49.87026" lon="-124.467272">
      </trkpt>
      <trkpt lat="49.870421" lon="-124.467266">
      </trkpt>
      <trkpt lat="49.870536" lon="-124.467288">
      </trkpt>
      <trkpt lat="49.870644" lon="-124.467344">
      </trkpt>
      <trkpt lat="49.870766" lon="-124.467554">
      </trkpt>
      <trkpt lat="49.870944" lon="-124.467712">
      </trkpt>
      <trkpt lat="49.871073" lon="-124.467858">
      </trkpt>
      <trkpt lat="49.871565" lon="-124.468882">
      </trkpt>
      <trkpt lat="49.871628" lon="-124.468949">
      </trkpt>
      <trkpt lat="49.871759" lon="-124.468977">
      </trkpt>
    </trkseg>
    <trkseg>
      <trkpt lat="49.871759" lon="-124.468977">
      </trkpt>
      <trkpt lat="49.871809" lon="-124.469252">
      </trkpt>
      <trkpt lat="49.871842" lon="-124.469315">
      </trkpt>
      <trkpt lat="49.871925" lon="-124.469357">
      </trkpt>
      <trkpt lat="49.872253" lon="-124.469293">
      </trkpt>
      <trkpt lat="49.872574" lon="-124.469185">
      </trkpt>
      <trkpt lat="49.873047" lon="-124.46913">
      </trkpt>
      <trkpt lat="49.873305" lon="-124.469193">
      </trkpt>
      <trkpt lat="49.873499" lon="-124.469316">
      </trkpt>
      <trkpt lat="49.873642" lon="-124.469362">
      </trkpt>
      <trkpt lat="49.873781" lon="-124.469331">
      </trkpt>
      <trkpt lat="49.87389" lon="-124.469351">
      </trkpt>
      <trkpt lat="49.874051" lon="-124.469472">
      </trkpt>
      <trkpt lat="49.87417" lon="-124.469522">
      </trkpt>
      <trkpt lat="49.874401" lon="-124.469477">
      </trkpt>
      <trkpt lat="49.874463" lon="-124.469506">
      </trkpt>
      <trkpt lat="49.874521" lon="-124.469587">
      </trkpt>
      <trkpt lat="49.874685" lon="-124.469941">
      </trkpt>
      <trkpt lat="49.874715" lon="-124.470075">
      </trkpt>
      <trkpt lat="49.874771" lon="-124.470498">
      </trkpt>
      <trkpt lat="49.87477" lon="-124.470725">
      </trkpt>
      <trkpt lat="49.874742" lon="-124.470979">
      </trkpt>
      <trkpt lat="49.874756" lon="-124.471175">
      </trkpt>
      <trkpt lat="49.874783" lon="-124.471286">
      </trkpt>
    </trkseg>
  </trk>
</gpx>