<?xml version="1.0" encoding="UTF-8"?>
<gpx xmlns="http://www.topografix.com/GPX/1/1" xmlns:xsi="http://www.w3.org/2001/XMLSchema-instance" xsi:schemaLocation="http://www.topografix.com/GPX/1/1 http://www.topografix.com/GPX/1/1/gpx.xsd" version="1.1" creator="gpx.py -- https://github.com/tkrajina/gpxpy">
  <trk>
    <name>Haywire Trails</name>
    <trkseg>
      <trkpt lat="49.903388" lon="-124.5127319">
      </trkpt>
      <trkpt lat="49.9032596" lon="-124.5126813">
      </trkpt>
      <trkpt lat="49.9032417" lon="-124.5125188">
      </trkpt>
      <trkpt lat="49.903339" lon="-124.5124545">
      </trkpt>
      <trkpt lat="49.9034268" lon="-124.5122692">
      </trkpt>
      <trkpt lat="49.9035274" lon="-124.5120406">
      </trkpt>
      <trkpt lat="49.9036594" lon="-124.5117975">
      </trkpt>
      <trkpt lat="49.9038122" lon="-124.5114556">
      </trkpt>
      <trkpt lat="49.9039254" lon="-124.5111576">
      </trkpt>
      <trkpt lat="49.9040011" lon="-124.5109376">
      </trkpt>
      <trkpt lat="49.9040103" lon="-124.5106307">
      </trkpt>
      <trkpt lat="49.9039726" lon="-124.5102494">
      </trkpt>
      <trkpt lat="49.9039108" lon="-124.5099481">
      </trkpt>
      <trkpt lat="49.9038413" lon="-124.5096708">
      </trkpt>
      <trkpt lat="49.9038035" lon="-124.5094686">
      </trkpt>
      <trkpt lat="49.9038778" lon="-124.5091649">
      </trkpt>
      <trkpt lat="49.903944" lon="-124.5088478">
      </trkpt>
      <trkpt lat="49.9040016" lon="-124.5084235">
      </trkpt>
      <trkpt lat="49.9039747" lon="-124.5080694">
      </trkpt>
      <trkpt lat="49.9040367" lon="-124.5077285">
      </trkpt>
      <trkpt lat="49.9042349" lon="-124.5074772">
      </trkpt>
      <trkpt lat="49.9044016" lon="-124.5072947">
      </trkpt>
      <trkpt lat="49.9045126" lon="-124.5071">
      </trkpt>
      <trkpt lat="49.9045975" lon="-124.5068577">
      </trkpt>
      <trkpt lat="49.9045449" lon="-124.5066698">
      </trkpt>
      <trkpt lat="49.904417" lon="-124.5064971">
      </trkpt>
      <trkpt lat="49.9044434" lon="-124.5063026">
      </trkpt>
      <trkpt lat="49.9045022" lon="-124.5061648">
      </trkpt>
      <trkpt lat="49.9043656" lon="-124.5060199">
      </trkpt>
      <trkpt lat="49.9042139" lon="-124.5059622">
      </trkpt>
      <trkpt lat="49.9040579" lon="-124.5058808">
      </trkpt>
      <trkpt lat="49.9039349" lon="-124.5057153">
      </trkpt>
      <trkpt lat="49.9038055" lon="-124.5055175">
      </trkpt>
      <trkpt lat="49.9037385" lon="-124.5052786">
      </trkpt>
      <trkpt lat="49.9037839" lon="-124.5049706">
      </trkpt>
      <trkpt lat="49.9038137" lon="-124.5046651">
      </trkpt>
      <trkpt lat="49.9037907" lon="-124.5043312">
      </trkpt>
      <trkpt lat="49.9038058" lon="-124.5039215">
      </trkpt>
      <trkpt lat="49.9038506" lon="-124.5036826">
      </trkpt>
      <trkpt lat="49.9039854" lon="-124.5035137">
      </trkpt>
      <trkpt lat="49.90416" lon="-124.5033009">
      </trkpt>
      <trkpt lat="49.9043624" lon="-124.5031704">
      </trkpt>
      <trkpt lat="49.9045192" lon="-124.5031087">
      </trkpt>
      <trkpt lat="49.9047762" lon="-124.5028212">
      </trkpt>
      <trkpt lat="49.9048819" lon="-124.5025339">
      </trkpt>
      <trkpt lat="49.9050298" lon="-124.5022858">
      </trkpt>
      <trkpt lat="49.9051372" lon="-124.5020581">
      </trkpt>
      <trkpt lat="49.905125" lon="-124.5018268">
      </trkpt>
      <trkpt lat="49.9052582" lon="-124.5016698">
      </trkpt>
      <trkpt lat="49.9053567" lon="-124.5014502">
      </trkpt>
      <trkpt lat="49.9053875" lon="-124.5012545">
      </trkpt>
      <trkpt lat="49.9053786" lon="-124.5009247">
      </trkpt>
      <trkpt lat="49.9052928" lon="-124.5006446">
      </trkpt>
      <trkpt lat="49.9052736" lon="-124.5003502">
      </trkpt>
      <trkpt lat="49.9052923" lon="-124.5000305">
      </trkpt>
      <trkpt lat="49.9051992" lon="-124.49989">
      </trkpt>
      <trkpt lat="49.9051339" lon="-124.4996379">
      </trkpt>
      <trkpt lat="49.9050861" lon="-124.4993364">
      </trkpt>
      <trkpt lat="49.9051301" lon="-124.4990749">
      </trkpt>
      <trkpt lat="49.9052352" lon="-124.498799">
      </trkpt>
      <trkpt lat="49.9052073" lon="-124.4986459">
      </trkpt>
      <trkpt lat="49.9050794" lon="-124.498542">
      </trkpt>
      <trkpt lat="49.9050321" lon="-124.49824">
      </trkpt>
      <trkpt lat="49.9049485" lon="-124.4981444">
      </trkpt>
      <trkpt lat="49.9048271" lon="-124.49816">
      </trkpt>
      <trkpt lat="49.9045881" lon="-124.4982727">
      </trkpt>
      <trkpt lat="49.9043987" lon="-124.4981798">
      </trkpt>
      <trkpt lat="49.9042579" lon="-124.4980127">
      </trkpt>
      <trkpt lat="49.9040836" lon="-124.4977416">
      </trkpt>
      <trkpt lat="49.9039195" lon="-124.4974823">
      </trkpt>
      <trkpt lat="49.903802" lon="-124.4972745">
      </trkpt>
      <trkpt lat="49.9037888" lon="-124.4970515">
      </trkpt>
      <trkpt lat="49.9038202" lon="-124.4968099">
      </trkpt>
      <trkpt lat="49.9037545" lon="-124.4966197">
      </trkpt>
      <trkpt lat="49.9036142" lon="-124.4966087">
      </trkpt>
      <trkpt lat="49.9035481" lon="-124.4966205">
      </trkpt>
      <trkpt lat="49.9034383" lon="-124.4966988">
      </trkpt>
      <trkpt lat="49.9032646" lon="-124.4967426">
      </trkpt>
      <trkpt lat="49.9030703" lon="-124.4968029">
      </trkpt>
      <trkpt lat="49.9028389" lon="-124.4967405">
      </trkpt>
      <trkpt lat="49.9026666" lon="-124.4967605">
      </trkpt>
      <trkpt lat="49.9024973" lon="-124.4966152">
      </trkpt>
      <trkpt lat="49.90237" lon="-124.4964606">
      </trkpt>
      <trkpt lat="49.9023691" lon="-124.4961909">
      </trkpt>
      <trkpt lat="49.902382" lon="-124.4958709">
      </trkpt>
      <trkpt lat="49.9022783" lon="-124.4957506">
      </trkpt>
      <trkpt lat="49.9021715" lon="-124.4957769">
      </trkpt>
      <trkpt lat="49.9020657" lon="-124.4958165">
      </trkpt>
      <trkpt lat="49.9019405" lon="-124.4959287">
      </trkpt>
      <trkpt lat="49.9016524" lon="-124.4958863">
      </trkpt>
      <trkpt lat="49.9014872" lon="-124.4955817">
      </trkpt>
      <trkpt lat="49.901247" lon="-124.4952596">
      </trkpt>
      <trkpt lat="49.9010253" lon="-124.4949655">
      </trkpt>
      <trkpt lat="49.9009176" lon="-124.4948563">
      </trkpt>
      <trkpt lat="49.9007873" lon="-124.4948657">
      </trkpt>
      <trkpt lat="49.9006746" lon="-124.49477">
      </trkpt>
      <trkpt lat="49.9005251" lon="-124.4947701">
      </trkpt>
      <trkpt lat="49.900393" lon="-124.4948247">
      </trkpt>
      <trkpt lat="49.9002412" lon="-124.494689">
      </trkpt>
      <trkpt lat="49.9000622" lon="-124.4944815">
      </trkpt>
      <trkpt lat="49.8998107" lon="-124.4943054">
      </trkpt>
      <trkpt lat="49.8996876" lon="-124.4940741">
      </trkpt>
      <trkpt lat="49.8995386" lon="-124.4938482">
      </trkpt>
      <trkpt lat="49.8993849" lon="-124.4936082">
      </trkpt>
      <trkpt lat="49.8992852" lon="-124.4934664">
      </trkpt>
      <trkpt lat="49.8990717" lon="-124.4933108">
      </trkpt>
      <trkpt lat="49.898917" lon="-124.4930623">
      </trkpt>
      <trkpt lat="49.8987544" lon="-124.492886">
      </trkpt>
      <trkpt lat="49.8985844" lon="-124.4928156">
      </trkpt>
      <trkpt lat="49.898443" lon="-124.492735">
      </trkpt>
    </trkseg>
  </trk>
</gpx>