<?xml version="1.0" encoding="UTF-8"?>
<gpx xmlns="http://www.topografix.com/GPX/1/1" xmlns:xsi="http://www.w3.org/2001/XMLSchema-instance" xsi:schemaLocation="http://www.topografix.com/GPX/1/1 http://www.topografix.com/GPX/1/1/gpx.xsd" version="1.1" creator="gpx.py -- https://github.com/tkrajina/gpxpy">
  <trk>
    <name>Kristi Glacier Trail</name>
    <trkseg>
      <trkpt lat="53.14116246" lon="-120.48617897">
      </trkpt>
      <trkpt lat="53.14132865" lon="-120.48623413">
      </trkpt>
      <trkpt lat="53.14139341" lon="-120.486307">
      </trkpt>
      <trkpt lat="53.14147824" lon="-120.48640201">
      </trkpt>
      <trkpt lat="53.14156307" lon="-120.48649702">
      </trkpt>
      <trkpt lat="53.14167848" lon="-120.4866128">
      </trkpt>
      <trkpt lat="53.14175217" lon="-120.48674109">
      </trkpt>
      <trkpt lat="53.14184692" lon="-120.4869126">
      </trkpt>
      <trkpt lat="53.1419604" lon="-120.48703216">
      </trkpt>
      <trkpt lat="53.14205249" lon="-120.48710148">
      </trkpt>
      <trkpt lat="53.14210009" lon="-120.48716953">
      </trkpt>
      <trkpt lat="53.1421726" lon="-120.48722726">
      </trkpt>
      <trkpt lat="53.14222618" lon="-120.48728744">
      </trkpt>
      <trkpt lat="53.14226617" lon="-120.48732819">
      </trkpt>
      <trkpt lat="53.1423209" lon="-120.487413">
      </trkpt>
      <trkpt lat="53.14238765" lon="-120.48757401">
      </trkpt>
      <trkpt lat="53.14242093" lon="-120.48774295">
      </trkpt>
      <trkpt lat="53.14250155" lon="-120.48783851">
      </trkpt>
      <trkpt lat="53.14264167" lon="-120.4878945">
      </trkpt>
      <trkpt lat="53.14268384" lon="-120.48791163">
      </trkpt>
      <trkpt lat="53.14275708" lon="-120.48801027">
      </trkpt>
      <trkpt lat="53.14282703" lon="-120.48810369">
      </trkpt>
      <trkpt lat="53.14292384" lon="-120.48822897">
      </trkpt>
      <trkpt lat="53.14295367" lon="-120.4883241">
      </trkpt>
      <trkpt lat="53.14297548" lon="-120.48851926">
      </trkpt>
      <trkpt lat="53.14297925" lon="-120.4886001">
      </trkpt>
      <trkpt lat="53.1430094" lon="-120.48870226">
      </trkpt>
      <trkpt lat="53.14301774" lon="-120.48883554">
      </trkpt>
      <trkpt lat="53.14302463" lon="-120.48898316">
      </trkpt>
      <trkpt lat="53.14303878" lon="-120.48910506">
      </trkpt>
      <trkpt lat="53.14307813" lon="-120.48917772">
      </trkpt>
      <trkpt lat="53.14317995" lon="-120.48927407">
      </trkpt>
      <trkpt lat="53.14323629" lon="-120.48934805">
      </trkpt>
      <trkpt lat="53.14329506" lon="-120.48942879">
      </trkpt>
      <trkpt lat="53.14334542" lon="-120.48951063">
      </trkpt>
      <trkpt lat="53.14341563" lon="-120.48951915">
      </trkpt>
      <trkpt lat="53.14347241" lon="-120.48951175">
      </trkpt>
      <trkpt lat="53.14349652" lon="-120.48952982">
      </trkpt>
      <trkpt lat="53.14347575" lon="-120.48967397">
      </trkpt>
      <trkpt lat="53.14347075" lon="-120.4898317">
      </trkpt>
      <trkpt lat="53.14349981" lon="-120.48987239">
      </trkpt>
      <trkpt lat="53.14356079" lon="-120.48986444">
      </trkpt>
      <trkpt lat="53.14363601" lon="-120.48984403">
      </trkpt>
      <trkpt lat="53.14368791" lon="-120.48982312">
      </trkpt>
      <trkpt lat="53.14371574" lon="-120.4898301">
      </trkpt>
      <trkpt lat="53.14379765" lon="-120.48990783">
      </trkpt>
      <trkpt lat="53.1438328" lon="-120.48998104">
      </trkpt>
      <trkpt lat="53.14382963" lon="-120.49009461">
      </trkpt>
      <trkpt lat="53.14385007" lon="-120.49016973">
      </trkpt>
      <trkpt lat="53.14393417" lon="-120.49015877">
      </trkpt>
      <trkpt lat="53.14397883" lon="-120.49016355">
      </trkpt>
      <trkpt lat="53.14403339" lon="-120.49024485">
      </trkpt>
      <trkpt lat="53.14410317" lon="-120.49033477">
      </trkpt>
      <trkpt lat="53.14417245" lon="-120.49041414">
      </trkpt>
      <trkpt lat="53.14423816" lon="-120.49046215">
      </trkpt>
      <trkpt lat="53.14429901" lon="-120.49049665">
      </trkpt>
      <trkpt lat="53.14444451" lon="-120.49062267">
      </trkpt>
      <trkpt lat="53.1446054" lon="-120.49076082">
      </trkpt>
      <trkpt lat="53.14472258" lon="-120.49087522">
      </trkpt>
      <trkpt lat="53.14509361" lon="-120.49129479">
      </trkpt>
      <trkpt lat="53.14545429" lon="-120.49172517">
      </trkpt>
      <trkpt lat="53.14563577" lon="-120.491942">
      </trkpt>
      <trkpt lat="53.14568938" lon="-120.49200772">
      </trkpt>
      <trkpt lat="53.14579687" lon="-120.49217561">
      </trkpt>
      <trkpt lat="53.14589411" lon="-120.49221952">
      </trkpt>
      <trkpt lat="53.1459794" lon="-120.49227912">
      </trkpt>
      <trkpt lat="53.14605726" lon="-120.49236092">
      </trkpt>
      <trkpt lat="53.14611524" lon="-120.49247006">
      </trkpt>
      <trkpt lat="53.14615696" lon="-120.49260485">
      </trkpt>
      <trkpt lat="53.14626113" lon="-120.49274071">
      </trkpt>
      <trkpt lat="53.14637635" lon="-120.49289101">
      </trkpt>
      <trkpt lat="53.14653163" lon="-120.49309357">
      </trkpt>
      <trkpt lat="53.14662512" lon="-120.49323445">
      </trkpt>
      <trkpt lat="53.14678578" lon="-120.49347653">
      </trkpt>
      <trkpt lat="53.14692417" lon="-120.49368507">
      </trkpt>
      <trkpt lat="53.14701066" lon="-120.4938154">
      </trkpt>
      <trkpt lat="53.14705275" lon="-120.49387882">
      </trkpt>
      <trkpt lat="53.14719909" lon="-120.49409934">
      </trkpt>
      <trkpt lat="53.14734164" lon="-120.49428996">
      </trkpt>
      <trkpt lat="53.14747691" lon="-120.49446666">
      </trkpt>
      <trkpt lat="53.14764054" lon="-120.49464775">
      </trkpt>
      <trkpt lat="53.14772435" lon="-120.49478991">
      </trkpt>
      <trkpt lat="53.14782553" lon="-120.49492208">
      </trkpt>
      <trkpt lat="53.14794425" lon="-120.49507717">
      </trkpt>
      <trkpt lat="53.14809723" lon="-120.49520167">
      </trkpt>
      <trkpt lat="53.14828287" lon="-120.49534028">
      </trkpt>
      <trkpt lat="53.14845087" lon="-120.49546572">
      </trkpt>
      <trkpt lat="53.14880759" lon="-120.49573207">
      </trkpt>
      <trkpt lat="53.14883861" lon="-120.49575523">
      </trkpt>
      <trkpt lat="53.14908527" lon="-120.4961011">
      </trkpt>
      <trkpt lat="53.14916136" lon="-120.4961401">
      </trkpt>
      <trkpt lat="53.14924438" lon="-120.49619648">
      </trkpt>
      <trkpt lat="53.14932546" lon="-120.49625665">
      </trkpt>
      <trkpt lat="53.14940253" lon="-120.49636686">
      </trkpt>
      <trkpt lat="53.14947153" lon="-120.49653116">
      </trkpt>
      <trkpt lat="53.14956301" lon="-120.49667839">
      </trkpt>
      <trkpt lat="53.14961316" lon="-120.49684135">
      </trkpt>
      <trkpt lat="53.14972736" lon="-120.49700151">
      </trkpt>
      <trkpt lat="53.14983934" lon="-120.49715853">
      </trkpt>
      <trkpt lat="53.14990362" lon="-120.49723768">
      </trkpt>
      <trkpt lat="53.15038875" lon="-120.49758289">
      </trkpt>
      <trkpt lat="53.15085411" lon="-120.49791405">
      </trkpt>
      <trkpt lat="53.15099984" lon="-120.49801775">
      </trkpt>
      <trkpt lat="53.15106481" lon="-120.49803541">
      </trkpt>
      <trkpt lat="53.15110055" lon="-120.49803076">
      </trkpt>
      <trkpt lat="53.1511475" lon="-120.49808476">
      </trkpt>
      <trkpt lat="53.15119164" lon="-120.49815424">
      </trkpt>
      <trkpt lat="53.15125612" lon="-120.49820012">
      </trkpt>
      <trkpt lat="53.15137402" lon="-120.49828403">
      </trkpt>
      <trkpt lat="53.15151548" lon="-120.49838469">
      </trkpt>
      <trkpt lat="53.15164426" lon="-120.49847635">
      </trkpt>
      <trkpt lat="53.15184105" lon="-120.4984015">
      </trkpt>
      <trkpt lat="53.15212171" lon="-120.49829471">
      </trkpt>
      <trkpt lat="53.15235319" lon="-120.49820664">
      </trkpt>
      <trkpt lat="53.15242914" lon="-120.4981742">
      </trkpt>
      <trkpt lat="53.15275102" lon="-120.49798077">
      </trkpt>
      <trkpt lat="53.15290437" lon="-120.49788861">
      </trkpt>
      <trkpt lat="53.15311727" lon="-120.49776067">
      </trkpt>
      <trkpt lat="53.15317584" lon="-120.49775703">
      </trkpt>
      <trkpt lat="53.15331156" lon="-120.49776411">
      </trkpt>
      <trkpt lat="53.15338614" lon="-120.49777562">
      </trkpt>
      <trkpt lat="53.15345916" lon="-120.49761757">
      </trkpt>
      <trkpt lat="53.15356118" lon="-120.4974939">
      </trkpt>
      <trkpt lat="53.15370044" lon="-120.4974102">
      </trkpt>
      <trkpt lat="53.1538935" lon="-120.49729419">
      </trkpt>
      <trkpt lat="53.15401321" lon="-120.49722223">
      </trkpt>
      <trkpt lat="53.154141" lon="-120.49712453">
      </trkpt>
      <trkpt lat="53.15422294" lon="-120.49706188">
      </trkpt>
      <trkpt lat="53.15425613" lon="-120.49703649">
      </trkpt>
      <trkpt lat="53.15440327" lon="-120.49699849">
      </trkpt>
      <trkpt lat="53.1544953" lon="-120.49697472">
      </trkpt>
      <trkpt lat="53.15460352" lon="-120.49681896">
      </trkpt>
      <trkpt lat="53.15471892" lon="-120.49665284">
      </trkpt>
      <trkpt lat="53.15476543" lon="-120.49658586">
      </trkpt>
      <trkpt lat="53.15478329" lon="-120.49625783">
      </trkpt>
      <trkpt lat="53.15481158" lon="-120.49573764">
      </trkpt>
      <trkpt lat="53.15483325" lon="-120.49533922">
      </trkpt>
      <trkpt lat="53.15484734" lon="-120.49508002">
      </trkpt>
      <trkpt lat="53.15486086" lon="-120.4948311">
      </trkpt>
      <trkpt lat="53.15492666" lon="-120.49462645">
      </trkpt>
      <trkpt lat="53.15496906" lon="-120.49452375">
      </trkpt>
      <trkpt lat="53.1550979" lon="-120.49427836">
      </trkpt>
      <trkpt lat="53.15521205" lon="-120.49406096">
      </trkpt>
      <trkpt lat="53.15535474" lon="-120.4937892">
      </trkpt>
      <trkpt lat="53.15551322" lon="-120.49348735">
      </trkpt>
      <trkpt lat="53.15566873" lon="-120.49319114">
      </trkpt>
      <trkpt lat="53.15575424" lon="-120.49302828">
      </trkpt>
      <trkpt lat="53.15585361" lon="-120.49283901">
      </trkpt>
      <trkpt lat="53.15595799" lon="-120.49264019">
      </trkpt>
      <trkpt lat="53.15605535" lon="-120.49245476">
      </trkpt>
      <trkpt lat="53.1561192" lon="-120.49233313">
      </trkpt>
      <trkpt lat="53.15615236" lon="-120.49222641">
      </trkpt>
      <trkpt lat="53.1561613" lon="-120.49196305">
      </trkpt>
      <trkpt lat="53.15616952" lon="-120.49172088">
      </trkpt>
      <trkpt lat="53.1561734" lon="-120.49160629">
      </trkpt>
      <trkpt lat="53.15624697" lon="-120.49152098">
      </trkpt>
      <trkpt lat="53.15633829" lon="-120.49141507">
      </trkpt>
      <trkpt lat="53.15639037" lon="-120.49135466">
      </trkpt>
      <trkpt lat="53.15649932" lon="-120.4913712">
      </trkpt>
      <trkpt lat="53.15668961" lon="-120.49140005">
      </trkpt>
      <trkpt lat="53.15680593" lon="-120.4914177">
      </trkpt>
      <trkpt lat="53.15684675" lon="-120.4914239">
      </trkpt>
      <trkpt lat="53.15694825" lon="-120.49124985">
      </trkpt>
      <trkpt lat="53.15704259" lon="-120.49108807">
      </trkpt>
      <trkpt lat="53.15709494" lon="-120.49099829">
      </trkpt>
      <trkpt lat="53.15714677" lon="-120.49090938">
      </trkpt>
      <trkpt lat="53.15725072" lon="-120.49094969">
      </trkpt>
      <trkpt lat="53.15740984" lon="-120.49101139">
      </trkpt>
      <trkpt lat="53.15751305" lon="-120.49105142">
      </trkpt>
      <trkpt lat="53.15758325" lon="-120.49107865">
      </trkpt>
      <trkpt lat="53.15763907" lon="-120.49088055">
      </trkpt>
      <trkpt lat="53.15770662" lon="-120.49064074">
      </trkpt>
      <trkpt lat="53.15774769" lon="-120.4904949">
      </trkpt>
      <trkpt lat="53.15781562" lon="-120.49039745">
      </trkpt>
      <trkpt lat="53.15793153" lon="-120.49023114">
      </trkpt>
      <trkpt lat="53.15803571" lon="-120.49009592">
      </trkpt>
      <trkpt lat="53.15815956" lon="-120.48999156">
      </trkpt>
      <trkpt lat="53.15826519" lon="-120.48990256">
      </trkpt>
      <trkpt lat="53.15834316" lon="-120.48983685">
      </trkpt>
      <trkpt lat="53.15839592" lon="-120.48979238">
      </trkpt>
      <trkpt lat="53.15846204" lon="-120.48984903">
      </trkpt>
      <trkpt lat="53.15852575" lon="-120.48980889">
      </trkpt>
      <trkpt lat="53.15858229" lon="-120.48963534">
      </trkpt>
      <trkpt lat="53.1586189" lon="-120.48960447">
      </trkpt>
      <trkpt lat="53.15871207" lon="-120.48947541">
      </trkpt>
      <trkpt lat="53.15887381" lon="-120.4892513">
      </trkpt>
      <trkpt lat="53.15903715" lon="-120.48900824">
      </trkpt>
      <trkpt lat="53.15922906" lon="-120.48872261">
      </trkpt>
      <trkpt lat="53.15933553" lon="-120.48856415">
      </trkpt>
      <trkpt lat="53.15946698" lon="-120.48836852">
      </trkpt>
      <trkpt lat="53.15962954" lon="-120.48812657">
      </trkpt>
      <trkpt lat="53.15981443" lon="-120.48786827">
      </trkpt>
      <trkpt lat="53.16000372" lon="-120.48760507">
      </trkpt>
      <trkpt lat="53.16018899" lon="-120.48734747">
      </trkpt>
      <trkpt lat="53.16034041" lon="-120.48713692">
      </trkpt>
      <trkpt lat="53.16045393" lon="-120.48699924">
      </trkpt>
      <trkpt lat="53.16053501" lon="-120.48692172">
      </trkpt>
      <trkpt lat="53.16067106" lon="-120.48679167">
      </trkpt>
      <trkpt lat="53.16083975" lon="-120.4866304">
      </trkpt>
      <trkpt lat="53.16104283" lon="-120.48643623">
      </trkpt>
      <trkpt lat="53.16131053" lon="-120.48630151">
      </trkpt>
      <trkpt lat="53.16148995" lon="-120.48621119">
      </trkpt>
      <trkpt lat="53.16158657" lon="-120.48616256">
      </trkpt>
      <trkpt lat="53.16169392" lon="-120.48610852">
      </trkpt>
      <trkpt lat="53.16180967" lon="-120.48600683">
      </trkpt>
      <trkpt lat="53.16211024" lon="-120.4857427">
      </trkpt>
      <trkpt lat="53.16242353" lon="-120.4854674">
      </trkpt>
      <trkpt lat="53.16265446" lon="-120.48526445">
      </trkpt>
      <trkpt lat="53.16280671" lon="-120.48513067">
      </trkpt>
      <trkpt lat="53.16288437" lon="-120.48506241">
      </trkpt>
      <trkpt lat="53.16294229" lon="-120.48478303">
      </trkpt>
      <trkpt lat="53.1630195" lon="-120.4845866">
      </trkpt>
      <trkpt lat="53.16313462" lon="-120.48429371">
      </trkpt>
      <trkpt lat="53.16317082" lon="-120.48422337">
      </trkpt>
      <trkpt lat="53.16345836" lon="-120.48401182">
      </trkpt>
      <trkpt lat="53.16360915" lon="-120.48390089">
      </trkpt>
      <trkpt lat="53.16378626" lon="-120.48377059">
      </trkpt>
      <trkpt lat="53.16388031" lon="-120.48370139">
      </trkpt>
      <trkpt lat="53.16405534" lon="-120.48368151">
      </trkpt>
      <trkpt lat="53.16418372" lon="-120.48366692">
      </trkpt>
      <trkpt lat="53.16427634" lon="-120.48365641">
      </trkpt>
      <trkpt lat="53.16451568" lon="-120.48362925">
      </trkpt>
      <trkpt lat="53.16473749" lon="-120.48372204">
      </trkpt>
      <trkpt lat="53.16485912" lon="-120.48377292">
      </trkpt>
      <trkpt lat="53.1648924" lon="-120.48374833">
      </trkpt>
      <trkpt lat="53.16490473" lon="-120.48365624">
      </trkpt>
      <trkpt lat="53.16493494" lon="-120.48371043">
      </trkpt>
      <trkpt lat="53.16500704" lon="-120.4838398">
      </trkpt>
      <trkpt lat="53.16509934" lon="-120.48400543">
      </trkpt>
      <trkpt lat="53.16522824" lon="-120.48423674">
      </trkpt>
      <trkpt lat="53.16538364" lon="-120.4845156">
      </trkpt>
      <trkpt lat="53.16549271" lon="-120.48471136">
      </trkpt>
      <trkpt lat="53.16562247" lon="-120.48470428">
      </trkpt>
      <trkpt lat="53.16580586" lon="-120.48469428">
      </trkpt>
      <trkpt lat="53.16590695" lon="-120.48468876">
      </trkpt>
      <trkpt lat="53.16597612" lon="-120.48468498">
      </trkpt>
      <trkpt lat="53.16614905" lon="-120.48482609">
      </trkpt>
      <trkpt lat="53.1663282" lon="-120.48497227">
      </trkpt>
      <trkpt lat="53.16648389" lon="-120.48509934">
      </trkpt>
      <trkpt lat="53.16656192" lon="-120.48516302">
      </trkpt>
      <trkpt lat="53.16661625" lon="-120.48518765">
      </trkpt>
      <trkpt lat="53.16677331" lon="-120.48523412">
      </trkpt>
      <trkpt lat="53.16681493" lon="-120.48529941">
      </trkpt>
      <trkpt lat="53.16687484" lon="-120.48539341">
      </trkpt>
      <trkpt lat="53.16694383" lon="-120.48546294">
      </trkpt>
      <trkpt lat="53.16700069" lon="-120.48552232">
      </trkpt>
      <trkpt lat="53.16706494" lon="-120.48544507">
      </trkpt>
      <trkpt lat="53.16712663" lon="-120.48539147">
      </trkpt>
      <trkpt lat="53.16721429" lon="-120.48537959">
      </trkpt>
      <trkpt lat="53.16726997" lon="-120.48544716">
      </trkpt>
      <trkpt lat="53.1673705" lon="-120.48556919">
      </trkpt>
      <trkpt lat="53.16745843" lon="-120.48567591">
      </trkpt>
      <trkpt lat="53.16752677" lon="-120.48575885">
      </trkpt>
      <trkpt lat="53.1675614" lon="-120.48585957">
      </trkpt>
      <trkpt lat="53.16757682" lon="-120.48600543">
      </trkpt>
      <trkpt lat="53.16758525" lon="-120.48608535">
      </trkpt>
      <trkpt lat="53.16766611" lon="-120.48620738">
      </trkpt>
      <trkpt lat="53.16775022" lon="-120.48633434">
      </trkpt>
      <trkpt lat="53.1678235" lon="-120.48644495">
      </trkpt>
      <trkpt lat="53.16791743" lon="-120.48658672">
      </trkpt>
      <trkpt lat="53.1679894" lon="-120.48669536">
      </trkpt>
      <trkpt lat="53.16808998" lon="-120.48684721">
      </trkpt>
      <trkpt lat="53.16821406" lon="-120.48684324">
      </trkpt>
      <trkpt lat="53.16827461" lon="-120.48691686">
      </trkpt>
      <trkpt lat="53.16837412" lon="-120.48703789">
      </trkpt>
      <trkpt lat="53.16846333" lon="-120.48714639">
      </trkpt>
      <trkpt lat="53.16853512" lon="-120.4872337">
      </trkpt>
      <trkpt lat="53.1685921" lon="-120.48733074">
      </trkpt>
      <trkpt lat="53.16868185" lon="-120.4875226">
      </trkpt>
      <trkpt lat="53.16878421" lon="-120.48774144">
      </trkpt>
      <trkpt lat="53.16885846" lon="-120.48790018">
      </trkpt>
      <trkpt lat="53.16890959" lon="-120.48800952">
      </trkpt>
      <trkpt lat="53.16901036" lon="-120.48812817">
      </trkpt>
      <trkpt lat="53.16909407" lon="-120.48822672">
      </trkpt>
      <trkpt lat="53.16918384" lon="-120.48830714">
      </trkpt>
      <trkpt lat="53.16931046" lon="-120.48835631">
      </trkpt>
      <trkpt lat="53.16945801" lon="-120.48841361">
      </trkpt>
      <trkpt lat="53.16961518" lon="-120.48847464">
      </trkpt>
      <trkpt lat="53.16971256" lon="-120.48860161">
      </trkpt>
      <trkpt lat="53.16982685" lon="-120.48875066">
      </trkpt>
      <trkpt lat="53.16990835" lon="-120.48888677">
      </trkpt>
      <trkpt lat="53.17004448" lon="-120.48911415">
      </trkpt>
      <trkpt lat="53.17016296" lon="-120.48931208">
      </trkpt>
      <trkpt lat="53.17027417" lon="-120.48949783">
      </trkpt>
      <trkpt lat="53.1704034" lon="-120.48970879">
      </trkpt>
      <trkpt lat="53.17049704" lon="-120.48979704">
      </trkpt>
      <trkpt lat="53.17053724" lon="-120.48988443">
      </trkpt>
      <trkpt lat="53.1705557" lon="-120.48990866">
      </trkpt>
      <trkpt lat="53.17055008" lon="-120.48996121">
      </trkpt>
      <trkpt lat="53.170526" lon="-120.49000547">
      </trkpt>
      <trkpt lat="53.17050381" lon="-120.49004629">
      </trkpt>
      <trkpt lat="53.17049827" lon="-120.49012065">
      </trkpt>
      <trkpt lat="53.1705178" lon="-120.49019662">
      </trkpt>
      <trkpt lat="53.17053908" lon="-120.49027492">
      </trkpt>
      <trkpt lat="53.17060149" lon="-120.4904797">
      </trkpt>
      <trkpt lat="53.170651" lon="-120.49064216">
      </trkpt>
      <trkpt lat="53.17070359" lon="-120.49075586">
      </trkpt>
      <trkpt lat="53.17078402" lon="-120.49090013">
      </trkpt>
      <trkpt lat="53.17086174" lon="-120.49103955">
      </trkpt>
      <trkpt lat="53.1709298" lon="-120.49116162">
      </trkpt>
      <trkpt lat="53.17102796" lon="-120.49133771">
      </trkpt>
      <trkpt lat="53.17110658" lon="-120.49147873">
      </trkpt>
      <trkpt lat="53.17115373" lon="-120.49151504">
      </trkpt>
      <trkpt lat="53.17128147" lon="-120.49154986">
      </trkpt>
      <trkpt lat="53.17137883" lon="-120.49157639">
      </trkpt>
      <trkpt lat="53.17142373" lon="-120.49162464">
      </trkpt>
      <trkpt lat="53.17146494" lon="-120.49168056">
      </trkpt>
      <trkpt lat="53.17151695" lon="-120.4917926">
      </trkpt>
      <trkpt lat="53.17157041" lon="-120.49190776">
      </trkpt>
      <trkpt lat="53.17161705" lon="-120.4919336">
      </trkpt>
      <trkpt lat="53.17167498" lon="-120.49189092">
      </trkpt>
      <trkpt lat="53.17173504" lon="-120.49190931">
      </trkpt>
      <trkpt lat="53.17180145" lon="-120.49197349">
      </trkpt>
      <trkpt lat="53.17187537" lon="-120.49204493">
      </trkpt>
      <trkpt lat="53.17200855" lon="-120.49217365">
      </trkpt>
      <trkpt lat="53.17213825" lon="-120.49229899">
      </trkpt>
      <trkpt lat="53.17223376" lon="-120.49242311">
      </trkpt>
      <trkpt lat="53.17231962" lon="-120.49255701">
      </trkpt>
      <trkpt lat="53.1724158" lon="-120.49270701">
      </trkpt>
      <trkpt lat="53.17253473" lon="-120.49289249">
      </trkpt>
      <trkpt lat="53.1726309" lon="-120.49304249">
      </trkpt>
      <trkpt lat="53.1727195" lon="-120.49318067">
      </trkpt>
      <trkpt lat="53.1728027" lon="-120.49331042">
      </trkpt>
      <trkpt lat="53.17287036" lon="-120.49341595">
      </trkpt>
      <trkpt lat="53.1729071" lon="-120.49347328">
      </trkpt>
      <trkpt lat="53.1730516" lon="-120.49355686">
      </trkpt>
      <trkpt lat="53.17316025" lon="-120.49361972">
      </trkpt>
      <trkpt lat="53.17325896" lon="-120.49367682">
      </trkpt>
      <trkpt lat="53.17331914" lon="-120.4937227">
      </trkpt>
      <trkpt lat="53.17339346" lon="-120.49382684">
      </trkpt>
      <trkpt lat="53.17346019" lon="-120.49395751">
      </trkpt>
      <trkpt lat="53.17351576" lon="-120.49399817">
      </trkpt>
      <trkpt lat="53.17355949" lon="-120.49405947">
      </trkpt>
      <trkpt lat="53.17362056" lon="-120.49398884">
      </trkpt>
      <trkpt lat="53.17366938" lon="-120.49393236">
      </trkpt>
      <trkpt lat="53.1737269" lon="-120.49386581">
      </trkpt>
      <trkpt lat="53.17381052" lon="-120.49389415">
      </trkpt>
      <trkpt lat="53.17388623" lon="-120.49388428">
      </trkpt>
      <trkpt lat="53.17392317" lon="-120.49399624">
      </trkpt>
      <trkpt lat="53.17394821" lon="-120.49412874">
      </trkpt>
      <trkpt lat="53.17400144" lon="-120.49422112">
      </trkpt>
      <trkpt lat="53.17405199" lon="-120.49435454">
      </trkpt>
      <trkpt lat="53.1741127" lon="-120.49443154">
      </trkpt>
      <trkpt lat="53.17417988" lon="-120.49451126">
      </trkpt>
      <trkpt lat="53.17425695" lon="-120.49457005">
      </trkpt>
      <trkpt lat="53.17433739" lon="-120.4946715">
      </trkpt>
      <trkpt lat="53.17441026" lon="-120.4947634">
      </trkpt>
      <trkpt lat="53.17445572" lon="-120.49482073">
      </trkpt>
      <trkpt lat="53.17451446" lon="-120.49490006">
      </trkpt>
      <trkpt lat="53.17456492" lon="-120.4949845">
      </trkpt>
      <trkpt lat="53.17463787" lon="-120.49510653">
      </trkpt>
      <trkpt lat="53.17467928" lon="-120.49517581">
      </trkpt>
      <trkpt lat="53.17471447" lon="-120.49526962">
      </trkpt>
      <trkpt lat="53.1747728" lon="-120.49543187">
      </trkpt>
      <trkpt lat="53.17483787" lon="-120.49551186">
      </trkpt>
      <trkpt lat="53.17490958" lon="-120.49559806">
      </trkpt>
      <trkpt lat="53.17497672" lon="-120.49568423">
      </trkpt>
      <trkpt lat="53.17503613" lon="-120.49583144">
      </trkpt>
      <trkpt lat="53.17508443" lon="-120.49595109">
      </trkpt>
      <trkpt lat="53.17514487" lon="-120.49610086">
      </trkpt>
      <trkpt lat="53.17520182" lon="-120.49624196">
      </trkpt>
      <trkpt lat="53.17524792" lon="-120.49635618">
      </trkpt>
      <trkpt lat="53.17530453" lon="-120.49651719">
      </trkpt>
      <trkpt lat="53.1753169" lon="-120.49661527">
      </trkpt>
      <trkpt lat="53.17532847" lon="-120.49670695">
      </trkpt>
      <trkpt lat="53.17534041" lon="-120.49680161">
      </trkpt>
      <trkpt lat="53.17535779" lon="-120.49693942">
      </trkpt>
      <trkpt lat="53.17538039" lon="-120.49704132">
      </trkpt>
      <trkpt lat="53.17543356" lon="-120.4971688">
      </trkpt>
      <trkpt lat="53.17549889" lon="-120.49732546">
      </trkpt>
      <trkpt lat="53.1755578" lon="-120.49740838">
      </trkpt>
      <trkpt lat="53.17563313" lon="-120.4975144">
      </trkpt>
      <trkpt lat="53.17569075" lon="-120.49759553">
      </trkpt>
      <trkpt lat="53.17573507" lon="-120.4977098">
      </trkpt>
      <trkpt lat="53.17578645" lon="-120.49784231">
      </trkpt>
      <trkpt lat="53.17582466" lon="-120.49794086">
      </trkpt>
      <trkpt lat="53.17585117" lon="-120.49805507">
      </trkpt>
      <trkpt lat="53.17591158" lon="-120.49816503">
      </trkpt>
      <trkpt lat="53.17597423" lon="-120.49832662">
      </trkpt>
      <trkpt lat="53.17602103" lon="-120.49844733">
      </trkpt>
      <trkpt lat="53.17605921" lon="-120.49854581">
      </trkpt>
      <trkpt lat="53.1760811" lon="-120.49863411">
      </trkpt>
      <trkpt lat="53.17609542" lon="-120.49882956">
      </trkpt>
      <trkpt lat="53.17610646" lon="-120.4989803">
      </trkpt>
      <trkpt lat="53.17612365" lon="-120.49909867">
      </trkpt>
      <trkpt lat="53.17617888" lon="-120.49922609">
      </trkpt>
      <trkpt lat="53.17623746" lon="-120.49936121">
      </trkpt>
      <trkpt lat="53.17630114" lon="-120.4995081">
      </trkpt>
      <trkpt lat="53.17634422" lon="-120.49960747">
      </trkpt>
      <trkpt lat="53.17636829" lon="-120.499663">
      </trkpt>
      <trkpt lat="53.1764194" lon="-120.49971859">
      </trkpt>
      <trkpt lat="53.17643555" lon="-120.49981815">
      </trkpt>
      <trkpt lat="53.17645438" lon="-120.4998616">
      </trkpt>
      <trkpt lat="53.17649161" lon="-120.49994745">
      </trkpt>
      <trkpt lat="53.17652646" lon="-120.4999736">
      </trkpt>
      <trkpt lat="53.17656597" lon="-120.50011901">
      </trkpt>
      <trkpt lat="53.17662291" lon="-120.50025036">
      </trkpt>
      <trkpt lat="53.17668237" lon="-120.50038751">
      </trkpt>
      <trkpt lat="53.17674905" lon="-120.50052904">
      </trkpt>
      <trkpt lat="53.17682797" lon="-120.50068593">
      </trkpt>
      <trkpt lat="53.17684686" lon="-120.50076703">
      </trkpt>
      <trkpt lat="53.17688017" lon="-120.50078566">
      </trkpt>
      <trkpt lat="53.1769099" lon="-120.50084883">
      </trkpt>
      <trkpt lat="53.17694955" lon="-120.5009016">
      </trkpt>
      <trkpt lat="53.17701744" lon="-120.50095008">
      </trkpt>
      <trkpt lat="53.17706515" lon="-120.50098415">
      </trkpt>
      <trkpt lat="53.17715886" lon="-120.50105108">
      </trkpt>
      <trkpt lat="53.17726287" lon="-120.50105768">
      </trkpt>
      <trkpt lat="53.17729703" lon="-120.50103044">
      </trkpt>
      <trkpt lat="53.17733679" lon="-120.50106237">
      </trkpt>
      <trkpt lat="53.17737664" lon="-120.50112027">
      </trkpt>
      <trkpt lat="53.17742062" lon="-120.5011842">
      </trkpt>
      <trkpt lat="53.17747291" lon="-120.5012622">
      </trkpt>
      <trkpt lat="53.17751148" lon="-120.50132049">
      </trkpt>
      <trkpt lat="53.17756453" lon="-120.50140063">
      </trkpt>
      <trkpt lat="53.17761375" lon="-120.50147501">
      </trkpt>
      <trkpt lat="53.17761438" lon="-120.50154467">
      </trkpt>
      <trkpt lat="53.17761491" lon="-120.50160518">
      </trkpt>
      <trkpt lat="53.17761593" lon="-120.5017216">
      </trkpt>
      <trkpt lat="53.17761692" lon="-120.50183492">
      </trkpt>
      <trkpt lat="53.1776175" lon="-120.50190276">
      </trkpt>
      <trkpt lat="53.177652" lon="-120.50196043">
      </trkpt>
      <trkpt lat="53.17768095" lon="-120.50205273">
      </trkpt>
      <trkpt lat="53.17772368" lon="-120.50201888">
      </trkpt>
      <trkpt lat="53.17782052" lon="-120.50194714">
      </trkpt>
      <trkpt lat="53.17788932" lon="-120.50198283">
      </trkpt>
      <trkpt lat="53.17795186" lon="-120.50202802">
      </trkpt>
      <trkpt lat="53.17801138" lon="-120.5020952">
      </trkpt>
      <trkpt lat="53.17809083" lon="-120.5021849">
      </trkpt>
      <trkpt lat="53.1781681" lon="-120.50227213">
      </trkpt>
      <trkpt lat="53.17822766" lon="-120.50233936">
      </trkpt>
      <trkpt lat="53.17825723" lon="-120.50239639">
      </trkpt>
      <trkpt lat="53.17828461" lon="-120.50249487">
      </trkpt>
      <trkpt lat="53.17832337" lon="-120.50257732">
      </trkpt>
      <trkpt lat="53.17837278" lon="-120.50264935">
      </trkpt>
      <trkpt lat="53.17848173" lon="-120.50275891">
      </trkpt>
      <trkpt lat="53.17850472" lon="-120.50284167">
      </trkpt>
      <trkpt lat="53.17850233" lon="-120.5028985">
      </trkpt>
      <trkpt lat="53.17851663" lon="-120.50300917">
      </trkpt>
      <trkpt lat="53.17852184" lon="-120.50305684">
      </trkpt>
      <trkpt lat="53.17856617" lon="-120.50312377">
      </trkpt>
      <trkpt lat="53.17861827" lon="-120.50320246">
      </trkpt>
      <trkpt lat="53.17864375" lon="-120.50324094">
      </trkpt>
      <trkpt lat="53.17867108" lon="-120.50328224">
      </trkpt>
      <trkpt lat="53.17867565" lon="-120.50323982">
      </trkpt>
      <trkpt lat="53.17868306" lon="-120.50317086">
      </trkpt>
      <trkpt lat="53.17868666" lon="-120.50313722">
      </trkpt>
      <trkpt lat="53.17873956" lon="-120.50320649">
      </trkpt>
      <trkpt lat="53.17878996" lon="-120.5032725">
      </trkpt>
      <trkpt lat="53.17883718" lon="-120.50333438">
      </trkpt>
      <trkpt lat="53.17889013" lon="-120.50340372">
      </trkpt>
      <trkpt lat="53.17895023" lon="-120.50348247">
      </trkpt>
      <trkpt lat="53.17903089" lon="-120.50343929">
      </trkpt>
      <trkpt lat="53.17911301" lon="-120.50341731">
      </trkpt>
      <trkpt lat="53.17917594" lon="-120.50340659">
      </trkpt>
      <trkpt lat="53.17926459" lon="-120.5033915">
      </trkpt>
      <trkpt lat="53.17929186" lon="-120.50340168">
      </trkpt>
      <trkpt lat="53.17933768" lon="-120.50351455">
      </trkpt>
      <trkpt lat="53.17937703" lon="-120.50358729">
      </trkpt>
      <trkpt lat="53.17942317" lon="-120.50366975">
      </trkpt>
      <trkpt lat="53.17947647" lon="-120.50371076">
      </trkpt>
      <trkpt lat="53.17951199" lon="-120.50371513">
      </trkpt>
      <trkpt lat="53.17956605" lon="-120.50372179">
      </trkpt>
      <trkpt lat="53.17966985" lon="-120.50373457">
      </trkpt>
      <trkpt lat="53.17975412" lon="-120.50374495">
      </trkpt>
      <trkpt lat="53.17985325" lon="-120.50375715">
      </trkpt>
      <trkpt lat="53.17990503" lon="-120.50376352">
      </trkpt>
      <trkpt lat="53.17996327" lon="-120.50369817">
      </trkpt>
      <trkpt lat="53.18001976" lon="-120.50363478">
      </trkpt>
      <trkpt lat="53.18008487" lon="-120.50363512">
      </trkpt>
      <trkpt lat="53.18013585" lon="-120.50365979">
      </trkpt>
      <trkpt lat="53.18023852" lon="-120.50370946">
      </trkpt>
      <trkpt lat="53.18032129" lon="-120.50374949">
      </trkpt>
      <trkpt lat="53.18042699" lon="-120.50382931">
      </trkpt>
      <trkpt lat="53.18048848" lon="-120.50387793">
      </trkpt>
      <trkpt lat="53.18054824" lon="-120.50385928">
      </trkpt>
      <trkpt lat="53.18060718" lon="-120.50379841">
      </trkpt>
      <trkpt lat="53.18070044" lon="-120.50370208">
      </trkpt>
      <trkpt lat="53.18078639" lon="-120.5036133">
      </trkpt>
      <trkpt lat="53.18083094" lon="-120.50356726">
      </trkpt>
      <trkpt lat="53.18092916" lon="-120.50353567">
      </trkpt>
      <trkpt lat="53.18105908" lon="-120.50349389">
      </trkpt>
      <trkpt lat="53.18121666" lon="-120.50344321">
      </trkpt>
      <trkpt lat="53.18131669" lon="-120.50340865">
      </trkpt>
      <trkpt lat="53.18144028" lon="-120.50335809">
      </trkpt>
      <trkpt lat="53.18157402" lon="-120.50330335">
      </trkpt>
      <trkpt lat="53.18166393" lon="-120.50326656">
      </trkpt>
      <trkpt lat="53.18176936" lon="-120.50322342">
      </trkpt>
      <trkpt lat="53.18183194" lon="-120.50318695">
      </trkpt>
      <trkpt lat="53.18191839" lon="-120.50306646">
      </trkpt>
      <trkpt lat="53.18203877" lon="-120.50288936">
      </trkpt>
      <trkpt lat="53.18211731" lon="-120.50276424">
      </trkpt>
      <trkpt lat="53.1821672" lon="-120.50270936">
      </trkpt>
      <trkpt lat="53.18232002" lon="-120.50258037">
      </trkpt>
      <trkpt lat="53.18248123" lon="-120.50244429">
      </trkpt>
      <trkpt lat="53.18257566" lon="-120.50236457">
      </trkpt>
      <trkpt lat="53.18260679" lon="-120.50233829">
      </trkpt>
      <trkpt lat="53.18271616" lon="-120.50232936">
      </trkpt>
      <trkpt lat="53.18276248" lon="-120.50232558">
      </trkpt>
      <trkpt lat="53.18284944" lon="-120.50231848">
      </trkpt>
      <trkpt lat="53.18288703" lon="-120.50216502">
      </trkpt>
      <trkpt lat="53.18293175" lon="-120.50198247">
      </trkpt>
      <trkpt lat="53.18297164" lon="-120.50181951">
      </trkpt>
      <trkpt lat="53.18303878" lon="-120.50166612">
      </trkpt>
      <trkpt lat="53.18312514" lon="-120.50146877">
      </trkpt>
      <trkpt lat="53.18319297" lon="-120.50131374">
      </trkpt>
      <trkpt lat="53.18325269" lon="-120.50117725">
      </trkpt>
      <trkpt lat="53.18328155" lon="-120.50111994">
      </trkpt>
      <trkpt lat="53.18338247" lon="-120.50098958">
      </trkpt>
      <trkpt lat="53.18347049" lon="-120.50087586">
      </trkpt>
      <trkpt lat="53.18357609" lon="-120.50073947">
      </trkpt>
      <trkpt lat="53.18372296" lon="-120.50054976">
      </trkpt>
      <trkpt lat="53.18382802" lon="-120.50041403">
      </trkpt>
      <trkpt lat="53.1838808" lon="-120.50034586">
      </trkpt>
      <trkpt lat="53.18401089" lon="-120.50015669">
      </trkpt>
      <trkpt lat="53.18411038" lon="-120.50000847">
      </trkpt>
      <trkpt lat="53.18412693" lon="-120.49989006">
      </trkpt>
      <trkpt lat="53.18413157" lon="-120.499744">
      </trkpt>
      <trkpt lat="53.18415316" lon="-120.49970211">
      </trkpt>
      <trkpt lat="53.1842247" lon="-120.49961638">
      </trkpt>
      <trkpt lat="53.18432555" lon="-120.49949549">
      </trkpt>
      <trkpt lat="53.18440602" lon="-120.49938029">
      </trkpt>
      <trkpt lat="53.18450611" lon="-120.4992309">
      </trkpt>
      <trkpt lat="53.1845609" lon="-120.49914912">
      </trkpt>
      <trkpt lat="53.1846028" lon="-120.49908657">
      </trkpt>
      <trkpt lat="53.18460104" lon="-120.49900847">
      </trkpt>
      <trkpt lat="53.18457124" lon="-120.49890183">
      </trkpt>
      <trkpt lat="53.18455621" lon="-120.49884813">
      </trkpt>
      <trkpt lat="53.18458813" lon="-120.49877305">
      </trkpt>
      <trkpt lat="53.18462506" lon="-120.49868616">
      </trkpt>
      <trkpt lat="53.18465451" lon="-120.4986168">
      </trkpt>
      <trkpt lat="53.18465902" lon="-120.49853383">
      </trkpt>
      <trkpt lat="53.1846676" lon="-120.49837609">
      </trkpt>
      <trkpt lat="53.1846754" lon="-120.49823228">
      </trkpt>
      <trkpt lat="53.18467724" lon="-120.49810495">
      </trkpt>
      <trkpt lat="53.18472925" lon="-120.49803613">
      </trkpt>
      <trkpt lat="53.18480216" lon="-120.49788146">
      </trkpt>
      <trkpt lat="53.18490167" lon="-120.49771668">
      </trkpt>
      <trkpt lat="53.18495836" lon="-120.49762279">
      </trkpt>
      <trkpt lat="53.18501844" lon="-120.49752325">
      </trkpt>
      <trkpt lat="53.18507679" lon="-120.49746967">
      </trkpt>
      <trkpt lat="53.18515039" lon="-120.4974021">
      </trkpt>
      <trkpt lat="53.18519431" lon="-120.49736176">
      </trkpt>
      <trkpt lat="53.1852227" lon="-120.49733568">
      </trkpt>
      <trkpt lat="53.18526621" lon="-120.49719516">
      </trkpt>
      <trkpt lat="53.18531094" lon="-120.49705066">
      </trkpt>
      <trkpt lat="53.18535206" lon="-120.49691781">
      </trkpt>
      <trkpt lat="53.18539564" lon="-120.49677697">
      </trkpt>
      <trkpt lat="53.18543061" lon="-120.49669361">
      </trkpt>
      <trkpt lat="53.1854887" lon="-120.49662359">
      </trkpt>
      <trkpt lat="53.18556502" lon="-120.49653158">
      </trkpt>
      <trkpt lat="53.18561962" lon="-120.49646577">
      </trkpt>
      <trkpt lat="53.18568362" lon="-120.49638862">
      </trkpt>
      <trkpt lat="53.18573083" lon="-120.49633169">
      </trkpt>
      <trkpt lat="53.18575097" lon="-120.49630741">
      </trkpt>
      <trkpt lat="53.18579082" lon="-120.49617815">
      </trkpt>
      <trkpt lat="53.1858273" lon="-120.49605979">
      </trkpt>
      <trkpt lat="53.18586564" lon="-120.49593532">
      </trkpt>
      <trkpt lat="53.18591837" lon="-120.49588084">
      </trkpt>
      <trkpt lat="53.18598985" lon="-120.49580694">
      </trkpt>
      <trkpt lat="53.18604844" lon="-120.49574639">
      </trkpt>
      <trkpt lat="53.18609193" lon="-120.4956838">
      </trkpt>
      <trkpt lat="53.18616271" lon="-120.49554087">
      </trkpt>
      <trkpt lat="53.18622231" lon="-120.4953941">
      </trkpt>
      <trkpt lat="53.18626956" lon="-120.49528428">
      </trkpt>
      <trkpt lat="53.1863602" lon="-120.49509892">
      </trkpt>
      <trkpt lat="53.18643287" lon="-120.49495029">
      </trkpt>
      <trkpt lat="53.18648763" lon="-120.49483831">
      </trkpt>
      <trkpt lat="53.18653789" lon="-120.49473548">
      </trkpt>
      <trkpt lat="53.18663356" lon="-120.49473592">
      </trkpt>
      <trkpt lat="53.18674743" lon="-120.49473644">
      </trkpt>
      <trkpt lat="53.18683463" lon="-120.49473684">
      </trkpt>
      <trkpt lat="53.18691974" lon="-120.49473722">
      </trkpt>
      <trkpt lat="53.18698063" lon="-120.49472054">
      </trkpt>
      <trkpt lat="53.1870624" lon="-120.49468474">
      </trkpt>
      <trkpt lat="53.18714188" lon="-120.49464993">
      </trkpt>
      <trkpt lat="53.18716211" lon="-120.49457447">
      </trkpt>
      <trkpt lat="53.18719716" lon="-120.49444365">
      </trkpt>
      <trkpt lat="53.18723994" lon="-120.49438976">
      </trkpt>
      <trkpt lat="53.18729306" lon="-120.49444741">
      </trkpt>
      <trkpt lat="53.18734349" lon="-120.49444575">
      </trkpt>
      <trkpt lat="53.18741622" lon="-120.49437055">
      </trkpt>
      <trkpt lat="53.18747311" lon="-120.4943117">
      </trkpt>
      <trkpt lat="53.18745982" lon="-120.49419641">
      </trkpt>
      <trkpt lat="53.18753886" lon="-120.49408622">
      </trkpt>
      <trkpt lat="53.1876166" lon="-120.49394505">
      </trkpt>
      <trkpt lat="53.18770803" lon="-120.49385031">
      </trkpt>
      <trkpt lat="53.18778062" lon="-120.49377594">
      </trkpt>
      <trkpt lat="53.18789063" lon="-120.49367889">
      </trkpt>
      <trkpt lat="53.18797792" lon="-120.49363695">
      </trkpt>
      <trkpt lat="53.18809177" lon="-120.49360431">
      </trkpt>
      <trkpt lat="53.18818776" lon="-120.49357678">
      </trkpt>
      <trkpt lat="53.18824422" lon="-120.49356058">
      </trkpt>
      <trkpt lat="53.18832417" lon="-120.49349737">
      </trkpt>
      <trkpt lat="53.18843101" lon="-120.49337183">
      </trkpt>
      <trkpt lat="53.18849665" lon="-120.49327754">
      </trkpt>
      <trkpt lat="53.18858113" lon="-120.49315618">
      </trkpt>
      <trkpt lat="53.18868927" lon="-120.49300083">
      </trkpt>
      <trkpt lat="53.18878715" lon="-120.49284811">
      </trkpt>
      <trkpt lat="53.18886773" lon="-120.49271895">
      </trkpt>
      <trkpt lat="53.18894071" lon="-120.49260198">
      </trkpt>
      <trkpt lat="53.18901926" lon="-120.49247606">
      </trkpt>
      <trkpt lat="53.18905136" lon="-120.49242458">
      </trkpt>
      <trkpt lat="53.18918471" lon="-120.49232108">
      </trkpt>
      <trkpt lat="53.18932927" lon="-120.49227491">
      </trkpt>
      <trkpt lat="53.18942378" lon="-120.49221795">
      </trkpt>
      <trkpt lat="53.18951184" lon="-120.49216487">
      </trkpt>
      <trkpt lat="53.18959124" lon="-120.49209301">
      </trkpt>
      <trkpt lat="53.18966491" lon="-120.49201098">
      </trkpt>
      <trkpt lat="53.18971914" lon="-120.49195061">
      </trkpt>
      <trkpt lat="53.18974351" lon="-120.49189807">
      </trkpt>
      <trkpt lat="53.18973665" lon="-120.49178921">
      </trkpt>
      <trkpt lat="53.18972714" lon="-120.49163834">
      </trkpt>
      <trkpt lat="53.18976026" lon="-120.49161514">
      </trkpt>
      <trkpt lat="53.18983537" lon="-120.49161548">
      </trkpt>
      <trkpt lat="53.18994712" lon="-120.49161599">
      </trkpt>
      <trkpt lat="53.19001945" lon="-120.49161632">
      </trkpt>
      <trkpt lat="53.1900678" lon="-120.49161655">
      </trkpt>
      <trkpt lat="53.19008995" lon="-120.49158702">
      </trkpt>
      <trkpt lat="53.19008461" lon="-120.49147799">
      </trkpt>
      <trkpt lat="53.19007944" lon="-120.49137247">
      </trkpt>
      <trkpt lat="53.19009599" lon="-120.49128861">
      </trkpt>
      <trkpt lat="53.19014099" lon="-120.49118247">
      </trkpt>
      <trkpt lat="53.19017519" lon="-120.49105907">
      </trkpt>
      <trkpt lat="53.19022929" lon="-120.49097427">
      </trkpt>
      <trkpt lat="53.1902687" lon="-120.49088131">
      </trkpt>
      <trkpt lat="53.19033711" lon="-120.49084677">
      </trkpt>
      <trkpt lat="53.19047464" lon="-120.49077731">
      </trkpt>
      <trkpt lat="53.19058195" lon="-120.49072311">
      </trkpt>
      <trkpt lat="53.19068421" lon="-120.49067147">
      </trkpt>
      <trkpt lat="53.19073003" lon="-120.49064831">
      </trkpt>
      <trkpt lat="53.19084457" lon="-120.49066537">
      </trkpt>
      <trkpt lat="53.19095442" lon="-120.49068175">
      </trkpt>
      <trkpt lat="53.19103695" lon="-120.49069404">
      </trkpt>
      <trkpt lat="53.19107019" lon="-120.49067788">
      </trkpt>
      <trkpt lat="53.19112112" lon="-120.49057337">
      </trkpt>
      <trkpt lat="53.19115079" lon="-120.49051243">
      </trkpt>
      <trkpt lat="53.19120917" lon="-120.49048688">
      </trkpt>
      <trkpt lat="53.19131556" lon="-120.49044031">
      </trkpt>
      <trkpt lat="53.19135037" lon="-120.49042505">
      </trkpt>
      <trkpt lat="53.19140809" lon="-120.49049271">
      </trkpt>
      <trkpt lat="53.19143115" lon="-120.49051975">
      </trkpt>
      <trkpt lat="53.19147204" lon="-120.49043617">
      </trkpt>
      <trkpt lat="53.19150977" lon="-120.49035901">
      </trkpt>
      <trkpt lat="53.1915544" lon="-120.4903211">
      </trkpt>
      <trkpt lat="53.19161547" lon="-120.49031775">
      </trkpt>
      <trkpt lat="53.19165252" lon="-120.49031571">
      </trkpt>
      <trkpt lat="53.1916916" lon="-120.49024106">
      </trkpt>
      <trkpt lat="53.1917388" lon="-120.49015085">
      </trkpt>
      <trkpt lat="53.19176931" lon="-120.49009254">
      </trkpt>
      <trkpt lat="53.19182116" lon="-120.49008979">
      </trkpt>
      <trkpt lat="53.1918992" lon="-120.49016535">
      </trkpt>
      <trkpt lat="53.19196154" lon="-120.49022569">
      </trkpt>
      <trkpt lat="53.19201832" lon="-120.49028069">
      </trkpt>
      <trkpt lat="53.19205368" lon="-120.49031492">
      </trkpt>
      <trkpt lat="53.1920862" lon="-120.49030005">
      </trkpt>
      <trkpt lat="53.19210938" lon="-120.49022797">
      </trkpt>
      <trkpt lat="53.19212721" lon="-120.49017252">
      </trkpt>
      <trkpt lat="53.1921027" lon="-120.49011997">
      </trkpt>
      <trkpt lat="53.19207733" lon="-120.49002143">
      </trkpt>
      <trkpt lat="53.19203537" lon="-120.48997574">
      </trkpt>
      <trkpt lat="53.19201268" lon="-120.4899271">
      </trkpt>
      <trkpt lat="53.19204477" lon="-120.48988042">
      </trkpt>
      <trkpt lat="53.19211182" lon="-120.48984023">
      </trkpt>
      <trkpt lat="53.19219123" lon="-120.48979261">
      </trkpt>
      <trkpt lat="53.19226402" lon="-120.48974898">
      </trkpt>
      <trkpt lat="53.19231478" lon="-120.48971854">
      </trkpt>
      <trkpt lat="53.19237743" lon="-120.4896372">
      </trkpt>
      <trkpt lat="53.19247821" lon="-120.48950634">
      </trkpt>
      <trkpt lat="53.19253989" lon="-120.48942621">
      </trkpt>
      <trkpt lat="53.19260736" lon="-120.48939867">
      </trkpt>
      <trkpt lat="53.19268623" lon="-120.48936647">
      </trkpt>
      <trkpt lat="53.19273472" lon="-120.48934667">
      </trkpt>
      <trkpt lat="53.19276601" lon="-120.48927851">
      </trkpt>
      <trkpt lat="53.19278404" lon="-120.48918841">
      </trkpt>
      <trkpt lat="53.19281141" lon="-120.48913976">
      </trkpt>
      <trkpt lat="53.19284588" lon="-120.48911024">
      </trkpt>
      <trkpt lat="53.19286846" lon="-120.48900693">
      </trkpt>
      <trkpt lat="53.19289744" lon="-120.48887417">
      </trkpt>
      <trkpt lat="53.19294619" lon="-120.48875956">
      </trkpt>
      <trkpt lat="53.19300443" lon="-120.48862258">
      </trkpt>
      <trkpt lat="53.19304858" lon="-120.48851876">
      </trkpt>
      <trkpt lat="53.19308418" lon="-120.48843499">
      </trkpt>
      <trkpt lat="53.19313655" lon="-120.48836706">
      </trkpt>
      <trkpt lat="53.1932128" lon="-120.48826811">
      </trkpt>
      <trkpt lat="53.19329837" lon="-120.48815707">
      </trkpt>
      <trkpt lat="53.19336629" lon="-120.48806892">
      </trkpt>
      <trkpt lat="53.19342017" lon="-120.48799594">
      </trkpt>
      <trkpt lat="53.19348413" lon="-120.48790692">
      </trkpt>
      <trkpt lat="53.19353573" lon="-120.4878351">
      </trkpt>
      <trkpt lat="53.19356664" lon="-120.48779206">
      </trkpt>
      <trkpt lat="53.1935947" lon="-120.48764008">
      </trkpt>
      <trkpt lat="53.19361748" lon="-120.48751669">
      </trkpt>
      <trkpt lat="53.19364321" lon="-120.48744676">
      </trkpt>
      <trkpt lat="53.19371483" lon="-120.48743885">
      </trkpt>
      <trkpt lat="53.19377389" lon="-120.48743232">
      </trkpt>
      <trkpt lat="53.19381904" lon="-120.48738182">
      </trkpt>
      <trkpt lat="53.19388752" lon="-120.48730521">
      </trkpt>
      <trkpt lat="53.19397149" lon="-120.48717918">
      </trkpt>
      <trkpt lat="53.19404038" lon="-120.48712926">
      </trkpt>
      <trkpt lat="53.19410931" lon="-120.48704009">
      </trkpt>
      <trkpt lat="53.19414815" lon="-120.48698984">
      </trkpt>
      <trkpt lat="53.19416478" lon="-120.48690284">
      </trkpt>
      <trkpt lat="53.1941722" lon="-120.48676355">
      </trkpt>
      <trkpt lat="53.19417675" lon="-120.48667798">
      </trkpt>
      <trkpt lat="53.19421899" lon="-120.48659793">
      </trkpt>
      <trkpt lat="53.19427119" lon="-120.48651716">
      </trkpt>
      <trkpt lat="53.1943179" lon="-120.48644492">
      </trkpt>
      <trkpt lat="53.19437619" lon="-120.48635476">
      </trkpt>
      <trkpt lat="53.19445416" lon="-120.48624141">
      </trkpt>
      <trkpt lat="53.19451827" lon="-120.48615238">
      </trkpt>
      <trkpt lat="53.19458091" lon="-120.48606539">
      </trkpt>
      <trkpt lat="53.1946703" lon="-120.48594123">
      </trkpt>
      <trkpt lat="53.19479704" lon="-120.48581008">
      </trkpt>
      <trkpt lat="53.1949662" lon="-120.485635">
      </trkpt>
      <trkpt lat="53.19508576" lon="-120.48551126">
      </trkpt>
      <trkpt lat="53.19519588" lon="-120.48539728">
      </trkpt>
      <trkpt lat="53.1952772" lon="-120.48529624">
      </trkpt>
      <trkpt lat="53.19535941" lon="-120.48519409">
      </trkpt>
      <trkpt lat="53.19543801" lon="-120.48509642">
      </trkpt>
      <trkpt lat="53.1954836" lon="-120.48503976">
      </trkpt>
      <trkpt lat="53.19551607" lon="-120.48498137">
      </trkpt>
      <trkpt lat="53.19553533" lon="-120.4848525">
      </trkpt>
      <trkpt lat="53.19555897" lon="-120.48469441">
      </trkpt>
      <trkpt lat="53.19557354" lon="-120.48459683">
      </trkpt>
      <trkpt lat="53.19561455" lon="-120.48449308">
      </trkpt>
      <trkpt lat="53.19565383" lon="-120.48439367">
      </trkpt>
      <trkpt lat="53.19569382" lon="-120.48432977">
      </trkpt>
      <trkpt lat="53.19574886" lon="-120.48426829">
      </trkpt>
      <trkpt lat="53.19579539" lon="-120.48421632">
      </trkpt>
      <trkpt lat="53.19581937" lon="-120.48415805">
      </trkpt>
      <trkpt lat="53.19583087" lon="-120.4840049">
      </trkpt>
      <trkpt lat="53.19584026" lon="-120.4838798">
      </trkpt>
      <trkpt lat="53.19585249" lon="-120.48371662">
      </trkpt>
      <trkpt lat="53.19584429" lon="-120.483557">
      </trkpt>
      <trkpt lat="53.19583632" lon="-120.48340228">
      </trkpt>
      <trkpt lat="53.19582962" lon="-120.48327215">
      </trkpt>
      <trkpt lat="53.19583814" lon="-120.4831903">
      </trkpt>
      <trkpt lat="53.19587397" lon="-120.48307393">
      </trkpt>
      <trkpt lat="53.19592566" lon="-120.48290597">
      </trkpt>
      <trkpt lat="53.19597729" lon="-120.48283153">
      </trkpt>
      <trkpt lat="53.19605271" lon="-120.48272278">
      </trkpt>
      <trkpt lat="53.19612237" lon="-120.48262231">
      </trkpt>
      <trkpt lat="53.19620354" lon="-120.48250525">
      </trkpt>
      <trkpt lat="53.19624408" lon="-120.48244678">
      </trkpt>
      <trkpt lat="53.19641009" lon="-120.48234606">
      </trkpt>
      <trkpt lat="53.19651576" lon="-120.48228093">
      </trkpt>
      <trkpt lat="53.19664404" lon="-120.48222218">
      </trkpt>
      <trkpt lat="53.19673781" lon="-120.4822006">
      </trkpt>
      <trkpt lat="53.19683556" lon="-120.48208517">
      </trkpt>
      <trkpt lat="53.19692435" lon="-120.48195694">
      </trkpt>
      <trkpt lat="53.19701124" lon="-120.48184762">
      </trkpt>
      <trkpt lat="53.19710773" lon="-120.48176502">
      </trkpt>
      <trkpt lat="53.19720228" lon="-120.48164069">
      </trkpt>
      <trkpt lat="53.19729981" lon="-120.48152064">
      </trkpt>
      <trkpt lat="53.1973935" lon="-120.48137776">
      </trkpt>
      <trkpt lat="53.19747246" lon="-120.48121815">
      </trkpt>
      <trkpt lat="53.19753866" lon="-120.48108354">
      </trkpt>
      <trkpt lat="53.1975935" lon="-120.48088508">
      </trkpt>
      <trkpt lat="53.19765152" lon="-120.4806349">
      </trkpt>
      <trkpt lat="53.19770909" lon="-120.48037545">
      </trkpt>
      <trkpt lat="53.1977358" lon="-120.48017134">
      </trkpt>
      <trkpt lat="53.19775931" lon="-120.47995833">
      </trkpt>
      <trkpt lat="53.19779922" lon="-120.4797385">
      </trkpt>
      <trkpt lat="53.19780398" lon="-120.47954194">
      </trkpt>
      <trkpt lat="53.19778991" lon="-120.47924053">
      </trkpt>
      <trkpt lat="53.19779211" lon="-120.47904896">
      </trkpt>
      <trkpt lat="53.19777177" lon="-120.47891165">
      </trkpt>
      <trkpt lat="53.19773012" lon="-120.47879581">
      </trkpt>
      <trkpt lat="53.19766245" lon="-120.47866003">
      </trkpt>
      <trkpt lat="53.19757383" lon="-120.47843369">
      </trkpt>
      <trkpt lat="53.19747694" lon="-120.47826909">
      </trkpt>
      <trkpt lat="53.19741997" lon="-120.47818324">
      </trkpt>
      <trkpt lat="53.19732303" lon="-120.47795799">
      </trkpt>
      <trkpt lat="53.19721264" lon="-120.47768318">
      </trkpt>
      <trkpt lat="53.19714189" lon="-120.47742183">
      </trkpt>
      <trkpt lat="53.1971157" lon="-120.47715935">
      </trkpt>
      <trkpt lat="53.19710054" lon="-120.47683476">
      </trkpt>
      <trkpt lat="53.19708646" lon="-120.47653336">
      </trkpt>
      <trkpt lat="53.19708895" lon="-120.47616913">
      </trkpt>
      <trkpt lat="53.19707131" lon="-120.47567226">
      </trkpt>
      <trkpt lat="53.19708947" lon="-120.47516604">
      </trkpt>
      <trkpt lat="53.19708418" lon="-120.47493346">
      </trkpt>
      <trkpt lat="53.19713339" lon="-120.47461445">
      </trkpt>
      <trkpt lat="53.19716575" lon="-120.47429297">
      </trkpt>
      <trkpt lat="53.19724276" lon="-120.4740916">
      </trkpt>
      <trkpt lat="53.19736344" lon="-120.47387054">
      </trkpt>
      <trkpt lat="53.19741192" lon="-120.4737149">
      </trkpt>
      <trkpt lat="53.19745744" lon="-120.47351449">
      </trkpt>
      <trkpt lat="53.19746669" lon="-120.47323089">
      </trkpt>
      <trkpt lat="53.19757942" lon="-120.47275487">
      </trkpt>
      <trkpt lat="53.19770125" lon="-120.47235296">
      </trkpt>
      <trkpt lat="53.19783372" lon="-120.47181787">
      </trkpt>
      <trkpt lat="53.19804873" lon="-120.47124373">
      </trkpt>
      <trkpt lat="53.19821396" lon="-120.47080788">
      </trkpt>
      <trkpt lat="53.19834399" lon="-120.47046138">
      </trkpt>
      <trkpt lat="53.19848424" lon="-120.46997232">
      </trkpt>
      <trkpt lat="53.19861592" lon="-120.46954086">
      </trkpt>
      <trkpt lat="53.19874333" lon="-120.4691382">
      </trkpt>
      <trkpt lat="53.19885911" lon="-120.46872766">
      </trkpt>
      <trkpt lat="53.19888284" lon="-120.46851783">
      </trkpt>
      <trkpt lat="53.19887039" lon="-120.46825176">
      </trkpt>
      <trkpt lat="53.1988298" lon="-120.46808548">
      </trkpt>
      <trkpt lat="53.19876947" lon="-120.46793551">
      </trkpt>
      <trkpt lat="53.19868684" lon="-120.46774728">
      </trkpt>
      <trkpt lat="53.19858447" lon="-120.46757536">
      </trkpt>
      <trkpt lat="53.19848674" lon="-120.46732735">
      </trkpt>
      <trkpt lat="53.19839684" lon="-120.46707143">
      </trkpt>
      <trkpt lat="53.19831389" lon="-120.46687638">
      </trkpt>
      <trkpt lat="53.19818132" lon="-120.46658487">
      </trkpt>
      <trkpt lat="53.19805537" lon="-120.46634742">
      </trkpt>
      <trkpt lat="53.19793829" lon="-120.46621176">
      </trkpt>
      <trkpt lat="53.19777917" lon="-120.46605416">
      </trkpt>
      <trkpt lat="53.1976254" lon="-120.46592331">
      </trkpt>
      <trkpt lat="53.19750081" lon="-120.46580236">
      </trkpt>
      <trkpt lat="53.19737901" lon="-120.4656536">
      </trkpt>
      <trkpt lat="53.19729574" lon="-120.46545174">
      </trkpt>
      <trkpt lat="53.19726705" lon="-120.46527703">
      </trkpt>
      <trkpt lat="53.19734787" lon="-120.46516348">
      </trkpt>
      <trkpt lat="53.19747798" lon="-120.46513956">
      </trkpt>
      <trkpt lat="53.19765366" lon="-120.46521262">
      </trkpt>
      <trkpt lat="53.19780175" lon="-120.46530989">
      </trkpt>
      <trkpt lat="53.19794545" lon="-120.46540087">
      </trkpt>
      <trkpt lat="53.19806597" lon="-120.46552234">
      </trkpt>
      <trkpt lat="53.19820375" lon="-120.46566215">
      </trkpt>
      <trkpt lat="53.19834562" lon="-120.46580143">
      </trkpt>
      <trkpt lat="53.19848747" lon="-120.4659407">
      </trkpt>
      <trkpt lat="53.19867608" lon="-120.46611503">
      </trkpt>
      <trkpt lat="53.19886221" lon="-120.46632402">
      </trkpt>
      <trkpt lat="53.19900312" lon="-120.46644282">
      </trkpt>
      <trkpt lat="53.19917574" lon="-120.46662613">
      </trkpt>
      <trkpt lat="53.1992758" lon="-120.46666106">
      </trkpt>
      <trkpt lat="53.19938242" lon="-120.4666608">
      </trkpt>
      <trkpt lat="53.19943095" lon="-120.46655835">
      </trkpt>
      <trkpt lat="53.19942488" lon="-120.46642871">
      </trkpt>
      <trkpt lat="53.19938397" lon="-120.46625561">
      </trkpt>
      <trkpt lat="53.19931332" lon="-120.46614818">
      </trkpt>
      <trkpt lat="53.19921095" lon="-120.46597627">
      </trkpt>
      <trkpt lat="53.19911641" lon="-120.46579646">
      </trkpt>
      <trkpt lat="53.19904856" lon="-120.46566122">
      </trkpt>
      <trkpt lat="53.19897943" lon="-120.46549867">
      </trkpt>
      <trkpt lat="53.19886571" lon="-120.46525961">
      </trkpt>
      <trkpt lat="53.19873536" lon="-120.46501587">
      </trkpt>
      <trkpt lat="53.19863771" lon="-120.46485706">
      </trkpt>
      <trkpt lat="53.19851807" lon="-120.46466683">
      </trkpt>
      <trkpt lat="53.19838804" lon="-120.46442992">
      </trkpt>
      <trkpt lat="53.19826153" lon="-120.46426804">
      </trkpt>
      <trkpt lat="53.19811088" lon="-120.4641162">
      </trkpt>
      <trkpt lat="53.19794048" lon="-120.46398067">
      </trkpt>
      <trkpt lat="53.1977418" lon="-120.46376649">
      </trkpt>
      <trkpt lat="53.19753968" lon="-120.46356648">
      </trkpt>
      <trkpt lat="53.19742571" lon="-120.46340984">
      </trkpt>
      <trkpt lat="53.197292" lon="-120.4632695">
      </trkpt>
      <trkpt lat="53.19711186" lon="-120.46310094">
      </trkpt>
      <trkpt lat="53.19692547" lon="-120.46297438">
      </trkpt>
      <trkpt lat="53.19683325" lon="-120.46293157">
      </trkpt>
      <trkpt lat="53.19668922" lon="-120.46283378">
      </trkpt>
      <trkpt lat="53.19662041" lon="-120.46267808">
      </trkpt>
      <trkpt lat="53.19659605" lon="-120.46242044">
      </trkpt>
      <trkpt lat="53.19663529" lon="-120.46212016">
      </trkpt>
      <trkpt lat="53.19675047" lon="-120.46186481">
      </trkpt>
      <trkpt lat="53.19682297" lon="-120.46157388">
      </trkpt>
      <trkpt lat="53.19690682" lon="-120.46135009">
      </trkpt>
      <trkpt lat="53.19699034" lon="-120.4611195">
      </trkpt>
      <trkpt lat="53.19705756" lon="-120.46089103">
      </trkpt>
      <trkpt lat="53.19712102" lon="-120.46066992">
      </trkpt>
      <trkpt lat="53.19719009" lon="-120.46039316">
      </trkpt>
      <trkpt lat="53.19726985" lon="-120.46016992">
      </trkpt>
      <trkpt lat="53.19733395" lon="-120.45996245">
      </trkpt>
      <trkpt lat="53.19735009" lon="-120.45978186">
      </trkpt>
      <trkpt lat="53.19740956" lon="-120.45965051">
      </trkpt>
      <trkpt lat="53.19746176" lon="-120.45945146">
      </trkpt>
      <trkpt lat="53.19753616" lon="-120.45920146">
      </trkpt>
      <trkpt lat="53.19762377" lon="-120.45897032">
      </trkpt>
      <trkpt lat="53.19772167" lon="-120.45869663">
      </trkpt>
      <trkpt lat="53.19781614" lon="-120.45843713">
      </trkpt>
      <trkpt lat="53.19788591" lon="-120.45826323">
      </trkpt>
      <trkpt lat="53.19798039" lon="-120.45800373">
      </trkpt>
      <trkpt lat="53.19802474" lon="-120.45781257">
      </trkpt>
      <trkpt lat="53.19805319" lon="-120.45762943">
      </trkpt>
      <trkpt lat="53.19810283" lon="-120.45746598">
      </trkpt>
      <trkpt lat="53.19815597" lon="-120.45728739">
      </trkpt>
      <trkpt lat="53.1982514" lon="-120.45704835">
      </trkpt>
      <trkpt lat="53.19834618" lon="-120.45679565">
      </trkpt>
      <trkpt lat="53.19843473" lon="-120.45658496">
      </trkpt>
      <trkpt lat="53.19851985" lon="-120.45638846">
      </trkpt>
      <trkpt lat="53.19859521" lon="-120.4561589">
      </trkpt>
      <trkpt lat="53.19865779" lon="-120.45600654">
      </trkpt>
      <trkpt lat="53.19870482" lon="-120.45584747">
      </trkpt>
      <trkpt lat="53.19876854" lon="-120.45560612">
      </trkpt>
      <trkpt lat="53.19884913" lon="-120.45535345">
      </trkpt>
      <trkpt lat="53.19894358" lon="-120.45510411">
      </trkpt>
      <trkpt lat="53.19899256" lon="-120.45483683">
      </trkpt>
      <trkpt lat="53.19909334" lon="-120.45462452">
      </trkpt>
      <trkpt lat="53.19915196" lon="-120.45448839">
      </trkpt>
      <trkpt lat="53.19922925" lon="-120.45433991">
      </trkpt>
      <trkpt lat="53.1993047" lon="-120.45418632">
      </trkpt>
      <trkpt lat="53.19937241" lon="-120.45407101">
      </trkpt>
      <trkpt lat="53.19942724" lon="-120.45395207">
      </trkpt>
      <trkpt lat="53.19948487" lon="-120.45372367">
      </trkpt>
      <trkpt lat="53.19952799" lon="-120.45355838">
      </trkpt>
      <trkpt lat="53.19959712" lon="-120.45340564">
      </trkpt>
      <trkpt lat="53.19968617" lon="-120.45323697">
      </trkpt>
      <trkpt lat="53.19973576" lon="-120.45310807">
      </trkpt>
      <trkpt lat="53.19979296" lon="-120.45293827">
      </trkpt>
      <trkpt lat="53.19985079" lon="-120.45278168">
      </trkpt>
      <trkpt lat="53.19993906" lon="-120.45256257">
      </trkpt>
      <trkpt lat="53.20001925" lon="-120.45227268">
      </trkpt>
      <trkpt lat="53.20009605" lon="-120.4520125">
      </trkpt>
      <trkpt lat="53.20016744" lon="-120.45180623">
      </trkpt>
      <trkpt lat="53.20023595" lon="-120.45164026">
      </trkpt>
      <trkpt lat="53.20028633" lon="-120.45146071">
      </trkpt>
      <trkpt lat="53.20034843" lon="-120.45119182">
      </trkpt>
      <trkpt lat="53.20041785" lon="-120.45084214">
      </trkpt>
      <trkpt lat="53.20048316" lon="-120.45050632">
      </trkpt>
      <trkpt lat="53.20053877" lon="-120.45020103">
      </trkpt>
      <trkpt lat="53.20059641" lon="-120.44997262">
      </trkpt>
      <trkpt lat="53.20066431" lon="-120.44969233">
      </trkpt>
      <trkpt lat="53.20070243" lon="-120.44952235">
      </trkpt>
      <trkpt lat="53.20078248" lon="-120.44922981">
      </trkpt>
      <trkpt lat="53.20083727" lon="-120.44907627">
      </trkpt>
      <trkpt lat="53.20090478" lon="-120.44888915">
      </trkpt>
      <trkpt lat="53.20099258" lon="-120.44869401">
      </trkpt>
      <trkpt lat="53.20110603" lon="-120.44850349">
      </trkpt>
      <trkpt lat="53.20119845" lon="-120.4483051">
      </trkpt>
      <trkpt lat="53.20132147" lon="-120.4480814">
      </trkpt>
      <trkpt lat="53.20141289" lon="-120.44786185">
      </trkpt>
      <trkpt lat="53.20150045" lon="-120.44766143">
      </trkpt>
      <trkpt lat="53.20165316" lon="-120.44735932">
      </trkpt>
      <trkpt lat="53.20177128" lon="-120.447099">
      </trkpt>
      <trkpt lat="53.20188636" lon="-120.44684174">
      </trkpt>
      <trkpt lat="53.20195973" lon="-120.44667778">
      </trkpt>
      <trkpt lat="53.20204827" lon="-120.4464985">
      </trkpt>
      <trkpt lat="53.20215819" lon="-120.44630046">
      </trkpt>
      <trkpt lat="53.2022751" lon="-120.44604828">
      </trkpt>
      <trkpt lat="53.20242527" lon="-120.44575979">
      </trkpt>
      <trkpt lat="53.20250508" lon="-120.44559763">
      </trkpt>
      <trkpt lat="53.20259121" lon="-120.44543465">
      </trkpt>
      <trkpt lat="53.20265934" lon="-120.44526071">
      </trkpt>
      <trkpt lat="53.20273924" lon="-120.44506662">
      </trkpt>
      <trkpt lat="53.20280999" lon="-120.44484711">
      </trkpt>
      <trkpt lat="53.20287414" lon="-120.44458856">
      </trkpt>
      <trkpt lat="53.2029261" lon="-120.44440877">
      </trkpt>
      <trkpt lat="53.20298952" lon="-120.44427005">
      </trkpt>
      <trkpt lat="53.20308413" lon="-120.44408465">
      </trkpt>
      <trkpt lat="53.2031834" lon="-120.44393058">
      </trkpt>
      <trkpt lat="53.20334444" lon="-120.4437045">
      </trkpt>
      <trkpt lat="53.20348973" lon="-120.44351509">
      </trkpt>
      <trkpt lat="53.20361485" lon="-120.44333631">
      </trkpt>
      <trkpt lat="53.20369578" lon="-120.44319793">
      </trkpt>
      <trkpt lat="53.20379949" lon="-120.44300335">
      </trkpt>
      <trkpt lat="53.20386854" lon="-120.4427814">
      </trkpt>
      <trkpt lat="53.2039555" lon="-120.44260233">
      </trkpt>
      <trkpt lat="53.20405489" lon="-120.44245088">
      </trkpt>
      <trkpt lat="53.20417476" lon="-120.44226214">
      </trkpt>
      <trkpt lat="53.20427739" lon="-120.44207834">
      </trkpt>
      <trkpt lat="53.20437854" lon="-120.4418628">
      </trkpt>
      <trkpt lat="53.20445331" lon="-120.44166137">
      </trkpt>
      <trkpt lat="53.20453616" lon="-120.44149614">
      </trkpt>
      <trkpt lat="53.20465583" lon="-120.44133668">
      </trkpt>
      <trkpt lat="53.20475363" lon="-120.44118545">
      </trkpt>
      <trkpt lat="53.20481197" lon="-120.441074">
      </trkpt>
      <trkpt lat="53.20486417" lon="-120.44089948">
      </trkpt>
      <trkpt lat="53.20494444" lon="-120.44061219">
      </trkpt>
      <trkpt lat="53.20503092" lon="-120.44032141">
      </trkpt>
      <trkpt lat="53.20514236" lon="-120.44008853">
      </trkpt>
      <trkpt lat="53.20525656" lon="-120.43981273">
      </trkpt>
      <trkpt lat="53.2054214" lon="-120.43949832">
      </trkpt>
      <trkpt lat="53.20557912" lon="-120.4392354">
      </trkpt>
      <trkpt lat="53.20573904" lon="-120.43898549">
      </trkpt>
      <trkpt lat="53.20584637" lon="-120.43876646">
      </trkpt>
      <trkpt lat="53.20592205" lon="-120.43861813">
      </trkpt>
      <trkpt lat="53.20601731" lon="-120.43848051">
      </trkpt>
      <trkpt lat="53.20610492" lon="-120.43834922">
      </trkpt>
      <trkpt lat="53.20621702" lon="-120.43816415">
      </trkpt>
      <trkpt lat="53.20631004" lon="-120.43797894">
      </trkpt>
      <trkpt lat="53.20638486" lon="-120.43781207">
      </trkpt>
      <trkpt lat="53.20646732" lon="-120.4376389">
      </trkpt>
      <trkpt lat="53.20657044" lon="-120.43746565">
      </trkpt>
      <trkpt lat="53.20668038" lon="-120.43730215">
      </trkpt>
      <trkpt lat="53.2068358" lon="-120.43705813">
      </trkpt>
      <trkpt lat="53.20700882" lon="-120.43678253">
      </trkpt>
      <trkpt lat="53.20710458" lon="-120.43655438">
      </trkpt>
      <trkpt lat="53.20722094" lon="-120.43625697">
      </trkpt>
      <trkpt lat="53.2073022" lon="-120.43599081">
      </trkpt>
      <trkpt lat="53.20736708" lon="-120.43574808">
      </trkpt>
      <trkpt lat="53.2074315" lon="-120.43552937">
      </trkpt>
      <trkpt lat="53.20747076" lon="-120.43541775">
      </trkpt>
      <trkpt lat="53.20761941" lon="-120.43509746">
      </trkpt>
      <trkpt lat="53.2077607" lon="-120.43482337">
      </trkpt>
      <trkpt lat="53.20789413" lon="-120.4345849">
      </trkpt>
      <trkpt lat="53.20795738" lon="-120.43440892">
      </trkpt>
      <trkpt lat="53.20803539" lon="-120.43417511">
      </trkpt>
      <trkpt lat="53.20814771" lon="-120.43385959">
      </trkpt>
      <trkpt lat="53.20820888" lon="-120.43367323">
      </trkpt>
      <trkpt lat="53.20832173" lon="-120.43340289">
      </trkpt>
      <trkpt lat="53.20837063" lon="-120.43322612">
      </trkpt>
      <trkpt lat="53.20845887" lon="-120.43300693">
      </trkpt>
      <trkpt lat="53.2085373" lon="-120.43271451">
      </trkpt>
      <trkpt lat="53.20859768" lon="-120.43247769">
      </trkpt>
      <trkpt lat="53.20868708" lon="-120.43221575">
      </trkpt>
      <trkpt lat="53.20878738" lon="-120.43191511">
      </trkpt>
      <trkpt lat="53.20889643" lon="-120.43173308">
      </trkpt>
      <trkpt lat="53.20903946" lon="-120.43149599">
      </trkpt>
      <trkpt lat="53.20919642" lon="-120.43121716">
      </trkpt>
      <trkpt lat="53.20938256" lon="-120.4308493">
      </trkpt>
      <trkpt lat="53.20961934" lon="-120.43044285">
      </trkpt>
      <trkpt lat="53.20981313" lon="-120.43006866">
      </trkpt>
      <trkpt lat="53.21003154" lon="-120.4296433">
      </trkpt>
      <trkpt lat="53.2101317" lon="-120.42944113">
      </trkpt>
      <trkpt lat="53.21027443" lon="-120.42916417">
      </trkpt>
      <trkpt lat="53.21043574" lon="-120.42887675">
      </trkpt>
      <trkpt lat="53.21056409" lon="-120.42866553">
      </trkpt>
      <trkpt lat="53.21071318" lon="-120.42842231">
      </trkpt>
      <trkpt lat="53.21083911" lon="-120.42822737">
      </trkpt>
      <trkpt lat="53.21097452" lon="-120.4280312">
      </trkpt>
      <trkpt lat="53.21117508" lon="-120.42773326">
      </trkpt>
      <trkpt lat="53.21131194" lon="-120.42753423">
      </trkpt>
      <trkpt lat="53.21139796" lon="-120.42740311">
      </trkpt>
      <trkpt lat="53.2114893" lon="-120.42724999">
      </trkpt>
      <trkpt lat="53.21161768" lon="-120.42707336">
      </trkpt>
      <trkpt lat="53.2117219" lon="-120.42692387">
      </trkpt>
      <trkpt lat="53.21181391" lon="-120.42681857">
      </trkpt>
      <trkpt lat="53.21192316" lon="-120.42670833">
      </trkpt>
      <trkpt lat="53.21194861" lon="-120.42664111">
      </trkpt>
      <trkpt lat="53.2119854" lon="-120.42651117">
      </trkpt>
      <trkpt lat="53.21200632" lon="-120.42631413">
      </trkpt>
      <trkpt lat="53.21202183" lon="-120.42617104">
      </trkpt>
      <trkpt lat="53.21206095" lon="-120.42595561">
      </trkpt>
      <trkpt lat="53.21212349" lon="-120.42569719">
      </trkpt>
      <trkpt lat="53.21217911" lon="-120.42546097">
      </trkpt>
      <trkpt lat="53.2122283" lon="-120.4251218">
      </trkpt>
      <trkpt lat="53.21227753" lon="-120.42491837">
      </trkpt>
      <trkpt lat="53.21233661" lon="-120.42462048">
      </trkpt>
      <trkpt lat="53.21237311" lon="-120.42445065">
      </trkpt>
      <trkpt lat="53.21243298" lon="-120.42430434">
      </trkpt>
      <trkpt lat="53.21256127" lon="-120.42415965">
      </trkpt>
      <trkpt lat="53.21271035" lon="-120.42401753">
      </trkpt>
      <trkpt lat="53.21278697" lon="-120.42395684">
      </trkpt>
      <trkpt lat="53.21291954" lon="-120.42383553">
      </trkpt>
      <trkpt lat="53.21309752" lon="-120.42366563">
      </trkpt>
      <trkpt lat="53.21320955" lon="-120.42354704">
      </trkpt>
      <trkpt lat="53.21336371" lon="-120.42337762">
      </trkpt>
      <trkpt lat="53.21352351" lon="-120.42326069">
      </trkpt>
      <trkpt lat="53.21370676" lon="-120.42313533">
      </trkpt>
      <trkpt lat="53.21382366" lon="-120.42301875">
      </trkpt>
      <trkpt lat="53.21395423" lon="-120.42285511">
      </trkpt>
      <trkpt lat="53.21409687" lon="-120.42271116">
      </trkpt>
      <trkpt lat="53.21419444" lon="-120.42258916">
      </trkpt>
      <trkpt lat="53.21431238" lon="-120.42242717">
      </trkpt>
      <trkpt lat="53.21439573" lon="-120.42230705">
      </trkpt>
      <trkpt lat="53.21447866" lon="-120.42214437">
      </trkpt>
      <trkpt lat="53.21462014" lon="-120.42194203">
      </trkpt>
      <trkpt lat="53.2147668" lon="-120.42171504">
      </trkpt>
      <trkpt lat="53.21491092" lon="-120.4215017">
      </trkpt>
      <trkpt lat="53.21501224" lon="-120.42135789">
      </trkpt>
      <trkpt lat="53.21517752" lon="-120.42115505">
      </trkpt>
      <trkpt lat="53.21532432" lon="-120.42103184">
      </trkpt>
      <trkpt lat="53.21546021" lon="-120.42094734">
      </trkpt>
      <trkpt lat="53.21557753" lon="-120.42087326">
      </trkpt>
      <trkpt lat="53.21576185" lon="-120.4207196">
      </trkpt>
      <trkpt lat="53.21593977" lon="-120.42043719">
      </trkpt>
      <trkpt lat="53.21613098" lon="-120.4200917">
      </trkpt>
      <trkpt lat="53.21622882" lon="-120.41994403">
      </trkpt>
      <trkpt lat="53.21633597" lon="-120.41974276">
      </trkpt>
      <trkpt lat="53.21642775" lon="-120.41955381">
      </trkpt>
      <trkpt lat="53.21655211" lon="-120.41930094">
      </trkpt>
      <trkpt lat="53.21662349" lon="-120.4191743">
      </trkpt>
      <trkpt lat="53.21685093" lon="-120.41885449">
      </trkpt>
      <trkpt lat="53.21700457" lon="-120.41859399">
      </trkpt>
      <trkpt lat="53.21715703" lon="-120.41842783">
      </trkpt>
      <trkpt lat="53.21726221" lon="-120.41827264">
      </trkpt>
      <trkpt lat="53.21740651" lon="-120.41811228">
      </trkpt>
      <trkpt lat="53.21757436" lon="-120.41803356">
      </trkpt>
      <trkpt lat="53.21768226" lon="-120.41799574">
      </trkpt>
      <trkpt lat="53.21777464" lon="-120.417927">
      </trkpt>
      <trkpt lat="53.21791195" lon="-120.41785704">
      </trkpt>
      <trkpt lat="53.21801853" lon="-120.41779114">
      </trkpt>
      <trkpt lat="53.21816857" lon="-120.41775244">
      </trkpt>
      <trkpt lat="53.21835496" lon="-120.41770894">
      </trkpt>
      <trkpt lat="53.21851433" lon="-120.41757012">
      </trkpt>
      <trkpt lat="53.21863605" lon="-120.41740803">
      </trkpt>
      <trkpt lat="53.2187377" lon="-120.41717795">
      </trkpt>
      <trkpt lat="53.21882992" lon="-120.41698678">
      </trkpt>
      <trkpt lat="53.21895208" lon="-120.41683405">
      </trkpt>
      <trkpt lat="53.21910609" lon="-120.41670064">
      </trkpt>
      <trkpt lat="53.21928203" lon="-120.41655491">
      </trkpt>
      <trkpt lat="53.2194509" lon="-120.41643837">
      </trkpt>
      <trkpt lat="53.21960215" lon="-120.41624723">
      </trkpt>
      <trkpt lat="53.21973898" lon="-120.41604703">
      </trkpt>
      <trkpt lat="53.21987415" lon="-120.4158125">
      </trkpt>
      <trkpt lat="53.21999807" lon="-120.41551823">
      </trkpt>
      <trkpt lat="53.22020663" lon="-120.41499142">
      </trkpt>
      <trkpt lat="53.22046453" lon="-120.41437799">
      </trkpt>
      <trkpt lat="53.22062698" lon="-120.41394675">
      </trkpt>
      <trkpt lat="53.22073522" lon="-120.41367809">
      </trkpt>
      <trkpt lat="53.22084885" lon="-120.41340403">
      </trkpt>
      <trkpt lat="53.22104601" lon="-120.41305295">
      </trkpt>
      <trkpt lat="53.22127649" lon="-120.41269274">
      </trkpt>
      <trkpt lat="53.22152602" lon="-120.41225938">
      </trkpt>
      <trkpt lat="53.22176466" lon="-120.41189337">
      </trkpt>
      <trkpt lat="53.22191594" lon="-120.41164256">
      </trkpt>
      <trkpt lat="53.22209669" lon="-120.41124183">
      </trkpt>
      <trkpt lat="53.22229847" lon="-120.41081004">
      </trkpt>
      <trkpt lat="53.22239597" lon="-120.41055222">
      </trkpt>
      <trkpt lat="53.2225869" lon="-120.41036679">
      </trkpt>
      <trkpt lat="53.22277671" lon="-120.41015795">
      </trkpt>
      <trkpt lat="53.22292673" lon="-120.40994025">
      </trkpt>
      <trkpt lat="53.22314882" lon="-120.40958114">
      </trkpt>
      <trkpt lat="53.22333892" lon="-120.40925922">
      </trkpt>
      <trkpt lat="53.22351072" lon="-120.40908573">
      </trkpt>
      <trkpt lat="53.22368083" lon="-120.40893601">
      </trkpt>
      <trkpt lat="53.22392036" lon="-120.40876768">
      </trkpt>
      <trkpt lat="53.22413093" lon="-120.40864086">
      </trkpt>
      <trkpt lat="53.22432106" lon="-120.40867688">
      </trkpt>
      <trkpt lat="53.22446598" lon="-120.40882723">
      </trkpt>
      <trkpt lat="53.22447431" lon="-120.40894389">
      </trkpt>
      <trkpt lat="53.22455383" lon="-120.40907936">
      </trkpt>
    </trkseg>
  </trk>
</gpx>