<?xml version="1.0" encoding="UTF-8"?>
<gpx xmlns="http://www.topografix.com/GPX/1/1" xmlns:xsi="http://www.w3.org/2001/XMLSchema-instance" xsi:schemaLocation="http://www.topografix.com/GPX/1/1 http://www.topografix.com/GPX/1/1/gpx.xsd" version="1.1" creator="gpx.py -- https://github.com/tkrajina/gpxpy">
  <trk>
    <name>Wigwam Lookout Trail</name>
    <trkseg>
      <trkpt lat="49.23733241" lon="-114.9859886">
      </trkpt>
      <trkpt lat="49.23726321" lon="-114.98614094">
      </trkpt>
      <trkpt lat="49.23711133" lon="-114.98642443">
      </trkpt>
      <trkpt lat="49.23696475" lon="-114.98658272">
      </trkpt>
      <trkpt lat="49.23682266" lon="-114.98674803">
      </trkpt>
      <trkpt lat="49.2366483" lon="-114.98697555">
      </trkpt>
      <trkpt lat="49.23645149" lon="-114.98716097">
      </trkpt>
      <trkpt lat="49.23642962" lon="-114.98717028">
      </trkpt>
      <trkpt lat="49.23627804" lon="-114.98723525">
      </trkpt>
      <trkpt lat="49.2360957" lon="-114.9872537">
      </trkpt>
      <trkpt lat="49.23592274" lon="-114.98724439">
      </trkpt>
      <trkpt lat="49.23587052" lon="-114.98728008">
      </trkpt>
      <trkpt lat="49.23585784" lon="-114.98728877">
      </trkpt>
      <trkpt lat="49.23585814" lon="-114.98730249">
      </trkpt>
      <trkpt lat="49.23589578" lon="-114.98739704">
      </trkpt>
      <trkpt lat="49.23592395" lon="-114.9874646">
      </trkpt>
      <trkpt lat="49.2359521" lon="-114.98753216">
      </trkpt>
      <trkpt lat="49.23598046" lon="-114.98761343">
      </trkpt>
      <trkpt lat="49.23604506" lon="-114.98770706">
      </trkpt>
      <trkpt lat="49.23607373" lon="-114.98780207">
      </trkpt>
      <trkpt lat="49.23601911" lon="-114.98776303">
      </trkpt>
      <trkpt lat="49.23596439" lon="-114.987724">
      </trkpt>
      <trkpt lat="49.23590058" lon="-114.98767168">
      </trkpt>
      <trkpt lat="49.23585514" lon="-114.98764606">
      </trkpt>
      <trkpt lat="49.23580941" lon="-114.98760673">
      </trkpt>
      <trkpt lat="49.23573681" lon="-114.98756844">
      </trkpt>
      <trkpt lat="49.2356732" lon="-114.98752987">
      </trkpt>
      <trkpt lat="49.23561848" lon="-114.98749082">
      </trkpt>
      <trkpt lat="49.23556366" lon="-114.98743806">
      </trkpt>
      <trkpt lat="49.23550963" lon="-114.98744036">
      </trkpt>
      <trkpt lat="49.23553829" lon="-114.98753536">
      </trkpt>
      <trkpt lat="49.23558472" lon="-114.98761588">
      </trkpt>
      <trkpt lat="49.23561288" lon="-114.98768344">
      </trkpt>
      <trkpt lat="49.23563226" lon="-114.98776501">
      </trkpt>
      <trkpt lat="49.23566071" lon="-114.9878463">
      </trkpt>
      <trkpt lat="49.23567989" lon="-114.98791415">
      </trkpt>
      <trkpt lat="49.23571723" lon="-114.98799513">
      </trkpt>
      <trkpt lat="49.23575468" lon="-114.98807595">
      </trkpt>
      <trkpt lat="49.23579223" lon="-114.98817066">
      </trkpt>
      <trkpt lat="49.23582968" lon="-114.98825163">
      </trkpt>
      <trkpt lat="49.23585834" lon="-114.98834663">
      </trkpt>
      <trkpt lat="49.23589548" lon="-114.98841373">
      </trkpt>
      <trkpt lat="49.23593313" lon="-114.98850843">
      </trkpt>
      <trkpt lat="49.23596149" lon="-114.98858971">
      </trkpt>
      <trkpt lat="49.23598995" lon="-114.98867099">
      </trkpt>
      <trkpt lat="49.2360271" lon="-114.98873808">
      </trkpt>
      <trkpt lat="49.23605525" lon="-114.98880564">
      </trkpt>
      <trkpt lat="49.2360929" lon="-114.98890034">
      </trkpt>
      <trkpt lat="49.23613024" lon="-114.98898116">
      </trkpt>
      <trkpt lat="49.23618517" lon="-114.98903392">
      </trkpt>
      <trkpt lat="49.23620454" lon="-114.98911551">
      </trkpt>
      <trkpt lat="49.23614114" lon="-114.98909066">
      </trkpt>
      <trkpt lat="49.2360957" lon="-114.98906504">
      </trkpt>
      <trkpt lat="49.23604157" lon="-114.98905344">
      </trkpt>
      <trkpt lat="49.23598735" lon="-114.989042">
      </trkpt>
      <trkpt lat="49.23594221" lon="-114.98903012">
      </trkpt>
      <trkpt lat="49.23589678" lon="-114.9890045">
      </trkpt>
      <trkpt lat="49.23584255" lon="-114.98899291">
      </trkpt>
      <trkpt lat="49.23579742" lon="-114.98898102">
      </trkpt>
      <trkpt lat="49.2357432" lon="-114.98896943">
      </trkpt>
      <trkpt lat="49.23568858" lon="-114.98893053">
      </trkpt>
      <trkpt lat="49.23562517" lon="-114.98890553">
      </trkpt>
      <trkpt lat="49.23556296" lon="-114.9889493">
      </trkpt>
      <trkpt lat="49.23558233" lon="-114.98903088">
      </trkpt>
      <trkpt lat="49.23562877" lon="-114.98911154">
      </trkpt>
      <trkpt lat="49.2356751" lon="-114.98919206">
      </trkpt>
      <trkpt lat="49.23570356" lon="-114.98927335">
      </trkpt>
      <trkpt lat="49.23572293" lon="-114.98935494">
      </trkpt>
      <trkpt lat="49.23573363" lon="-114.98945069">
      </trkpt>
      <trkpt lat="49.23575348" lon="-114.98955973">
      </trkpt>
      <trkpt lat="49.23577316" lon="-114.9896552">
      </trkpt>
      <trkpt lat="49.23580182" lon="-114.9897502">
      </trkpt>
      <trkpt lat="49.23582149" lon="-114.9898455">
      </trkpt>
      <trkpt lat="49.23585005" lon="-114.98994052">
      </trkpt>
      <trkpt lat="49.23587821" lon="-114.99000806">
      </trkpt>
      <trkpt lat="49.23591545" lon="-114.99007531">
      </trkpt>
      <trkpt lat="49.2359528" lon="-114.99015614">
      </trkpt>
      <trkpt lat="49.23601741" lon="-114.99024978">
      </trkpt>
      <trkpt lat="49.23607253" lon="-114.9903161">
      </trkpt>
      <trkpt lat="49.23613694" lon="-114.99039601">
      </trkpt>
      <trkpt lat="49.23610239" lon="-114.99047989">
      </trkpt>
      <trkpt lat="49.23604846" lon="-114.99048203">
      </trkpt>
      <trkpt lat="49.23600353" lon="-114.99048385">
      </trkpt>
      <trkpt lat="49.23594052" lon="-114.99048645">
      </trkpt>
      <trkpt lat="49.23588659" lon="-114.99048858">
      </trkpt>
      <trkpt lat="49.2358149" lon="-114.9905052">
      </trkpt>
      <trkpt lat="49.23575229" lon="-114.99052152">
      </trkpt>
      <trkpt lat="49.23568958" lon="-114.99053784">
      </trkpt>
      <trkpt lat="49.23563585" lon="-114.99055369">
      </trkpt>
      <trkpt lat="49.23558213" lon="-114.99056956">
      </trkpt>
      <trkpt lat="49.23552851" lon="-114.99058556">
      </trkpt>
      <trkpt lat="49.23547498" lon="-114.99061516">
      </trkpt>
      <trkpt lat="49.23541277" lon="-114.99065892">
      </trkpt>
      <trkpt lat="49.23534137" lon="-114.99068927">
      </trkpt>
      <trkpt lat="49.23526988" lon="-114.99071961">
      </trkpt>
      <trkpt lat="49.23520766" lon="-114.99076338">
      </trkpt>
      <trkpt lat="49.23514524" lon="-114.99079341">
      </trkpt>
      <trkpt lat="49.23507404" lon="-114.99083749">
      </trkpt>
      <trkpt lat="49.23501184" lon="-114.99088125">
      </trkpt>
      <trkpt lat="49.23495861" lon="-114.99092456">
      </trkpt>
      <trkpt lat="49.23490559" lon="-114.99098175">
      </trkpt>
      <trkpt lat="49.23485266" lon="-114.99103879">
      </trkpt>
      <trkpt lat="49.23479964" lon="-114.99109597">
      </trkpt>
      <trkpt lat="49.23473794" lon="-114.99116719">
      </trkpt>
      <trkpt lat="49.23467621" lon="-114.99123825">
      </trkpt>
      <trkpt lat="49.23463217" lon="-114.99129513">
      </trkpt>
      <trkpt lat="49.23457047" lon="-114.99136619">
      </trkpt>
      <trkpt lat="49.23452692" lon="-114.99145037">
      </trkpt>
      <trkpt lat="49.23447399" lon="-114.99150755">
      </trkpt>
      <trkpt lat="49.23442097" lon="-114.99156458">
      </trkpt>
      <trkpt lat="49.23435827" lon="-114.9915809">
      </trkpt>
      <trkpt lat="49.23430513" lon="-114.99162436">
      </trkpt>
      <trkpt lat="49.23422484" lon="-114.99166874">
      </trkpt>
      <trkpt lat="49.23417171" lon="-114.9917122">
      </trkpt>
      <trkpt lat="49.23410051" lon="-114.99175628">
      </trkpt>
      <trkpt lat="49.2340383" lon="-114.99180004">
      </trkpt>
      <trkpt lat="49.23398478" lon="-114.99182962">
      </trkpt>
      <trkpt lat="49.23392256" lon="-114.99187338">
      </trkpt>
      <trkpt lat="49.23386035" lon="-114.99191716">
      </trkpt>
      <trkpt lat="49.23379813" lon="-114.99196077">
      </trkpt>
      <trkpt lat="49.23372694" lon="-114.99200499">
      </trkpt>
      <trkpt lat="49.2336737" lon="-114.9920483">
      </trkpt>
      <trkpt lat="49.23362078" lon="-114.99210533">
      </trkpt>
      <trkpt lat="49.23356756" lon="-114.99214879">
      </trkpt>
      <trkpt lat="49.23351433" lon="-114.99219211">
      </trkpt>
      <trkpt lat="49.23347029" lon="-114.99224883">
      </trkpt>
      <trkpt lat="49.23340787" lon="-114.99227888">
      </trkpt>
      <trkpt lat="49.23334566" lon="-114.99232264">
      </trkpt>
      <trkpt lat="49.23328324" lon="-114.99235268">
      </trkpt>
      <trkpt lat="49.23322103" lon="-114.9923963">
      </trkpt>
      <trkpt lat="49.23314054" lon="-114.9924271">
      </trkpt>
      <trkpt lat="49.23305965" lon="-114.9924303">
      </trkpt>
      <trkpt lat="49.23298775" lon="-114.99243321">
      </trkpt>
      <trkpt lat="49.23292454" lon="-114.99242207">
      </trkpt>
      <trkpt lat="49.23286143" lon="-114.99241093">
      </trkpt>
      <trkpt lat="49.23279821" lon="-114.9923998">
      </trkpt>
      <trkpt lat="49.2327353" lon="-114.99240224">
      </trkpt>
      <trkpt lat="49.23268137" lon="-114.99240453">
      </trkpt>
      <trkpt lat="49.23262795" lon="-114.99243411">
      </trkpt>
      <trkpt lat="49.23257421" lon="-114.99244997">
      </trkpt>
      <trkpt lat="49.2325118" lon="-114.99248002">
      </trkpt>
      <trkpt lat="49.23245859" lon="-114.99252347">
      </trkpt>
      <trkpt lat="49.23239637" lon="-114.99256709">
      </trkpt>
      <trkpt lat="49.23234313" lon="-114.99261055">
      </trkpt>
      <trkpt lat="49.23229909" lon="-114.99266728">
      </trkpt>
      <trkpt lat="49.23224617" lon="-114.99272431">
      </trkpt>
      <trkpt lat="49.23218415" lon="-114.9927818">
      </trkpt>
      <trkpt lat="49.23212213" lon="-114.9928393">
      </trkpt>
      <trkpt lat="49.2320692" lon="-114.99289633">
      </trkpt>
      <trkpt lat="49.23200698" lon="-114.99294009">
      </trkpt>
      <trkpt lat="49.23194496" lon="-114.99299759">
      </trkpt>
      <trkpt lat="49.23188275" lon="-114.99304136">
      </trkpt>
      <trkpt lat="49.23181115" lon="-114.99305798">
      </trkpt>
      <trkpt lat="49.23174863" lon="-114.99308786">
      </trkpt>
      <trkpt lat="49.23168622" lon="-114.99311791">
      </trkpt>
      <trkpt lat="49.23163249" lon="-114.99313392">
      </trkpt>
      <trkpt lat="49.23156958" lon="-114.99313636">
      </trkpt>
      <trkpt lat="49.23150717" lon="-114.9931664">
      </trkpt>
      <trkpt lat="49.23145393" lon="-114.99320971">
      </trkpt>
      <trkpt lat="49.2313922" lon="-114.99328092">
      </trkpt>
      <trkpt lat="49.23134817" lon="-114.99333765">
      </trkpt>
      <trkpt lat="49.23129543" lon="-114.99340856">
      </trkpt>
      <trkpt lat="49.23123372" lon="-114.99347963">
      </trkpt>
      <trkpt lat="49.23117241" lon="-114.99357829">
      </trkpt>
      <trkpt lat="49.23111069" lon="-114.9936495">
      </trkpt>
      <trkpt lat="49.23105776" lon="-114.99370668">
      </trkpt>
      <trkpt lat="49.23100452" lon="-114.99375">
      </trkpt>
      <trkpt lat="49.23095061" lon="-114.99375214">
      </trkpt>
      <trkpt lat="49.23087859" lon="-114.99375504">
      </trkpt>
      <trkpt lat="49.230798" lon="-114.99377211">
      </trkpt>
      <trkpt lat="49.23071731" lon="-114.99378904">
      </trkpt>
      <trkpt lat="49.23063681" lon="-114.99381985">
      </trkpt>
      <trkpt lat="49.23056572" lon="-114.99386392">
      </trkpt>
      <trkpt lat="49.23051218" lon="-114.99389349">
      </trkpt>
      <trkpt lat="49.230423" lon="-114.99393833">
      </trkpt>
      <trkpt lat="49.23037835" lon="-114.99395389">
      </trkpt>
      <trkpt lat="49.23029786" lon="-114.99398468">
      </trkpt>
      <trkpt lat="49.23022645" lon="-114.99401504">
      </trkpt>
      <trkpt lat="49.23015525" lon="-114.99405911">
      </trkpt>
      <trkpt lat="49.23011031" lon="-114.99406093">
      </trkpt>
      <trkpt lat="49.23004758" lon="-114.99407726">
      </trkpt>
      <trkpt lat="49.22996719" lon="-114.9941079">
      </trkpt>
      <trkpt lat="49.22989598" lon="-114.99415197">
      </trkpt>
      <trkpt lat="49.22981579" lon="-114.9941965">
      </trkpt>
      <trkpt lat="49.22974429" lon="-114.99422686">
      </trkpt>
      <trkpt lat="49.22968216" lon="-114.99427062">
      </trkpt>
      <trkpt lat="49.22961995" lon="-114.99431438">
      </trkpt>
      <trkpt lat="49.22956622" lon="-114.99433024">
      </trkpt>
      <trkpt lat="49.22949501" lon="-114.99437431">
      </trkpt>
      <trkpt lat="49.22941481" lon="-114.99441884">
      </trkpt>
      <trkpt lat="49.22933461" lon="-114.99446321">
      </trkpt>
      <trkpt lat="49.22926321" lon="-114.99449357">
      </trkpt>
      <trkpt lat="49.22921019" lon="-114.99455076">
      </trkpt>
      <trkpt lat="49.22914826" lon="-114.99460809">
      </trkpt>
      <trkpt lat="49.22909452" lon="-114.9946241">
      </trkpt>
      <trkpt lat="49.2290318" lon="-114.99464026">
      </trkpt>
      <trkpt lat="49.22896959" lon="-114.99468403">
      </trkpt>
      <trkpt lat="49.22889768" lon="-114.99468693">
      </trkpt>
      <trkpt lat="49.22884305" lon="-114.99464804">
      </trkpt>
      <trkpt lat="49.22879862" lon="-114.99467732">
      </trkpt>
      <trkpt lat="49.22874587" lon="-114.99474808">
      </trkpt>
      <trkpt lat="49.22867387" lon="-114.99475098">
      </trkpt>
      <trkpt lat="49.22859257" lon="-114.99472673">
      </trkpt>
      <trkpt lat="49.22852016" lon="-114.99470233">
      </trkpt>
      <trkpt lat="49.22843877" lon="-114.99467808">
      </trkpt>
      <trkpt lat="49.22837485" lon="-114.99462578">
      </trkpt>
      <trkpt lat="49.22831103" lon="-114.99457332">
      </trkpt>
      <trkpt lat="49.22824761" lon="-114.99454846">
      </trkpt>
      <trkpt lat="49.22819388" lon="-114.99456432">
      </trkpt>
      <trkpt lat="49.22814015" lon="-114.99458033">
      </trkpt>
      <trkpt lat="49.22808652" lon="-114.99459619">
      </trkpt>
      <trkpt lat="49.22801381" lon="-114.99455792">
      </trkpt>
      <trkpt lat="49.22795938" lon="-114.9945326">
      </trkpt>
      <trkpt lat="49.22788708" lon="-114.99450805">
      </trkpt>
      <trkpt lat="49.22781487" lon="-114.99449738">
      </trkpt>
      <trkpt lat="49.22775174" lon="-114.99448609">
      </trkpt>
      <trkpt lat="49.22767984" lon="-114.99448899">
      </trkpt>
      <trkpt lat="49.2276261" lon="-114.99450501">
      </trkpt>
      <trkpt lat="49.22757287" lon="-114.9945483">
      </trkpt>
      <trkpt lat="49.22752862" lon="-114.99459132">
      </trkpt>
      <trkpt lat="49.22747519" lon="-114.9946209">
      </trkpt>
      <trkpt lat="49.22743095" lon="-114.9946639">
      </trkpt>
      <trkpt lat="49.22735994" lon="-114.99472169">
      </trkpt>
      <trkpt lat="49.2273155" lon="-114.99475098">
      </trkpt>
      <trkpt lat="49.22725357" lon="-114.99480847">
      </trkpt>
      <trkpt lat="49.22718277" lon="-114.99487999">
      </trkpt>
      <trkpt lat="49.22712104" lon="-114.9949512">
      </trkpt>
      <trkpt lat="49.22705981" lon="-114.99504987">
      </trkpt>
      <trkpt lat="49.2269978" lon="-114.99510736">
      </trkpt>
      <trkpt lat="49.22692688" lon="-114.99516516">
      </trkpt>
      <trkpt lat="49.22686465" lon="-114.99520877">
      </trkpt>
      <trkpt lat="49.22680243" lon="-114.99525253">
      </trkpt>
      <trkpt lat="49.22672223" lon="-114.99529706">
      </trkpt>
      <trkpt lat="49.22665081" lon="-114.9953274">
      </trkpt>
      <trkpt lat="49.2265881" lon="-114.99534358">
      </trkpt>
      <trkpt lat="49.22651618" lon="-114.99534663">
      </trkpt>
      <trkpt lat="49.22644427" lon="-114.99534952">
      </trkpt>
      <trkpt lat="49.22637167" lon="-114.99531124">
      </trkpt>
      <trkpt lat="49.22630804" lon="-114.99527252">
      </trkpt>
      <trkpt lat="49.22623533" lon="-114.99523424">
      </trkpt>
      <trkpt lat="49.22617201" lon="-114.99520938">
      </trkpt>
      <trkpt lat="49.2260996" lon="-114.99518483">
      </trkpt>
      <trkpt lat="49.22603638" lon="-114.99517369">
      </trkpt>
      <trkpt lat="49.22598294" lon="-114.99520328">
      </trkpt>
      <trkpt lat="49.2259304" lon="-114.99528792">
      </trkpt>
      <trkpt lat="49.22588616" lon="-114.99533076">
      </trkpt>
      <trkpt lat="49.22581475" lon="-114.99536127">
      </trkpt>
      <trkpt lat="49.22575204" lon="-114.99537742">
      </trkpt>
      <trkpt lat="49.22568011" lon="-114.99538033">
      </trkpt>
      <trkpt lat="49.2256085" lon="-114.99539694">
      </trkpt>
      <trkpt lat="49.225528" lon="-114.99542776">
      </trkpt>
      <trkpt lat="49.22544741" lon="-114.99544468">
      </trkpt>
      <trkpt lat="49.22537589" lon="-114.99547518">
      </trkpt>
      <trkpt lat="49.22531346" lon="-114.99550506">
      </trkpt>
      <trkpt lat="49.22524225" lon="-114.99554914">
      </trkpt>
      <trkpt lat="49.22517103" lon="-114.99559322">
      </trkpt>
      <trkpt lat="49.22509991" lon="-114.99563744">
      </trkpt>
      <trkpt lat="49.2250287" lon="-114.9956815">
      </trkpt>
      <trkpt lat="49.22493951" lon="-114.99572634">
      </trkpt>
      <trkpt lat="49.2248685" lon="-114.99578414">
      </trkpt>
      <trkpt lat="49.22481556" lon="-114.99584116">
      </trkpt>
      <trkpt lat="49.22474454" lon="-114.99589896">
      </trkpt>
      <trkpt lat="49.22467363" lon="-114.99595675">
      </trkpt>
      <trkpt lat="49.22461141" lon="-114.99600053">
      </trkpt>
      <trkpt lat="49.22453121" lon="-114.9960449">
      </trkpt>
      <trkpt lat="49.22444201" lon="-114.99608973">
      </trkpt>
      <trkpt lat="49.22437059" lon="-114.99612009">
      </trkpt>
      <trkpt lat="49.22430837" lon="-114.99616385">
      </trkpt>
      <trkpt lat="49.22424615" lon="-114.99620762">
      </trkpt>
      <trkpt lat="49.22418422" lon="-114.99626496">
      </trkpt>
      <trkpt lat="49.22413138" lon="-114.99633586">
      </trkpt>
      <trkpt lat="49.22407844" lon="-114.9963929">
      </trkpt>
      <trkpt lat="49.22400743" lon="-114.99645068">
      </trkpt>
      <trkpt lat="49.22393652" lon="-114.99650848">
      </trkpt>
      <trkpt lat="49.22387449" lon="-114.99656598">
      </trkpt>
      <trkpt lat="49.22381255" lon="-114.99662347">
      </trkpt>
      <trkpt lat="49.22375083" lon="-114.99669453">
      </trkpt>
      <trkpt lat="49.22369759" lon="-114.99673799">
      </trkpt>
      <trkpt lat="49.22364485" lon="-114.99680875">
      </trkpt>
      <trkpt lat="49.22360081" lon="-114.99686548">
      </trkpt>
      <trkpt lat="49.22356635" lon="-114.99694935">
      </trkpt>
      <trkpt lat="49.22350502" lon="-114.99704786">
      </trkpt>
      <trkpt lat="49.22346077" lon="-114.99709087">
      </trkpt>
      <trkpt lat="49.22340683" lon="-114.997093">
      </trkpt>
      <trkpt lat="49.2233527" lon="-114.99708157">
      </trkpt>
      <trkpt lat="49.22329876" lon="-114.9970837">
      </trkpt>
      <trkpt lat="49.22324503" lon="-114.99709955">
      </trkpt>
      <trkpt lat="49.22319139" lon="-114.99711557">
      </trkpt>
      <trkpt lat="49.22313766" lon="-114.99713144">
      </trkpt>
      <trkpt lat="49.22308421" lon="-114.99716101">
      </trkpt>
      <trkpt lat="49.22303097" lon="-114.99720448">
      </trkpt>
      <trkpt lat="49.22296974" lon="-114.99730299">
      </trkpt>
      <trkpt lat="49.2229172" lon="-114.99738762">
      </trkpt>
      <trkpt lat="49.22289194" lon="-114.99748476">
      </trkpt>
      <trkpt lat="49.22290232" lon="-114.99756665">
      </trkpt>
      <trkpt lat="49.2229217" lon="-114.99764838">
      </trkpt>
      <trkpt lat="49.22295018" lon="-114.99772966">
      </trkpt>
      <trkpt lat="49.22296975" lon="-114.99782498">
      </trkpt>
      <trkpt lat="49.22299822" lon="-114.99790626">
      </trkpt>
      <trkpt lat="49.2230176" lon="-114.99798784">
      </trkpt>
      <trkpt lat="49.22301928" lon="-114.99808392">
      </trkpt>
      <trkpt lat="49.2230027" lon="-114.99816703">
      </trkpt>
      <trkpt lat="49.22296815" lon="-114.99825074">
      </trkpt>
      <trkpt lat="49.2229246" lon="-114.99833492">
      </trkpt>
      <trkpt lat="49.22287216" lon="-114.9984194">
      </trkpt>
      <trkpt lat="49.22281942" lon="-114.99849032">
      </trkpt>
      <trkpt lat="49.22276658" lon="-114.99856107">
      </trkpt>
      <trkpt lat="49.22271344" lon="-114.99860438">
      </trkpt>
      <trkpt lat="49.22266061" lon="-114.99867529">
      </trkpt>
      <trkpt lat="49.22260747" lon="-114.9987186">
      </trkpt>
      <trkpt lat="49.22255422" lon="-114.99876191">
      </trkpt>
      <trkpt lat="49.22250049" lon="-114.99877793">
      </trkpt>
      <trkpt lat="49.22244655" lon="-114.99878006">
      </trkpt>
      <trkpt lat="49.22239242" lon="-114.99876847">
      </trkpt>
      <trkpt lat="49.22234696" lon="-114.99874285">
      </trkpt>
      <trkpt lat="49.22230133" lon="-114.99870351">
      </trkpt>
      <trkpt lat="49.22224619" lon="-114.99863702">
      </trkpt>
      <trkpt lat="49.22219974" lon="-114.9985565">
      </trkpt>
      <trkpt lat="49.22215369" lon="-114.9984897">
      </trkpt>
      <trkpt lat="49.22210754" lon="-114.99842292">
      </trkpt>
      <trkpt lat="49.2220611" lon="-114.9983424">
      </trkpt>
      <trkpt lat="49.22201494" lon="-114.9982756">
      </trkpt>
      <trkpt lat="49.2219684" lon="-114.99818136">
      </trkpt>
      <trkpt lat="49.22193973" lon="-114.99808636">
      </trkpt>
      <trkpt lat="49.22191985" lon="-114.99797732">
      </trkpt>
      <trkpt lat="49.22188201" lon="-114.9978689">
      </trkpt>
      <trkpt lat="49.22186232" lon="-114.99777359">
      </trkpt>
      <trkpt lat="49.22184294" lon="-114.99769201">
      </trkpt>
      <trkpt lat="49.22183276" lon="-114.99762369">
      </trkpt>
      <trkpt lat="49.22182237" lon="-114.99754164">
      </trkpt>
      <trkpt lat="49.22180269" lon="-114.99744633">
      </trkpt>
      <trkpt lat="49.22176533" lon="-114.99736552">
      </trkpt>
      <trkpt lat="49.22170951" lon="-114.99725785">
      </trkpt>
      <trkpt lat="49.22166355" lon="-114.99720478">
      </trkpt>
      <trkpt lat="49.2216184" lon="-114.99719289">
      </trkpt>
      <trkpt lat="49.22156467" lon="-114.99720874">
      </trkpt>
      <trkpt lat="49.22150244" lon="-114.99725251">
      </trkpt>
      <trkpt lat="49.22143101" lon="-114.99728285">
      </trkpt>
      <trkpt lat="49.22136858" lon="-114.99731275">
      </trkpt>
      <trkpt lat="49.22130616" lon="-114.99734278">
      </trkpt>
      <trkpt lat="49.22123474" lon="-114.99737313">
      </trkpt>
      <trkpt lat="49.22116322" lon="-114.99740348">
      </trkpt>
      <trkpt lat="49.22110957" lon="-114.99741949">
      </trkpt>
      <trkpt lat="49.22103806" lon="-114.99744983">
      </trkpt>
      <trkpt lat="49.22098442" lon="-114.99746569">
      </trkpt>
      <trkpt lat="49.22092169" lon="-114.99748202">
      </trkpt>
      <trkpt lat="49.22085906" lon="-114.99749818">
      </trkpt>
      <trkpt lat="49.22080533" lon="-114.99751419">
      </trkpt>
      <trkpt lat="49.22075158" lon="-114.99753005">
      </trkpt>
      <trkpt lat="49.22069795" lon="-114.99754591">
      </trkpt>
      <trkpt lat="49.220644" lon="-114.99754805">
      </trkpt>
      <trkpt lat="49.22058107" lon="-114.99755065">
      </trkpt>
      <trkpt lat="49.22053612" lon="-114.99755246">
      </trkpt>
      <trkpt lat="49.22049088" lon="-114.99754057">
      </trkpt>
      <trkpt lat="49.22042704" lon="-114.99748827">
      </trkpt>
      <trkpt lat="49.2203809" lon="-114.99742148">
      </trkpt>
      <trkpt lat="49.22034374" lon="-114.99735422">
      </trkpt>
      <trkpt lat="49.22031487" lon="-114.99724549">
      </trkpt>
      <trkpt lat="49.22028619" lon="-114.99715049">
      </trkpt>
      <trkpt lat="49.22025783" lon="-114.99706937">
      </trkpt>
      <trkpt lat="49.22023815" lon="-114.9969739">
      </trkpt>
      <trkpt lat="49.22020059" lon="-114.99687936">
      </trkpt>
      <trkpt lat="49.22016293" lon="-114.99678481">
      </trkpt>
      <trkpt lat="49.22012488" lon="-114.99666265">
      </trkpt>
      <trkpt lat="49.22009571" lon="-114.99654021">
      </trkpt>
      <trkpt lat="49.22006684" lon="-114.99643147">
      </trkpt>
      <trkpt lat="49.22003797" lon="-114.9963229">
      </trkpt>
      <trkpt lat="49.22000912" lon="-114.99621418">
      </trkpt>
      <trkpt lat="49.21998923" lon="-114.99610513">
      </trkpt>
      <trkpt lat="49.21996934" lon="-114.99599596">
      </trkpt>
      <trkpt lat="49.21995816" lon="-114.99587288">
      </trkpt>
      <trkpt lat="49.21996555" lon="-114.99577635">
      </trkpt>
      <trkpt lat="49.21999104" lon="-114.99569293">
      </trkpt>
      <trkpt lat="49.22004307" lon="-114.99558101">
      </trkpt>
      <trkpt lat="49.22009581" lon="-114.99551026">
      </trkpt>
      <trkpt lat="49.22014885" lon="-114.99545306">
      </trkpt>
      <trkpt lat="49.22020129" lon="-114.99536858">
      </trkpt>
      <trkpt lat="49.22023565" lon="-114.99527114">
      </trkpt>
      <trkpt lat="49.22025194" lon="-114.9951743">
      </trkpt>
      <trkpt lat="49.22024125" lon="-114.99507853">
      </trkpt>
      <trkpt lat="49.22022187" lon="-114.99499695">
      </trkpt>
      <trkpt lat="49.22020249" lon="-114.99491537">
      </trkpt>
      <trkpt lat="49.22017382" lon="-114.99482036">
      </trkpt>
      <trkpt lat="49.22013597" lon="-114.99471209">
      </trkpt>
      <trkpt lat="49.2201071" lon="-114.99460336">
      </trkpt>
      <trkpt lat="49.22006923" lon="-114.99449494">
      </trkpt>
      <trkpt lat="49.22004057" lon="-114.99440009">
      </trkpt>
      <trkpt lat="49.22001151" lon="-114.99427763">
      </trkpt>
      <trkpt lat="49.21998264" lon="-114.9941689">
      </trkpt>
      <trkpt lat="49.21995367" lon="-114.99406017">
      </trkpt>
      <trkpt lat="49.21995207" lon="-114.9939641">
      </trkpt>
      <trkpt lat="49.21997734" lon="-114.99386696">
      </trkpt>
      <trkpt lat="49.22000242" lon="-114.9937561">
      </trkpt>
      <trkpt lat="49.22003697" lon="-114.99367223">
      </trkpt>
      <trkpt lat="49.22008072" lon="-114.99360177">
      </trkpt>
      <trkpt lat="49.22012417" lon="-114.99351759">
      </trkpt>
      <trkpt lat="49.22016772" lon="-114.99343358">
      </trkpt>
      <trkpt lat="49.22018381" lon="-114.993323">
      </trkpt>
      <trkpt lat="49.22018161" lon="-114.99319949">
      </trkpt>
      <trkpt lat="49.22017951" lon="-114.99307596">
      </trkpt>
      <trkpt lat="49.22015914" lon="-114.99293949">
      </trkpt>
      <trkpt lat="49.22015794" lon="-114.99287086">
      </trkpt>
      <trkpt lat="49.22014775" lon="-114.99280254">
      </trkpt>
      <trkpt lat="49.22012737" lon="-114.99266606">
      </trkpt>
      <trkpt lat="49.22011598" lon="-114.99252912">
      </trkpt>
      <trkpt lat="49.22009592" lon="-114.99240636">
      </trkpt>
      <trkpt lat="49.22008472" lon="-114.9922833">
      </trkpt>
      <trkpt lat="49.22007413" lon="-114.99218754">
      </trkpt>
      <trkpt lat="49.22006365" lon="-114.99210549">
      </trkpt>
      <trkpt lat="49.22005326" lon="-114.9920236">
      </trkpt>
      <trkpt lat="49.22004217" lon="-114.99190038">
      </trkpt>
      <trkpt lat="49.22003198" lon="-114.99183221">
      </trkpt>
      <trkpt lat="49.22002149" lon="-114.99175017">
      </trkpt>
      <trkpt lat="49.22002029" lon="-114.99168155">
      </trkpt>
      <trkpt lat="49.22001011" lon="-114.99161323">
      </trkpt>
      <trkpt lat="49.21999991" lon="-114.99154507">
      </trkpt>
      <trkpt lat="49.21998972" lon="-114.99147675">
      </trkpt>
      <trkpt lat="49.21998833" lon="-114.99139441">
      </trkpt>
      <trkpt lat="49.21997814" lon="-114.99132624">
      </trkpt>
      <trkpt lat="49.21997694" lon="-114.99125761">
      </trkpt>
      <trkpt lat="49.21996675" lon="-114.99118929">
      </trkpt>
      <trkpt lat="49.21996536" lon="-114.99110695">
      </trkpt>
      <trkpt lat="49.21996416" lon="-114.99103833">
      </trkpt>
      <trkpt lat="49.21995397" lon="-114.99097001">
      </trkpt>
      <trkpt lat="49.21995277" lon="-114.99090153">
      </trkpt>
      <trkpt lat="49.21995137" lon="-114.99081919">
      </trkpt>
      <trkpt lat="49.21994898" lon="-114.99068194">
      </trkpt>
      <trkpt lat="49.21995676" lon="-114.99061287">
      </trkpt>
      <trkpt lat="49.21996455" lon="-114.99054393">
      </trkpt>
      <trkpt lat="49.21997214" lon="-114.99046114">
      </trkpt>
      <trkpt lat="49.21999692" lon="-114.99033654">
      </trkpt>
      <trkpt lat="49.2200127" lon="-114.99021242">
      </trkpt>
      <trkpt lat="49.22003807" lon="-114.99011512">
      </trkpt>
      <trkpt lat="49.22007233" lon="-114.99001768">
      </trkpt>
      <trkpt lat="49.22012458" lon="-114.98991946">
      </trkpt>
      <trkpt lat="49.22018582" lon="-114.9898208">
      </trkpt>
      <trkpt lat="49.22025614" lon="-114.98972184">
      </trkpt>
      <trkpt lat="49.22032685" lon="-114.98965032">
      </trkpt>
      <trkpt lat="49.22038809" lon="-114.98955165">
      </trkpt>
      <trkpt lat="49.22043084" lon="-114.9894263">
      </trkpt>
      <trkpt lat="49.22044742" lon="-114.98934318">
      </trkpt>
      <trkpt lat="49.22045521" lon="-114.98927426">
      </trkpt>
      <trkpt lat="49.22045381" lon="-114.98919192">
      </trkpt>
      <trkpt lat="49.22044332" lon="-114.98910987">
      </trkpt>
      <trkpt lat="49.22043314" lon="-114.98904171">
      </trkpt>
      <trkpt lat="49.22043173" lon="-114.98895935">
      </trkpt>
      <trkpt lat="49.22043034" lon="-114.98887701">
      </trkpt>
      <trkpt lat="49.22042914" lon="-114.98880839">
      </trkpt>
      <trkpt lat="49.22042794" lon="-114.98873977">
      </trkpt>
      <trkpt lat="49.22043574" lon="-114.98867068">
      </trkpt>
      <trkpt lat="49.22044323" lon="-114.98858803">
      </trkpt>
      <trkpt lat="49.22045102" lon="-114.9885191">
      </trkpt>
      <trkpt lat="49.2204678" lon="-114.98844972">
      </trkpt>
      <trkpt lat="49.22048467" lon="-114.98838033">
      </trkpt>
      <trkpt lat="49.22050945" lon="-114.98825574">
      </trkpt>
      <trkpt lat="49.22052523" lon="-114.98813146">
      </trkpt>
      <trkpt lat="49.22052383" lon="-114.98804911">
      </trkpt>
      <trkpt lat="49.22053162" lon="-114.98798019">
      </trkpt>
      <trkpt lat="49.22053942" lon="-114.9879111">
      </trkpt>
      <trkpt lat="49.22055499" lon="-114.98777324">
      </trkpt>
      <trkpt lat="49.22057987" lon="-114.9876485">
      </trkpt>
      <trkpt lat="49.22059565" lon="-114.98752438">
      </trkpt>
      <trkpt lat="49.22061194" lon="-114.98742754">
      </trkpt>
      <trkpt lat="49.22061174" lon="-114.98741382">
      </trkpt>
      <trkpt lat="49.22061103" lon="-114.98737265">
      </trkpt>
      <trkpt lat="49.22038879" lon="-114.98701077">
      </trkpt>
      <trkpt lat="49.22031567" lon="-114.98694519">
      </trkpt>
      <trkpt lat="49.22024284" lon="-114.9868932">
      </trkpt>
      <trkpt lat="49.22016992" lon="-114.98684119">
      </trkpt>
      <trkpt lat="49.22009701" lon="-114.9867892">
      </trkpt>
      <trkpt lat="49.22002438" lon="-114.98675092">
      </trkpt>
      <trkpt lat="49.21997855" lon="-114.98669785">
      </trkpt>
      <trkpt lat="49.21990562" lon="-114.98664585">
      </trkpt>
      <trkpt lat="49.21984129" lon="-114.98656609">
      </trkpt>
      <trkpt lat="49.21977716" lon="-114.98650006">
      </trkpt>
      <trkpt lat="49.21969525" lon="-114.98644852">
      </trkpt>
      <trkpt lat="49.21962213" lon="-114.98638279">
      </trkpt>
      <trkpt lat="49.219558" lon="-114.98631676">
      </trkpt>
      <trkpt lat="49.21950316" lon="-114.986264">
      </trkpt>
      <trkpt lat="49.21943954" lon="-114.98622543">
      </trkpt>
      <trkpt lat="49.2193756" lon="-114.98617312">
      </trkpt>
      <trkpt lat="49.21930248" lon="-114.98610739">
      </trkpt>
      <trkpt lat="49.21923835" lon="-114.98604136">
      </trkpt>
      <trkpt lat="49.21916523" lon="-114.98597563">
      </trkpt>
      <trkpt lat="49.2191009" lon="-114.98589588">
      </trkpt>
      <trkpt lat="49.21904596" lon="-114.98584312">
      </trkpt>
      <trkpt lat="49.21898214" lon="-114.98579081">
      </trkpt>
      <trkpt lat="49.21892699" lon="-114.98572431">
      </trkpt>
      <trkpt lat="49.21887165" lon="-114.98564426">
      </trkpt>
      <trkpt lat="49.21881571" lon="-114.9855366">
      </trkpt>
      <trkpt lat="49.21877785" lon="-114.98542833">
      </trkpt>
      <trkpt lat="49.21874898" lon="-114.9853196">
      </trkpt>
      <trkpt lat="49.21871112" lon="-114.98521133">
      </trkpt>
      <trkpt lat="49.21869144" lon="-114.98511587">
      </trkpt>
      <trkpt lat="49.21866258" lon="-114.98500729">
      </trkpt>
      <trkpt lat="49.21865189" lon="-114.98491151">
      </trkpt>
      <trkpt lat="49.21861453" lon="-114.9848307">
      </trkpt>
      <trkpt lat="49.21857737" lon="-114.98476345">
      </trkpt>
      <trkpt lat="49.21851273" lon="-114.98466997">
      </trkpt>
      <trkpt lat="49.2184579" lon="-114.98461735">
      </trkpt>
      <trkpt lat="49.21839496" lon="-114.98461979">
      </trkpt>
      <trkpt lat="49.21834101" lon="-114.98462208">
      </trkpt>
      <trkpt lat="49.21826879" lon="-114.98461126">
      </trkpt>
      <trkpt lat="49.21818768" lon="-114.98460073">
      </trkpt>
      <trkpt lat="49.21810657" lon="-114.98459036">
      </trkpt>
      <trkpt lat="49.21802535" lon="-114.98458">
      </trkpt>
      <trkpt lat="49.21797121" lon="-114.98456841">
      </trkpt>
      <trkpt lat="49.2178903" lon="-114.98457176">
      </trkpt>
      <trkpt lat="49.21784515" lon="-114.98455987">
      </trkpt>
      <trkpt lat="49.21779121" lon="-114.984562">
      </trkpt>
      <trkpt lat="49.21774596" lon="-114.98455011">
      </trkpt>
      <trkpt lat="49.21769181" lon="-114.98453852">
      </trkpt>
      <trkpt lat="49.21764686" lon="-114.98454034">
      </trkpt>
      <trkpt lat="49.21760191" lon="-114.98454217">
      </trkpt>
      <trkpt lat="49.21752049" lon="-114.98451809">
      </trkpt>
      <trkpt lat="49.21746666" lon="-114.98452021">
      </trkpt>
      <trkpt lat="49.2174124" lon="-114.98450878">
      </trkpt>
      <trkpt lat="49.21736696" lon="-114.98448316">
      </trkpt>
      <trkpt lat="49.21731281" lon="-114.98447158">
      </trkpt>
      <trkpt lat="49.21726765" lon="-114.98445967">
      </trkpt>
      <trkpt lat="49.21721341" lon="-114.98444824">
      </trkpt>
      <trkpt lat="49.21712311" lon="-114.98442444">
      </trkpt>
      <trkpt lat="49.21705968" lon="-114.98439943">
      </trkpt>
      <trkpt lat="49.21700503" lon="-114.98436056">
      </trkpt>
      <trkpt lat="49.21693242" lon="-114.98432228">
      </trkpt>
      <trkpt lat="49.21688695" lon="-114.98429667">
      </trkpt>
      <trkpt lat="49.21681504" lon="-114.98429956">
      </trkpt>
      <trkpt lat="49.21676088" lon="-114.98428813">
      </trkpt>
      <trkpt lat="49.21671563" lon="-114.98427622">
      </trkpt>
      <trkpt lat="49.21666169" lon="-114.98427835">
      </trkpt>
      <trkpt lat="49.21661654" lon="-114.98426647">
      </trkpt>
      <trkpt lat="49.2165626" lon="-114.9842686">
      </trkpt>
      <trkpt lat="49.21651765" lon="-114.98427043">
      </trkpt>
      <trkpt lat="49.21646369" lon="-114.98427272">
      </trkpt>
      <trkpt lat="49.21640975" lon="-114.98427486">
      </trkpt>
      <trkpt lat="49.2163556" lon="-114.98426341">
      </trkpt>
      <trkpt lat="49.21630166" lon="-114.98426555">
      </trkpt>
      <trkpt lat="49.21620226" lon="-114.98424207">
      </trkpt>
      <trkpt lat="49.2161573" lon="-114.9842439">
      </trkpt>
      <trkpt lat="49.21611216" lon="-114.984232">
      </trkpt>
      <trkpt lat="49.21605821" lon="-114.98423429">
      </trkpt>
      <trkpt lat="49.21601326" lon="-114.98423612">
      </trkpt>
      <trkpt lat="49.21595931" lon="-114.98423826">
      </trkpt>
      <trkpt lat="49.21591436" lon="-114.98424009">
      </trkpt>
      <trkpt lat="49.21586042" lon="-114.98424222">
      </trkpt>
      <trkpt lat="49.21578829" lon="-114.98423154">
      </trkpt>
      <trkpt lat="49.21571617" lon="-114.98422072">
      </trkpt>
      <trkpt lat="49.21562595" lon="-114.98421065">
      </trkpt>
      <trkpt lat="49.2155718" lon="-114.98419907">
      </trkpt>
      <trkpt lat="49.21549968" lon="-114.98418824">
      </trkpt>
      <trkpt lat="49.21540947" lon="-114.98417817">
      </trkpt>
      <trkpt lat="49.21533734" lon="-114.98416749">
      </trkpt>
      <trkpt lat="49.21526522" lon="-114.98415667">
      </trkpt>
      <trkpt lat="49.21519308" lon="-114.98414584">
      </trkpt>
      <trkpt lat="49.21511187" lon="-114.98413548">
      </trkpt>
      <trkpt lat="49.21503954" lon="-114.98411092">
      </trkpt>
      <trkpt lat="49.21497632" lon="-114.98409978">
      </trkpt>
      <trkpt lat="49.21491337" lon="-114.98410222">
      </trkpt>
      <trkpt lat="49.21483225" lon="-114.98409185">
      </trkpt>
      <trkpt lat="49.21475113" lon="-114.98408149">
      </trkpt>
      <trkpt lat="49.21470587" lon="-114.98406959">
      </trkpt>
      <trkpt lat="49.21466102" lon="-114.98407143">
      </trkpt>
      <trkpt lat="49.21461576" lon="-114.98405954">
      </trkpt>
      <trkpt lat="49.21457061" lon="-114.98404763">
      </trkpt>
      <trkpt lat="49.21451666" lon="-114.98404977">
      </trkpt>
      <trkpt lat="49.21447171" lon="-114.9840516">
      </trkpt>
      <trkpt lat="49.21441777" lon="-114.98405374">
      </trkpt>
      <trkpt lat="49.21437281" lon="-114.98405556">
      </trkpt>
      <trkpt lat="49.21427371" lon="-114.98404596">
      </trkpt>
      <trkpt lat="49.21422875" lon="-114.98404778">
      </trkpt>
      <trkpt lat="49.21418379" lon="-114.98404962">
      </trkpt>
      <trkpt lat="49.21412985" lon="-114.98405175">
      </trkpt>
      <trkpt lat="49.2140849" lon="-114.98405358">
      </trkpt>
      <trkpt lat="49.21403095" lon="-114.98405587">
      </trkpt>
      <trkpt lat="49.21398599" lon="-114.98405769">
      </trkpt>
      <trkpt lat="49.21393184" lon="-114.98404611">
      </trkpt>
      <trkpt lat="49.21384172" lon="-114.98403604">
      </trkpt>
      <trkpt lat="49.21379658" lon="-114.98402415">
      </trkpt>
      <trkpt lat="49.21374232" lon="-114.98401257">
      </trkpt>
      <trkpt lat="49.21368818" lon="-114.98400112">
      </trkpt>
      <trkpt lat="49.21364323" lon="-114.98400295">
      </trkpt>
      <trkpt lat="49.21355281" lon="-114.98397916">
      </trkpt>
      <trkpt lat="49.21347169" lon="-114.98396864">
      </trkpt>
      <trkpt lat="49.21339058" lon="-114.98395827">
      </trkpt>
      <trkpt lat="49.21330915" lon="-114.98393418">
      </trkpt>
      <trkpt lat="49.21321853" lon="-114.98389667">
      </trkpt>
      <trkpt lat="49.2131459" lon="-114.98385838">
      </trkpt>
      <trkpt lat="49.21306429" lon="-114.98382041">
      </trkpt>
      <trkpt lat="49.21298316" lon="-114.98381004">
      </trkpt>
      <trkpt lat="49.21293791" lon="-114.98379815">
      </trkpt>
      <trkpt lat="49.21289305" lon="-114.98379998">
      </trkpt>
      <trkpt lat="49.21283881" lon="-114.98378854">
      </trkpt>
      <trkpt lat="49.21275768" lon="-114.98377802">
      </trkpt>
      <trkpt lat="49.21266756" lon="-114.98376796">
      </trkpt>
      <trkpt lat="49.21258616" lon="-114.98374386">
      </trkpt>
      <trkpt lat="49.21249553" lon="-114.98370635">
      </trkpt>
      <trkpt lat="49.21240541" lon="-114.98369629">
      </trkpt>
      <trkpt lat="49.21236025" lon="-114.98368439">
      </trkpt>
      <trkpt lat="49.21230601" lon="-114.9836728">
      </trkpt>
      <trkpt lat="49.21226085" lon="-114.9836609">
      </trkpt>
      <trkpt lat="49.2122064" lon="-114.98363575">
      </trkpt>
      <trkpt lat="49.21216124" lon="-114.98362385">
      </trkpt>
      <trkpt lat="49.21207982" lon="-114.9835996">
      </trkpt>
      <trkpt lat="49.2119982" lon="-114.98356179">
      </trkpt>
      <trkpt lat="49.21193436" lon="-114.98350948">
      </trkpt>
      <trkpt lat="49.21187092" lon="-114.98348462">
      </trkpt>
      <trkpt lat="49.21174344" lon="-114.98339358">
      </trkpt>
      <trkpt lat="49.21166132" lon="-114.98332832">
      </trkpt>
      <trkpt lat="49.21158818" lon="-114.9832626">
      </trkpt>
      <trkpt lat="49.21150606" lon="-114.98319733">
      </trkpt>
      <trkpt lat="49.21142424" lon="-114.98314578">
      </trkpt>
      <trkpt lat="49.21136059" lon="-114.98310705">
      </trkpt>
      <trkpt lat="49.21129715" lon="-114.98308218">
      </trkpt>
      <trkpt lat="49.21123352" lon="-114.98304361">
      </trkpt>
      <trkpt lat="49.21116957" lon="-114.9829913">
      </trkpt>
      <trkpt lat="49.21110593" lon="-114.98295272">
      </trkpt>
      <trkpt lat="49.21105108" lon="-114.98289995">
      </trkpt>
      <trkpt lat="49.21097795" lon="-114.98283438">
      </trkpt>
      <trkpt lat="49.21089632" lon="-114.98279641">
      </trkpt>
      <trkpt lat="49.2108147" lon="-114.98275859">
      </trkpt>
      <trkpt lat="49.21074227" lon="-114.98273404">
      </trkpt>
      <trkpt lat="49.21066094" lon="-114.98270995">
      </trkpt>
      <trkpt lat="49.21057054" lon="-114.98268616">
      </trkpt>
      <trkpt lat="49.2104889" lon="-114.98264834">
      </trkpt>
      <trkpt lat="49.21044375" lon="-114.98263645">
      </trkpt>
      <trkpt lat="49.21039859" lon="-114.98262455">
      </trkpt>
      <trkpt lat="49.21030796" lon="-114.98258703">
      </trkpt>
      <trkpt lat="49.21023533" lon="-114.98254876">
      </trkpt>
      <trkpt lat="49.21018108" lon="-114.98253717">
      </trkpt>
      <trkpt lat="49.21013593" lon="-114.98252527">
      </trkpt>
      <trkpt lat="49.21008177" lon="-114.98251383">
      </trkpt>
      <trkpt lat="49.21003662" lon="-114.98250194">
      </trkpt>
      <trkpt lat="49.20999166" lon="-114.98250377">
      </trkpt>
      <trkpt lat="49.20993739" lon="-114.98249219">
      </trkpt>
      <trkpt lat="49.20985627" lon="-114.98248181">
      </trkpt>
      <trkpt lat="49.20976615" lon="-114.98247174">
      </trkpt>
      <trkpt lat="49.20968472" lon="-114.9824475">
      </trkpt>
      <trkpt lat="49.20963956" lon="-114.98243576">
      </trkpt>
      <trkpt lat="49.20959441" lon="-114.98242386">
      </trkpt>
      <trkpt lat="49.20954015" lon="-114.98241228">
      </trkpt>
      <trkpt lat="49.20949499" lon="-114.98240038">
      </trkpt>
      <trkpt lat="49.20940468" lon="-114.9823766">
      </trkpt>
      <trkpt lat="49.20935941" lon="-114.9823647">
      </trkpt>
      <trkpt lat="49.20930526" lon="-114.9823531">
      </trkpt>
      <trkpt lat="49.2092601" lon="-114.98234121">
      </trkpt>
      <trkpt lat="49.20921466" lon="-114.98231575">
      </trkpt>
      <trkpt lat="49.20916949" lon="-114.98230385">
      </trkpt>
      <trkpt lat="49.20911503" lon="-114.98227854">
      </trkpt>
      <trkpt lat="49.20906987" lon="-114.98226664">
      </trkpt>
      <trkpt lat="49.20897946" lon="-114.98224285">
      </trkpt>
      <trkpt lat="49.20888933" lon="-114.98223278">
      </trkpt>
      <trkpt lat="49.2088082" lon="-114.98222242">
      </trkpt>
      <trkpt lat="49.20876304" lon="-114.98221052">
      </trkpt>
      <trkpt lat="49.20870908" lon="-114.98221266">
      </trkpt>
      <trkpt lat="49.20866393" lon="-114.98220076">
      </trkpt>
      <trkpt lat="49.20859169" lon="-114.98218994">
      </trkpt>
      <trkpt lat="49.20851056" lon="-114.98217956">
      </trkpt>
      <trkpt lat="49.20843843" lon="-114.98216874">
      </trkpt>
      <trkpt lat="49.2083483" lon="-114.98215868">
      </trkpt>
      <trkpt lat="49.20826717" lon="-114.9821483">
      </trkpt>
      <trkpt lat="49.20819473" lon="-114.98212375">
      </trkpt>
      <trkpt lat="49.20811361" lon="-114.98211338">
      </trkpt>
      <trkpt lat="49.20803217" lon="-114.98208913">
      </trkpt>
      <trkpt lat="49.20796035" lon="-114.98209218">
      </trkpt>
      <trkpt lat="49.2078794" lon="-114.98209539">
      </trkpt>
      <trkpt lat="49.20780766" lon="-114.98211201">
      </trkpt>
      <trkpt lat="49.20773603" lon="-114.98212878">
      </trkpt>
      <trkpt lat="49.20766439" lon="-114.9821454">
      </trkpt>
      <trkpt lat="49.20761044" lon="-114.98214754">
      </trkpt>
      <trkpt lat="49.2075385" lon="-114.98215044">
      </trkpt>
      <trkpt lat="49.20747555" lon="-114.98215303">
      </trkpt>
      <trkpt lat="49.20742141" lon="-114.9821416">
      </trkpt>
      <trkpt lat="49.20736694" lon="-114.98211629">
      </trkpt>
      <trkpt lat="49.20731229" lon="-114.98207739">
      </trkpt>
      <trkpt lat="49.20724845" lon="-114.98202494">
      </trkpt>
      <trkpt lat="49.20718479" lon="-114.98198635">
      </trkpt>
      <trkpt lat="49.20712115" lon="-114.98194777">
      </trkpt>
      <trkpt lat="49.2070575" lon="-114.98190919">
      </trkpt>
      <trkpt lat="49.20697587" lon="-114.98187138">
      </trkpt>
      <trkpt lat="49.20689444" lon="-114.98184712">
      </trkpt>
      <trkpt lat="49.20683079" lon="-114.98180855">
      </trkpt>
      <trkpt lat="49.20676715" lon="-114.98176997">
      </trkpt>
      <trkpt lat="49.2067038" lon="-114.9817451">
      </trkpt>
      <trkpt lat="49.20662217" lon="-114.98170728">
      </trkpt>
      <trkpt lat="49.20654053" lon="-114.98166932">
      </trkpt>
      <trkpt lat="49.20646809" lon="-114.98164491">
      </trkpt>
      <trkpt lat="49.20639595" lon="-114.9816341">
      </trkpt>
      <trkpt lat="49.20632362" lon="-114.98160955">
      </trkpt>
      <trkpt lat="49.20625137" lon="-114.98159871">
      </trkpt>
      <trkpt lat="49.20617873" lon="-114.98156059">
      </trkpt>
      <trkpt lat="49.20611539" lon="-114.98153574">
      </trkpt>
      <trkpt lat="49.20606073" lon="-114.98149669">
      </trkpt>
      <trkpt lat="49.20600628" lon="-114.98147153">
      </trkpt>
      <trkpt lat="49.20594264" lon="-114.9814328">
      </trkpt>
      <trkpt lat="49.20587928" lon="-114.98140793">
      </trkpt>
      <trkpt lat="49.20581563" lon="-114.98136936">
      </trkpt>
      <trkpt lat="49.20574319" lon="-114.98134481">
      </trkpt>
      <trkpt lat="49.20567075" lon="-114.98132041">
      </trkpt>
      <trkpt lat="49.20559811" lon="-114.98128213">
      </trkpt>
      <trkpt lat="49.20552548" lon="-114.98124386">
      </trkpt>
      <trkpt lat="49.20546212" lon="-114.981219">
      </trkpt>
      <trkpt lat="49.20540748" lon="-114.98118011">
      </trkpt>
      <trkpt lat="49.20535251" lon="-114.98112735">
      </trkpt>
      <trkpt lat="49.20531514" lon="-114.98104653">
      </trkpt>
      <trkpt lat="49.20527726" lon="-114.98093825">
      </trkpt>
      <trkpt lat="49.2052316" lon="-114.98089891">
      </trkpt>
      <trkpt lat="49.20523021" lon="-114.98081657">
      </trkpt>
      <trkpt lat="49.20523801" lon="-114.98074764">
      </trkpt>
      <trkpt lat="49.20525448" lon="-114.98066453">
      </trkpt>
      <trkpt lat="49.20527977" lon="-114.98056738">
      </trkpt>
      <trkpt lat="49.20529606" lon="-114.9804707">
      </trkpt>
      <trkpt lat="49.20531264" lon="-114.98038759">
      </trkpt>
      <trkpt lat="49.20534691" lon="-114.98029014">
      </trkpt>
      <trkpt lat="49.20537239" lon="-114.98020673">
      </trkpt>
      <trkpt lat="49.20538" lon="-114.98012393">
      </trkpt>
      <trkpt lat="49.20539647" lon="-114.98004097">
      </trkpt>
      <trkpt lat="49.20541307" lon="-114.97995786">
      </trkpt>
      <trkpt lat="49.20543834" lon="-114.97986072">
      </trkpt>
      <trkpt lat="49.20546392" lon="-114.97977731">
      </trkpt>
      <trkpt lat="49.2054894" lon="-114.9796939">
      </trkpt>
      <trkpt lat="49.20549719" lon="-114.97962497">
      </trkpt>
      <trkpt lat="49.20550448" lon="-114.97952858">
      </trkpt>
      <trkpt lat="49.2055028" lon="-114.97943251">
      </trkpt>
      <trkpt lat="49.20550109" lon="-114.97933645">
      </trkpt>
      <trkpt lat="49.20549899" lon="-114.97921293">
      </trkpt>
      <trkpt lat="49.2054883" lon="-114.9791173">
      </trkpt>
      <trkpt lat="49.20546911" lon="-114.97904945">
      </trkpt>
      <trkpt lat="49.20542255" lon="-114.9789552">
      </trkpt>
      <trkpt lat="49.20537659" lon="-114.97890213">
      </trkpt>
      <trkpt lat="49.20532264" lon="-114.97890443">
      </trkpt>
      <trkpt lat="49.20525149" lon="-114.9789485">
      </trkpt>
      <trkpt lat="49.20519804" lon="-114.97897808">
      </trkpt>
      <trkpt lat="49.20513508" lon="-114.97898067">
      </trkpt>
      <trkpt lat="49.20507214" lon="-114.97898327">
      </trkpt>
      <trkpt lat="49.20501799" lon="-114.97897168">
      </trkpt>
      <trkpt lat="49.20496352" lon="-114.97894651">
      </trkpt>
      <trkpt lat="49.20490936" lon="-114.97893492">
      </trkpt>
      <trkpt lat="49.20484591" lon="-114.97891007">
      </trkpt>
      <trkpt lat="49.20478277" lon="-114.97889894">
      </trkpt>
      <trkpt lat="49.20471961" lon="-114.97888781">
      </trkpt>
      <trkpt lat="49.20464727" lon="-114.97886325">
      </trkpt>
      <trkpt lat="49.20457503" lon="-114.97885242">
      </trkpt>
      <trkpt lat="49.20451188" lon="-114.97884129">
      </trkpt>
      <trkpt lat="49.20444873" lon="-114.97883016">
      </trkpt>
      <trkpt lat="49.20438558" lon="-114.97881903">
      </trkpt>
      <trkpt lat="49.20433143" lon="-114.97880744">
      </trkpt>
      <trkpt lat="49.20426817" lon="-114.9787963">
      </trkpt>
      <trkpt lat="49.2042228" lon="-114.97877068">
      </trkpt>
      <trkpt lat="49.20416785" lon="-114.97871807">
      </trkpt>
      <trkpt lat="49.20411299" lon="-114.97866531">
      </trkpt>
      <trkpt lat="49.20407562" lon="-114.97858449">
      </trkpt>
      <trkpt lat="49.20406513" lon="-114.9785026">
      </trkpt>
      <trkpt lat="49.20406374" lon="-114.97842026">
      </trkpt>
      <trkpt lat="49.20405354" lon="-114.97835209">
      </trkpt>
      <trkpt lat="49.20405204" lon="-114.97826974">
      </trkpt>
      <trkpt lat="49.20406812" lon="-114.97815919">
      </trkpt>
      <trkpt lat="49.20407592" lon="-114.97809026">
      </trkpt>
      <trkpt lat="49.20409201" lon="-114.97797985">
      </trkpt>
      <trkpt lat="49.2040993" lon="-114.97788332">
      </trkpt>
      <trkpt lat="49.20410641" lon="-114.97777321">
      </trkpt>
      <trkpt lat="49.2041137" lon="-114.97767684">
      </trkpt>
      <trkpt lat="49.20417984" lon="-114.9773447">
      </trkpt>
      <trkpt lat="49.20417834" lon="-114.97726235">
      </trkpt>
      <trkpt lat="49.20416795" lon="-114.97718031">
      </trkpt>
      <trkpt lat="49.20412159" lon="-114.97709995">
      </trkpt>
      <trkpt lat="49.20406713" lon="-114.97707463">
      </trkpt>
      <trkpt lat="49.20401247" lon="-114.97703574">
      </trkpt>
      <trkpt lat="49.2039666" lon="-114.97698268">
      </trkpt>
      <trkpt lat="49.20392044" lon="-114.97691588">
      </trkpt>
      <trkpt lat="49.20390176" lon="-114.97687547">
      </trkpt>
      <trkpt lat="49.20387409" lon="-114.97683537">
      </trkpt>
      <trkpt lat="49.20381013" lon="-114.97678307">
      </trkpt>
      <trkpt lat="49.20374697" lon="-114.97677193">
      </trkpt>
      <trkpt lat="49.20368383" lon="-114.97676079">
      </trkpt>
      <trkpt lat="49.20361168" lon="-114.97674997">
      </trkpt>
      <trkpt lat="49.20354843" lon="-114.97673884">
      </trkpt>
      <trkpt lat="49.20349458" lon="-114.97674113">
      </trkpt>
      <trkpt lat="49.20343142" lon="-114.97672984">
      </trkpt>
      <trkpt lat="49.20336797" lon="-114.97670499">
      </trkpt>
      <trkpt lat="49.2033228" lon="-114.97669309">
      </trkpt>
      <trkpt lat="49.20325936" lon="-114.97666824">
      </trkpt>
      <trkpt lat="49.20320499" lon="-114.97664307">
      </trkpt>
      <trkpt lat="49.20315953" lon="-114.97661745">
      </trkpt>
      <trkpt lat="49.20310457" lon="-114.97656484">
      </trkpt>
      <trkpt lat="49.20304071" lon="-114.97651238">
      </trkpt>
      <trkpt lat="49.20298626" lon="-114.97648723">
      </trkpt>
      <trkpt lat="49.2029494" lon="-114.97643385">
      </trkpt>
      <trkpt lat="49.2026771" lon="-114.97629386">
      </trkpt>
      <trkpt lat="49.2026478" lon="-114.97628681">
      </trkpt>
      <trkpt lat="49.20262793" lon="-114.97628272">
      </trkpt>
      <trkpt lat="49.20257528" lon="-114.97623224">
      </trkpt>
      <trkpt lat="49.20251291" lon="-114.97619442">
      </trkpt>
      <trkpt lat="49.20245685" lon="-114.97615447">
      </trkpt>
      <trkpt lat="49.20241259" lon="-114.97611635">
      </trkpt>
      <trkpt lat="49.20235993" lon="-114.97609195">
      </trkpt>
      <trkpt lat="49.20231496" lon="-114.97606664">
      </trkpt>
      <trkpt lat="49.20225262" lon="-114.97604224">
      </trkpt>
      <trkpt lat="49.20218925" lon="-114.97601738">
      </trkpt>
      <trkpt lat="49.20212731" lon="-114.97599298">
      </trkpt>
      <trkpt lat="49.20206566" lon="-114.97598216">
      </trkpt>
      <trkpt lat="49.20200199" lon="-114.97597088">
      </trkpt>
      <trkpt lat="49.20195602" lon="-114.97595883">
      </trkpt>
    </trkseg>
  </trk>
</gpx>