<?xml version="1.0" encoding="UTF-8"?>
<gpx xmlns="http://www.topografix.com/GPX/1/1" xmlns:xsi="http://www.w3.org/2001/XMLSchema-instance" xsi:schemaLocation="http://www.topografix.com/GPX/1/1 http://www.topografix.com/GPX/1/1/gpx.xsd" version="1.1" creator="gpx.py -- https://github.com/tkrajina/gpxpy">
  <trk>
    <name>Monument 78 / Castle Creek</name>
    <trkseg>
      <trkpt lat="49.0292445" lon="-120.7533629">
      </trkpt>
      <trkpt lat="49.0292316" lon="-120.7534434">
      </trkpt>
      <trkpt lat="49.0288096" lon="-120.753888">
      </trkpt>
      <trkpt lat="49.0283136" lon="-120.7541811">
      </trkpt>
      <trkpt lat="49.0281106" lon="-120.7543486">
      </trkpt>
      <trkpt lat="49.0277531" lon="-120.7545386">
      </trkpt>
      <trkpt lat="49.0275566" lon="-120.7547029">
      </trkpt>
      <trkpt lat="49.0273504" lon="-120.7548317">
      </trkpt>
      <trkpt lat="49.027038" lon="-120.7551957">
      </trkpt>
      <trkpt lat="49.0266643" lon="-120.7555243">
      </trkpt>
      <trkpt lat="49.0267384" lon="-120.7565905">
      </trkpt>
      <trkpt lat="49.0269381" lon="-120.7571381">
      </trkpt>
      <trkpt lat="49.0268673" lon="-120.7579498">
      </trkpt>
      <trkpt lat="49.0268995" lon="-120.7584233">
      </trkpt>
      <trkpt lat="49.0270702" lon="-120.7593284">
      </trkpt>
      <trkpt lat="49.0271636" lon="-120.760182">
      </trkpt>
      <trkpt lat="49.0272989" lon="-120.7609293">
      </trkpt>
      <trkpt lat="49.0272441" lon="-120.7616992">
      </trkpt>
      <trkpt lat="49.0273601" lon="-120.7624658">
      </trkpt>
      <trkpt lat="49.0273633" lon="-120.7631616">
      </trkpt>
      <trkpt lat="49.0272796" lon="-120.7634965">
      </trkpt>
      <trkpt lat="49.0269929" lon="-120.7638283">
      </trkpt>
      <trkpt lat="49.0269414" lon="-120.7639668">
      </trkpt>
      <trkpt lat="49.0270799" lon="-120.7647077">
      </trkpt>
      <trkpt lat="49.0270638" lon="-120.7648784">
      </trkpt>
      <trkpt lat="49.0266611" lon="-120.7656321">
      </trkpt>
      <trkpt lat="49.0264679" lon="-120.7663956">
      </trkpt>
      <trkpt lat="49.0262843" lon="-120.7676937">
      </trkpt>
      <trkpt lat="49.0261329" lon="-120.7682864">
      </trkpt>
      <trkpt lat="49.0258945" lon="-120.7687373">
      </trkpt>
      <trkpt lat="49.0256561" lon="-120.7695523">
      </trkpt>
      <trkpt lat="49.0255144" lon="-120.7703672">
      </trkpt>
      <trkpt lat="49.0253276" lon="-120.7712176">
      </trkpt>
      <trkpt lat="49.0253856" lon="-120.7714688">
      </trkpt>
      <trkpt lat="49.0251794" lon="-120.7720228">
      </trkpt>
      <trkpt lat="49.0250828" lon="-120.7725672">
      </trkpt>
      <trkpt lat="49.0246511" lon="-120.7730053">
      </trkpt>
      <trkpt lat="49.0245481" lon="-120.7731631">
      </trkpt>
      <trkpt lat="49.0245062" lon="-120.7734981">
      </trkpt>
      <trkpt lat="49.0243774" lon="-120.7738106">
      </trkpt>
      <trkpt lat="49.0238394" lon="-120.7744773">
      </trkpt>
      <trkpt lat="49.0234561" lon="-120.7746609">
      </trkpt>
      <trkpt lat="49.023192" lon="-120.7749798">
      </trkpt>
      <trkpt lat="49.0229633" lon="-120.7750668">
      </trkpt>
      <trkpt lat="49.0227314" lon="-120.7752665">
      </trkpt>
      <trkpt lat="49.0225381" lon="-120.7757304">
      </trkpt>
      <trkpt lat="49.0223191" lon="-120.7758946">
      </trkpt>
      <trkpt lat="49.0222321" lon="-120.7760879">
      </trkpt>
      <trkpt lat="49.0218745" lon="-120.776526">
      </trkpt>
      <trkpt lat="49.0213914" lon="-120.7768835">
      </trkpt>
      <trkpt lat="49.0209147" lon="-120.7769866">
      </trkpt>
      <trkpt lat="49.0200804" lon="-120.7775052">
      </trkpt>
      <trkpt lat="49.0196616" lon="-120.7776534">
      </trkpt>
      <trkpt lat="49.0191495" lon="-120.7785843">
      </trkpt>
      <trkpt lat="49.0187211" lon="-120.7791705">
      </trkpt>
      <trkpt lat="49.0184376" lon="-120.77976">
      </trkpt>
      <trkpt lat="49.0180414" lon="-120.780198">
      </trkpt>
      <trkpt lat="49.0176194" lon="-120.7804139">
      </trkpt>
      <trkpt lat="49.0174101" lon="-120.7806554">
      </trkpt>
      <trkpt lat="49.0173392" lon="-120.7810162">
      </trkpt>
      <trkpt lat="49.0170982" lon="-120.7814668">
      </trkpt>
      <trkpt lat="49.0170104" lon="-120.7817556">
      </trkpt>
      <trkpt lat="49.0169976" lon="-120.781798">
      </trkpt>
      <trkpt lat="49.0168903" lon="-120.782152">
      </trkpt>
      <trkpt lat="49.0164129" lon="-120.7828372">
      </trkpt>
      <trkpt lat="49.0162781" lon="-120.7847412">
      </trkpt>
      <trkpt lat="49.0160085" lon="-120.7850726">
      </trkpt>
      <trkpt lat="49.0158737" lon="-120.7854826">
      </trkpt>
      <trkpt lat="49.0159861" lon="-120.7860162">
      </trkpt>
      <trkpt lat="49.0159187" lon="-120.7866733">
      </trkpt>
      <trkpt lat="49.0157996" lon="-120.7868406">
      </trkpt>
      <trkpt lat="49.0149807" lon="-120.7879932">
      </trkpt>
      <trkpt lat="49.0149414" lon="-120.7885212">
      </trkpt>
      <trkpt lat="49.0144865" lon="-120.7889312">
      </trkpt>
      <trkpt lat="49.0141495" lon="-120.7899001">
      </trkpt>
      <trkpt lat="49.0138897" lon="-120.7901739">
      </trkpt>
      <trkpt lat="49.0138473" lon="-120.7904396">
      </trkpt>
      <trkpt lat="49.0136548" lon="-120.7916504">
      </trkpt>
      <trkpt lat="49.0134825" lon="-120.7918167">
      </trkpt>
      <trkpt lat="49.0132087" lon="-120.7918571">
      </trkpt>
      <trkpt lat="49.0128401" lon="-120.7920589">
      </trkpt>
      <trkpt lat="49.0127611" lon="-120.792331">
      </trkpt>
      <trkpt lat="49.0125417" lon="-120.7924889">
      </trkpt>
      <trkpt lat="49.012375" lon="-120.7917167">
      </trkpt>
      <trkpt lat="49.0114009" lon="-120.7915587">
      </trkpt>
      <trkpt lat="49.0107427" lon="-120.7917254">
      </trkpt>
      <trkpt lat="49.0107339" lon="-120.7929365">
      </trkpt>
      <trkpt lat="49.0104794" lon="-120.7937439">
      </trkpt>
      <trkpt lat="49.0100845" lon="-120.794367">
      </trkpt>
      <trkpt lat="49.0097225" lon="-120.7945896">
      </trkpt>
      <trkpt lat="49.0094438" lon="-120.7947619">
      </trkpt>
      <trkpt lat="49.0093297" lon="-120.7948935">
      </trkpt>
      <trkpt lat="49.0085224" lon="-120.7951744">
      </trkpt>
      <trkpt lat="49.0065917" lon="-120.796833">
      </trkpt>
      <trkpt lat="49.0063742" lon="-120.7972716">
      </trkpt>
      <trkpt lat="49.0061002" lon="-120.7978247">
      </trkpt>
      <trkpt lat="49.0051436" lon="-120.7984478">
      </trkpt>
      <trkpt lat="49.0048979" lon="-120.7983512">
      </trkpt>
      <trkpt lat="49.0046083" lon="-120.798439">
      </trkpt>
      <trkpt lat="49.0043626" lon="-120.7988778">
      </trkpt>
      <trkpt lat="49.0039413" lon="-120.7991188">
      </trkpt>
      <trkpt lat="49.0038457" lon="-120.8001006">
      </trkpt>
      <trkpt lat="49.0035523" lon="-120.80082">
      </trkpt>
      <trkpt lat="49.0035906" lon="-120.8010436">
      </trkpt>
      <trkpt lat="49.0033291" lon="-120.8015297">
      </trkpt>
      <trkpt lat="49.0029784" lon="-120.8022102">
      </trkpt>
      <trkpt lat="49.0028954" lon="-120.8026282">
      </trkpt>
      <trkpt lat="49.0027271" lon="-120.8028947">
      </trkpt>
      <trkpt lat="49.0026478" lon="-120.8029895">
      </trkpt>
      <trkpt lat="49.0025161" lon="-120.8031428">
      </trkpt>
    </trkseg>
    <trkseg>
      <trkpt lat="49.0292445" lon="-120.7531922">
      </trkpt>
      <trkpt lat="49.0292445" lon="-120.7533629">
      </trkpt>
    </trkseg>
    <trkseg>
      <trkpt lat="49.0374046" lon="-120.7352153">
      </trkpt>
      <trkpt lat="49.0370892" lon="-120.7352752">
      </trkpt>
      <trkpt lat="49.0365306" lon="-120.7359141">
      </trkpt>
      <trkpt lat="49.0360442" lon="-120.7369964">
      </trkpt>
      <trkpt lat="49.0356996" lon="-120.7374055">
      </trkpt>
      <trkpt lat="49.0350908" lon="-120.7375053">
      </trkpt>
      <trkpt lat="49.0348106" lon="-120.7372734">
      </trkpt>
      <trkpt lat="49.0346656" lon="-120.7372895">
      </trkpt>
      <trkpt lat="49.0342984" lon="-120.7377179">
      </trkpt>
      <trkpt lat="49.0339215" lon="-120.7378436">
      </trkpt>
      <trkpt lat="49.0336284" lon="-120.7381721">
      </trkpt>
      <trkpt lat="49.0334674" lon="-120.7382365">
      </trkpt>
      <trkpt lat="49.033316" lon="-120.7384781">
      </trkpt>
      <trkpt lat="49.0332886" lon="-120.7384934">
      </trkpt>
      <trkpt lat="49.0330647" lon="-120.7386199">
      </trkpt>
      <trkpt lat="49.0328972" lon="-120.738913">
      </trkpt>
      <trkpt lat="49.0320662" lon="-120.739525">
      </trkpt>
      <trkpt lat="49.0315121" lon="-120.7405139">
      </trkpt>
      <trkpt lat="49.0311707" lon="-120.7415833">
      </trkpt>
      <trkpt lat="49.0308808" lon="-120.7421856">
      </trkpt>
      <trkpt lat="49.0307262" lon="-120.7427976">
      </trkpt>
      <trkpt lat="49.0304105" lon="-120.7432164">
      </trkpt>
      <trkpt lat="49.0301689" lon="-120.7437962">
      </trkpt>
      <trkpt lat="49.0301174" lon="-120.7443857">
      </trkpt>
      <trkpt lat="49.0292573" lon="-120.7481286">
      </trkpt>
      <trkpt lat="49.0292517" lon="-120.7502998">
      </trkpt>
      <trkpt lat="49.0292799" lon="-120.7520873">
      </trkpt>
      <trkpt lat="49.0292445" lon="-120.7531922">
      </trkpt>
    </trkseg>
    <trkseg>
      <trkpt lat="49.0486696" lon="-120.7288432">
      </trkpt>
      <trkpt lat="49.0485319" lon="-120.7288868">
      </trkpt>
      <trkpt lat="49.0482085" lon="-120.7290799">
      </trkpt>
      <trkpt lat="49.0479061" lon="-120.7293267">
      </trkpt>
      <trkpt lat="49.0475334" lon="-120.7294661">
      </trkpt>
      <trkpt lat="49.0473013" lon="-120.7296271">
      </trkpt>
      <trkpt lat="49.0469146" lon="-120.7294554">
      </trkpt>
      <trkpt lat="49.046345" lon="-120.7291335">
      </trkpt>
      <trkpt lat="49.0459652" lon="-120.7287688">
      </trkpt>
      <trkpt lat="49.0456347" lon="-120.7291228">
      </trkpt>
      <trkpt lat="49.0451706" lon="-120.72967">
      </trkpt>
      <trkpt lat="49.0448752" lon="-120.7298095">
      </trkpt>
      <trkpt lat="49.0446572" lon="-120.7297558">
      </trkpt>
      <trkpt lat="49.0440946" lon="-120.7300026">
      </trkpt>
      <trkpt lat="49.0437008" lon="-120.7301635">
      </trkpt>
      <trkpt lat="49.0436023" lon="-120.7303244">
      </trkpt>
      <trkpt lat="49.0432226" lon="-120.7306034">
      </trkpt>
      <trkpt lat="49.0429342" lon="-120.7312579">
      </trkpt>
      <trkpt lat="49.0423365" lon="-120.7319552">
      </trkpt>
      <trkpt lat="49.0422521" lon="-120.7321269">
      </trkpt>
      <trkpt lat="49.0417105" lon="-120.7324702">
      </trkpt>
      <trkpt lat="49.04138" lon="-120.7324488">
      </trkpt>
      <trkpt lat="49.0408314" lon="-120.7327921">
      </trkpt>
      <trkpt lat="49.040529" lon="-120.7329316">
      </trkpt>
      <trkpt lat="49.0402618" lon="-120.7329852">
      </trkpt>
      <trkpt lat="49.0399171" lon="-120.733232">
      </trkpt>
      <trkpt lat="49.0395444" lon="-120.7333714">
      </trkpt>
      <trkpt lat="49.0388833" lon="-120.7338757">
      </trkpt>
      <trkpt lat="49.038405" lon="-120.734337">
      </trkpt>
      <trkpt lat="49.0382714" lon="-120.7344872">
      </trkpt>
      <trkpt lat="49.0380744" lon="-120.7347125">
      </trkpt>
      <trkpt lat="49.037983" lon="-120.7347233">
      </trkpt>
      <trkpt lat="49.0378986" lon="-120.7346482">
      </trkpt>
      <trkpt lat="49.0376243" lon="-120.7347447">
      </trkpt>
      <trkpt lat="49.0374836" lon="-120.7349486">
      </trkpt>
      <trkpt lat="49.0374046" lon="-120.7352153">
      </trkpt>
    </trkseg>
    <trkseg>
      <trkpt lat="49.0554166" lon="-120.7292028">
      </trkpt>
      <trkpt lat="49.055269" lon="-120.7297333">
      </trkpt>
      <trkpt lat="49.0550529" lon="-120.7301577">
      </trkpt>
      <trkpt lat="49.0547255" lon="-120.731368">
      </trkpt>
      <trkpt lat="49.0545018" lon="-120.7314948">
      </trkpt>
      <trkpt lat="49.0541262" lon="-120.731655">
      </trkpt>
      <trkpt lat="49.0536042" lon="-120.7318001">
      </trkpt>
      <trkpt lat="49.0527114" lon="-120.7319621">
      </trkpt>
      <trkpt lat="49.0523901" lon="-120.731987">
      </trkpt>
      <trkpt lat="49.051978" lon="-120.7319405">
      </trkpt>
      <trkpt lat="49.0509332" lon="-120.731705">
      </trkpt>
      <trkpt lat="49.0507102" lon="-120.7316018">
      </trkpt>
      <trkpt lat="49.0505625" lon="-120.7313782">
      </trkpt>
      <trkpt lat="49.0504501" lon="-120.7311449">
      </trkpt>
      <trkpt lat="49.0503793" lon="-120.7308252">
      </trkpt>
      <trkpt lat="49.050302" lon="-120.7304993">
      </trkpt>
      <trkpt lat="49.0502052" lon="-120.7302199">
      </trkpt>
      <trkpt lat="49.049901" lon="-120.7295745">
      </trkpt>
      <trkpt lat="49.049764" lon="-120.7292328">
      </trkpt>
      <trkpt lat="49.049582" lon="-120.7290478">
      </trkpt>
      <trkpt lat="49.0493882" lon="-120.7289938">
      </trkpt>
      <trkpt lat="49.0490852" lon="-120.7290181">
      </trkpt>
      <trkpt lat="49.0489659" lon="-120.729021">
      </trkpt>
      <trkpt lat="49.0486696" lon="-120.7288432">
      </trkpt>
    </trkseg>
    <trkseg>
      <trkpt lat="49.0555522" lon="-120.7288163">
      </trkpt>
      <trkpt lat="49.0554166" lon="-120.7292028">
      </trkpt>
    </trkseg>
    <trkseg>
      <trkpt lat="49.05694" lon="-120.7291856">
      </trkpt>
      <trkpt lat="49.0569277" lon="-120.7289817">
      </trkpt>
      <trkpt lat="49.0568432" lon="-120.7288348">
      </trkpt>
      <trkpt lat="49.0567867" lon="-120.728782">
      </trkpt>
      <trkpt lat="49.056608" lon="-120.7287576">
      </trkpt>
      <trkpt lat="49.0564129" lon="-120.7287152">
      </trkpt>
      <trkpt lat="49.0557455" lon="-120.7287686">
      </trkpt>
      <trkpt lat="49.055587" lon="-120.7287809">
      </trkpt>
      <trkpt lat="49.0555522" lon="-120.7288163">
      </trkpt>
    </trkseg>
    <trkseg>
      <trkpt lat="49.0569469" lon="-120.7296659">
      </trkpt>
      <trkpt lat="49.05694" lon="-120.7291856">
      </trkpt>
    </trkseg>
    <trkseg>
      <trkpt lat="49.0566107" lon="-120.7361691">
      </trkpt>
      <trkpt lat="49.0566011" lon="-120.7358042">
      </trkpt>
      <trkpt lat="49.0565844" lon="-120.7356892">
      </trkpt>
      <trkpt lat="49.056409" lon="-120.7354376">
      </trkpt>
      <trkpt lat="49.0563257" lon="-120.7350328">
      </trkpt>
      <trkpt lat="49.0562957" lon="-120.7348233">
      </trkpt>
      <trkpt lat="49.0563046" lon="-120.7346822">
      </trkpt>
      <trkpt lat="49.0563164" lon="-120.7344673">
      </trkpt>
      <trkpt lat="49.0563028" lon="-120.734323">
      </trkpt>
      <trkpt lat="49.0562559" lon="-120.7341986">
      </trkpt>
      <trkpt lat="49.0561464" lon="-120.7340346">
      </trkpt>
      <trkpt lat="49.0560712" lon="-120.7338835">
      </trkpt>
      <trkpt lat="49.0560099" lon="-120.7336802">
      </trkpt>
      <trkpt lat="49.0559945" lon="-120.7334696">
      </trkpt>
      <trkpt lat="49.056" lon="-120.7332109">
      </trkpt>
      <trkpt lat="49.056017" lon="-120.7330675">
      </trkpt>
      <trkpt lat="49.056046" lon="-120.7329673">
      </trkpt>
      <trkpt lat="49.0561115" lon="-120.7328898">
      </trkpt>
      <trkpt lat="49.0561969" lon="-120.73279">
      </trkpt>
      <trkpt lat="49.0562373" lon="-120.7326889">
      </trkpt>
      <trkpt lat="49.0562759" lon="-120.7325456">
      </trkpt>
      <trkpt lat="49.0563119" lon="-120.7324684">
      </trkpt>
      <trkpt lat="49.0564163" lon="-120.7323493">
      </trkpt>
      <trkpt lat="49.0565238" lon="-120.7322759">
      </trkpt>
      <trkpt lat="49.0567735" lon="-120.7321941">
      </trkpt>
      <trkpt lat="49.0569248" lon="-120.7320619">
      </trkpt>
      <trkpt lat="49.0571041" lon="-120.7319478">
      </trkpt>
      <trkpt lat="49.0571785" lon="-120.7318434">
      </trkpt>
      <trkpt lat="49.0572718" lon="-120.7316517">
      </trkpt>
      <trkpt lat="49.0573151" lon="-120.7315943">
      </trkpt>
      <trkpt lat="49.0574058" lon="-120.7315302">
      </trkpt>
      <trkpt lat="49.0574465" lon="-120.731474">
      </trkpt>
      <trkpt lat="49.0574586" lon="-120.7314162">
      </trkpt>
      <trkpt lat="49.0574516" lon="-120.7313208">
      </trkpt>
      <trkpt lat="49.0573887" lon="-120.7310933">
      </trkpt>
      <trkpt lat="49.0572943" lon="-120.7308403">
      </trkpt>
      <trkpt lat="49.057089" lon="-120.7303588">
      </trkpt>
      <trkpt lat="49.0569721" lon="-120.7300285">
      </trkpt>
      <trkpt lat="49.0569469" lon="-120.7296659">
      </trkpt>
    </trkseg>
  </trk>
</gpx>