<?xml version="1.0" encoding="UTF-8"?>
<gpx xmlns="http://www.topografix.com/GPX/1/1" xmlns:xsi="http://www.w3.org/2001/XMLSchema-instance" xsi:schemaLocation="http://www.topografix.com/GPX/1/1 http://www.topografix.com/GPX/1/1/gpx.xsd" version="1.1" creator="gpx.py -- https://github.com/tkrajina/gpxpy">
  <trk>
    <name>Ski tour near Railroad Mountain</name>
    <trkseg>
      <trkpt lat="50.5943355" lon="-123.0388556">
      </trkpt>
      <trkpt lat="50.5943285" lon="-123.0389688">
      </trkpt>
      <trkpt lat="50.5943285" lon="-123.03918">
      </trkpt>
      <trkpt lat="50.5943285" lon="-123.0392847">
      </trkpt>
      <trkpt lat="50.5942941" lon="-123.039344">
      </trkpt>
      <trkpt lat="50.5942587" lon="-123.0393946">
      </trkpt>
      <trkpt lat="50.5942421" lon="-123.0394452">
      </trkpt>
      <trkpt lat="50.5942421" lon="-123.0395028">
      </trkpt>
      <trkpt lat="50.5942742" lon="-123.0396407">
      </trkpt>
      <trkpt lat="50.5943052" lon="-123.0397331">
      </trkpt>
      <trkpt lat="50.5943406" lon="-123.0397872">
      </trkpt>
      <trkpt lat="50.5943728" lon="-123.0398658">
      </trkpt>
      <trkpt lat="50.5943872" lon="-123.039953">
      </trkpt>
      <trkpt lat="50.594385" lon="-123.0400577">
      </trkpt>
      <trkpt lat="50.5943683" lon="-123.0401851">
      </trkpt>
      <trkpt lat="50.5943417" lon="-123.0402758">
      </trkpt>
      <trkpt lat="50.5943041" lon="-123.040487">
      </trkpt>
      <trkpt lat="50.5942808" lon="-123.0405358">
      </trkpt>
      <trkpt lat="50.5942288" lon="-123.0406074">
      </trkpt>
      <trkpt lat="50.5941368" lon="-123.0407226">
      </trkpt>
      <trkpt lat="50.5940205" lon="-123.0408499">
      </trkpt>
      <trkpt lat="50.5939851" lon="-123.0409058">
      </trkpt>
      <trkpt lat="50.5939596" lon="-123.0409843">
      </trkpt>
      <trkpt lat="50.5939507" lon="-123.0410942">
      </trkpt>
      <trkpt lat="50.5939463" lon="-123.0411658">
      </trkpt>
      <trkpt lat="50.5938787" lon="-123.0415549">
      </trkpt>
      <trkpt lat="50.5938122" lon="-123.0416684">
      </trkpt>
      <trkpt lat="50.5936673" lon="-123.0418195">
      </trkpt>
      <trkpt lat="50.5935696" lon="-123.0419039">
      </trkpt>
      <trkpt lat="50.5934201" lon="-123.0420331">
      </trkpt>
      <trkpt lat="50.5933492" lon="-123.0421151">
      </trkpt>
      <trkpt lat="50.5932063" lon="-123.0423664">
      </trkpt>
      <trkpt lat="50.5930457" lon="-123.0426665">
      </trkpt>
      <trkpt lat="50.592998" lon="-123.0427468">
      </trkpt>
      <trkpt lat="50.5928983" lon="-123.042834">
      </trkpt>
      <trkpt lat="50.592782" lon="-123.0429474">
      </trkpt>
      <trkpt lat="50.5927399" lon="-123.0430085">
      </trkpt>
      <trkpt lat="50.5927122" lon="-123.0430888">
      </trkpt>
      <trkpt lat="50.5926989" lon="-123.0431132">
      </trkpt>
      <trkpt lat="50.5926646" lon="-123.0431307">
      </trkpt>
      <trkpt lat="50.5926026" lon="-123.0431481">
      </trkpt>
      <trkpt lat="50.5924907" lon="-123.0431307">
      </trkpt>
      <trkpt lat="50.5924386" lon="-123.0431202">
      </trkpt>
      <trkpt lat="50.5923932" lon="-123.0431045">
      </trkpt>
      <trkpt lat="50.5923533" lon="-123.0430731">
      </trkpt>
      <trkpt lat="50.5923212" lon="-123.0430155">
      </trkpt>
      <trkpt lat="50.592299" lon="-123.0429143">
      </trkpt>
      <trkpt lat="50.5922873" lon="-123.0428433">
      </trkpt>
      <trkpt lat="50.5922662" lon="-123.042716">
      </trkpt>
      <trkpt lat="50.592213" lon="-123.0423809">
      </trkpt>
      <trkpt lat="50.592151" lon="-123.0420878">
      </trkpt>
      <trkpt lat="50.5920491" lon="-123.0418993">
      </trkpt>
      <trkpt lat="50.5919649" lon="-123.0417946">
      </trkpt>
      <trkpt lat="50.5918408" lon="-123.0417737">
      </trkpt>
      <trkpt lat="50.5917034" lon="-123.0417108">
      </trkpt>
      <trkpt lat="50.591473" lon="-123.0415503">
      </trkpt>
    </trkseg>
    <trkseg>
      <trkpt lat="50.5984351" lon="-123.0347122">
      </trkpt>
      <trkpt lat="50.5984744" lon="-123.0349751">
      </trkpt>
      <trkpt lat="50.5985423" lon="-123.0353248">
      </trkpt>
      <trkpt lat="50.5986442" lon="-123.035671">
      </trkpt>
      <trkpt lat="50.5986768" lon="-123.0357816">
      </trkpt>
      <trkpt lat="50.5987655" lon="-123.0359614">
      </trkpt>
      <trkpt lat="50.5988005" lon="-123.0359869">
      </trkpt>
      <trkpt lat="50.5988504" lon="-123.0359672">
      </trkpt>
      <trkpt lat="50.5988968" lon="-123.0359203">
      </trkpt>
      <trkpt lat="50.5989234" lon="-123.0359074">
      </trkpt>
      <trkpt lat="50.5989643" lon="-123.0359262">
      </trkpt>
      <trkpt lat="50.5990203" lon="-123.0360064">
      </trkpt>
      <trkpt lat="50.5991652" lon="-123.0362491">
      </trkpt>
      <trkpt lat="50.599274" lon="-123.0364061">
      </trkpt>
      <trkpt lat="50.599298" lon="-123.0364944">
      </trkpt>
      <trkpt lat="50.5993038" lon="-123.0365961">
      </trkpt>
      <trkpt lat="50.5992876" lon="-123.0367023">
      </trkpt>
      <trkpt lat="50.5992378" lon="-123.0367825">
      </trkpt>
      <trkpt lat="50.5992099" lon="-123.0368603">
      </trkpt>
      <trkpt lat="50.5991919" lon="-123.0369536">
      </trkpt>
      <trkpt lat="50.5991607" lon="-123.0370556">
      </trkpt>
      <trkpt lat="50.599086" lon="-123.037152">
      </trkpt>
      <trkpt lat="50.5990238" lon="-123.0372158">
      </trkpt>
      <trkpt lat="50.5989818" lon="-123.037259">
      </trkpt>
      <trkpt lat="50.598941" lon="-123.0372911">
      </trkpt>
      <trkpt lat="50.5988662" lon="-123.0372769">
      </trkpt>
      <trkpt lat="50.5988164" lon="-123.0372983">
      </trkpt>
      <trkpt lat="50.5987145" lon="-123.0373589">
      </trkpt>
      <trkpt lat="50.5985854" lon="-123.0374303">
      </trkpt>
      <trkpt lat="50.5985106" lon="-123.0374767">
      </trkpt>
      <trkpt lat="50.5984223" lon="-123.037516">
      </trkpt>
      <trkpt lat="50.5982773" lon="-123.0375873">
      </trkpt>
      <trkpt lat="50.5981708" lon="-123.0376694">
      </trkpt>
      <trkpt lat="50.5980349" lon="-123.0377658">
      </trkpt>
      <trkpt lat="50.5979601" lon="-123.0378229">
      </trkpt>
      <trkpt lat="50.5978605" lon="-123.0378907">
      </trkpt>
      <trkpt lat="50.5977585" lon="-123.0379692">
      </trkpt>
      <trkpt lat="50.5976747" lon="-123.0380334">
      </trkpt>
      <trkpt lat="50.5975796" lon="-123.0381048">
      </trkpt>
      <trkpt lat="50.5973916" lon="-123.0381583">
      </trkpt>
      <trkpt lat="50.5972738" lon="-123.0382404">
      </trkpt>
      <trkpt lat="50.5970384" lon="-123.0384002">
      </trkpt>
      <trkpt lat="50.5969951" lon="-123.0384296">
      </trkpt>
      <trkpt lat="50.5968048" lon="-123.0384795">
      </trkpt>
      <trkpt lat="50.596678" lon="-123.0385081">
      </trkpt>
      <trkpt lat="50.5965942" lon="-123.0384652">
      </trkpt>
      <trkpt lat="50.5965013" lon="-123.0384296">
      </trkpt>
      <trkpt lat="50.5963608" lon="-123.0384153">
      </trkpt>
      <trkpt lat="50.5962838" lon="-123.0383582">
      </trkpt>
      <trkpt lat="50.5961751" lon="-123.0382868">
      </trkpt>
      <trkpt lat="50.596055" lon="-123.0382975">
      </trkpt>
      <trkpt lat="50.5959054" lon="-123.0383416">
      </trkpt>
      <trkpt lat="50.5957518" lon="-123.0384064">
      </trkpt>
      <trkpt lat="50.59556" lon="-123.0383956">
      </trkpt>
      <trkpt lat="50.5954561" lon="-123.0384159">
      </trkpt>
      <trkpt lat="50.595342" lon="-123.038432">
      </trkpt>
      <trkpt lat="50.595213" lon="-123.0385448">
      </trkpt>
      <trkpt lat="50.5950569" lon="-123.038754">
      </trkpt>
      <trkpt lat="50.5949875" lon="-123.0387947">
      </trkpt>
      <trkpt lat="50.5949083" lon="-123.0387908">
      </trkpt>
      <trkpt lat="50.5948068" lon="-123.0388123">
      </trkpt>
      <trkpt lat="50.5947334" lon="-123.0388371">
      </trkpt>
      <trkpt lat="50.5946419" lon="-123.0388309">
      </trkpt>
      <trkpt lat="50.5945202" lon="-123.0388183">
      </trkpt>
      <trkpt lat="50.5943355" lon="-123.0388556">
      </trkpt>
    </trkseg>
  </trk>
</gpx>