<?xml version="1.0" encoding="UTF-8"?>
<gpx xmlns="http://www.topografix.com/GPX/1/1" xmlns:xsi="http://www.w3.org/2001/XMLSchema-instance" xsi:schemaLocation="http://www.topografix.com/GPX/1/1 http://www.topografix.com/GPX/1/1/gpx.xsd" version="1.1" creator="gpx.py -- https://github.com/tkrajina/gpxpy">
  <trk>
    <name>Ski tour near Mount Connor</name>
    <trkseg>
      <trkpt lat="49.3845785" lon="-117.414803">
      </trkpt>
      <trkpt lat="49.3844737" lon="-117.4148191">
      </trkpt>
      <trkpt lat="49.3842537" lon="-117.4151571">
      </trkpt>
      <trkpt lat="49.3839499" lon="-117.4158974">
      </trkpt>
      <trkpt lat="49.3835099" lon="-117.4166538">
      </trkpt>
      <trkpt lat="49.3830908" lon="-117.417732">
      </trkpt>
      <trkpt lat="49.3829022" lon="-117.4187298">
      </trkpt>
      <trkpt lat="49.3822422" lon="-117.4194701">
      </trkpt>
      <trkpt lat="49.3813097" lon="-117.4203069">
      </trkpt>
      <trkpt lat="49.380503" lon="-117.4206127">
      </trkpt>
      <trkpt lat="49.3800001" lon="-117.4208863">
      </trkpt>
      <trkpt lat="49.3796962" lon="-117.4213852">
      </trkpt>
      <trkpt lat="49.3794448" lon="-117.4215944">
      </trkpt>
      <trkpt lat="49.3790571" lon="-117.4217071">
      </trkpt>
      <trkpt lat="49.3787113" lon="-117.4215622">
      </trkpt>
      <trkpt lat="49.3778417" lon="-117.4215139">
      </trkpt>
      <trkpt lat="49.3774341" lon="-117.4216704">
      </trkpt>
      <trkpt lat="49.3771152" lon="-117.4221048">
      </trkpt>
      <trkpt lat="49.377067" lon="-117.4225762">
      </trkpt>
      <trkpt lat="49.3768985" lon="-117.4234081">
      </trkpt>
      <trkpt lat="49.3769045" lon="-117.4237963">
      </trkpt>
      <trkpt lat="49.3769948" lon="-117.4244249">
      </trkpt>
      <trkpt lat="49.377055" lon="-117.4252105">
      </trkpt>
      <trkpt lat="49.3770008" lon="-117.4257466">
      </trkpt>
    </trkseg>
  </trk>
</gpx>