<?xml version="1.0" encoding="UTF-8"?>
<gpx xmlns="http://www.topografix.com/GPX/1/1" xmlns:xsi="http://www.w3.org/2001/XMLSchema-instance" xsi:schemaLocation="http://www.topografix.com/GPX/1/1 http://www.topografix.com/GPX/1/1/gpx.xsd" version="1.1" creator="gpx.py -- https://github.com/tkrajina/gpxpy">
  <trk>
    <name>Juniper Trail</name>
    <trkseg>
      <trkpt lat="52.9321412" lon="-119.3790381">
      </trkpt>
      <trkpt lat="52.9322382" lon="-119.3787109">
      </trkpt>
      <trkpt lat="52.9320534" lon="-119.3785092">
      </trkpt>
      <trkpt lat="52.9320082" lon="-119.37795">
      </trkpt>
      <trkpt lat="52.9319806" lon="-119.3777888">
      </trkpt>
      <trkpt lat="52.9319346" lon="-119.3776761">
      </trkpt>
      <trkpt lat="52.9318328" lon="-119.3774296">
      </trkpt>
      <trkpt lat="52.9315975" lon="-119.3769039">
      </trkpt>
      <trkpt lat="52.9313323" lon="-119.3764922">
      </trkpt>
      <trkpt lat="52.9311097" lon="-119.3762272">
      </trkpt>
    </trkseg>
    <trkseg>
      <trkpt lat="52.9312127" lon="-119.3722757">
      </trkpt>
      <trkpt lat="52.931197" lon="-119.3723635">
      </trkpt>
      <trkpt lat="52.9311995" lon="-119.3724496">
      </trkpt>
      <trkpt lat="52.9311995" lon="-119.3725123">
      </trkpt>
      <trkpt lat="52.9312022" lon="-119.372883">
      </trkpt>
      <trkpt lat="52.9311917" lon="-119.3730828">
      </trkpt>
      <trkpt lat="52.9311558" lon="-119.3732834">
      </trkpt>
      <trkpt lat="52.9311335" lon="-119.3734731">
      </trkpt>
      <trkpt lat="52.9310866" lon="-119.3736249">
      </trkpt>
      <trkpt lat="52.9311084" lon="-119.3737815">
      </trkpt>
      <trkpt lat="52.9312229" lon="-119.3740224">
      </trkpt>
      <trkpt lat="52.93129" lon="-119.3741874">
      </trkpt>
      <trkpt lat="52.9314226" lon="-119.3746017">
      </trkpt>
      <trkpt lat="52.9314828" lon="-119.3747783">
      </trkpt>
      <trkpt lat="52.9315797" lon="-119.3750264">
      </trkpt>
      <trkpt lat="52.9317774" lon="-119.3755566">
      </trkpt>
      <trkpt lat="52.9319019" lon="-119.3757605">
      </trkpt>
      <trkpt lat="52.9321407" lon="-119.3760147">
      </trkpt>
      <trkpt lat="52.9323683" lon="-119.3763318">
      </trkpt>
      <trkpt lat="52.9325195" lon="-119.3765919">
      </trkpt>
      <trkpt lat="52.9326456" lon="-119.3769514">
      </trkpt>
      <trkpt lat="52.9326941" lon="-119.3772249">
      </trkpt>
      <trkpt lat="52.9327782" lon="-119.377461">
      </trkpt>
      <trkpt lat="52.9330013" lon="-119.3775736">
      </trkpt>
      <trkpt lat="52.9332174" lon="-119.377962">
      </trkpt>
      <trkpt lat="52.9334599" lon="-119.3787613">
      </trkpt>
      <trkpt lat="52.9336609" lon="-119.3791293">
      </trkpt>
      <trkpt lat="52.9339131" lon="-119.3790113">
      </trkpt>
      <trkpt lat="52.9341621" lon="-119.3790649">
      </trkpt>
      <trkpt lat="52.9345334" lon="-119.3790081">
      </trkpt>
      <trkpt lat="52.9347182" lon="-119.3790649">
      </trkpt>
      <trkpt lat="52.9348378" lon="-119.3791239">
      </trkpt>
      <trkpt lat="52.9349602" lon="-119.3790188">
      </trkpt>
      <trkpt lat="52.9355879" lon="-119.3797248">
      </trkpt>
      <trkpt lat="52.935714" lon="-119.3800359">
      </trkpt>
      <trkpt lat="52.935866" lon="-119.3803417">
      </trkpt>
      <trkpt lat="52.9359791" lon="-119.3805133">
      </trkpt>
      <trkpt lat="52.9360756" lon="-119.3806174">
      </trkpt>
      <trkpt lat="52.9361888" lon="-119.3810948">
      </trkpt>
      <trkpt lat="52.9362923" lon="-119.3813845">
      </trkpt>
      <trkpt lat="52.9363214" lon="-119.3817868">
      </trkpt>
      <trkpt lat="52.9364673" lon="-119.3824606">
      </trkpt>
      <trkpt lat="52.9366031" lon="-119.3829273">
      </trkpt>
      <trkpt lat="52.9367907" lon="-119.3832867">
      </trkpt>
      <trkpt lat="52.9368456" lon="-119.3834852">
      </trkpt>
      <trkpt lat="52.9370428" lon="-119.3837695">
      </trkpt>
      <trkpt lat="52.9374243" lon="-119.3839787">
      </trkpt>
      <trkpt lat="52.9376345" lon="-119.3839787">
      </trkpt>
      <trkpt lat="52.9377412" lon="-119.3839841">
      </trkpt>
      <trkpt lat="52.9378673" lon="-119.3839144">
      </trkpt>
      <trkpt lat="52.938009" lon="-119.3840077">
      </trkpt>
      <trkpt lat="52.9378446" lon="-119.3842201">
      </trkpt>
      <trkpt lat="52.9376151" lon="-119.3844294">
      </trkpt>
      <trkpt lat="52.9374179" lon="-119.3846761">
      </trkpt>
      <trkpt lat="52.9372299" lon="-119.3849626">
      </trkpt>
      <trkpt lat="52.9371717" lon="-119.3853113">
      </trkpt>
      <trkpt lat="52.9371722" lon="-119.3859368">
      </trkpt>
      <trkpt lat="52.9372368" lon="-119.3864035">
      </trkpt>
      <trkpt lat="52.937343" lon="-119.3868616">
      </trkpt>
      <trkpt lat="52.9373694" lon="-119.3874871">
      </trkpt>
      <trkpt lat="52.9375305" lon="-119.3880203">
      </trkpt>
      <trkpt lat="52.9375343" lon="-119.3884258">
      </trkpt>
      <trkpt lat="52.9374917" lon="-119.3888411">
      </trkpt>
      <trkpt lat="52.9373338" lon="-119.3890749">
      </trkpt>
      <trkpt lat="52.9371179" lon="-119.3891157">
      </trkpt>
      <trkpt lat="52.9369002" lon="-119.389138">
      </trkpt>
      <trkpt lat="52.9362761" lon="-119.3890342">
      </trkpt>
      <trkpt lat="52.9360309" lon="-119.3889998">
      </trkpt>
      <trkpt lat="52.9355745" lon="-119.3890878">
      </trkpt>
      <trkpt lat="52.9354161" lon="-119.3890288">
      </trkpt>
      <trkpt lat="52.9350997" lon="-119.3888818">
      </trkpt>
      <trkpt lat="52.934854" lon="-119.3886887">
      </trkpt>
      <trkpt lat="52.9343717" lon="-119.3885353">
      </trkpt>
      <trkpt lat="52.934036" lon="-119.3887638">
      </trkpt>
      <trkpt lat="52.933842" lon="-119.3887531">
      </trkpt>
      <trkpt lat="52.9335166" lon="-119.3887191">
      </trkpt>
      <trkpt lat="52.9331729" lon="-119.3883127">
      </trkpt>
      <trkpt lat="52.933025" lon="-119.3880509">
      </trkpt>
      <trkpt lat="52.9329264" lon="-119.387795">
      </trkpt>
      <trkpt lat="52.9328811" lon="-119.3875305">
      </trkpt>
      <trkpt lat="52.9327688" lon="-119.3873229">
      </trkpt>
      <trkpt lat="52.9326739" lon="-119.3871478">
      </trkpt>
      <trkpt lat="52.932599" lon="-119.3869539">
      </trkpt>
      <trkpt lat="52.9324802" lon="-119.3868227">
      </trkpt>
      <trkpt lat="52.9321892" lon="-119.3866738">
      </trkpt>
      <trkpt lat="52.9320857" lon="-119.3866602">
      </trkpt>
      <trkpt lat="52.9319795" lon="-119.3867039">
      </trkpt>
      <trkpt lat="52.9318974" lon="-119.3866856">
      </trkpt>
      <trkpt lat="52.9318271" lon="-119.3866255">
      </trkpt>
      <trkpt lat="52.9317584" lon="-119.3864392">
      </trkpt>
      <trkpt lat="52.9317179" lon="-119.386121">
      </trkpt>
      <trkpt lat="52.9316467" lon="-119.3857901">
      </trkpt>
      <trkpt lat="52.9315684" lon="-119.3853781">
      </trkpt>
      <trkpt lat="52.931492" lon="-119.3849551">
      </trkpt>
      <trkpt lat="52.93121" lon="-119.3843851">
      </trkpt>
      <trkpt lat="52.9311102" lon="-119.3841389">
      </trkpt>
      <trkpt lat="52.9309413" lon="-119.3836011">
      </trkpt>
      <trkpt lat="52.9308327" lon="-119.3835837">
      </trkpt>
      <trkpt lat="52.9307471" lon="-119.3836215">
      </trkpt>
      <trkpt lat="52.9305854" lon="-119.3838897">
      </trkpt>
      <trkpt lat="52.9305018" lon="-119.3841075">
      </trkpt>
      <trkpt lat="52.930463" lon="-119.384306">
      </trkpt>
      <trkpt lat="52.9304625" lon="-119.3845173">
      </trkpt>
      <trkpt lat="52.9305304" lon="-119.3847963">
      </trkpt>
      <trkpt lat="52.9304953" lon="-119.384939">
      </trkpt>
    </trkseg>
    <trkseg>
      <trkpt lat="52.9311097" lon="-119.3762272">
      </trkpt>
      <trkpt lat="52.9309351" lon="-119.3760662">
      </trkpt>
      <trkpt lat="52.9308219" lon="-119.3758074">
      </trkpt>
      <trkpt lat="52.9307346" lon="-119.3754506">
      </trkpt>
      <trkpt lat="52.930739" lon="-119.3752339">
      </trkpt>
      <trkpt lat="52.9306678" lon="-119.375025">
      </trkpt>
      <trkpt lat="52.9305635" lon="-119.3748667">
      </trkpt>
      <trkpt lat="52.930397" lon="-119.3747605">
      </trkpt>
      <trkpt lat="52.9301651" lon="-119.3746521">
      </trkpt>
      <trkpt lat="52.9301173" lon="-119.3745849">
      </trkpt>
      <trkpt lat="52.9300615" lon="-119.3744268">
      </trkpt>
      <trkpt lat="52.9298971" lon="-119.3739473">
      </trkpt>
      <trkpt lat="52.9297479" lon="-119.373472">
      </trkpt>
      <trkpt lat="52.9297193" lon="-119.373207">
      </trkpt>
      <trkpt lat="52.929813" lon="-119.3729388">
      </trkpt>
      <trkpt lat="52.9301138" lon="-119.3726384">
      </trkpt>
      <trkpt lat="52.9305563" lon="-119.3721523">
      </trkpt>
      <trkpt lat="52.9306822" lon="-119.372009">
      </trkpt>
      <trkpt lat="52.9307535" lon="-119.3720046">
      </trkpt>
      <trkpt lat="52.9308373" lon="-119.3719678">
      </trkpt>
      <trkpt lat="52.9309265" lon="-119.371872">
      </trkpt>
      <trkpt lat="52.9310259" lon="-119.3718906">
      </trkpt>
      <trkpt lat="52.9310906" lon="-119.3719176">
      </trkpt>
    </trkseg>
    <trkseg>
      <trkpt lat="52.93121" lon="-119.3843851">
      </trkpt>
      <trkpt lat="52.9312705" lon="-119.3843208">
      </trkpt>
      <trkpt lat="52.9313541" lon="-119.3841094">
      </trkpt>
      <trkpt lat="52.931408" lon="-119.3837521">
      </trkpt>
      <trkpt lat="52.931452" lon="-119.3826773">
      </trkpt>
      <trkpt lat="52.9314492" lon="-119.3824338">
      </trkpt>
      <trkpt lat="52.9315139" lon="-119.382209">
      </trkpt>
    </trkseg>
    <trkseg>
      <trkpt lat="52.9315139" lon="-119.382209">
      </trkpt>
      <trkpt lat="52.9315684" lon="-119.3817922">
      </trkpt>
      <trkpt lat="52.9319305" lon="-119.3805047">
      </trkpt>
      <trkpt lat="52.9318922" lon="-119.3800949">
      </trkpt>
      <trkpt lat="52.9319213" lon="-119.3796765">
      </trkpt>
      <trkpt lat="52.9321412" lon="-119.3790381">
      </trkpt>
    </trkseg>
  </trk>
</gpx>