<?xml version="1.0" encoding="UTF-8"?>
<gpx xmlns="http://www.topografix.com/GPX/1/1" xmlns:xsi="http://www.w3.org/2001/XMLSchema-instance" xsi:schemaLocation="http://www.topografix.com/GPX/1/1 http://www.topografix.com/GPX/1/1/gpx.xsd" version="1.1" creator="gpx.py -- https://github.com/tkrajina/gpxpy">
  <trk>
    <name>Mica Mtn. Trail</name>
    <trkseg>
      <trkpt lat="52.92066298" lon="-119.49696823">
      </trkpt>
      <trkpt lat="52.92065276" lon="-119.4970271">
      </trkpt>
      <trkpt lat="52.9206239" lon="-119.49711478">
      </trkpt>
      <trkpt lat="52.92058612" lon="-119.49720185">
      </trkpt>
      <trkpt lat="52.92051274" lon="-119.49727201">
      </trkpt>
      <trkpt lat="52.92042169" lon="-119.49732628">
      </trkpt>
      <trkpt lat="52.92036713" lon="-119.49735282">
      </trkpt>
      <trkpt lat="52.92029496" lon="-119.49736365">
      </trkpt>
      <trkpt lat="52.92024113" lon="-119.49736045">
      </trkpt>
      <trkpt lat="52.92016897" lon="-119.49737112">
      </trkpt>
      <trkpt lat="52.92009706" lon="-119.497367">
      </trkpt>
      <trkpt lat="52.92003393" lon="-119.49737829">
      </trkpt>
      <trkpt lat="52.91996204" lon="-119.49737418">
      </trkpt>
      <trkpt lat="52.9198989" lon="-119.49738546">
      </trkpt>
      <trkpt lat="52.91983604" lon="-119.4973818">
      </trkpt>
      <trkpt lat="52.91977283" lon="-119.49739308">
      </trkpt>
      <trkpt lat="52.91970996" lon="-119.49738942">
      </trkpt>
      <trkpt lat="52.91963815" lon="-119.4973853">
      </trkpt>
      <trkpt lat="52.91956598" lon="-119.49739598">
      </trkpt>
      <trkpt lat="52.91949409" lon="-119.49739186">
      </trkpt>
      <trkpt lat="52.91942193" lon="-119.49740253">
      </trkpt>
      <trkpt lat="52.91935907" lon="-119.49739903">
      </trkpt>
      <trkpt lat="52.91928689" lon="-119.49740971">
      </trkpt>
      <trkpt lat="52.91921509" lon="-119.49740559">
      </trkpt>
      <trkpt lat="52.91915187" lon="-119.49741673">
      </trkpt>
      <trkpt lat="52.91908901" lon="-119.49741321">
      </trkpt>
      <trkpt lat="52.91903517" lon="-119.49741001">
      </trkpt>
      <trkpt lat="52.91899057" lon="-119.49739262">
      </trkpt>
      <trkpt lat="52.91890107" lon="-119.49737266">
      </trkpt>
      <trkpt lat="52.91881129" lon="-119.49736747">
      </trkpt>
      <trkpt lat="52.91875737" lon="-119.49736426">
      </trkpt>
      <trkpt lat="52.91869451" lon="-119.49736075">
      </trkpt>
      <trkpt lat="52.91864059" lon="-119.49735756">
      </trkpt>
      <trkpt lat="52.91857838" lon="-119.49732431">
      </trkpt>
      <trkpt lat="52.91850685" lon="-119.49730525">
      </trkpt>
      <trkpt lat="52.9184533" lon="-119.49728726">
      </trkpt>
      <trkpt lat="52.91837273" lon="-119.49726773">
      </trkpt>
      <trkpt lat="52.91831015" lon="-119.49724928">
      </trkpt>
      <trkpt lat="52.91824729" lon="-119.49724577">
      </trkpt>
      <trkpt lat="52.91817512" lon="-119.49725645">
      </trkpt>
      <trkpt lat="52.91811226" lon="-119.49725279">
      </trkpt>
      <trkpt lat="52.91804912" lon="-119.49726407">
      </trkpt>
      <trkpt lat="52.91797723" lon="-119.49725995">
      </trkpt>
      <trkpt lat="52.91790515" lon="-119.49727063">
      </trkpt>
      <trkpt lat="52.9178243" lon="-119.49726605">
      </trkpt>
      <trkpt lat="52.9177431" lon="-119.49727612">
      </trkpt>
      <trkpt lat="52.9176713" lon="-119.497272">
      </trkpt>
      <trkpt lat="52.91759018" lon="-119.49728222">
      </trkpt>
      <trkpt lat="52.91751828" lon="-119.4972781">
      </trkpt>
      <trkpt lat="52.91743745" lon="-119.49727353">
      </trkpt>
      <trkpt lat="52.91736564" lon="-119.49726926">
      </trkpt>
      <trkpt lat="52.91728546" lon="-119.49723495">
      </trkpt>
      <trkpt lat="52.91720489" lon="-119.49721543">
      </trkpt>
      <trkpt lat="52.9171247" lon="-119.49718112">
      </trkpt>
      <trkpt lat="52.91704478" lon="-119.49713187">
      </trkpt>
      <trkpt lat="52.91696487" lon="-119.4970826">
      </trkpt>
      <trkpt lat="52.91687638" lon="-119.4970181">
      </trkpt>
      <trkpt lat="52.91682338" lon="-119.49697037">
      </trkpt>
      <trkpt lat="52.9167525" lon="-119.49692156">
      </trkpt>
      <trkpt lat="52.91668161" lon="-119.49687291">
      </trkpt>
      <trkpt lat="52.91661101" lon="-119.49680934">
      </trkpt>
      <trkpt lat="52.9165404" lon="-119.49674574">
      </trkpt>
      <trkpt lat="52.91646979" lon="-119.4966823">
      </trkpt>
      <trkpt lat="52.91638988" lon="-119.49663305">
      </trkpt>
      <trkpt lat="52.91631899" lon="-119.49658425">
      </trkpt>
      <trkpt lat="52.91624811" lon="-119.49653561">
      </trkpt>
      <trkpt lat="52.91617713" lon="-119.4964868">
      </trkpt>
      <trkpt lat="52.91612421" lon="-119.49643923">
      </trkpt>
      <trkpt lat="52.91607158" lon="-119.4963767">
      </trkpt>
      <trkpt lat="52.9160007" lon="-119.49632806">
      </trkpt>
      <trkpt lat="52.91593839" lon="-119.49629467">
      </trkpt>
      <trkpt lat="52.91587644" lon="-119.49624647">
      </trkpt>
      <trkpt lat="52.91580528" lon="-119.49621262">
      </trkpt>
      <trkpt lat="52.91574241" lon="-119.49620896">
      </trkpt>
      <trkpt lat="52.91567955" lon="-119.4962053">
      </trkpt>
      <trkpt lat="52.91562562" lon="-119.49620224">
      </trkpt>
      <trkpt lat="52.91557181" lon="-119.4961992">
      </trkpt>
      <trkpt lat="52.9155176" lon="-119.49621095">
      </trkpt>
      <trkpt lat="52.91546367" lon="-119.49620789">
      </trkpt>
      <trkpt lat="52.91538255" lon="-119.49621795">
      </trkpt>
      <trkpt lat="52.91530973" lon="-119.49625852">
      </trkpt>
      <trkpt lat="52.91527101" lon="-119.49639012">
      </trkpt>
      <trkpt lat="52.91527036" lon="-119.49641985">
      </trkpt>
      <trkpt lat="52.91525148" lon="-119.49646331">
      </trkpt>
      <trkpt lat="52.91523229" lon="-119.49652173">
      </trkpt>
      <trkpt lat="52.91521119" lon="-119.49666933">
      </trkpt>
      <trkpt lat="52.91519848" lon="-119.49684714">
      </trkpt>
      <trkpt lat="52.91521202" lon="-119.49705607">
      </trkpt>
      <trkpt lat="52.9152452" lon="-119.49719194">
      </trkpt>
      <trkpt lat="52.91526898" lon="-119.497342">
      </trkpt>
      <trkpt lat="52.91530208" lon="-119.49747786">
      </trkpt>
      <trkpt lat="52.91532559" lon="-119.49764287">
      </trkpt>
      <trkpt lat="52.91534909" lon="-119.49780771">
      </trkpt>
      <trkpt lat="52.91538098" lon="-119.49800307">
      </trkpt>
      <trkpt lat="52.91539426" lon="-119.49822693">
      </trkpt>
      <trkpt lat="52.91540846" lon="-119.49840626">
      </trkpt>
      <trkpt lat="52.91544035" lon="-119.49860145">
      </trkpt>
      <trkpt lat="52.91544551" lon="-119.49878017">
      </trkpt>
      <trkpt lat="52.91546035" lon="-119.49892993">
      </trkpt>
      <trkpt lat="52.91550119" lon="-119.49912558">
      </trkpt>
      <trkpt lat="52.91555225" lon="-119.49926238">
      </trkpt>
      <trkpt lat="52.91560277" lon="-119.49942889">
      </trkpt>
      <trkpt lat="52.91564518" lon="-119.49955044">
      </trkpt>
      <trkpt lat="52.91571356" lon="-119.49971803">
      </trkpt>
      <trkpt lat="52.91576491" lon="-119.49984002">
      </trkpt>
      <trkpt lat="52.91583423" lon="-119.49996294">
      </trkpt>
      <trkpt lat="52.91588566" lon="-119.50008493">
      </trkpt>
      <trkpt lat="52.91594512" lon="-119.50025192">
      </trkpt>
      <trkpt lat="52.9159865" lon="-119.50041798">
      </trkpt>
      <trkpt lat="52.91602798" lon="-119.50058405">
      </trkpt>
      <trkpt lat="52.91606053" lon="-119.50074951">
      </trkpt>
      <trkpt lat="52.91609324" lon="-119.50090018">
      </trkpt>
      <trkpt lat="52.91615242" lon="-119.5010821">
      </trkpt>
      <trkpt lat="52.91619419" lon="-119.50123323">
      </trkpt>
      <trkpt lat="52.91625456" lon="-119.50135583">
      </trkpt>
      <trkpt lat="52.9163047" lon="-119.50153715">
      </trkpt>
      <trkpt lat="52.91635577" lon="-119.50167394">
      </trkpt>
      <trkpt lat="52.91637272" lon="-119.50171953">
      </trkpt>
      <trkpt lat="52.91644213" lon="-119.50184259">
      </trkpt>
      <trkpt lat="52.91648418" lon="-119.50197892">
      </trkpt>
      <trkpt lat="52.9165192" lon="-119.50202559">
      </trkpt>
      <trkpt lat="52.91658916" lon="-119.50211891">
      </trkpt>
      <trkpt lat="52.91664954" lon="-119.50224136">
      </trkpt>
      <trkpt lat="52.91670983" lon="-119.50236383">
      </trkpt>
      <trkpt lat="52.91678724" lon="-119.50253187">
      </trkpt>
      <trkpt lat="52.91683804" lon="-119.5026836">
      </trkpt>
      <trkpt lat="52.91690735" lon="-119.50280666">
      </trkpt>
      <trkpt lat="52.9169857" lon="-119.50293018">
      </trkpt>
      <trkpt lat="52.91699437" lon="-119.50294559">
      </trkpt>
      <trkpt lat="52.91700238" lon="-119.50299057">
      </trkpt>
      <trkpt lat="52.91702866" lon="-119.50302184">
      </trkpt>
      <trkpt lat="52.91703732" lon="-119.50303724">
      </trkpt>
      <trkpt lat="52.91711632" lon="-119.50313102">
      </trkpt>
      <trkpt lat="52.91718599" lon="-119.5032393">
      </trkpt>
      <trkpt lat="52.91728066" lon="-119.50343815">
      </trkpt>
      <trkpt lat="52.91735007" lon="-119.50356106">
      </trkpt>
      <trkpt lat="52.91740141" lon="-119.50368306">
      </trkpt>
      <trkpt lat="52.91747976" lon="-119.50380658">
      </trkpt>
      <trkpt lat="52.91755746" lon="-119.50395984">
      </trkpt>
      <trkpt lat="52.91761746" lon="-119.50409723">
      </trkpt>
      <trkpt lat="52.91767747" lon="-119.50423463">
      </trkpt>
      <trkpt lat="52.91772891" lon="-119.50435648">
      </trkpt>
      <trkpt lat="52.91778891" lon="-119.50449388">
      </trkpt>
      <trkpt lat="52.91783104" lon="-119.5046302">
      </trkpt>
      <trkpt lat="52.91787279" lon="-119.50478132">
      </trkpt>
      <trkpt lat="52.91794145" lon="-119.50493414">
      </trkpt>
      <trkpt lat="52.91800128" lon="-119.50508633">
      </trkpt>
      <trkpt lat="52.91804331" lon="-119.50522265">
      </trkpt>
      <trkpt lat="52.91809373" lon="-119.50538918">
      </trkpt>
      <trkpt lat="52.91810185" lon="-119.50543432">
      </trkpt>
      <trkpt lat="52.91811853" lon="-119.50549486">
      </trkpt>
      <trkpt lat="52.91816923" lon="-119.50564643">
      </trkpt>
      <trkpt lat="52.91817733" lon="-119.50569157">
      </trkpt>
      <trkpt lat="52.91820112" lon="-119.50584179">
      </trkpt>
      <trkpt lat="52.91823392" lon="-119.50599244">
      </trkpt>
      <trkpt lat="52.91827596" lon="-119.50612863">
      </trkpt>
      <trkpt lat="52.91829946" lon="-119.50629362">
      </trkpt>
      <trkpt lat="52.91832167" lon="-119.50651811">
      </trkpt>
      <trkpt lat="52.91833495" lon="-119.50674211">
      </trkpt>
      <trkpt lat="52.91834048" lon="-119.50690605">
      </trkpt>
      <trkpt lat="52.91833642" lon="-119.50709926">
      </trkpt>
      <trkpt lat="52.91834131" lon="-119.50729278">
      </trkpt>
      <trkpt lat="52.91834721" lon="-119.50744192">
      </trkpt>
      <trkpt lat="52.91834306" lon="-119.50763513">
      </trkpt>
      <trkpt lat="52.91833993" lon="-119.50778366">
      </trkpt>
      <trkpt lat="52.91834583" lon="-119.5079328">
      </trkpt>
      <trkpt lat="52.91835357" lon="-119.50799273">
      </trkpt>
      <trkpt lat="52.91839559" lon="-119.50812906">
      </trkpt>
      <trkpt lat="52.91841909" lon="-119.50829406">
      </trkpt>
      <trkpt lat="52.91841506" lon="-119.50848728">
      </trkpt>
      <trkpt lat="52.91841154" lon="-119.50865074">
      </trkpt>
      <trkpt lat="52.91840712" lon="-119.50885875">
      </trkpt>
      <trkpt lat="52.91841421" lon="-119.50894842">
      </trkpt>
      <trkpt lat="52.91842841" lon="-119.50912775">
      </trkpt>
      <trkpt lat="52.91845164" lon="-119.50930755">
      </trkpt>
      <trkpt lat="52.91847385" lon="-119.50953202">
      </trkpt>
      <trkpt lat="52.91848869" lon="-119.50968162">
      </trkpt>
      <trkpt lat="52.91850353" lon="-119.50983122">
      </trkpt>
      <trkpt lat="52.91854492" lon="-119.50999728">
      </trkpt>
      <trkpt lat="52.91857801" lon="-119.51013315">
      </trkpt>
      <trkpt lat="52.91860189" lon="-119.51028321">
      </trkpt>
      <trkpt lat="52.91862475" lon="-119.51047795">
      </trkpt>
      <trkpt lat="52.91865719" lon="-119.51064355">
      </trkpt>
      <trkpt lat="52.91870852" lon="-119.51076555">
      </trkpt>
      <trkpt lat="52.91875866" lon="-119.51094687">
      </trkpt>
      <trkpt lat="52.91883572" lon="-119.51112986">
      </trkpt>
      <trkpt lat="52.91888706" lon="-119.51125187">
      </trkpt>
      <trkpt lat="52.9189478" lon="-119.51135953">
      </trkpt>
      <trkpt lat="52.91897407" lon="-119.51139079">
      </trkpt>
      <trkpt lat="52.91903472" lon="-119.51149844">
      </trkpt>
      <trkpt lat="52.91910347" lon="-119.51165124">
      </trkpt>
      <trkpt lat="52.9191362" lon="-119.51180191">
      </trkpt>
      <trkpt lat="52.919169" lon="-119.51195257">
      </trkpt>
      <trkpt lat="52.91919278" lon="-119.51210264">
      </trkpt>
      <trkpt lat="52.91921657" lon="-119.51225283">
      </trkpt>
      <trkpt lat="52.91923141" lon="-119.51240244">
      </trkpt>
      <trkpt lat="52.91927317" lon="-119.5125537">
      </trkpt>
      <trkpt lat="52.91932423" lon="-119.5126905">
      </trkpt>
      <trkpt lat="52.91940285" lon="-119.51279923">
      </trkpt>
      <trkpt lat="52.9194388" lon="-119.51280121">
      </trkpt>
      <trkpt lat="52.91952737" lon="-119.51286587">
      </trkpt>
      <trkpt lat="52.91960626" lon="-119.51295981">
      </trkpt>
      <trkpt lat="52.91968489" lon="-119.51306839">
      </trkpt>
      <trkpt lat="52.91974462" lon="-119.51322073">
      </trkpt>
      <trkpt lat="52.91978572" lon="-119.51340159">
      </trkpt>
      <trkpt lat="52.91980056" lon="-119.51355119">
      </trkpt>
      <trkpt lat="52.91979992" lon="-119.51358092">
      </trkpt>
      <trkpt lat="52.9197965" lon="-119.51374439">
      </trkpt>
      <trkpt lat="52.91979301" lon="-119.51390787">
      </trkpt>
      <trkpt lat="52.91978959" lon="-119.51407134">
      </trkpt>
      <trkpt lat="52.91979512" lon="-119.51423528">
      </trkpt>
      <trkpt lat="52.91980959" lon="-119.51439967">
      </trkpt>
      <trkpt lat="52.91982627" lon="-119.5144602">
      </trkpt>
      <trkpt lat="52.91989559" lon="-119.51458328">
      </trkpt>
      <trkpt lat="52.91996527" lon="-119.51469139">
      </trkpt>
      <trkpt lat="52.92003495" lon="-119.51479966">
      </trkpt>
      <trkpt lat="52.92009468" lon="-119.51495186">
      </trkpt>
      <trkpt lat="52.92014601" lon="-119.51507385">
      </trkpt>
      <trkpt lat="52.92019735" lon="-119.51519585">
      </trkpt>
      <trkpt lat="52.92026703" lon="-119.51530397">
      </trkpt>
      <trkpt lat="52.92033855" lon="-119.51538906">
      </trkpt>
      <trkpt lat="52.92012288" lon="-119.51563442">
      </trkpt>
      <trkpt lat="52.91994536" lon="-119.51574636">
      </trkpt>
      <trkpt lat="52.92005706" lon="-119.51602374">
      </trkpt>
      <trkpt lat="52.92016887" lon="-119.5163934">
      </trkpt>
      <trkpt lat="52.9202403" lon="-119.51682038">
      </trkpt>
      <trkpt lat="52.920252" lon="-119.5170537">
      </trkpt>
      <trkpt lat="52.92033422" lon="-119.51748145">
      </trkpt>
      <trkpt lat="52.92025772" lon="-119.5178508">
      </trkpt>
      <trkpt lat="52.92032823" lon="-119.51814236">
      </trkpt>
      <trkpt lat="52.92041634" lon="-119.51857027">
      </trkpt>
      <trkpt lat="52.92034574" lon="-119.51866633">
      </trkpt>
      <trkpt lat="52.92008123" lon="-119.51864681">
      </trkpt>
      <trkpt lat="52.919946" lon="-119.51870506">
      </trkpt>
      <trkpt lat="52.91966968" lon="-119.51880206">
      </trkpt>
      <trkpt lat="52.91930201" lon="-119.51888852">
      </trkpt>
      <trkpt lat="52.91922874" lon="-119.51895744">
      </trkpt>
      <trkpt lat="52.91924606" lon="-119.51935058">
      </trkpt>
      <trkpt lat="52.91935778" lon="-119.51953541">
      </trkpt>
      <trkpt lat="52.91935777" lon="-119.51967417">
      </trkpt>
      <trkpt lat="52.91930183" lon="-119.51972023">
      </trkpt>
      <trkpt lat="52.91910513" lon="-119.51962813">
      </trkpt>
      <trkpt lat="52.91888264" lon="-119.51953525">
      </trkpt>
      <trkpt lat="52.91855837" lon="-119.51946251">
      </trkpt>
      <trkpt lat="52.91823992" lon="-119.51935013">
      </trkpt>
      <trkpt lat="52.91780301" lon="-119.51914151">
      </trkpt>
      <trkpt lat="52.91747968" lon="-119.51909272">
      </trkpt>
      <trkpt lat="52.91720582" lon="-119.5192571">
      </trkpt>
      <trkpt lat="52.9166747" lon="-119.51958039">
      </trkpt>
      <trkpt lat="52.91633937" lon="-119.51971886">
      </trkpt>
      <trkpt lat="52.91628027" lon="-119.51986007">
      </trkpt>
      <trkpt lat="52.91609214" lon="-119.51974325">
      </trkpt>
      <trkpt lat="52.91579229" lon="-119.52006396">
      </trkpt>
      <trkpt lat="52.91541703" lon="-119.51994943">
      </trkpt>
      <trkpt lat="52.9149978" lon="-119.51990292">
      </trkpt>
      <trkpt lat="52.91453717" lon="-119.51959672">
      </trkpt>
      <trkpt lat="52.9142433" lon="-119.51953297">
      </trkpt>
      <trkpt lat="52.91387282" lon="-119.51946038">
      </trkpt>
      <trkpt lat="52.91347311" lon="-119.51951848">
      </trkpt>
      <trkpt lat="52.91323713" lon="-119.51967098">
      </trkpt>
      <trkpt lat="52.91342601" lon="-119.51987806">
      </trkpt>
      <trkpt lat="52.91362825" lon="-119.52008714">
      </trkpt>
      <trkpt lat="52.9137669" lon="-119.52037398">
      </trkpt>
      <trkpt lat="52.91360033" lon="-119.52027196">
      </trkpt>
      <trkpt lat="52.91340462" lon="-119.5202718">
      </trkpt>
      <trkpt lat="52.91315314" lon="-119.52036407">
      </trkpt>
      <trkpt lat="52.91287355" lon="-119.52054874">
      </trkpt>
      <trkpt lat="52.91256611" lon="-119.52087203">
      </trkpt>
      <trkpt lat="52.91217478" lon="-119.52114911">
      </trkpt>
      <trkpt lat="52.91175544" lon="-119.52156466">
      </trkpt>
      <trkpt lat="52.91134593" lon="-119.5218573">
      </trkpt>
      <trkpt lat="52.91103839" lon="-119.52212386">
      </trkpt>
      <trkpt lat="52.91100741" lon="-119.5221507">
      </trkpt>
      <trkpt lat="52.91093136" lon="-119.52221673">
      </trkpt>
      <trkpt lat="52.91000089" lon="-119.52287947">
      </trkpt>
    </trkseg>
  </trk>
</gpx>