<?xml version="1.0" encoding="UTF-8"?>
<gpx xmlns="http://www.topografix.com/GPX/1/1" xmlns:xsi="http://www.w3.org/2001/XMLSchema-instance" xsi:schemaLocation="http://www.topografix.com/GPX/1/1 http://www.topografix.com/GPX/1/1/gpx.xsd" version="1.1" creator="gpx.py -- https://github.com/tkrajina/gpxpy">
  <trk>
    <name>Ski tour near Mount Baldur</name>
    <trkseg>
      <trkpt lat="50.4495117" lon="-118.1939864">
      </trkpt>
      <trkpt lat="50.4494843" lon="-118.1932354">
      </trkpt>
      <trkpt lat="50.4492384" lon="-118.1923342">
      </trkpt>
      <trkpt lat="50.4489378" lon="-118.190682">
      </trkpt>
      <trkpt lat="50.4487602" lon="-118.1895232">
      </trkpt>
      <trkpt lat="50.4486782" lon="-118.188622">
      </trkpt>
      <trkpt lat="50.4486099" lon="-118.1861544">
      </trkpt>
      <trkpt lat="50.4484186" lon="-118.1855321">
      </trkpt>
      <trkpt lat="50.4481453" lon="-118.1847811">
      </trkpt>
      <trkpt lat="50.4479813" lon="-118.1837297">
      </trkpt>
      <trkpt lat="50.4476534" lon="-118.1828714">
      </trkpt>
      <trkpt lat="50.4473528" lon="-118.1823564">
      </trkpt>
      <trkpt lat="50.4472025" lon="-118.1816054">
      </trkpt>
      <trkpt lat="50.4470522" lon="-118.1803823">
      </trkpt>
      <trkpt lat="50.4467516" lon="-118.1793952">
      </trkpt>
      <trkpt lat="50.4461367" lon="-118.1785584">
      </trkpt>
      <trkpt lat="50.4458224" lon="-118.1776357">
      </trkpt>
      <trkpt lat="50.4457268" lon="-118.1766057">
      </trkpt>
      <trkpt lat="50.4455081" lon="-118.1760693">
      </trkpt>
      <trkpt lat="50.4452758" lon="-118.1755972">
      </trkpt>
      <trkpt lat="50.4448932" lon="-118.1751037">
      </trkpt>
      <trkpt lat="50.4444286" lon="-118.1746745">
      </trkpt>
      <trkpt lat="50.444005" lon="-118.1743098">
      </trkpt>
      <trkpt lat="50.4435541" lon="-118.1736016">
      </trkpt>
      <trkpt lat="50.4431578" lon="-118.172679">
      </trkpt>
      <trkpt lat="50.4427751" lon="-118.1709838">
      </trkpt>
      <trkpt lat="50.4424472" lon="-118.1696749">
      </trkpt>
      <trkpt lat="50.4420919" lon="-118.1689024">
      </trkpt>
      <trkpt lat="50.4416272" lon="-118.1680656">
      </trkpt>
      <trkpt lat="50.4414359" lon="-118.1675077">
      </trkpt>
      <trkpt lat="50.4412446" lon="-118.1667352">
      </trkpt>
      <trkpt lat="50.4412036" lon="-118.1658983">
      </trkpt>
      <trkpt lat="50.4409303" lon="-118.1651473">
      </trkpt>
      <trkpt lat="50.4406296" lon="-118.1643748">
      </trkpt>
      <trkpt lat="50.4401787" lon="-118.1637526">
      </trkpt>
      <trkpt lat="50.4397824" lon="-118.1629157">
      </trkpt>
      <trkpt lat="50.4392767" lon="-118.1625295">
      </trkpt>
      <trkpt lat="50.438689" lon="-118.1622505">
      </trkpt>
      <trkpt lat="50.4383064" lon="-118.1621218">
      </trkpt>
      <trkpt lat="50.4377051" lon="-118.1616712">
      </trkpt>
      <trkpt lat="50.4371994" lon="-118.1611991">
      </trkpt>
      <trkpt lat="50.4367347" lon="-118.1604481">
      </trkpt>
    </trkseg>
  </trk>
</gpx>