<?xml version="1.0" encoding="UTF-8"?>
<gpx xmlns="http://www.topografix.com/GPX/1/1" xmlns:xsi="http://www.w3.org/2001/XMLSchema-instance" xsi:schemaLocation="http://www.topografix.com/GPX/1/1 http://www.topografix.com/GPX/1/1/gpx.xsd" version="1.1" creator="gpx.py -- https://github.com/tkrajina/gpxpy">
  <trk>
    <name>Sproat Mountain ATV Trail</name>
    <trkseg>
      <trkpt lat="50.71208016" lon="-117.91582086">
      </trkpt>
      <trkpt lat="50.711917" lon="-117.915743">
      </trkpt>
      <trkpt lat="50.711826" lon="-117.915729">
      </trkpt>
      <trkpt lat="50.711802" lon="-117.915585">
      </trkpt>
      <trkpt lat="50.711723" lon="-117.91549899">
      </trkpt>
      <trkpt lat="50.71168625" lon="-117.91535544">
      </trkpt>
      <trkpt lat="50.71160978" lon="-117.91515816">
      </trkpt>
      <trkpt lat="50.71155691" lon="-117.91501542">
      </trkpt>
      <trkpt lat="50.71145215" lon="-117.91461679">
      </trkpt>
      <trkpt lat="50.71134622" lon="-117.91435984">
      </trkpt>
      <trkpt lat="50.71119595" lon="-117.91403106">
      </trkpt>
      <trkpt lat="50.71108935" lon="-117.91385904">
      </trkpt>
      <trkpt lat="50.7108221" lon="-117.91354231">
      </trkpt>
      <trkpt lat="50.71067909" lon="-117.91342626">
      </trkpt>
      <trkpt lat="50.71059844" lon="-117.91339637">
      </trkpt>
      <trkpt lat="50.71044593" lon="-117.91333675">
      </trkpt>
      <trkpt lat="50.7100775" lon="-117.91330121">
      </trkpt>
      <trkpt lat="50.70989818" lon="-117.91324112">
      </trkpt>
      <trkpt lat="50.70969184" lon="-117.91316626">
      </trkpt>
      <trkpt lat="50.70957536" lon="-117.91312142">
      </trkpt>
      <trkpt lat="50.70936031" lon="-117.91301819">
      </trkpt>
      <trkpt lat="50.70919007" lon="-117.91292989">
      </trkpt>
      <trkpt lat="50.70900251" lon="-117.91277038">
      </trkpt>
      <trkpt lat="50.70883364" lon="-117.9125122">
      </trkpt>
      <trkpt lat="50.70862012" lon="-117.91221072">
      </trkpt>
      <trkpt lat="50.70840574" lon="-117.91203656">
      </trkpt>
      <trkpt lat="50.70819929" lon="-117.91197587">
      </trkpt>
      <trkpt lat="50.70801987" lon="-117.91192997">
      </trkpt>
      <trkpt lat="50.70791258" lon="-117.9118429">
      </trkpt>
      <trkpt lat="50.70781575" lon="-117.91157192">
      </trkpt>
      <trkpt lat="50.70770129" lon="-117.91125808">
      </trkpt>
      <trkpt lat="50.70754123" lon="-117.91102843">
      </trkpt>
      <trkpt lat="50.7074166" lon="-117.91087013">
      </trkpt>
      <trkpt lat="50.7072392" lon="-117.91055523">
      </trkpt>
      <trkpt lat="50.70710673" lon="-117.91024109">
      </trkpt>
      <trkpt lat="50.7070006" lon="-117.91001235">
      </trkpt>
      <trkpt lat="50.70684994" lon="-117.90972626">
      </trkpt>
      <trkpt lat="50.70667223" lon="-117.9094536">
      </trkpt>
      <trkpt lat="50.70640574" lon="-117.90902372">
      </trkpt>
      <trkpt lat="50.70586406" lon="-117.90814931">
      </trkpt>
      <trkpt lat="50.70568683" lon="-117.90780589">
      </trkpt>
      <trkpt lat="50.70551844" lon="-117.90749114">
      </trkpt>
      <trkpt lat="50.70534984" lon="-117.90719041">
      </trkpt>
      <trkpt lat="50.70519005" lon="-117.90691836">
      </trkpt>
      <trkpt lat="50.70503977" lon="-117.90658974">
      </trkpt>
      <trkpt lat="50.70493431" lon="-117.90627606">
      </trkpt>
      <trkpt lat="50.70485558" lon="-117.90599136">
      </trkpt>
      <trkpt lat="50.70479438" lon="-117.90576352">
      </trkpt>
      <trkpt lat="50.70469782" lon="-117.90546432">
      </trkpt>
      <trkpt lat="50.70457455" lon="-117.90512213">
      </trkpt>
      <trkpt lat="50.70447771" lon="-117.90485114">
      </trkpt>
      <trkpt lat="50.70438989" lon="-117.90458031">
      </trkpt>
      <trkpt lat="50.7043648" lon="-117.90433906">
      </trkpt>
      <trkpt lat="50.70435792" lon="-117.90406991">
      </trkpt>
      <trkpt lat="50.70451287" lon="-117.9038038">
      </trkpt>
      <trkpt lat="50.70472223" lon="-117.90346801">
      </trkpt>
      <trkpt lat="50.70490353" lon="-117.90328731">
      </trkpt>
      <trkpt lat="50.70505749" lon="-117.90314868">
      </trkpt>
      <trkpt lat="50.70514058" lon="-117.90286702">
      </trkpt>
      <trkpt lat="50.70517893" lon="-117.90257042">
      </trkpt>
      <trkpt lat="50.70519888" lon="-117.9023159">
      </trkpt>
      <trkpt lat="50.70521901" lon="-117.90203303">
      </trkpt>
      <trkpt lat="50.70526628" lon="-117.90173658">
      </trkpt>
      <trkpt lat="50.70534045" lon="-117.90145461">
      </trkpt>
      <trkpt lat="50.70542305" lon="-117.90122969">
      </trkpt>
      <trkpt lat="50.70554246" lon="-117.90090625">
      </trkpt>
      <trkpt lat="50.7057338" lon="-117.90058417">
      </trkpt>
      <trkpt lat="50.70595197" lon="-117.90029092">
      </trkpt>
      <trkpt lat="50.70601724" lon="-117.89998059">
      </trkpt>
      <trkpt lat="50.70612773" lon="-117.899657">
      </trkpt>
      <trkpt lat="50.7063092" lon="-117.89944808">
      </trkpt>
      <trkpt lat="50.70651778" lon="-117.89922544">
      </trkpt>
      <trkpt lat="50.70665432" lon="-117.89900142">
      </trkpt>
      <trkpt lat="50.70680925" lon="-117.89873531">
      </trkpt>
      <trkpt lat="50.70699044" lon="-117.89856878">
      </trkpt>
      <trkpt lat="50.70710809" lon="-117.89847196">
      </trkpt>
      <trkpt lat="50.70722565" lon="-117.89838931">
      </trkpt>
      <trkpt lat="50.70733411" lon="-117.89832053">
      </trkpt>
      <trkpt lat="50.70755141" lon="-117.89812641">
      </trkpt>
      <trkpt lat="50.70776007" lon="-117.89788958">
      </trkpt>
      <trkpt lat="50.70788711" lon="-117.89775034">
      </trkpt>
      <trkpt lat="50.70803139" lon="-117.89769652">
      </trkpt>
      <trkpt lat="50.70811283" lon="-117.89762729">
      </trkpt>
      <trkpt lat="50.70843983" lon="-117.89720853">
      </trkpt>
      <trkpt lat="50.70855796" lon="-117.89705512">
      </trkpt>
      <trkpt lat="50.70874717" lon="-117.89700206">
      </trkpt>
      <trkpt lat="50.70890917" lon="-117.89699092">
      </trkpt>
      <trkpt lat="50.70909973" lon="-117.89676797">
      </trkpt>
      <trkpt lat="50.70926221" lon="-117.89668608">
      </trkpt>
      <trkpt lat="50.70940764" lon="-117.89649058">
      </trkpt>
      <trkpt lat="50.70951697" lon="-117.8963085">
      </trkpt>
      <trkpt lat="50.70967102" lon="-117.8961557">
      </trkpt>
      <trkpt lat="50.70988714" lon="-117.89611728">
      </trkpt>
      <trkpt lat="50.71003772" lon="-117.8960546">
      </trkpt>
      <trkpt lat="50.71004952" lon="-117.89604956">
      </trkpt>
      <trkpt lat="50.71020261" lon="-117.8960241">
      </trkpt>
      <trkpt lat="50.71028384" lon="-117.89598324">
      </trkpt>
      <trkpt lat="50.71050229" lon="-117.89564744">
      </trkpt>
      <trkpt lat="50.7105752" lon="-117.89552132">
      </trkpt>
      <trkpt lat="50.71088398" lon="-117.89513063">
      </trkpt>
      <trkpt lat="50.71104655" lon="-117.89503471">
      </trkpt>
      <trkpt lat="50.71120961" lon="-117.89488192">
      </trkpt>
      <trkpt lat="50.71135445" lon="-117.89475718">
      </trkpt>
      <trkpt lat="50.71146667" lon="-117.8946977">
      </trkpt>
      <trkpt lat="50.71153503" lon="-117.89466155">
      </trkpt>
      <trkpt lat="50.71168899" lon="-117.89452279">
      </trkpt>
      <trkpt lat="50.71185098" lon="-117.89451165">
      </trkpt>
      <trkpt lat="50.71193231" lon="-117.8944566">
      </trkpt>
      <trkpt lat="50.71204221" lon="-117.89420376">
      </trkpt>
      <trkpt lat="50.712134" lon="-117.89396464">
      </trkpt>
      <trkpt lat="50.71243308" lon="-117.89365875">
      </trkpt>
      <trkpt lat="50.71259574" lon="-117.89356268">
      </trkpt>
      <trkpt lat="50.71281329" lon="-117.89332615">
      </trkpt>
      <trkpt lat="50.7129685" lon="-117.89303154">
      </trkpt>
      <trkpt lat="50.7130872" lon="-117.89279303">
      </trkpt>
      <trkpt lat="50.71322344" lon="-117.89262559">
      </trkpt>
      <trkpt lat="50.71344021" lon="-117.89250223">
      </trkpt>
      <trkpt lat="50.71361207" lon="-117.89236391">
      </trkpt>
      <trkpt lat="50.71378325" lon="-117.89232472">
      </trkpt>
      <trkpt lat="50.71397272" lon="-117.89224329">
      </trkpt>
      <trkpt lat="50.71417198" lon="-117.89206288">
      </trkpt>
      <trkpt lat="50.71452682" lon="-117.89153144">
      </trkpt>
      <trkpt lat="50.71467283" lon="-117.89125084">
      </trkpt>
      <trkpt lat="50.71472753" lon="-117.8911528">
      </trkpt>
      <trkpt lat="50.71491767" lon="-117.89098642">
      </trkpt>
      <trkpt lat="50.71509932" lon="-117.89074899">
      </trkpt>
      <trkpt lat="50.71522768" lon="-117.8904257">
      </trkpt>
      <trkpt lat="50.71540951" lon="-117.89017407">
      </trkpt>
      <trkpt lat="50.71550952" lon="-117.89003439">
      </trkpt>
      <trkpt lat="50.71566394" lon="-117.88982486">
      </trkpt>
      <trkpt lat="50.71573646" lon="-117.88975533">
      </trkpt>
      <trkpt lat="50.7159083" lon="-117.88963119">
      </trkpt>
      <trkpt lat="50.71598062" lon="-117.88957584">
      </trkpt>
      <trkpt lat="50.71616429" lon="-117.88908359">
      </trkpt>
      <trkpt lat="50.71629208" lon="-117.88883105">
      </trkpt>
      <trkpt lat="50.71650073" lon="-117.88859407">
      </trkpt>
      <trkpt lat="50.71671817" lon="-117.88838577">
      </trkpt>
      <trkpt lat="50.71701635" lon="-117.88819301">
      </trkpt>
      <trkpt lat="50.71721559" lon="-117.88801261">
      </trkpt>
      <trkpt lat="50.71743237" lon="-117.88788924">
      </trkpt>
      <trkpt lat="50.71765076" lon="-117.88755345">
      </trkpt>
      <trkpt lat="50.71769637" lon="-117.88746926">
      </trkpt>
      <trkpt lat="50.7178591" lon="-117.88735901">
      </trkpt>
      <trkpt lat="50.71790471" lon="-117.88727499">
      </trkpt>
      <trkpt lat="50.71802455" lon="-117.88689466">
      </trkpt>
      <trkpt lat="50.71816077" lon="-117.88671305">
      </trkpt>
      <trkpt lat="50.71833377" lon="-117.88643305">
      </trkpt>
      <trkpt lat="50.71853446" lon="-117.88606859">
      </trkpt>
      <trkpt lat="50.71867958" lon="-117.88590131">
      </trkpt>
      <trkpt lat="50.71879817" lon="-117.88567684">
      </trkpt>
      <trkpt lat="50.71896187" lon="-117.8854391">
      </trkpt>
      <trkpt lat="50.71908976" lon="-117.88517238">
      </trkpt>
      <trkpt lat="50.71917224" lon="-117.88497566">
      </trkpt>
      <trkpt lat="50.71925483" lon="-117.8847646">
      </trkpt>
      <trkpt lat="50.71940119" lon="-117.88442744">
      </trkpt>
      <trkpt lat="50.71953876" lon="-117.88407579">
      </trkpt>
      <trkpt lat="50.71960343" lon="-117.8838504">
      </trkpt>
      <trkpt lat="50.71966838" lon="-117.88358247">
      </trkpt>
      <trkpt lat="50.71979665" lon="-117.8832732">
      </trkpt>
      <trkpt lat="50.71995125" lon="-117.88304949">
      </trkpt>
      <trkpt lat="50.7199802" lon="-117.88279498">
      </trkpt>
      <trkpt lat="50.72000034" lon="-117.88251211">
      </trkpt>
      <trkpt lat="50.72009211" lon="-117.8822588">
      </trkpt>
      <trkpt lat="50.72012135" lon="-117.8819619">
      </trkpt>
      <trkpt lat="50.72016771" lon="-117.8817786">
      </trkpt>
      <trkpt lat="50.72030373" lon="-117.88162534">
      </trkpt>
      <trkpt lat="50.7203408" lon="-117.88148428">
      </trkpt>
      <trkpt lat="50.72047837" lon="-117.88113278">
      </trkpt>
      <trkpt lat="50.72051555" lon="-117.88097754">
      </trkpt>
      <trkpt lat="50.72058089" lon="-117.88065303">
      </trkpt>
      <trkpt lat="50.72071835" lon="-117.88031555">
      </trkpt>
      <trkpt lat="50.72090945" lon="-117.8800217">
      </trkpt>
      <trkpt lat="50.7209742" lon="-117.87978198">
      </trkpt>
      <trkpt lat="50.72106617" lon="-117.8795145">
      </trkpt>
      <trkpt lat="50.72116696" lon="-117.87926151">
      </trkpt>
      <trkpt lat="50.72127662" lon="-117.87903689">
      </trkpt>
      <trkpt lat="50.72133228" lon="-117.8788112">
      </trkpt>
      <trkpt lat="50.72153258" lon="-117.87848912">
      </trkpt>
      <trkpt lat="50.72166055" lon="-117.87820822">
      </trkpt>
      <trkpt lat="50.72179782" lon="-117.87789911">
      </trkpt>
      <trkpt lat="50.72189859" lon="-117.87764597">
      </trkpt>
      <trkpt lat="50.72201747" lon="-117.87739313">
      </trkpt>
      <trkpt lat="50.72209084" lon="-117.87719626">
      </trkpt>
      <trkpt lat="50.722192" lon="-117.87690058">
      </trkpt>
      <trkpt lat="50.7223375" lon="-117.87669074">
      </trkpt>
      <trkpt lat="50.72250903" lon="-117.87659482">
      </trkpt>
      <trkpt lat="50.72258347" lon="-117.87627031">
      </trkpt>
      <trkpt lat="50.72258375" lon="-117.87622792">
      </trkpt>
      <trkpt lat="50.72262219" lon="-117.8759028">
      </trkpt>
      <trkpt lat="50.72261473" lon="-117.87569007">
      </trkpt>
      <trkpt lat="50.72256304" lon="-117.87539163">
      </trkpt>
      <trkpt lat="50.72251145" lon="-117.87507902">
      </trkpt>
      <trkpt lat="50.72250284" lon="-117.87502213">
      </trkpt>
      <trkpt lat="50.72242501" lon="-117.87460979">
      </trkpt>
      <trkpt lat="50.72241687" lon="-117.87449634">
      </trkpt>
      <trkpt lat="50.72249838" lon="-117.8744271">
      </trkpt>
      <trkpt lat="50.72267698" lon="-117.87458615">
      </trkpt>
      <trkpt lat="50.72277436" lon="-117.87480057">
      </trkpt>
      <trkpt lat="50.72283535" lon="-117.87505659">
      </trkpt>
      <trkpt lat="50.72298665" lon="-117.87527193">
      </trkpt>
      <trkpt lat="50.72314637" lon="-117.87555831">
      </trkpt>
      <trkpt lat="50.72323474" lon="-117.87575823">
      </trkpt>
      <trkpt lat="50.72334994" lon="-117.87598713">
      </trkpt>
      <trkpt lat="50.72339369" lon="-117.87615793">
      </trkpt>
      <trkpt lat="50.7234917" lon="-117.87642733">
      </trkpt>
      <trkpt lat="50.72354626" lon="-117.87660373">
      </trkpt>
      <trkpt lat="50.72361821" lon="-117.87687562">
      </trkpt>
      <trkpt lat="50.7237018" lon="-117.8770421">
      </trkpt>
      <trkpt lat="50.72382752" lon="-117.87736365">
      </trkpt>
      <trkpt lat="50.72389203" lon="-117.87682033">
      </trkpt>
      <trkpt lat="50.72391104" lon="-117.87650998">
      </trkpt>
      <trkpt lat="50.72391594" lon="-117.87619672">
      </trkpt>
      <trkpt lat="50.7239259" lon="-117.87594122">
      </trkpt>
      <trkpt lat="50.723929" lon="-117.87553041">
      </trkpt>
      <trkpt lat="50.72383219" lon="-117.87524524">
      </trkpt>
      <trkpt lat="50.72373733" lon="-117.8747051">
      </trkpt>
      <trkpt lat="50.72370229" lon="-117.87457701">
      </trkpt>
      <trkpt lat="50.72361313" lon="-117.87447605">
      </trkpt>
      <trkpt lat="50.7236143" lon="-117.87432035">
      </trkpt>
      <trkpt lat="50.72366164" lon="-117.87400941">
      </trkpt>
      <trkpt lat="50.72384081" lon="-117.87409786">
      </trkpt>
      <trkpt lat="50.72399288" lon="-117.87419988">
      </trkpt>
      <trkpt lat="50.72414525" lon="-117.87427354">
      </trkpt>
      <trkpt lat="50.72427922" lon="-117.87440347">
      </trkpt>
      <trkpt lat="50.7243763" lon="-117.87464623">
      </trkpt>
      <trkpt lat="50.7244277" lon="-117.87498722">
      </trkpt>
      <trkpt lat="50.72448985" lon="-117.87508756">
      </trkpt>
      <trkpt lat="50.72469476" lon="-117.87534634">
      </trkpt>
      <trkpt lat="50.72481915" lon="-117.87554702">
      </trkpt>
      <trkpt lat="50.72494412" lon="-117.87567681">
      </trkpt>
      <trkpt lat="50.7251137" lon="-117.87585004">
      </trkpt>
      <trkpt lat="50.72526528" lon="-117.87602282">
      </trkpt>
      <trkpt lat="50.72549624" lon="-117.87639551">
      </trkpt>
      <trkpt lat="50.725631" lon="-117.87660253">
      </trkpt>
      <trkpt lat="50.7256948" lon="-117.87672814">
      </trkpt>
      <trkpt lat="50.72574041" lon="-117.87682944">
      </trkpt>
      <trkpt lat="50.72576966" lon="-117.8769447">
      </trkpt>
      <trkpt lat="50.72578574" lon="-117.87711714">
      </trkpt>
      <trkpt lat="50.72584069" lon="-117.87729896">
      </trkpt>
      <trkpt lat="50.72590883" lon="-117.87742359">
      </trkpt>
      <trkpt lat="50.72595918" lon="-117.87758981">
      </trkpt>
      <trkpt lat="50.72599382" lon="-117.87787396">
      </trkpt>
      <trkpt lat="50.72599421" lon="-117.87802187">
      </trkpt>
      <trkpt lat="50.72596268" lon="-117.87820845">
      </trkpt>
      <trkpt lat="50.72598059" lon="-117.87835864">
      </trkpt>
      <trkpt lat="50.72603569" lon="-117.87844727">
      </trkpt>
      <trkpt lat="50.72611227" lon="-117.87859228">
      </trkpt>
      <trkpt lat="50.72615892" lon="-117.87880301">
      </trkpt>
      <trkpt lat="50.72617156" lon="-117.87897609">
      </trkpt>
      <trkpt lat="50.72616955" lon="-117.87923403">
      </trkpt>
      <trkpt lat="50.72618087" lon="-117.87948408">
      </trkpt>
      <trkpt lat="50.7262287" lon="-117.87971104">
      </trkpt>
      <trkpt lat="50.72628431" lon="-117.87985439">
      </trkpt>
      <trkpt lat="50.72632002" lon="-117.87996297">
      </trkpt>
      <trkpt lat="50.72633623" lon="-117.88004223">
      </trkpt>
      <trkpt lat="50.72631289" lon="-117.88015061">
      </trkpt>
      <trkpt lat="50.72624419" lon="-117.88025627">
      </trkpt>
      <trkpt lat="50.72617853" lon="-117.88035589">
      </trkpt>
      <trkpt lat="50.72612394" lon="-117.88046446">
      </trkpt>
      <trkpt lat="50.72609109" lon="-117.88058552">
      </trkpt>
      <trkpt lat="50.72608871" lon="-117.88069556">
      </trkpt>
      <trkpt lat="50.72608527" lon="-117.88083867">
      </trkpt>
      <trkpt lat="50.72607378" lon="-117.88096681">
      </trkpt>
      <trkpt lat="50.72607917" lon="-117.88113572">
      </trkpt>
      <trkpt lat="50.72607691" lon="-117.88129507">
      </trkpt>
      <trkpt lat="50.72608269" lon="-117.88146939">
      </trkpt>
      <trkpt lat="50.72612538" lon="-117.88162603">
      </trkpt>
      <trkpt lat="50.72616043" lon="-117.88177312">
      </trkpt>
      <trkpt lat="50.72619335" lon="-117.88198635">
      </trkpt>
      <trkpt lat="50.72624673" lon="-117.88214654">
      </trkpt>
      <trkpt lat="50.72627267" lon="-117.88231172">
      </trkpt>
      <trkpt lat="50.72625064" lon="-117.88248562">
      </trkpt>
      <trkpt lat="50.7262141" lon="-117.88265119">
      </trkpt>
      <trkpt lat="50.72616595" lon="-117.8828956">
      </trkpt>
      <trkpt lat="50.72614917" lon="-117.8831891">
      </trkpt>
      <trkpt lat="50.7261117" lon="-117.88343705">
      </trkpt>
      <trkpt lat="50.72606142" lon="-117.88374761">
      </trkpt>
      <trkpt lat="50.72602407" lon="-117.88404485">
      </trkpt>
      <trkpt lat="50.72601308" lon="-117.88437019">
      </trkpt>
      <trkpt lat="50.726029" lon="-117.88463584">
      </trkpt>
      <trkpt lat="50.72605809" lon="-117.88484429">
      </trkpt>
      <trkpt lat="50.72606742" lon="-117.88506728">
      </trkpt>
      <trkpt lat="50.72607714" lon="-117.88529569">
      </trkpt>
      <trkpt lat="50.72605324" lon="-117.88549184">
      </trkpt>
      <trkpt lat="50.72601722" lon="-117.88571212">
      </trkpt>
      <trkpt lat="50.72600822" lon="-117.88592201">
      </trkpt>
      <trkpt lat="50.72601229" lon="-117.88602539">
      </trkpt>
      <trkpt lat="50.72602334" lon="-117.88617684">
      </trkpt>
      <trkpt lat="50.72606036" lon="-117.88635096">
      </trkpt>
      <trkpt lat="50.7260793" lon="-117.88661058">
      </trkpt>
      <trkpt lat="50.72609323" lon="-117.88684919">
      </trkpt>
      <trkpt lat="50.72610268" lon="-117.88712149">
      </trkpt>
      <trkpt lat="50.72609829" lon="-117.88734698">
      </trkpt>
      <trkpt lat="50.7261329" lon="-117.88763115">
      </trkpt>
      <trkpt lat="50.72616503" lon="-117.88783356">
      </trkpt>
      <trkpt lat="50.72619611" lon="-117.88806906">
      </trkpt>
      <trkpt lat="50.72622996" lon="-117.88819992">
      </trkpt>
      <trkpt lat="50.72634332" lon="-117.88827797">
      </trkpt>
      <trkpt lat="50.72650427" lon="-117.88834191">
      </trkpt>
      <trkpt lat="50.72663173" lon="-117.88842289">
      </trkpt>
      <trkpt lat="50.72673745" lon="-117.88849138">
      </trkpt>
      <trkpt lat="50.72674876" lon="-117.88859893">
      </trkpt>
      <trkpt lat="50.72668097" lon="-117.8887647">
      </trkpt>
      <trkpt lat="50.72658221" lon="-117.88888675">
      </trkpt>
      <trkpt lat="50.72648991" lon="-117.88900216">
      </trkpt>
      <trkpt lat="50.72640935" lon="-117.88908804">
      </trkpt>
      <trkpt lat="50.72638019" lon="-117.88916458">
      </trkpt>
      <trkpt lat="50.7263431" lon="-117.88941792">
      </trkpt>
      <trkpt lat="50.72629506" lon="-117.88971163">
      </trkpt>
      <trkpt lat="50.7262589" lon="-117.88988261">
      </trkpt>
      <trkpt lat="50.7263025" lon="-117.89009939">
      </trkpt>
      <trkpt lat="50.72632883" lon="-117.89026997">
      </trkpt>
      <trkpt lat="50.72640066" lon="-117.8903501">
      </trkpt>
      <trkpt lat="50.72649503" lon="-117.89045354">
      </trkpt>
      <trkpt lat="50.72651966" lon="-117.89055318">
      </trkpt>
      <trkpt lat="50.7264499" lon="-117.8906919">
      </trkpt>
      <trkpt lat="50.72635719" lon="-117.89080189">
      </trkpt>
      <trkpt lat="50.72628203" lon="-117.89091418">
      </trkpt>
      <trkpt lat="50.7262095" lon="-117.89101504">
      </trkpt>
      <trkpt lat="50.72611034" lon="-117.89113169">
      </trkpt>
      <trkpt lat="50.72600893" lon="-117.89126518">
      </trkpt>
      <trkpt lat="50.72590607" lon="-117.89142634">
      </trkpt>
      <trkpt lat="50.72584514" lon="-117.89159085">
      </trkpt>
      <trkpt lat="50.72584616" lon="-117.89170026">
      </trkpt>
      <trkpt lat="50.72580725" lon="-117.89183338">
      </trkpt>
      <trkpt lat="50.72575265" lon="-117.89194194">
      </trkpt>
      <trkpt lat="50.72569541" lon="-117.89206193">
      </trkpt>
      <trkpt lat="50.72564424" lon="-117.89216986">
      </trkpt>
      <trkpt lat="50.72563695" lon="-117.89230819">
      </trkpt>
      <trkpt lat="50.72571816" lon="-117.89232633">
      </trkpt>
      <trkpt lat="50.72584538" lon="-117.89230872">
      </trkpt>
      <trkpt lat="50.72600885" lon="-117.89231193">
      </trkpt>
      <trkpt lat="50.72616294" lon="-117.89237712">
      </trkpt>
      <trkpt lat="50.72620734" lon="-117.89246223">
      </trkpt>
      <trkpt lat="50.72620928" lon="-117.89263177">
      </trkpt>
      <trkpt lat="50.7261619" lon="-117.89288698">
      </trkpt>
      <trkpt lat="50.72611731" lon="-117.89303756">
      </trkpt>
      <trkpt lat="50.72611739" lon="-117.89322935">
      </trkpt>
      <trkpt lat="50.72616996" lon="-117.89337874">
      </trkpt>
      <trkpt lat="50.72625034" lon="-117.89352857">
      </trkpt>
      <trkpt lat="50.72627694" lon="-117.89365527">
      </trkpt>
      <trkpt lat="50.72628483" lon="-117.89376344">
      </trkpt>
      <trkpt lat="50.72626475" lon="-117.89396438">
      </trkpt>
      <trkpt lat="50.72622476" lon="-117.89413057">
      </trkpt>
      <trkpt lat="50.72620814" lon="-117.89418838">
      </trkpt>
      <trkpt lat="50.72617276" lon="-117.89437017">
      </trkpt>
      <trkpt lat="50.72611958" lon="-117.89459355">
      </trkpt>
      <trkpt lat="50.72605233" lon="-117.89467151">
      </trkpt>
      <trkpt lat="50.7259893" lon="-117.89475968">
      </trkpt>
      <trkpt lat="50.72592638" lon="-117.89489714">
      </trkpt>
      <trkpt lat="50.72590262" lon="-117.8950001">
      </trkpt>
      <trkpt lat="50.72587742" lon="-117.89513072">
      </trkpt>
      <trkpt lat="50.7258613" lon="-117.89524324">
      </trkpt>
      <trkpt lat="50.72584929" lon="-117.89531667">
      </trkpt>
      <trkpt lat="50.72579917" lon="-117.89539153">
      </trkpt>
      <trkpt lat="50.72576951" lon="-117.89541335">
      </trkpt>
      <trkpt lat="50.72576705" lon="-117.89541034">
      </trkpt>
    </trkseg>
  </trk>
</gpx>