<?xml version="1.0" encoding="UTF-8"?>
<gpx xmlns="http://www.topografix.com/GPX/1/1" xmlns:xsi="http://www.w3.org/2001/XMLSchema-instance" xsi:schemaLocation="http://www.topografix.com/GPX/1/1 http://www.topografix.com/GPX/1/1/gpx.xsd" version="1.1" creator="gpx.py -- https://github.com/tkrajina/gpxpy">
  <trk>
    <name>Roe Creek Snowmobile Trail</name>
    <trkseg>
      <trkpt lat="49.96941007" lon="-123.16659134">
      </trkpt>
      <trkpt lat="49.9681715" lon="-123.16699413">
      </trkpt>
      <trkpt lat="49.96763488" lon="-123.16746113">
      </trkpt>
      <trkpt lat="49.9674574" lon="-123.1675944">
      </trkpt>
      <trkpt lat="49.96719419" lon="-123.16793662">
      </trkpt>
      <trkpt lat="49.96683911" lon="-123.16807368">
      </trkpt>
      <trkpt lat="49.96660601" lon="-123.16814565">
      </trkpt>
      <trkpt lat="49.96661293" lon="-123.1684136">
      </trkpt>
      <trkpt lat="49.96680256" lon="-123.16857437">
      </trkpt>
      <trkpt lat="49.9669769" lon="-123.16862106">
      </trkpt>
      <trkpt lat="49.96708403" lon="-123.16883163">
      </trkpt>
      <trkpt lat="49.96684143" lon="-123.16930491">
      </trkpt>
      <trkpt lat="49.96671763" lon="-123.16959564">
      </trkpt>
      <trkpt lat="49.96660109" lon="-123.16987124">
      </trkpt>
      <trkpt lat="49.96662232" lon="-123.17021499">
      </trkpt>
      <trkpt lat="49.96669244" lon="-123.17053653">
      </trkpt>
      <trkpt lat="49.96676257" lon="-123.17085808">
      </trkpt>
      <trkpt lat="49.96682331" lon="-123.17129522">
      </trkpt>
      <trkpt lat="49.96679515" lon="-123.17164202">
      </trkpt>
      <trkpt lat="49.9667512" lon="-123.17185562">
      </trkpt>
      <trkpt lat="49.96663415" lon="-123.17211208">
      </trkpt>
      <trkpt lat="49.9665013" lon="-123.17223532">
      </trkpt>
      <trkpt lat="49.96635018" lon="-123.17212968">
      </trkpt>
      <trkpt lat="49.96617388" lon="-123.1720064">
      </trkpt>
      <trkpt lat="49.96602671" lon="-123.17205386">
      </trkpt>
      <trkpt lat="49.9659467" lon="-123.17230803">
      </trkpt>
      <trkpt lat="49.96602818" lon="-123.17259053">
      </trkpt>
      <trkpt lat="49.96632893" lon="-123.17274441">
      </trkpt>
      <trkpt lat="49.96655709" lon="-123.17296032">
      </trkpt>
      <trkpt lat="49.96677339" lon="-123.17319614">
      </trkpt>
      <trkpt lat="49.96704104" lon="-123.17350545">
      </trkpt>
      <trkpt lat="49.96719808" lon="-123.17384079">
      </trkpt>
      <trkpt lat="49.96743018" lon="-123.17420982">
      </trkpt>
      <trkpt lat="49.96761732" lon="-123.17475417">
      </trkpt>
      <trkpt lat="49.96773236" lon="-123.17537967">
      </trkpt>
      <trkpt lat="49.9678074" lon="-123.17589262">
      </trkpt>
      <trkpt lat="49.96782615" lon="-123.17614067">
      </trkpt>
      <trkpt lat="49.96799391" lon="-123.17654034">
      </trkpt>
      <trkpt lat="49.96819205" lon="-123.17690403">
      </trkpt>
      <trkpt lat="49.96834858" lon="-123.17722025">
      </trkpt>
      <trkpt lat="49.96838509" lon="-123.17767809">
      </trkpt>
      <trkpt lat="49.96820974" lon="-123.17807234">
      </trkpt>
      <trkpt lat="49.96812033" lon="-123.17844211">
      </trkpt>
      <trkpt lat="49.96820278" lon="-123.17876291">
      </trkpt>
      <trkpt lat="49.96832473" lon="-123.17917712">
      </trkpt>
      <trkpt lat="49.96847879" lon="-123.17939764">
      </trkpt>
      <trkpt lat="49.96867088" lon="-123.17965417">
      </trkpt>
      <trkpt lat="49.96904422" lon="-123.17974612">
      </trkpt>
      <trkpt lat="49.96919779" lon="-123.17994751">
      </trkpt>
      <trkpt lat="49.96939036" lon="-123.18022318">
      </trkpt>
      <trkpt lat="49.96965653" lon="-123.18047512">
      </trkpt>
      <trkpt lat="49.96984714" lon="-123.18067423">
      </trkpt>
      <trkpt lat="49.97014246" lon="-123.18061765">
      </trkpt>
      <trkpt lat="49.97048521" lon="-123.18048144">
      </trkpt>
      <trkpt lat="49.97084031" lon="-123.18034447">
      </trkpt>
      <trkpt lat="49.97118551" lon="-123.18030398">
      </trkpt>
      <trkpt lat="49.97162107" lon="-123.18041127">
      </trkpt>
      <trkpt lat="49.97200032" lon="-123.18073293">
      </trkpt>
      <trkpt lat="49.97235541" lon="-123.18059597">
      </trkpt>
      <trkpt lat="49.97265565" lon="-123.18073079">
      </trkpt>
      <trkpt lat="49.97294105" lon="-123.18124999">
      </trkpt>
      <trkpt lat="49.97326249" lon="-123.18172863">
      </trkpt>
      <trkpt lat="49.9735706" lon="-123.18216974">
      </trkpt>
      <trkpt lat="49.97392761" lon="-123.18258867">
      </trkpt>
      <trkpt lat="49.97449998" lon="-123.18320496">
      </trkpt>
      <trkpt lat="49.97495192" lon="-123.18352113">
      </trkpt>
      <trkpt lat="49.97576332" lon="-123.18398753">
      </trkpt>
      <trkpt lat="49.97607181" lon="-123.18497561">
      </trkpt>
      <trkpt lat="49.97661451" lon="-123.18535533">
      </trkpt>
      <trkpt lat="49.97783897" lon="-123.18569299">
      </trkpt>
      <trkpt lat="49.97874474" lon="-123.18659266">
      </trkpt>
      <trkpt lat="49.97984145" lon="-123.18714487">
      </trkpt>
      <trkpt lat="49.9804453" lon="-123.18696093">
      </trkpt>
      <trkpt lat="49.98084135" lon="-123.18697486">
      </trkpt>
      <trkpt lat="49.98129768" lon="-123.18692755">
      </trkpt>
      <trkpt lat="49.9818567" lon="-123.18702732">
      </trkpt>
      <trkpt lat="49.9822404" lon="-123.18704202">
      </trkpt>
      <trkpt lat="49.98268781" lon="-123.1871295">
      </trkpt>
      <trkpt lat="49.98302411" lon="-123.18722382">
      </trkpt>
      <trkpt lat="49.98344191" lon="-123.18712135">
      </trkpt>
      <trkpt lat="49.98415652" lon="-123.18701976">
      </trkpt>
      <trkpt lat="49.98462715" lon="-123.18704827">
      </trkpt>
      <trkpt lat="49.98519752" lon="-123.187109">
      </trkpt>
      <trkpt lat="49.98567306" lon="-123.18732899">
      </trkpt>
      <trkpt lat="49.98605873" lon="-123.18742028">
      </trkpt>
      <trkpt lat="49.98644097" lon="-123.18737753">
      </trkpt>
      <trkpt lat="49.98670073" lon="-123.1873807">
      </trkpt>
      <trkpt lat="49.98711355" lon="-123.18756621">
      </trkpt>
      <trkpt lat="49.98749081" lon="-123.18781144">
      </trkpt>
      <trkpt lat="49.9880033" lon="-123.18850865">
      </trkpt>
      <trkpt lat="49.98843336" lon="-123.18888491">
      </trkpt>
      <trkpt lat="49.98869598" lon="-123.18948244">
      </trkpt>
      <trkpt lat="49.98910773" lon="-123.19010917">
      </trkpt>
      <trkpt lat="49.98962765" lon="-123.19061417">
      </trkpt>
      <trkpt lat="49.9903061" lon="-123.19103269">
      </trkpt>
      <trkpt lat="49.99066757" lon="-123.19114469">
      </trkpt>
      <trkpt lat="49.99106558" lon="-123.19123527">
      </trkpt>
      <trkpt lat="49.99134709" lon="-123.19112203">
      </trkpt>
      <trkpt lat="49.99162076" lon="-123.1907024">
      </trkpt>
      <trkpt lat="49.99195909" lon="-123.19039385">
      </trkpt>
      <trkpt lat="49.99261736" lon="-123.19050676">
      </trkpt>
      <trkpt lat="49.99314422" lon="-123.19080038">
      </trkpt>
      <trkpt lat="49.99352343" lon="-123.19112229">
      </trkpt>
      <trkpt lat="49.99405017" lon="-123.19145157">
      </trkpt>
      <trkpt lat="49.99423393" lon="-123.19160302">
      </trkpt>
      <trkpt lat="49.99560855" lon="-123.19229389">
      </trkpt>
      <trkpt lat="49.99720632" lon="-123.19426364">
      </trkpt>
      <trkpt lat="49.99771034" lon="-123.1944721">
      </trkpt>
      <trkpt lat="49.99814895" lon="-123.19453971">
      </trkpt>
      <trkpt lat="49.99847044" lon="-123.19453912">
      </trkpt>
      <trkpt lat="49.99905853" lon="-123.19480988">
      </trkpt>
      <trkpt lat="49.99962486" lon="-123.19519708">
      </trkpt>
      <trkpt lat="50.00004745" lon="-123.19576579">
      </trkpt>
      <trkpt lat="50.00037225" lon="-123.19637889">
      </trkpt>
      <trkpt lat="50.00058103" lon="-123.19680728">
      </trkpt>
      <trkpt lat="50.00101889" lon="-123.19749017">
      </trkpt>
      <trkpt lat="50.00127266" lon="-123.19774317">
      </trkpt>
      <trkpt lat="50.00173728" lon="-123.19802157">
      </trkpt>
      <trkpt lat="50.00230263" lon="-123.19837052">
      </trkpt>
      <trkpt lat="50.00308127" lon="-123.19884068">
      </trkpt>
      <trkpt lat="50.00359772" lon="-123.19921183">
      </trkpt>
      <trkpt lat="50.00416843" lon="-123.19977154">
      </trkpt>
      <trkpt lat="50.00461471" lon="-123.20030051">
      </trkpt>
      <trkpt lat="50.00517454" lon="-123.20091845">
      </trkpt>
      <trkpt lat="50.00563964" lon="-123.20121608">
      </trkpt>
      <trkpt lat="50.0059704" lon="-123.2015795">
      </trkpt>
      <trkpt lat="50.00713502" lon="-123.20264003">
      </trkpt>
      <trkpt lat="50.00793282" lon="-123.20337776">
      </trkpt>
      <trkpt lat="50.00860228" lon="-123.20393149">
      </trkpt>
      <trkpt lat="50.00943516" lon="-123.20459037">
      </trkpt>
      <trkpt lat="50.01042835" lon="-123.20532349">
      </trkpt>
      <trkpt lat="50.01080242" lon="-123.20558071">
      </trkpt>
      <trkpt lat="50.012115" lon="-123.20664547">
      </trkpt>
      <trkpt lat="50.01404336" lon="-123.2085223">
      </trkpt>
      <trkpt lat="50.01534245" lon="-123.20957524">
      </trkpt>
      <trkpt lat="50.01570293" lon="-123.20988633">
      </trkpt>
      <trkpt lat="50.01609734" lon="-123.21032276">
      </trkpt>
      <trkpt lat="50.01649824" lon="-123.21052852">
      </trkpt>
      <trkpt lat="50.01717464" lon="-123.21087094">
      </trkpt>
      <trkpt lat="50.01789004" lon="-123.21128775">
      </trkpt>
      <trkpt lat="50.01844492" lon="-123.21171441">
      </trkpt>
      <trkpt lat="50.01882601" lon="-123.21211331">
      </trkpt>
      <trkpt lat="50.01945885" lon="-123.21268873">
      </trkpt>
      <trkpt lat="50.02021954" lon="-123.2134291">
      </trkpt>
      <trkpt lat="50.02068946" lon="-123.21391855">
      </trkpt>
      <trkpt lat="50.02119398" lon="-123.21430995">
      </trkpt>
      <trkpt lat="50.02173992" lon="-123.21487157">
      </trkpt>
      <trkpt lat="50.02223209" lon="-123.21526373">
      </trkpt>
      <trkpt lat="50.02260683" lon="-123.21541357">
      </trkpt>
      <trkpt lat="50.02288816" lon="-123.21578025">
      </trkpt>
      <trkpt lat="50.02304602" lon="-123.21615448">
      </trkpt>
      <trkpt lat="50.02351641" lon="-123.21666316">
      </trkpt>
      <trkpt lat="50.02400205" lon="-123.21728609">
      </trkpt>
      <trkpt lat="50.02432719" lon="-123.2178185">
      </trkpt>
      <trkpt lat="50.02496485" lon="-123.21864357">
      </trkpt>
      <trkpt lat="50.0258502" lon="-123.21963868">
      </trkpt>
      <trkpt lat="50.02600294" lon="-123.21963999">
      </trkpt>
      <trkpt lat="50.02649774" lon="-123.21964821">
      </trkpt>
      <trkpt lat="50.02687102" lon="-123.21974061">
      </trkpt>
      <trkpt lat="50.02728907" lon="-123.22004651">
      </trkpt>
      <trkpt lat="50.02840376" lon="-123.2204076">
      </trkpt>
      <trkpt lat="50.02896595" lon="-123.22043822">
      </trkpt>
      <trkpt lat="50.02942468" lon="-123.22048702">
      </trkpt>
      <trkpt lat="50.03009086" lon="-123.2204272">
      </trkpt>
      <trkpt lat="50.03082966" lon="-123.22030536">
      </trkpt>
      <trkpt lat="50.03142079" lon="-123.22021171">
      </trkpt>
      <trkpt lat="50.0317551" lon="-123.22022971">
      </trkpt>
      <trkpt lat="50.03237264" lon="-123.22069118">
      </trkpt>
      <trkpt lat="50.03284467" lon="-123.22077756">
      </trkpt>
      <trkpt lat="50.03312113" lon="-123.22095267">
      </trkpt>
      <trkpt lat="50.03338494" lon="-123.2211973">
      </trkpt>
      <trkpt lat="50.0340141" lon="-123.22160245">
      </trkpt>
      <trkpt lat="50.03460693" lon="-123.22245335">
      </trkpt>
      <trkpt lat="50.03519322" lon="-123.22304595">
      </trkpt>
      <trkpt lat="50.03624926" lon="-123.22338817">
      </trkpt>
      <trkpt lat="50.0372862" lon="-123.22391638">
      </trkpt>
      <trkpt lat="50.0383087" lon="-123.22481513">
      </trkpt>
      <trkpt lat="50.03913264" lon="-123.22539333">
      </trkpt>
      <trkpt lat="50.03953343" lon="-123.22618214">
      </trkpt>
      <trkpt lat="50.0400358" lon="-123.22722352">
      </trkpt>
      <trkpt lat="50.04094922" lon="-123.22757455">
      </trkpt>
      <trkpt lat="50.0417536" lon="-123.22737775">
      </trkpt>
      <trkpt lat="50.04212829" lon="-123.22713315">
      </trkpt>
      <trkpt lat="50.04284784" lon="-123.22734813">
      </trkpt>
      <trkpt lat="50.04332972" lon="-123.22757757">
      </trkpt>
      <trkpt lat="50.04393602" lon="-123.22802125">
      </trkpt>
      <trkpt lat="50.0445726" lon="-123.22872188">
      </trkpt>
      <trkpt lat="50.04527582" lon="-123.22923364">
      </trkpt>
      <trkpt lat="50.04604104" lon="-123.22937195">
      </trkpt>
      <trkpt lat="50.0464559" lon="-123.22968581">
      </trkpt>
      <trkpt lat="50.04705642" lon="-123.23371769">
      </trkpt>
      <trkpt lat="50.04605363" lon="-123.2411724">
      </trkpt>
      <trkpt lat="50.04491912" lon="-123.24932786">
      </trkpt>
      <trkpt lat="50.04325192" lon="-123.25404934">
      </trkpt>
      <trkpt lat="50.04062411" lon="-123.25605592">
      </trkpt>
      <trkpt lat="50.03910979" lon="-123.25499201">
      </trkpt>
      <trkpt lat="50.03774978" lon="-123.25414988">
      </trkpt>
    </trkseg>
  </trk>
</gpx>