<?xml version="1.0" encoding="UTF-8"?>
<gpx xmlns="http://www.topografix.com/GPX/1/1" xmlns:xsi="http://www.w3.org/2001/XMLSchema-instance" xsi:schemaLocation="http://www.topografix.com/GPX/1/1 http://www.topografix.com/GPX/1/1/gpx.xsd" version="1.1" creator="gpx.py -- https://github.com/tkrajina/gpxpy">
  <trk>
    <name>Brandywine Meadows</name>
    <trkseg>
      <trkpt lat="50.07809398" lon="-123.18547622">
      </trkpt>
      <trkpt lat="50.07817191" lon="-123.18550401">
      </trkpt>
      <trkpt lat="50.078254" lon="-123.18550134">
      </trkpt>
      <trkpt lat="50.07836594" lon="-123.18549954">
      </trkpt>
      <trkpt lat="50.07848852" lon="-123.18543137">
      </trkpt>
      <trkpt lat="50.07859123" lon="-123.18536416">
      </trkpt>
      <trkpt lat="50.07869618" lon="-123.18531875">
      </trkpt>
      <trkpt lat="50.07880599" lon="-123.18525715">
      </trkpt>
      <trkpt lat="50.07889779" lon="-123.1852535">
      </trkpt>
      <trkpt lat="50.07895511" lon="-123.18533131">
      </trkpt>
      <trkpt lat="50.07903417" lon="-123.18528954">
      </trkpt>
      <trkpt lat="50.07912212" lon="-123.18530668">
      </trkpt>
      <trkpt lat="50.07919324" lon="-123.18536086">
      </trkpt>
      <trkpt lat="50.07924945" lon="-123.18523752">
      </trkpt>
      <trkpt lat="50.07924263" lon="-123.18512819">
      </trkpt>
      <trkpt lat="50.07933864" lon="-123.18510126">
      </trkpt>
      <trkpt lat="50.07942985" lon="-123.18512306">
      </trkpt>
      <trkpt lat="50.07953832" lon="-123.18511887">
      </trkpt>
      <trkpt lat="50.07962535" lon="-123.18515387">
      </trkpt>
      <trkpt lat="50.07970088" lon="-123.18512762">
      </trkpt>
      <trkpt lat="50.07977949" lon="-123.1850886">
      </trkpt>
      <trkpt lat="50.07983013" lon="-123.1850126">
      </trkpt>
      <trkpt lat="50.0798316" lon="-123.18484408">
      </trkpt>
      <trkpt lat="50.07988366" lon="-123.18476439">
      </trkpt>
      <trkpt lat="50.07994115" lon="-123.18476279">
      </trkpt>
      <trkpt lat="50.08003639" lon="-123.18476161">
      </trkpt>
      <trkpt lat="50.08013064" lon="-123.18479522">
      </trkpt>
      <trkpt lat="50.08021713" lon="-123.18475375">
      </trkpt>
      <trkpt lat="50.08031752" lon="-123.18476014">
      </trkpt>
      <trkpt lat="50.08039738" lon="-123.18463542">
      </trkpt>
      <trkpt lat="50.08036184" lon="-123.18446207">
      </trkpt>
      <trkpt lat="50.08032284" lon="-123.18430161">
      </trkpt>
      <trkpt lat="50.08031681" lon="-123.18418666">
      </trkpt>
      <trkpt lat="50.08038061" lon="-123.18411969">
      </trkpt>
      <trkpt lat="50.08043278" lon="-123.18406143">
      </trkpt>
      <trkpt lat="50.08039996" lon="-123.18387608">
      </trkpt>
      <trkpt lat="50.08049419" lon="-123.18379738">
      </trkpt>
      <trkpt lat="50.08057146" lon="-123.1837807">
      </trkpt>
      <trkpt lat="50.08064688" lon="-123.18373559">
      </trkpt>
      <trkpt lat="50.08070843" lon="-123.18364004">
      </trkpt>
      <trkpt lat="50.08071716" lon="-123.18354001">
      </trkpt>
      <trkpt lat="50.08069759" lon="-123.18341145">
      </trkpt>
      <trkpt lat="50.08075194" lon="-123.18330928">
      </trkpt>
      <trkpt lat="50.08085068" lon="-123.18330746">
      </trkpt>
      <trkpt lat="50.08087328" lon="-123.18342393">
      </trkpt>
      <trkpt lat="50.08094645" lon="-123.18344957">
      </trkpt>
      <trkpt lat="50.0810116" lon="-123.18347082">
      </trkpt>
      <trkpt lat="50.08109412" lon="-123.18345752">
      </trkpt>
      <trkpt lat="50.0810408" lon="-123.18332446">
      </trkpt>
      <trkpt lat="50.08101041" lon="-123.18320522">
      </trkpt>
      <trkpt lat="50.08097778" lon="-123.18312831">
      </trkpt>
      <trkpt lat="50.08090178" lon="-123.18311504">
      </trkpt>
      <trkpt lat="50.08091654" lon="-123.18299286">
      </trkpt>
      <trkpt lat="50.08087063" lon="-123.18286633">
      </trkpt>
      <trkpt lat="50.08083524" lon="-123.18270123">
      </trkpt>
      <trkpt lat="50.08081768" lon="-123.18253928">
      </trkpt>
      <trkpt lat="50.08081684" lon="-123.18241578">
      </trkpt>
      <trkpt lat="50.08089569" lon="-123.18244876">
      </trkpt>
      <trkpt lat="50.08097469" lon="-123.18251238">
      </trkpt>
      <trkpt lat="50.08103542" lon="-123.1825789">
      </trkpt>
      <trkpt lat="50.08109556" lon="-123.1826146">
      </trkpt>
      <trkpt lat="50.08115578" lon="-123.18251667">
      </trkpt>
      <trkpt lat="50.08118272" lon="-123.18241311">
      </trkpt>
      <trkpt lat="50.08114783" lon="-123.18231751">
      </trkpt>
      <trkpt lat="50.08104841" lon="-123.18227153">
      </trkpt>
      <trkpt lat="50.08102086" lon="-123.18215099">
      </trkpt>
      <trkpt lat="50.0809646" lon="-123.18204283">
      </trkpt>
      <trkpt lat="50.08093759" lon="-123.18192409">
      </trkpt>
      <trkpt lat="50.08092092" lon="-123.18182965">
      </trkpt>
      <trkpt lat="50.08095557" lon="-123.18173724">
      </trkpt>
      <trkpt lat="50.08100775" lon="-123.18164266">
      </trkpt>
      <trkpt lat="50.08106621" lon="-123.18155423">
      </trkpt>
      <trkpt lat="50.08113196" lon="-123.1814987">
      </trkpt>
      <trkpt lat="50.08119913" lon="-123.18140539">
      </trkpt>
      <trkpt lat="50.08124408" lon="-123.18130067">
      </trkpt>
      <trkpt lat="50.08131278" lon="-123.18119858">
      </trkpt>
      <trkpt lat="50.0813669" lon="-123.1811796">
      </trkpt>
      <trkpt lat="50.08143829" lon="-123.18109432">
      </trkpt>
      <trkpt lat="50.08150595" lon="-123.18102091">
      </trkpt>
      <trkpt lat="50.0815865" lon="-123.18095701">
      </trkpt>
      <trkpt lat="50.08164139" lon="-123.18092858">
      </trkpt>
      <trkpt lat="50.08168329" lon="-123.18098013">
      </trkpt>
      <trkpt lat="50.08175119" lon="-123.18096047">
      </trkpt>
      <trkpt lat="50.0817984" lon="-123.18099056">
      </trkpt>
      <trkpt lat="50.081859" lon="-123.18096684">
      </trkpt>
      <trkpt lat="50.08184181" lon="-123.18081969">
      </trkpt>
      <trkpt lat="50.08183547" lon="-123.18069266">
      </trkpt>
      <trkpt lat="50.08181315" lon="-123.18056812">
      </trkpt>
      <trkpt lat="50.08183741" lon="-123.18047412">
      </trkpt>
      <trkpt lat="50.08189862" lon="-123.18035652">
      </trkpt>
      <trkpt lat="50.08195263" lon="-123.18035561">
      </trkpt>
      <trkpt lat="50.08200511" lon="-123.18038985">
      </trkpt>
      <trkpt lat="50.08208209" lon="-123.18041621">
      </trkpt>
      <trkpt lat="50.08214211" lon="-123.18047928">
      </trkpt>
      <trkpt lat="50.08220201" lon="-123.18054223">
      </trkpt>
      <trkpt lat="50.08228545" lon="-123.18053721">
      </trkpt>
      <trkpt lat="50.08234819" lon="-123.18055456">
      </trkpt>
      <trkpt lat="50.08239625" lon="-123.18063333">
      </trkpt>
      <trkpt lat="50.08242846" lon="-123.18074928">
      </trkpt>
      <trkpt lat="50.08250918" lon="-123.1807188">
      </trkpt>
      <trkpt lat="50.08255398" lon="-123.18074796">
      </trkpt>
      <trkpt lat="50.08262692" lon="-123.18074841">
      </trkpt>
      <trkpt lat="50.08267536" lon="-123.18062812">
      </trkpt>
      <trkpt lat="50.08272524" lon="-123.18053345">
      </trkpt>
      <trkpt lat="50.08278269" lon="-123.18046794">
      </trkpt>
      <trkpt lat="50.08284336" lon="-123.18045101">
      </trkpt>
      <trkpt lat="50.08290982" lon="-123.18043828">
      </trkpt>
      <trkpt lat="50.08297145" lon="-123.18047927">
      </trkpt>
      <trkpt lat="50.08303081" lon="-123.18053005">
      </trkpt>
      <trkpt lat="50.08309427" lon="-123.1804933">
      </trkpt>
      <trkpt lat="50.08311275" lon="-123.1803712">
      </trkpt>
      <trkpt lat="50.08310663" lon="-123.18026713">
      </trkpt>
      <trkpt lat="50.08311642" lon="-123.18018557">
      </trkpt>
      <trkpt lat="50.08317661" lon="-123.18019322">
      </trkpt>
      <trkpt lat="50.083243" lon="-123.18027081">
      </trkpt>
      <trkpt lat="50.08330113" lon="-123.18032088">
      </trkpt>
      <trkpt lat="50.08337481" lon="-123.18035957">
      </trkpt>
      <trkpt lat="50.08346057" lon="-123.18034017">
      </trkpt>
      <trkpt lat="50.08351492" lon="-123.18037619">
      </trkpt>
      <trkpt lat="50.08354977" lon="-123.18047578">
      </trkpt>
      <trkpt lat="50.08361548" lon="-123.18048666">
      </trkpt>
      <trkpt lat="50.08367735" lon="-123.18051682">
      </trkpt>
      <trkpt lat="50.08370441" lon="-123.18058914">
      </trkpt>
      <trkpt lat="50.08374534" lon="-123.18065985">
      </trkpt>
      <trkpt lat="50.08381559" lon="-123.18071726">
      </trkpt>
      <trkpt lat="50.0838832" lon="-123.1807511">
      </trkpt>
      <trkpt lat="50.08393986" lon="-123.18073408">
      </trkpt>
      <trkpt lat="50.08401281" lon="-123.1807058">
      </trkpt>
      <trkpt lat="50.08408216" lon="-123.18066421">
      </trkpt>
      <trkpt lat="50.08415661" lon="-123.18063646">
      </trkpt>
      <trkpt lat="50.08423775" lon="-123.18064546">
      </trkpt>
      <trkpt lat="50.0843025" lon="-123.18067548">
      </trkpt>
      <trkpt lat="50.0843874" lon="-123.18067503">
      </trkpt>
      <trkpt lat="50.08446022" lon="-123.1806994">
      </trkpt>
      <trkpt lat="50.08452107" lon="-123.18077155">
      </trkpt>
      <trkpt lat="50.08458477" lon="-123.1808036">
      </trkpt>
      <trkpt lat="50.08465957" lon="-123.18087467">
      </trkpt>
      <trkpt lat="50.08473584" lon="-123.18089291">
      </trkpt>
      <trkpt lat="50.08481912" lon="-123.18093827">
      </trkpt>
      <trkpt lat="50.08488709" lon="-123.18088805">
      </trkpt>
      <trkpt lat="50.08496806" lon="-123.18088916">
      </trkpt>
      <trkpt lat="50.08502485" lon="-123.18089504">
      </trkpt>
      <trkpt lat="50.08506503" lon="-123.18085791">
      </trkpt>
      <trkpt lat="50.08513353" lon="-123.18087137">
      </trkpt>
      <trkpt lat="50.08519473" lon="-123.18093213">
      </trkpt>
      <trkpt lat="50.08526894" lon="-123.18094888">
      </trkpt>
      <trkpt lat="50.08535127" lon="-123.18088588">
      </trkpt>
      <trkpt lat="50.08542051" lon="-123.18086664">
      </trkpt>
      <trkpt lat="50.08549502" lon="-123.1809028">
      </trkpt>
      <trkpt lat="50.0855626" lon="-123.18091377">
      </trkpt>
      <trkpt lat="50.08562871" lon="-123.18095504">
      </trkpt>
      <trkpt lat="50.08570696" lon="-123.1810039">
      </trkpt>
      <trkpt lat="50.0857879" lon="-123.18099243">
      </trkpt>
      <trkpt lat="50.08588193" lon="-123.18095838">
      </trkpt>
      <trkpt lat="50.08596724" lon="-123.18098153">
      </trkpt>
      <trkpt lat="50.08606104" lon="-123.18105134">
      </trkpt>
      <trkpt lat="50.08616939" lon="-123.18098729">
      </trkpt>
      <trkpt lat="50.08626339" lon="-123.18097559">
      </trkpt>
      <trkpt lat="50.08634213" lon="-123.18099477">
      </trkpt>
      <trkpt lat="50.08640185" lon="-123.18103318">
      </trkpt>
      <trkpt lat="50.08647985" lon="-123.1810823">
      </trkpt>
      <trkpt lat="50.08655301" lon="-123.18115004">
      </trkpt>
      <trkpt lat="50.08663503" lon="-123.18118258">
      </trkpt>
      <trkpt lat="50.08671676" lon="-123.18118607">
      </trkpt>
      <trkpt lat="50.08677591" lon="-123.18119577">
      </trkpt>
      <trkpt lat="50.08687176" lon="-123.18116762">
      </trkpt>
      <trkpt lat="50.08694357" lon="-123.18121267">
      </trkpt>
      <trkpt lat="50.08700758" lon="-123.18126252">
      </trkpt>
      <trkpt lat="50.08710635" lon="-123.18128313">
      </trkpt>
      <trkpt lat="50.087203" lon="-123.18128259">
      </trkpt>
      <trkpt lat="50.08728267" lon="-123.18129294">
      </trkpt>
      <trkpt lat="50.08739176" lon="-123.18132245">
      </trkpt>
      <trkpt lat="50.08747081" lon="-123.18136329">
      </trkpt>
      <trkpt lat="50.08754598" lon="-123.18136108">
      </trkpt>
      <trkpt lat="50.08762409" lon="-123.18137221">
      </trkpt>
      <trkpt lat="50.08767853" lon="-123.18139822">
      </trkpt>
      <trkpt lat="50.08775172" lon="-123.18148815">
      </trkpt>
      <trkpt lat="50.08787115" lon="-123.18154828">
      </trkpt>
      <trkpt lat="50.08791931" lon="-123.18163141">
      </trkpt>
      <trkpt lat="50.08799378" lon="-123.18168214">
      </trkpt>
      <trkpt lat="50.08807733" lon="-123.18168853">
      </trkpt>
      <trkpt lat="50.08815685" lon="-123.18174308">
      </trkpt>
      <trkpt lat="50.0882345" lon="-123.18174523">
      </trkpt>
      <trkpt lat="50.08832313" lon="-123.18178563">
      </trkpt>
      <trkpt lat="50.08840766" lon="-123.1818661">
      </trkpt>
      <trkpt lat="50.08850766" lon="-123.18198883">
      </trkpt>
      <trkpt lat="50.0885688" lon="-123.18208413">
      </trkpt>
      <trkpt lat="50.08860626" lon="-123.18219487">
      </trkpt>
      <trkpt lat="50.08866992" lon="-123.18218891">
      </trkpt>
      <trkpt lat="50.08872393" lon="-123.18228016">
      </trkpt>
      <trkpt lat="50.08869131" lon="-123.18242875">
      </trkpt>
      <trkpt lat="50.08866674" lon="-123.18254139">
      </trkpt>
      <trkpt lat="50.08869066" lon="-123.18265738">
      </trkpt>
      <trkpt lat="50.08870445" lon="-123.18274495">
      </trkpt>
      <trkpt lat="50.08877226" lon="-123.1827945">
      </trkpt>
      <trkpt lat="50.08887751" lon="-123.18275219">
      </trkpt>
      <trkpt lat="50.08897414" lon="-123.18269139">
      </trkpt>
      <trkpt lat="50.08905682" lon="-123.18263192">
      </trkpt>
      <trkpt lat="50.08914071" lon="-123.18264039">
      </trkpt>
      <trkpt lat="50.0892055" lon="-123.18259397">
      </trkpt>
      <trkpt lat="50.08925825" lon="-123.18264314">
      </trkpt>
      <trkpt lat="50.08934805" lon="-123.1826708">
      </trkpt>
      <trkpt lat="50.08939009" lon="-123.18275588">
      </trkpt>
      <trkpt lat="50.08946505" lon="-123.18276187">
      </trkpt>
      <trkpt lat="50.08953626" lon="-123.18282819">
      </trkpt>
      <trkpt lat="50.08960495" lon="-123.18282974">
      </trkpt>
      <trkpt lat="50.0896156" lon="-123.18269243">
      </trkpt>
      <trkpt lat="50.08962918" lon="-123.18254544">
      </trkpt>
      <trkpt lat="50.08969186" lon="-123.18244946">
      </trkpt>
      <trkpt lat="50.08974299" lon="-123.18239703">
      </trkpt>
      <trkpt lat="50.08981108" lon="-123.1823049">
      </trkpt>
      <trkpt lat="50.08984394" lon="-123.18220483">
      </trkpt>
      <trkpt lat="50.08986814" lon="-123.18211101">
      </trkpt>
      <trkpt lat="50.08981313" lon="-123.18210715">
      </trkpt>
      <trkpt lat="50.08975789" lon="-123.1821534">
      </trkpt>
      <trkpt lat="50.08968607" lon="-123.18221076">
      </trkpt>
      <trkpt lat="50.08968754" lon="-123.18210776">
      </trkpt>
      <trkpt lat="50.0897238" lon="-123.18203723">
      </trkpt>
      <trkpt lat="50.0897619" lon="-123.18195881">
      </trkpt>
      <trkpt lat="50.08979256" lon="-123.18188488">
      </trkpt>
      <trkpt lat="50.08981264" lon="-123.18180298">
      </trkpt>
      <trkpt lat="50.08982585" lon="-123.18169745">
      </trkpt>
      <trkpt lat="50.08984709" lon="-123.18160932">
      </trkpt>
      <trkpt lat="50.08985434" lon="-123.18150163">
      </trkpt>
      <trkpt lat="50.08986346" lon="-123.18138653">
      </trkpt>
      <trkpt lat="50.08986586" lon="-123.18126233">
      </trkpt>
      <trkpt lat="50.08989283" lon="-123.18110211">
      </trkpt>
      <trkpt lat="50.08988422" lon="-123.18086947">
      </trkpt>
      <trkpt lat="50.08989583" lon="-123.18068491">
      </trkpt>
      <trkpt lat="50.08990392" lon="-123.18058574">
      </trkpt>
      <trkpt lat="50.08998356" lon="-123.18070278">
      </trkpt>
      <trkpt lat="50.09003461" lon="-123.18087228">
      </trkpt>
      <trkpt lat="50.09008044" lon="-123.18102155">
      </trkpt>
      <trkpt lat="50.09015486" lon="-123.18115312">
      </trkpt>
      <trkpt lat="50.0901964" lon="-123.1813173">
      </trkpt>
      <trkpt lat="50.09026346" lon="-123.18144175">
      </trkpt>
      <trkpt lat="50.09033032" lon="-123.18156585">
      </trkpt>
      <trkpt lat="50.0903243" lon="-123.18135527">
      </trkpt>
      <trkpt lat="50.09032933" lon="-123.18118591">
      </trkpt>
      <trkpt lat="50.09040849" lon="-123.18123069">
      </trkpt>
      <trkpt lat="50.09055659" lon="-123.18134874">
      </trkpt>
      <trkpt lat="50.09069538" lon="-123.18148285">
      </trkpt>
      <trkpt lat="50.09081168" lon="-123.18160781">
      </trkpt>
      <trkpt lat="50.09090915" lon="-123.18172161">
      </trkpt>
      <trkpt lat="50.09103422" lon="-123.18181678">
      </trkpt>
      <trkpt lat="50.09118639" lon="-123.18204783">
      </trkpt>
      <trkpt lat="50.09127616" lon="-123.18215354">
      </trkpt>
      <trkpt lat="50.09137472" lon="-123.18222781">
      </trkpt>
      <trkpt lat="50.09147044" lon="-123.18235045">
      </trkpt>
      <trkpt lat="50.0915512" lon="-123.18244744">
      </trkpt>
      <trkpt lat="50.09159886" lon="-123.18262719">
      </trkpt>
      <trkpt lat="50.09171223" lon="-123.18267898">
      </trkpt>
      <trkpt lat="50.09186536" lon="-123.18273808">
      </trkpt>
      <trkpt lat="50.09196647" lon="-123.18283282">
      </trkpt>
      <trkpt lat="50.0920584" lon="-123.18299634">
      </trkpt>
      <trkpt lat="50.09217129" lon="-123.18315462">
      </trkpt>
      <trkpt lat="50.09222823" lon="-123.18324705">
      </trkpt>
      <trkpt lat="50.09232031" lon="-123.18336092">
      </trkpt>
      <trkpt lat="50.09240661" lon="-123.18345553">
      </trkpt>
      <trkpt lat="50.09248142" lon="-123.18359037">
      </trkpt>
      <trkpt lat="50.09259298" lon="-123.1836997">
      </trkpt>
      <trkpt lat="50.09267976" lon="-123.18383141">
      </trkpt>
      <trkpt lat="50.09274192" lon="-123.18398229">
      </trkpt>
      <trkpt lat="50.09278115" lon="-123.18418543">
      </trkpt>
      <trkpt lat="50.09277649" lon="-123.18436009">
      </trkpt>
      <trkpt lat="50.09284189" lon="-123.184494">
      </trkpt>
      <trkpt lat="50.09294327" lon="-123.18468025">
      </trkpt>
      <trkpt lat="50.09305508" lon="-123.18474166">
      </trkpt>
      <trkpt lat="50.09317239" lon="-123.18485195">
      </trkpt>
      <trkpt lat="50.09328071" lon="-123.18495809">
      </trkpt>
      <trkpt lat="50.09331425" lon="-123.18513827">
      </trkpt>
      <trkpt lat="50.09335359" lon="-123.18534107">
      </trkpt>
      <trkpt lat="50.09337411" lon="-123.18558221">
      </trkpt>
      <trkpt lat="50.09342623" lon="-123.18588675">
      </trkpt>
      <trkpt lat="50.09348189" lon="-123.18609553">
      </trkpt>
      <trkpt lat="50.09352683" lon="-123.18634528">
      </trkpt>
      <trkpt lat="50.09356555" lon="-123.18654508">
      </trkpt>
      <trkpt lat="50.09363521" lon="-123.18669785">
      </trkpt>
      <trkpt lat="50.09365958" lon="-123.18684469">
      </trkpt>
      <trkpt lat="50.09372038" lon="-123.18704745">
      </trkpt>
      <trkpt lat="50.0937516" lon="-123.18716552">
      </trkpt>
      <trkpt lat="50.09376863" lon="-123.18731338">
      </trkpt>
      <trkpt lat="50.09391757" lon="-123.18755027">
      </trkpt>
      <trkpt lat="50.09401378" lon="-123.18761272">
      </trkpt>
      <trkpt lat="50.09409407" lon="-123.18767745">
      </trkpt>
      <trkpt lat="50.09420315" lon="-123.18769554">
      </trkpt>
      <trkpt lat="50.09431649" lon="-123.18776904">
      </trkpt>
      <trkpt lat="50.09439505" lon="-123.18785512">
      </trkpt>
      <trkpt lat="50.09450848" lon="-123.1879287">
      </trkpt>
      <trkpt lat="50.09458387" lon="-123.18802804">
      </trkpt>
      <trkpt lat="50.09466521" lon="-123.18814531">
      </trkpt>
      <trkpt lat="50.09475048" lon="-123.1882484">
      </trkpt>
      <trkpt lat="50.09483679" lon="-123.18838543">
      </trkpt>
      <trkpt lat="50.0950251" lon="-123.18856569">
      </trkpt>
      <trkpt lat="50.095098" lon="-123.18867665">
      </trkpt>
      <trkpt lat="50.0952077" lon="-123.18872716">
      </trkpt>
      <trkpt lat="50.09526932" lon="-123.18887771">
      </trkpt>
      <trkpt lat="50.09535468" lon="-123.18898109">
      </trkpt>
      <trkpt lat="50.09543414" lon="-123.18909385">
      </trkpt>
      <trkpt lat="50.09560073" lon="-123.18926244">
      </trkpt>
      <trkpt lat="50.095753" lon="-123.18935577">
      </trkpt>
      <trkpt lat="50.09591042" lon="-123.18943317">
      </trkpt>
      <trkpt lat="50.09606208" lon="-123.18952614">
      </trkpt>
      <trkpt lat="50.09621237" lon="-123.18965638">
      </trkpt>
      <trkpt lat="50.09635867" lon="-123.18980114">
      </trkpt>
      <trkpt lat="50.09650009" lon="-123.18988818">
      </trkpt>
      <trkpt lat="50.09666773" lon="-123.18999457">
      </trkpt>
      <trkpt lat="50.09681328" lon="-123.19013059">
      </trkpt>
      <trkpt lat="50.09692654" lon="-123.19022774">
      </trkpt>
      <trkpt lat="50.09704981" lon="-123.19021839">
      </trkpt>
      <trkpt lat="50.09722824" lon="-123.19035806">
      </trkpt>
      <trkpt lat="50.09735856" lon="-123.19044153">
      </trkpt>
      <trkpt lat="50.09746991" lon="-123.19047567">
      </trkpt>
      <trkpt lat="50.09753279" lon="-123.19097895">
      </trkpt>
      <trkpt lat="50.09766855" lon="-123.19111917">
      </trkpt>
      <trkpt lat="50.09781183" lon="-123.19143746">
      </trkpt>
      <trkpt lat="50.09795603" lon="-123.19154752">
      </trkpt>
      <trkpt lat="50.09807012" lon="-123.19169084">
      </trkpt>
      <trkpt lat="50.09816434" lon="-123.19178441">
      </trkpt>
      <trkpt lat="50.09831941" lon="-123.19193279">
      </trkpt>
      <trkpt lat="50.09845522" lon="-123.19215444">
      </trkpt>
      <trkpt lat="50.09864507" lon="-123.19237962">
      </trkpt>
      <trkpt lat="50.09878889" lon="-123.19257591">
      </trkpt>
      <trkpt lat="50.09887371" lon="-123.19266396">
      </trkpt>
      <trkpt lat="50.09893603" lon="-123.19275357">
      </trkpt>
      <trkpt lat="50.09899442" lon="-123.1928572">
      </trkpt>
      <trkpt lat="50.09910251" lon="-123.19297456">
      </trkpt>
      <trkpt lat="50.09919367" lon="-123.19311512">
      </trkpt>
      <trkpt lat="50.09925555" lon="-123.19320348">
      </trkpt>
      <trkpt lat="50.09933039" lon="-123.19328322">
      </trkpt>
      <trkpt lat="50.09939556" lon="-123.19344186">
      </trkpt>
      <trkpt lat="50.09949261" lon="-123.19351937">
      </trkpt>
      <trkpt lat="50.09960744" lon="-123.19357794">
      </trkpt>
      <trkpt lat="50.09970599" lon="-123.19366118">
      </trkpt>
      <trkpt lat="50.09974519" lon="-123.19372225">
      </trkpt>
      <trkpt lat="50.09980604" lon="-123.19377852">
      </trkpt>
      <trkpt lat="50.0998428" lon="-123.19380177">
      </trkpt>
      <trkpt lat="50.0999328" lon="-123.19382431">
      </trkpt>
      <trkpt lat="50.10005576" lon="-123.19388493">
      </trkpt>
      <trkpt lat="50.10015475" lon="-123.19391322">
      </trkpt>
      <trkpt lat="50.1002317" lon="-123.19394475">
      </trkpt>
      <trkpt lat="50.10029138" lon="-123.19401072">
      </trkpt>
      <trkpt lat="50.10039024" lon="-123.19410941">
      </trkpt>
      <trkpt lat="50.10049333" lon="-123.19424369">
      </trkpt>
      <trkpt lat="50.10056555" lon="-123.19434654">
      </trkpt>
      <trkpt lat="50.10062001" lon="-123.19446834">
      </trkpt>
      <trkpt lat="50.10071888" lon="-123.19452603">
      </trkpt>
      <trkpt lat="50.10081187" lon="-123.19458407">
      </trkpt>
      <trkpt lat="50.10089277" lon="-123.19465945">
      </trkpt>
      <trkpt lat="50.10105687" lon="-123.19473648">
      </trkpt>
    </trkseg>
    <trkseg>
      <trkpt lat="50.08945458" lon="-123.18097797">
      </trkpt>
      <trkpt lat="50.08943947" lon="-123.18080844">
      </trkpt>
      <trkpt lat="50.08947544" lon="-123.18072619">
      </trkpt>
      <trkpt lat="50.08953827" lon="-123.18081851">
      </trkpt>
      <trkpt lat="50.08957883" lon="-123.18094899">
      </trkpt>
      <trkpt lat="50.08961943" lon="-123.18107965">
      </trkpt>
      <trkpt lat="50.08963556" lon="-123.18117773">
      </trkpt>
      <trkpt lat="50.08968595" lon="-123.18131467">
      </trkpt>
      <trkpt lat="50.0897013" lon="-123.18111254">
      </trkpt>
      <trkpt lat="50.08970791" lon="-123.18090518">
      </trkpt>
      <trkpt lat="50.08972999" lon="-123.18072536">
      </trkpt>
      <trkpt lat="50.08974623" lon="-123.18049097">
      </trkpt>
      <trkpt lat="50.08978789" lon="-123.18065515">
      </trkpt>
      <trkpt lat="50.08980047" lon="-123.18083722">
      </trkpt>
      <trkpt lat="50.08981724" lon="-123.18096975">
      </trkpt>
      <trkpt lat="50.08982468" lon="-123.18113229">
      </trkpt>
      <trkpt lat="50.08986586" lon="-123.18126233">
      </trkpt>
    </trkseg>
  </trk>
</gpx>