<?xml version="1.0" encoding="UTF-8"?>
<gpx xmlns="http://www.topografix.com/GPX/1/1" xmlns:xsi="http://www.w3.org/2001/XMLSchema-instance" xsi:schemaLocation="http://www.topografix.com/GPX/1/1 http://www.topografix.com/GPX/1/1/gpx.xsd" version="1.1" creator="gpx.py -- https://github.com/tkrajina/gpxpy">
  <trk>
    <name>Chance Mainline</name>
    <trkseg>
      <trkpt lat="49.9663845" lon="-123.2246746">
      </trkpt>
      <trkpt lat="49.9662741" lon="-123.2243083">
      </trkpt>
      <trkpt lat="49.9660976" lon="-123.2235833">
      </trkpt>
      <trkpt lat="49.966069" lon="-123.2232108">
      </trkpt>
      <trkpt lat="49.9660727" lon="-123.2228484">
      </trkpt>
      <trkpt lat="49.9660511" lon="-123.222615">
      </trkpt>
      <trkpt lat="49.9658837" lon="-123.2219664">
      </trkpt>
      <trkpt lat="49.9658669" lon="-123.2212828">
      </trkpt>
      <trkpt lat="49.9657309" lon="-123.2203655">
      </trkpt>
      <trkpt lat="49.9656895" lon="-123.2194158">
      </trkpt>
      <trkpt lat="49.9657219" lon="-123.2189196">
      </trkpt>
      <trkpt lat="49.9658553" lon="-123.2181049">
      </trkpt>
      <trkpt lat="49.9661009" lon="-123.217012">
      </trkpt>
      <trkpt lat="49.9662418" lon="-123.2163861">
      </trkpt>
      <trkpt lat="49.9663089" lon="-123.2158346">
      </trkpt>
      <trkpt lat="49.9663183" lon="-123.2152374">
      </trkpt>
      <trkpt lat="49.9663364" lon="-123.2146884">
      </trkpt>
      <trkpt lat="49.9663781" lon="-123.2145132">
      </trkpt>
      <trkpt lat="49.9664448" lon="-123.2142782">
      </trkpt>
      <trkpt lat="49.9664489" lon="-123.2140864">
      </trkpt>
      <trkpt lat="49.9664402" lon="-123.2135783">
      </trkpt>
      <trkpt lat="49.966519" lon="-123.2131086">
      </trkpt>
      <trkpt lat="49.9666306" lon="-123.2127515">
      </trkpt>
      <trkpt lat="49.9667539" lon="-123.2125291">
      </trkpt>
      <trkpt lat="49.9668512" lon="-123.2122856">
      </trkpt>
      <trkpt lat="49.966899" lon="-123.2118917">
      </trkpt>
      <trkpt lat="49.9669735" lon="-123.2115388">
      </trkpt>
      <trkpt lat="49.9669741" lon="-123.2113587">
      </trkpt>
      <trkpt lat="49.9669608" lon="-123.2110108">
      </trkpt>
      <trkpt lat="49.9669949" lon="-123.2107789">
      </trkpt>
      <trkpt lat="49.9670902" lon="-123.2104272">
      </trkpt>
      <trkpt lat="49.9671114" lon="-123.2102452">
      </trkpt>
      <trkpt lat="49.9670902" lon="-123.2100698">
      </trkpt>
      <trkpt lat="49.9670442" lon="-123.2098767">
      </trkpt>
      <trkpt lat="49.9668832" lon="-123.2093921">
      </trkpt>
      <trkpt lat="49.9666907" lon="-123.2087422">
      </trkpt>
      <trkpt lat="49.9665093" lon="-123.2080833">
      </trkpt>
      <trkpt lat="49.9664742" lon="-123.2079092">
      </trkpt>
      <trkpt lat="49.9664772" lon="-123.2077019">
      </trkpt>
      <trkpt lat="49.9665051" lon="-123.207366">
      </trkpt>
      <trkpt lat="49.9664842" lon="-123.2071466">
      </trkpt>
      <trkpt lat="49.9664316" lon="-123.2068567">
      </trkpt>
      <trkpt lat="49.9664197" lon="-123.2065417">
      </trkpt>
      <trkpt lat="49.9664136" lon="-123.2063334">
      </trkpt>
      <trkpt lat="49.9663463" lon="-123.2060229">
      </trkpt>
      <trkpt lat="49.9662373" lon="-123.2055812">
      </trkpt>
      <trkpt lat="49.9662038" lon="-123.2053157">
      </trkpt>
      <trkpt lat="49.9661963" lon="-123.2050696">
      </trkpt>
      <trkpt lat="49.966217" lon="-123.2048232">
      </trkpt>
      <trkpt lat="49.9663131" lon="-123.204547">
      </trkpt>
      <trkpt lat="49.9664363" lon="-123.2042497">
      </trkpt>
      <trkpt lat="49.9665257" lon="-123.2039861">
      </trkpt>
      <trkpt lat="49.9665913" lon="-123.2036678">
      </trkpt>
      <trkpt lat="49.9666311" lon="-123.2033403">
      </trkpt>
      <trkpt lat="49.9667356" lon="-123.2029271">
      </trkpt>
      <trkpt lat="49.9667675" lon="-123.2024151">
      </trkpt>
      <trkpt lat="49.9668213" lon="-123.2020103">
      </trkpt>
      <trkpt lat="49.9668948" lon="-123.2016437">
      </trkpt>
      <trkpt lat="49.966902" lon="-123.2014657">
      </trkpt>
      <trkpt lat="49.9668878" lon="-123.2012455">
      </trkpt>
      <trkpt lat="49.9667988" lon="-123.2009234">
      </trkpt>
      <trkpt lat="49.966669" lon="-123.2006189">
      </trkpt>
      <trkpt lat="49.9664629" lon="-123.20017">
      </trkpt>
      <trkpt lat="49.9662792" lon="-123.1998184">
      </trkpt>
      <trkpt lat="49.9660814" lon="-123.1996197">
      </trkpt>
      <trkpt lat="49.9659663" lon="-123.1994174">
      </trkpt>
      <trkpt lat="49.965805" lon="-123.1989345">
      </trkpt>
      <trkpt lat="49.9656777" lon="-123.1983997">
      </trkpt>
      <trkpt lat="49.9655235" lon="-123.1979166">
      </trkpt>
      <trkpt lat="49.9654613" lon="-123.1976284">
      </trkpt>
      <trkpt lat="49.9654502" lon="-123.1973807">
      </trkpt>
      <trkpt lat="49.9654865" lon="-123.1971537">
      </trkpt>
      <trkpt lat="49.9655994" lon="-123.1967333">
      </trkpt>
      <trkpt lat="49.9656625" lon="-123.1962513">
      </trkpt>
      <trkpt lat="49.9657202" lon="-123.1956727">
      </trkpt>
      <trkpt lat="49.9657282" lon="-123.1952294">
      </trkpt>
      <trkpt lat="49.9656875" lon="-123.1949435">
      </trkpt>
      <trkpt lat="49.9655602" lon="-123.1945863">
      </trkpt>
      <trkpt lat="49.9655239" lon="-123.1943465">
      </trkpt>
      <trkpt lat="49.9655205" lon="-123.1940647">
      </trkpt>
      <trkpt lat="49.9654865" lon="-123.1938216">
      </trkpt>
      <trkpt lat="49.9653891" lon="-123.1934018">
      </trkpt>
      <trkpt lat="49.9653786" lon="-123.1932704">
      </trkpt>
      <trkpt lat="49.9653689" lon="-123.193149">
      </trkpt>
      <trkpt lat="49.9653917" lon="-123.192961">
      </trkpt>
      <trkpt lat="49.9654688" lon="-123.1927748">
      </trkpt>
      <trkpt lat="49.9655971" lon="-123.1923329">
      </trkpt>
      <trkpt lat="49.9657029" lon="-123.1920217">
      </trkpt>
      <trkpt lat="49.9658092" lon="-123.1918033">
      </trkpt>
      <trkpt lat="49.966017" lon="-123.1915772">
      </trkpt>
      <trkpt lat="49.9662373" lon="-123.191402">
      </trkpt>
      <trkpt lat="49.9663764" lon="-123.1913478">
      </trkpt>
      <trkpt lat="49.9665484" lon="-123.1913605">
      </trkpt>
      <trkpt lat="49.9667349" lon="-123.1913894">
      </trkpt>
      <trkpt lat="49.9668852" lon="-123.1913859">
      </trkpt>
      <trkpt lat="49.9670943" lon="-123.1912962">
      </trkpt>
      <trkpt lat="49.9673003" lon="-123.1911373">
      </trkpt>
      <trkpt lat="49.9678684" lon="-123.19064">
      </trkpt>
      <trkpt lat="49.968135" lon="-123.1903655">
      </trkpt>
      <trkpt lat="49.9681869" lon="-123.190231">
      </trkpt>
    </trkseg>
    <trkseg>
      <trkpt lat="49.9681869" lon="-123.190231">
      </trkpt>
      <trkpt lat="49.9682443" lon="-123.1899637">
      </trkpt>
    </trkseg>
    <trkseg>
      <trkpt lat="49.9682443" lon="-123.1899637">
      </trkpt>
      <trkpt lat="49.9682426" lon="-123.1898589">
      </trkpt>
      <trkpt lat="49.9682227" lon="-123.1897435">
      </trkpt>
      <trkpt lat="49.9680126" lon="-123.1893225">
      </trkpt>
      <trkpt lat="49.9679108" lon="-123.1890482">
      </trkpt>
      <trkpt lat="49.9678233" lon="-123.1887683">
      </trkpt>
      <trkpt lat="49.9677026" lon="-123.1885276">
      </trkpt>
      <trkpt lat="49.9675196" lon="-123.1882693">
      </trkpt>
      <trkpt lat="49.9674463" lon="-123.1881225">
      </trkpt>
      <trkpt lat="49.9674202" lon="-123.1879642">
      </trkpt>
      <trkpt lat="49.9674341" lon="-123.1878323">
      </trkpt>
      <trkpt lat="49.9674956" lon="-123.1876264">
      </trkpt>
      <trkpt lat="49.967712" lon="-123.1874271">
      </trkpt>
      <trkpt lat="49.9678679" lon="-123.187219">
      </trkpt>
      <trkpt lat="49.9679596" lon="-123.1869891">
      </trkpt>
      <trkpt lat="49.9680045" lon="-123.1867411">
      </trkpt>
      <trkpt lat="49.9679833" lon="-123.1862492">
      </trkpt>
      <trkpt lat="49.9679737" lon="-123.1857187">
      </trkpt>
      <trkpt lat="49.9680301" lon="-123.1852941">
      </trkpt>
      <trkpt lat="49.9681213" lon="-123.1848961">
      </trkpt>
      <trkpt lat="49.968169" lon="-123.1846497">
      </trkpt>
      <trkpt lat="49.9681907" lon="-123.1844155">
      </trkpt>
      <trkpt lat="49.968171" lon="-123.1841799">
      </trkpt>
      <trkpt lat="49.9681163" lon="-123.1839893">
      </trkpt>
      <trkpt lat="49.9680407" lon="-123.1838391">
      </trkpt>
      <trkpt lat="49.9678225" lon="-123.1835424">
      </trkpt>
      <trkpt lat="49.9675444" lon="-123.1831041">
      </trkpt>
      <trkpt lat="49.9671504" lon="-123.1827083">
      </trkpt>
      <trkpt lat="49.9670781" lon="-123.1825756">
      </trkpt>
      <trkpt lat="49.9670579" lon="-123.1824349">
      </trkpt>
      <trkpt lat="49.9670898" lon="-123.1821986">
      </trkpt>
      <trkpt lat="49.9672803" lon="-123.1817201">
      </trkpt>
      <trkpt lat="49.9674092" lon="-123.1813012">
      </trkpt>
      <trkpt lat="49.9676228" lon="-123.1808187">
      </trkpt>
      <trkpt lat="49.967817" lon="-123.1803667">
      </trkpt>
      <trkpt lat="49.9679819" lon="-123.1799156">
      </trkpt>
      <trkpt lat="49.9681066" lon="-123.1794946">
      </trkpt>
      <trkpt lat="49.9682128" lon="-123.1789847">
      </trkpt>
    </trkseg>
  </trk>
</gpx>