<?xml version="1.0" encoding="UTF-8"?>
<gpx xmlns="http://www.topografix.com/GPX/1/1" xmlns:xsi="http://www.w3.org/2001/XMLSchema-instance" xsi:schemaLocation="http://www.topografix.com/GPX/1/1 http://www.topografix.com/GPX/1/1/gpx.xsd" version="1.1" creator="gpx.py -- https://github.com/tkrajina/gpxpy">
  <trk>
    <name>Brandywine Snowmobile Trail</name>
    <trkseg>
      <trkpt lat="50.08777242" lon="-123.21082948">
      </trkpt>
      <trkpt lat="50.08780286" lon="-123.2111337">
      </trkpt>
      <trkpt lat="50.08784753" lon="-123.21131614">
      </trkpt>
      <trkpt lat="50.08802816" lon="-123.21175111">
      </trkpt>
      <trkpt lat="50.08807611" lon="-123.21191218">
      </trkpt>
      <trkpt lat="50.08816669" lon="-123.21221632">
      </trkpt>
      <trkpt lat="50.08826948" lon="-123.21242201">
      </trkpt>
      <trkpt lat="50.08832294" lon="-123.21252899">
      </trkpt>
      <trkpt lat="50.08840771" lon="-123.21269861">
      </trkpt>
      <trkpt lat="50.08844393" lon="-123.21279294">
      </trkpt>
      <trkpt lat="50.08847276" lon="-123.21332235">
      </trkpt>
      <trkpt lat="50.08883379" lon="-123.21368905">
      </trkpt>
      <trkpt lat="50.08904657" lon="-123.21393974">
      </trkpt>
      <trkpt lat="50.08912014" lon="-123.21413132">
      </trkpt>
      <trkpt lat="50.08918774" lon="-123.21422317">
      </trkpt>
      <trkpt lat="50.0892531" lon="-123.21431201">
      </trkpt>
      <trkpt lat="50.08930384" lon="-123.21448243">
      </trkpt>
      <trkpt lat="50.08952303" lon="-123.21475994">
      </trkpt>
      <trkpt lat="50.08963011" lon="-123.21481134">
      </trkpt>
      <trkpt lat="50.08975862" lon="-123.21490519">
      </trkpt>
      <trkpt lat="50.08989575" lon="-123.21492446">
      </trkpt>
      <trkpt lat="50.09007641" lon="-123.21518784">
      </trkpt>
      <trkpt lat="50.09026866" lon="-123.2153546">
      </trkpt>
      <trkpt lat="50.0904719" lon="-123.21547691">
      </trkpt>
      <trkpt lat="50.09074168" lon="-123.21548544">
      </trkpt>
      <trkpt lat="50.09101824" lon="-123.21560196">
      </trkpt>
      <trkpt lat="50.09131677" lon="-123.21597995">
      </trkpt>
      <trkpt lat="50.09148804" lon="-123.21622964">
      </trkpt>
      <trkpt lat="50.09180993" lon="-123.21653226">
      </trkpt>
      <trkpt lat="50.09228182" lon="-123.21715136">
      </trkpt>
      <trkpt lat="50.09283259" lon="-123.2177772">
      </trkpt>
      <trkpt lat="50.09300293" lon="-123.21815769">
      </trkpt>
      <trkpt lat="50.09325206" lon="-123.21875786">
      </trkpt>
      <trkpt lat="50.09332436" lon="-123.21896202">
      </trkpt>
      <trkpt lat="50.09346701" lon="-123.21911934">
      </trkpt>
      <trkpt lat="50.09356906" lon="-123.21930391">
      </trkpt>
      <trkpt lat="50.0936434" lon="-123.21940202">
      </trkpt>
      <trkpt lat="50.0937286" lon="-123.21952074">
      </trkpt>
      <trkpt lat="50.09382982" lon="-123.21968431">
      </trkpt>
      <trkpt lat="50.09397809" lon="-123.21986639">
      </trkpt>
      <trkpt lat="50.09406454" lon="-123.21996951">
      </trkpt>
      <trkpt lat="50.09414942" lon="-123.22011529">
      </trkpt>
      <trkpt lat="50.09423665" lon="-123.22024797">
      </trkpt>
      <trkpt lat="50.09430613" lon="-123.22028706">
      </trkpt>
      <trkpt lat="50.09444614" lon="-123.22032694">
      </trkpt>
      <trkpt lat="50.0945771" lon="-123.22036142">
      </trkpt>
      <trkpt lat="50.09468592" lon="-123.22040784">
      </trkpt>
      <trkpt lat="50.09477021" lon="-123.2204731">
      </trkpt>
      <trkpt lat="50.09486759" lon="-123.22054851">
      </trkpt>
      <trkpt lat="50.09495405" lon="-123.2207164">
      </trkpt>
      <trkpt lat="50.09504375" lon="-123.22089937">
      </trkpt>
      <trkpt lat="50.09515287" lon="-123.22109689">
      </trkpt>
      <trkpt lat="50.0952942" lon="-123.22135179">
      </trkpt>
      <trkpt lat="50.09544999" lon="-123.22161363">
      </trkpt>
      <trkpt lat="50.09554589" lon="-123.22185824">
      </trkpt>
      <trkpt lat="50.09565794" lon="-123.22228077">
      </trkpt>
      <trkpt lat="50.0957092" lon="-123.22267476">
      </trkpt>
      <trkpt lat="50.09580096" lon="-123.22300785">
      </trkpt>
      <trkpt lat="50.09594241" lon="-123.2232568">
      </trkpt>
      <trkpt lat="50.09611188" lon="-123.2234965">
      </trkpt>
      <trkpt lat="50.09616883" lon="-123.22364769">
      </trkpt>
      <trkpt lat="50.09628227" lon="-123.22395133">
      </trkpt>
      <trkpt lat="50.09636659" lon="-123.22414506">
      </trkpt>
      <trkpt lat="50.09645545" lon="-123.22449691">
      </trkpt>
    </trkseg>
    <trkseg>
      <trkpt lat="50.0617953" lon="-123.11355156">
      </trkpt>
      <trkpt lat="50.06178796" lon="-123.11332314">
      </trkpt>
      <trkpt lat="50.06177007" lon="-123.11276559">
      </trkpt>
      <trkpt lat="50.0617522" lon="-123.11250895">
      </trkpt>
      <trkpt lat="50.0616772" lon="-123.11226388">
      </trkpt>
      <trkpt lat="50.06153141" lon="-123.11192261">
      </trkpt>
      <trkpt lat="50.0612538" lon="-123.11174021">
      </trkpt>
      <trkpt lat="50.06107837" lon="-123.11173977">
      </trkpt>
      <trkpt lat="50.06043506" lon="-123.1118064">
      </trkpt>
      <trkpt lat="50.0600086" lon="-123.11204918">
      </trkpt>
      <trkpt lat="50.05911769" lon="-123.11257026">
      </trkpt>
      <trkpt lat="50.05890465" lon="-123.11273525">
      </trkpt>
      <trkpt lat="50.05847887" lon="-123.11282873">
      </trkpt>
      <trkpt lat="50.05794303" lon="-123.11294118">
      </trkpt>
    </trkseg>
    <trkseg>
      <trkpt lat="50.05791289" lon="-123.11285542">
      </trkpt>
      <trkpt lat="50.05794303" lon="-123.11294118">
      </trkpt>
      <trkpt lat="50.05796788" lon="-123.11301187">
      </trkpt>
      <trkpt lat="50.05808057" lon="-123.11330451">
      </trkpt>
      <trkpt lat="50.05815891" lon="-123.11362552">
      </trkpt>
      <trkpt lat="50.05819298" lon="-123.11382514">
      </trkpt>
      <trkpt lat="50.05827722" lon="-123.11408758">
      </trkpt>
      <trkpt lat="50.05836263" lon="-123.11436923">
      </trkpt>
      <trkpt lat="50.05843312" lon="-123.11473005">
      </trkpt>
      <trkpt lat="50.05844313" lon="-123.11505502">
      </trkpt>
      <trkpt lat="50.05841103" lon="-123.11541582">
      </trkpt>
      <trkpt lat="50.05829225" lon="-123.11578379">
      </trkpt>
      <trkpt lat="50.05821252" lon="-123.11601802">
      </trkpt>
      <trkpt lat="50.0582009" lon="-123.11614891">
      </trkpt>
      <trkpt lat="50.05819603" lon="-123.11620391">
      </trkpt>
      <trkpt lat="50.05818571" lon="-123.11628382">
      </trkpt>
      <trkpt lat="50.05817068" lon="-123.11636018">
      </trkpt>
      <trkpt lat="50.05811916" lon="-123.11662175">
      </trkpt>
      <trkpt lat="50.05804444" lon="-123.11692522">
      </trkpt>
      <trkpt lat="50.05798319" lon="-123.11714984">
      </trkpt>
      <trkpt lat="50.05799064" lon="-123.11740069">
      </trkpt>
      <trkpt lat="50.05799025" lon="-123.11773176">
      </trkpt>
      <trkpt lat="50.05798004" lon="-123.11807121">
      </trkpt>
      <trkpt lat="50.05791759" lon="-123.11837636">
      </trkpt>
      <trkpt lat="50.0578264" lon="-123.11867449">
      </trkpt>
      <trkpt lat="50.05770054" lon="-123.11892931">
      </trkpt>
      <trkpt lat="50.0575837" lon="-123.11916583">
      </trkpt>
      <trkpt lat="50.05748906" lon="-123.11936102">
      </trkpt>
      <trkpt lat="50.05744743" lon="-123.11955423">
      </trkpt>
      <trkpt lat="50.05735712" lon="-123.11982095">
      </trkpt>
      <trkpt lat="50.05734896" lon="-123.12010138">
      </trkpt>
      <trkpt lat="50.05733099" lon="-123.12037634">
      </trkpt>
      <trkpt lat="50.0573307" lon="-123.12064016">
      </trkpt>
      <trkpt lat="50.05733875" lon="-123.120909">
      </trkpt>
      <trkpt lat="50.0573734" lon="-123.12113698">
      </trkpt>
      <trkpt lat="50.05745058" lon="-123.12128505">
      </trkpt>
      <trkpt lat="50.05760608" lon="-123.12139408">
      </trkpt>
      <trkpt lat="50.05779282" lon="-123.12155437">
      </trkpt>
      <trkpt lat="50.0579766" lon="-123.12172623">
      </trkpt>
      <trkpt lat="50.05814664" lon="-123.12189777">
      </trkpt>
      <trkpt lat="50.05829381" lon="-123.1221558">
      </trkpt>
      <trkpt lat="50.05843783" lon="-123.12232736">
      </trkpt>
      <trkpt lat="50.05858156" lon="-123.12250944">
      </trkpt>
      <trkpt lat="50.05874502" lon="-123.12270418">
      </trkpt>
      <trkpt lat="50.0588803" lon="-123.12296021">
      </trkpt>
      <trkpt lat="50.05901068" lon="-123.12320421">
      </trkpt>
      <trkpt lat="50.05916795" lon="-123.12344942">
      </trkpt>
      <trkpt lat="50.05929371" lon="-123.12364538">
      </trkpt>
      <trkpt lat="50.05942163" lon="-123.12384469">
      </trkpt>
      <trkpt lat="50.05954915" lon="-123.12399367">
      </trkpt>
      <trkpt lat="50.05970643" lon="-123.12412284">
      </trkpt>
      <trkpt lat="50.05986929" lon="-123.12423584">
      </trkpt>
      <trkpt lat="50.060057" lon="-123.12439673">
      </trkpt>
      <trkpt lat="50.06024107" lon="-123.12457453">
      </trkpt>
      <trkpt lat="50.06041798" lon="-123.12469851">
      </trkpt>
      <trkpt lat="50.06059507" lon="-123.12485208">
      </trkpt>
      <trkpt lat="50.06075332" lon="-123.12505261">
      </trkpt>
      <trkpt lat="50.06090844" lon="-123.12529415">
      </trkpt>
      <trkpt lat="50.06096822" lon="-123.12548096">
      </trkpt>
      <trkpt lat="50.06096773" lon="-123.12581157">
      </trkpt>
      <trkpt lat="50.06092424" lon="-123.12592426">
      </trkpt>
      <trkpt lat="50.06090058" lon="-123.12599746">
      </trkpt>
      <trkpt lat="50.06076089" lon="-123.12624252">
      </trkpt>
      <trkpt lat="50.06066066" lon="-123.1264882">
      </trkpt>
      <trkpt lat="50.06056985" lon="-123.12674377">
      </trkpt>
      <trkpt lat="50.06052037" lon="-123.12698533">
      </trkpt>
      <trkpt lat="50.06046698" lon="-123.12728757">
      </trkpt>
      <trkpt lat="50.06042309" lon="-123.12754499">
      </trkpt>
      <trkpt lat="50.06039059" lon="-123.12780728">
      </trkpt>
      <trkpt lat="50.06039814" lon="-123.12809">
      </trkpt>
      <trkpt lat="50.06043487" lon="-123.12840644">
      </trkpt>
      <trkpt lat="50.06042426" lon="-123.12877242">
      </trkpt>
      <trkpt lat="50.06041091" lon="-123.12885461">
      </trkpt>
      <trkpt lat="50.06036006" lon="-123.12910563">
      </trkpt>
      <trkpt lat="50.06024215" lon="-123.12942464">
      </trkpt>
      <trkpt lat="50.06013102" lon="-123.12968282">
      </trkpt>
      <trkpt lat="50.06001705" lon="-123.12994068">
      </trkpt>
      <trkpt lat="50.05993978" lon="-123.13015785">
      </trkpt>
      <trkpt lat="50.05992594" lon="-123.13019672">
      </trkpt>
      <trkpt lat="50.05985909" lon="-123.13048113">
      </trkpt>
      <trkpt lat="50.05982404" lon="-123.13067587">
      </trkpt>
      <trkpt lat="50.05986842" lon="-123.13093054">
      </trkpt>
      <trkpt lat="50.05992664" lon="-123.13121646">
      </trkpt>
      <trkpt lat="50.06001587" lon="-123.13148212">
      </trkpt>
      <trkpt lat="50.06014221" lon="-123.1317653">
      </trkpt>
      <trkpt lat="50.06024745" lon="-123.13188851">
      </trkpt>
      <trkpt lat="50.06038313" lon="-123.13216514">
      </trkpt>
      <trkpt lat="50.06047728" lon="-123.13245884">
      </trkpt>
      <trkpt lat="50.06058408" lon="-123.1327617">
      </trkpt>
      <trkpt lat="50.0606313" lon="-123.13310206">
      </trkpt>
      <trkpt lat="50.06065074" lon="-123.13319342">
      </trkpt>
      <trkpt lat="50.06061765" lon="-123.13338098">
      </trkpt>
      <trkpt lat="50.06061756" lon="-123.13341149">
      </trkpt>
      <trkpt lat="50.06063435" lon="-123.13364937">
      </trkpt>
      <trkpt lat="50.06065928" lon="-123.13395025">
      </trkpt>
      <trkpt lat="50.06071209" lon="-123.13421178">
      </trkpt>
      <trkpt lat="50.0607494" lon="-123.13454941">
      </trkpt>
      <trkpt lat="50.06077591" lon="-123.13482618">
      </trkpt>
      <trkpt lat="50.06081831" lon="-123.13515923">
      </trkpt>
      <trkpt lat="50.06087319" lon="-123.135429">
      </trkpt>
      <trkpt lat="50.06095978" lon="-123.13563777">
      </trkpt>
      <trkpt lat="50.06107846" lon="-123.13588877">
      </trkpt>
      <trkpt lat="50.06119863" lon="-123.13608946">
      </trkpt>
      <trkpt lat="50.06134971" lon="-123.13633985">
      </trkpt>
      <trkpt lat="50.06146741" lon="-123.13661525">
      </trkpt>
      <trkpt lat="50.06157255" lon="-123.13692666">
      </trkpt>
      <trkpt lat="50.06159365" lon="-123.13726062">
      </trkpt>
      <trkpt lat="50.06161182" lon="-123.13673618">
      </trkpt>
      <trkpt lat="50.06160425" lon="-123.13646627">
      </trkpt>
      <trkpt lat="50.06155831" lon="-123.1362386">
      </trkpt>
      <trkpt lat="50.06146908" lon="-123.13592933">
      </trkpt>
      <trkpt lat="50.06146937" lon="-123.13561718">
      </trkpt>
      <trkpt lat="50.06140871" lon="-123.13538004">
      </trkpt>
      <trkpt lat="50.06132025" lon="-123.13508101">
      </trkpt>
      <trkpt lat="50.06152543" lon="-123.13471089">
      </trkpt>
      <trkpt lat="50.06166916" lon="-123.1347112">
      </trkpt>
      <trkpt lat="50.06185753" lon="-123.13483548">
      </trkpt>
      <trkpt lat="50.06186941" lon="-123.13484326">
      </trkpt>
      <trkpt lat="50.06206967" lon="-123.13500673">
      </trkpt>
      <trkpt lat="50.06224843" lon="-123.13519264">
      </trkpt>
      <trkpt lat="50.06242739" lon="-123.13547169">
      </trkpt>
      <trkpt lat="50.06244899" lon="-123.13588344">
      </trkpt>
      <trkpt lat="50.06246587" lon="-123.13620429">
      </trkpt>
      <trkpt lat="50.06250818" lon="-123.13649632">
      </trkpt>
      <trkpt lat="50.06255108" lon="-123.13677828">
      </trkpt>
      <trkpt lat="50.06261106" lon="-123.13704606">
      </trkpt>
      <trkpt lat="50.06266849" lon="-123.13728929">
      </trkpt>
      <trkpt lat="50.06276469" lon="-123.13752702">
      </trkpt>
      <trkpt lat="50.06289917" lon="-123.13779252">
      </trkpt>
      <trkpt lat="50.06296476" lon="-123.13795355">
      </trkpt>
      <trkpt lat="50.0630154" lon="-123.1380719">
      </trkpt>
      <trkpt lat="50.0631226" lon="-123.13829057">
      </trkpt>
      <trkpt lat="50.063246" lon="-123.13847006">
      </trkpt>
      <trkpt lat="50.06340365" lon="-123.13867272">
      </trkpt>
      <trkpt lat="50.06354569" lon="-123.13892373">
      </trkpt>
      <trkpt lat="50.06367301" lon="-123.13915263">
      </trkpt>
      <trkpt lat="50.06378541" lon="-123.13948598">
      </trkpt>
      <trkpt lat="50.06378521" lon="-123.13955612">
      </trkpt>
      <trkpt lat="50.06380112" lon="-123.13983413">
      </trkpt>
      <trkpt lat="50.06385383" lon="-123.1401225">
      </trkpt>
      <trkpt lat="50.06388141" lon="-123.14042703">
      </trkpt>
      <trkpt lat="50.06390546" lon="-123.14064419">
      </trkpt>
      <trkpt lat="50.06397006" lon="-123.1406974">
      </trkpt>
      <trkpt lat="50.06406881" lon="-123.14069741">
      </trkpt>
      <trkpt lat="50.0640965" lon="-123.14117853">
      </trkpt>
      <trkpt lat="50.06413516" lon="-123.14140834">
      </trkpt>
      <trkpt lat="50.0642191" lon="-123.14168511">
      </trkpt>
      <trkpt lat="50.06424766" lon="-123.14200063">
      </trkpt>
      <trkpt lat="50.06428938" lon="-123.14227451">
      </trkpt>
      <trkpt lat="50.06435966" lon="-123.14259033">
      </trkpt>
      <trkpt lat="50.06441199" lon="-123.14286345">
      </trkpt>
      <trkpt lat="50.06447442" lon="-123.14309494">
      </trkpt>
      <trkpt lat="50.06463158" lon="-123.14342158">
      </trkpt>
      <trkpt lat="50.06468213" lon="-123.14356402">
      </trkpt>
      <trkpt lat="50.06477077" lon="-123.14384048">
      </trkpt>
      <trkpt lat="50.06482397" lon="-123.1439788">
      </trkpt>
      <trkpt lat="50.06492478" lon="-123.14428074">
      </trkpt>
      <trkpt lat="50.0650519" lon="-123.1444921">
      </trkpt>
      <trkpt lat="50.06516214" lon="-123.1447213">
      </trkpt>
      <trkpt lat="50.06528387" lon="-123.14495202">
      </trkpt>
      <trkpt lat="50.06535503" lon="-123.14507525">
      </trkpt>
      <trkpt lat="50.06552288" lon="-123.14528188">
      </trkpt>
      <trkpt lat="50.06566472" lon="-123.14550329">
      </trkpt>
      <trkpt lat="50.06580431" lon="-123.14573632">
      </trkpt>
      <trkpt lat="50.06589677" lon="-123.14601065">
      </trkpt>
      <trkpt lat="50.06599818" lon="-123.14621392">
      </trkpt>
      <trkpt lat="50.06606531" lon="-123.14627203">
      </trkpt>
      <trkpt lat="50.06621471" lon="-123.14646158">
      </trkpt>
      <trkpt lat="50.06635203" lon="-123.14661271">
      </trkpt>
      <trkpt lat="50.06653775" lon="-123.14673698">
      </trkpt>
      <trkpt lat="50.06673878" lon="-123.14693661">
      </trkpt>
      <trkpt lat="50.06684086" lon="-123.14701635">
      </trkpt>
      <trkpt lat="50.06698623" lon="-123.14741361">
      </trkpt>
      <trkpt lat="50.06698623" lon="-123.14746881">
      </trkpt>
      <trkpt lat="50.06701018" lon="-123.14774467">
      </trkpt>
      <trkpt lat="50.06706083" lon="-123.14799598">
      </trkpt>
      <trkpt lat="50.06711384" lon="-123.14828649">
      </trkpt>
      <trkpt lat="50.0671742" lon="-123.14855609">
      </trkpt>
      <trkpt lat="50.06723751" lon="-123.14880329">
      </trkpt>
      <trkpt lat="50.06738268" lon="-123.14909014">
      </trkpt>
      <trkpt lat="50.06741391" lon="-123.14945064">
      </trkpt>
      <trkpt lat="50.06744875" lon="-123.1497657">
      </trkpt>
      <trkpt lat="50.06748055" lon="-123.15001502">
      </trkpt>
      <trkpt lat="50.06755878" lon="-123.15025947">
      </trkpt>
      <trkpt lat="50.06764801" lon="-123.15047464">
      </trkpt>
      <trkpt lat="50.06777944" lon="-123.15070903">
      </trkpt>
      <trkpt lat="50.06788368" lon="-123.15105077">
      </trkpt>
      <trkpt lat="50.06793521" lon="-123.15142316">
      </trkpt>
      <trkpt lat="50.06792402" lon="-123.15175911">
      </trkpt>
      <trkpt lat="50.06790929" lon="-123.15182728">
      </trkpt>
      <trkpt lat="50.06807625" lon="-123.15195065">
      </trkpt>
      <trkpt lat="50.06810295" lon="-123.15211824">
      </trkpt>
      <trkpt lat="50.06812102" lon="-123.15241927">
      </trkpt>
      <trkpt lat="50.06815449" lon="-123.15272135">
      </trkpt>
      <trkpt lat="50.06821514" lon="-123.15304739">
      </trkpt>
      <trkpt lat="50.06827453" lon="-123.15338822">
      </trkpt>
      <trkpt lat="50.06826364" lon="-123.15375847">
      </trkpt>
      <trkpt lat="50.06822575" lon="-123.15405035">
      </trkpt>
      <trkpt lat="50.06818923" lon="-123.15438645">
      </trkpt>
      <trkpt lat="50.06814604" lon="-123.15470471">
      </trkpt>
      <trkpt lat="50.06814565" lon="-123.15501321">
      </trkpt>
      <trkpt lat="50.0681537" lon="-123.15527458">
      </trkpt>
      <trkpt lat="50.06818403" lon="-123.15554893">
      </trkpt>
      <trkpt lat="50.0682761" lon="-123.15581">
      </trkpt>
      <trkpt lat="50.06836679" lon="-123.15617248">
      </trkpt>
      <trkpt lat="50.06838505" lon="-123.15650645">
      </trkpt>
      <trkpt lat="50.06843758" lon="-123.15682226">
      </trkpt>
      <trkpt lat="50.0684516" lon="-123.15697674">
      </trkpt>
      <trkpt lat="50.06854504" lon="-123.15717103">
      </trkpt>
      <trkpt lat="50.06865497" lon="-123.15749889">
      </trkpt>
      <trkpt lat="50.06867785" lon="-123.15762423">
      </trkpt>
      <trkpt lat="50.06870778" lon="-123.15784398">
      </trkpt>
      <trkpt lat="50.06871799" lon="-123.15820921">
      </trkpt>
      <trkpt lat="50.06863573" lon="-123.15857169">
      </trkpt>
      <trkpt lat="50.06859942" lon="-123.15862796">
      </trkpt>
      <trkpt lat="50.06859913" lon="-123.15886692">
      </trkpt>
      <trkpt lat="50.06859019" lon="-123.15918335">
      </trkpt>
      <trkpt lat="50.06862199" lon="-123.15945769">
      </trkpt>
      <trkpt lat="50.06867284" lon="-123.15973691">
      </trkpt>
      <trkpt lat="50.06873281" lon="-123.16001811">
      </trkpt>
      <trkpt lat="50.06880898" lon="-123.16029611">
      </trkpt>
      <trkpt lat="50.06889349" lon="-123.1605468">
      </trkpt>
      <trkpt lat="50.0689291" lon="-123.1606341">
      </trkpt>
      <trkpt lat="50.06895326" lon="-123.16069336">
      </trkpt>
      <trkpt lat="50.06896801" lon="-123.16072541">
      </trkpt>
      <trkpt lat="50.06896825" lon="-123.16072594">
      </trkpt>
      <trkpt lat="50.06899881" lon="-123.16079233">
      </trkpt>
      <trkpt lat="50.06906977" lon="-123.16099561">
      </trkpt>
      <trkpt lat="50.06909117" lon="-123.16137013">
      </trkpt>
      <trkpt lat="50.06905859" lon="-123.16173612">
      </trkpt>
      <trkpt lat="50.06907202" lon="-123.16180672">
      </trkpt>
      <trkpt lat="50.06915713" lon="-123.16208594">
      </trkpt>
      <trkpt lat="50.0692438" lon="-123.16236989">
      </trkpt>
      <trkpt lat="50.06933498" lon="-123.16260306">
      </trkpt>
      <trkpt lat="50.06943765" lon="-123.16281244">
      </trkpt>
      <trkpt lat="50.06956692" lon="-123.16297637">
      </trkpt>
      <trkpt lat="50.06966958" lon="-123.16309654">
      </trkpt>
      <trkpt lat="50.06972179" lon="-123.16315098">
      </trkpt>
      <trkpt lat="50.06988355" lon="-123.16332925">
      </trkpt>
      <trkpt lat="50.07002587" lon="-123.16353724">
      </trkpt>
      <trkpt lat="50.07017123" lon="-123.16368867">
      </trkpt>
      <trkpt lat="50.07027497" lon="-123.16376964">
      </trkpt>
      <trkpt lat="50.07033563" lon="-123.16382394">
      </trkpt>
      <trkpt lat="50.0705389" lon="-123.16396835">
      </trkpt>
      <trkpt lat="50.07072745" lon="-123.16417422">
      </trkpt>
      <trkpt lat="50.0708893" lon="-123.16434273">
      </trkpt>
      <trkpt lat="50.07105458" lon="-123.16452481">
      </trkpt>
      <trkpt lat="50.0712176" lon="-123.16479534">
      </trkpt>
      <trkpt lat="50.07133106" lon="-123.16509483">
      </trkpt>
      <trkpt lat="50.07150017" lon="-123.16532953">
      </trkpt>
      <trkpt lat="50.07159253" lon="-123.16568225">
      </trkpt>
      <trkpt lat="50.07166772" lon="-123.16596939">
      </trkpt>
      <trkpt lat="50.07177832" lon="-123.16622208">
      </trkpt>
      <trkpt lat="50.07188599" lon="-123.16650206">
      </trkpt>
      <trkpt lat="50.07201996" lon="-123.16680873">
      </trkpt>
      <trkpt lat="50.07213548" lon="-123.16710015">
      </trkpt>
      <trkpt lat="50.07224051" lon="-123.16732706">
      </trkpt>
      <trkpt lat="50.07237987" lon="-123.16751904">
      </trkpt>
      <trkpt lat="50.07248174" lon="-123.16764927">
      </trkpt>
      <trkpt lat="50.07252208" lon="-123.16771196">
      </trkpt>
      <trkpt lat="50.07269835" lon="-123.16789556">
      </trkpt>
      <trkpt lat="50.07290082" lon="-123.16809685">
      </trkpt>
      <trkpt lat="50.07299631" lon="-123.16821596">
      </trkpt>
      <trkpt lat="50.07310074" lon="-123.16834634">
      </trkpt>
      <trkpt lat="50.07325218" lon="-123.16867755">
      </trkpt>
      <trkpt lat="50.0733464" lon="-123.16897203">
      </trkpt>
      <trkpt lat="50.07343649" lon="-123.16925383">
      </trkpt>
      <trkpt lat="50.07351707" lon="-123.16951949">
      </trkpt>
      <trkpt lat="50.07353622" lon="-123.1695791">
      </trkpt>
      <trkpt lat="50.07362159" lon="-123.16989066">
      </trkpt>
      <trkpt lat="50.0736741" lon="-123.17017842">
      </trkpt>
      <trkpt lat="50.07374908" lon="-123.1704128">
      </trkpt>
      <trkpt lat="50.07383859" lon="-123.17069263">
      </trkpt>
      <trkpt lat="50.07386214" lon="-123.17076643">
      </trkpt>
      <trkpt lat="50.07393458" lon="-123.17094242">
      </trkpt>
      <trkpt lat="50.07405951" lon="-123.17117909">
      </trkpt>
      <trkpt lat="50.07421447" lon="-123.17154218">
      </trkpt>
      <trkpt lat="50.07425021" lon="-123.17168171">
      </trkpt>
      <trkpt lat="50.07423401" lon="-123.17189108">
      </trkpt>
      <trkpt lat="50.07431988" lon="-123.17207682">
      </trkpt>
      <trkpt lat="50.07443637" lon="-123.17232875">
      </trkpt>
      <trkpt lat="50.07455936" lon="-123.17259456">
      </trkpt>
      <trkpt lat="50.07464072" lon="-123.17284876">
      </trkpt>
      <trkpt lat="50.07475573" lon="-123.17311135">
      </trkpt>
      <trkpt lat="50.07486457" lon="-123.17342032">
      </trkpt>
      <trkpt lat="50.07493238" lon="-123.17378508">
      </trkpt>
      <trkpt lat="50.07497752" lon="-123.17411096">
      </trkpt>
      <trkpt lat="50.07498724" lon="-123.17417272">
      </trkpt>
      <trkpt lat="50.07501345" lon="-123.17443471">
      </trkpt>
      <trkpt lat="50.07502875" lon="-123.17451828">
      </trkpt>
      <trkpt lat="50.07506301" lon="-123.17469258">
      </trkpt>
      <trkpt lat="50.07512406" lon="-123.17495197">
      </trkpt>
      <trkpt lat="50.07519187" lon="-123.17523059">
      </trkpt>
      <trkpt lat="50.07526253" lon="-123.17542928">
      </trkpt>
      <trkpt lat="50.07541278" lon="-123.17560206">
      </trkpt>
      <trkpt lat="50.07559455" lon="-123.17583859">
      </trkpt>
      <trkpt lat="50.07571436" lon="-123.17614494">
      </trkpt>
      <trkpt lat="50.07577746" lon="-123.17651521">
      </trkpt>
      <trkpt lat="50.07597364" lon="-123.1777664">
      </trkpt>
      <trkpt lat="50.07645729" lon="-123.17923777">
      </trkpt>
      <trkpt lat="50.07661795" lon="-123.17982382">
      </trkpt>
      <trkpt lat="50.07711111" lon="-123.18098703">
      </trkpt>
      <trkpt lat="50.0773533" lon="-123.18146317">
      </trkpt>
      <trkpt lat="50.07744968" lon="-123.18283274">
      </trkpt>
      <trkpt lat="50.07754716" lon="-123.18404844">
      </trkpt>
      <trkpt lat="50.07794063" lon="-123.18509728">
      </trkpt>
      <trkpt lat="50.07826356" lon="-123.18589531">
      </trkpt>
      <trkpt lat="50.0783875" lon="-123.18711289">
      </trkpt>
      <trkpt lat="50.07874567" lon="-123.18819017">
      </trkpt>
      <trkpt lat="50.07898642" lon="-123.18949146">
      </trkpt>
      <trkpt lat="50.07917318" lon="-123.19074889">
      </trkpt>
      <trkpt lat="50.07916231" lon="-123.1917546">
      </trkpt>
      <trkpt lat="50.07926733" lon="-123.1933352">
      </trkpt>
      <trkpt lat="50.07944605" lon="-123.19430125">
      </trkpt>
      <trkpt lat="50.07957978" lon="-123.19495896">
      </trkpt>
      <trkpt lat="50.07970318" lon="-123.19646853">
      </trkpt>
      <trkpt lat="50.07995305" lon="-123.1974477">
      </trkpt>
      <trkpt lat="50.08055458" lon="-123.19830386">
      </trkpt>
      <trkpt lat="50.08107475" lon="-123.19899026">
      </trkpt>
      <trkpt lat="50.08146034" lon="-123.19980206">
      </trkpt>
      <trkpt lat="50.08147228" lon="-123.20009518">
      </trkpt>
      <trkpt lat="50.08154237" lon="-123.20055445">
      </trkpt>
      <trkpt lat="50.08150619" lon="-123.20097658">
      </trkpt>
      <trkpt lat="50.08144624" lon="-123.20149039">
      </trkpt>
      <trkpt lat="50.08143347" lon="-123.20204111">
      </trkpt>
      <trkpt lat="50.08142082" lon="-123.20251841">
      </trkpt>
      <trkpt lat="50.08139648" lon="-123.20292221">
      </trkpt>
      <trkpt lat="50.08131321" lon="-123.20325233">
      </trkpt>
      <trkpt lat="50.08133632" lon="-123.20354617">
      </trkpt>
      <trkpt lat="50.08141825" lon="-123.20398715">
      </trkpt>
      <trkpt lat="50.08147664" lon="-123.20437294">
      </trkpt>
      <trkpt lat="50.08149975" lon="-123.2046668">
      </trkpt>
      <trkpt lat="50.08164093" lon="-123.20499787">
      </trkpt>
      <trkpt lat="50.08185312" lon="-123.2052558">
      </trkpt>
      <trkpt lat="50.08207704" lon="-123.20556887">
      </trkpt>
      <trkpt lat="50.08233609" lon="-123.20604734">
      </trkpt>
      <trkpt lat="50.08267742" lon="-123.20676483">
      </trkpt>
      <trkpt lat="50.08320743" lon="-123.20766676">
      </trkpt>
      <trkpt lat="50.08345506" lon="-123.20792488">
      </trkpt>
      <trkpt lat="50.08372616" lon="-123.20827489">
      </trkpt>
      <trkpt lat="50.08398533" lon="-123.20867994">
      </trkpt>
      <trkpt lat="50.08424498" lon="-123.20882796">
      </trkpt>
      <trkpt lat="50.08435094" lon="-123.20903037">
      </trkpt>
      <trkpt lat="50.0844922" lon="-123.2093064">
      </trkpt>
      <trkpt lat="50.0846334" lon="-123.20961915">
      </trkpt>
      <trkpt lat="50.08477457" lon="-123.20995025">
      </trkpt>
      <trkpt lat="50.08492746" lon="-123.21033649">
      </trkpt>
      <trkpt lat="50.08512779" lon="-123.21061279">
      </trkpt>
      <trkpt lat="50.08537515" lon="-123.2110178">
      </trkpt>
      <trkpt lat="50.08553974" lon="-123.21145919">
      </trkpt>
      <trkpt lat="50.08578752" lon="-123.21162554">
      </trkpt>
      <trkpt lat="50.08601179" lon="-123.21173668">
      </trkpt>
      <trkpt lat="50.08618886" lon="-123.21181091">
      </trkpt>
      <trkpt lat="50.08649558" lon="-123.21205096">
      </trkpt>
      <trkpt lat="50.08669625" lon="-123.21214365">
      </trkpt>
      <trkpt lat="50.08699142" lon="-123.21223677">
      </trkpt>
      <trkpt lat="50.08738098" lon="-123.21240374">
      </trkpt>
      <trkpt lat="50.08759329" lon="-123.2125883">
      </trkpt>
      <trkpt lat="50.08779375" lon="-123.21279116">
      </trkpt>
      <trkpt lat="50.08810044" lon="-123.21304959">
      </trkpt>
      <trkpt lat="50.08825392" lon="-123.21310535">
      </trkpt>
      <trkpt lat="50.08846121" lon="-123.21311021">
      </trkpt>
    </trkseg>
    <trkseg>
      <trkpt lat="50.0689291" lon="-123.1606341">
      </trkpt>
      <trkpt lat="50.06894698" lon="-123.1606258">
      </trkpt>
      <trkpt lat="50.06895571" lon="-123.16062138">
      </trkpt>
      <trkpt lat="50.06913505" lon="-123.16055231">
      </trkpt>
      <trkpt lat="50.06931103" lon="-123.16045745">
      </trkpt>
      <trkpt lat="50.06947033" lon="-123.16036183">
      </trkpt>
      <trkpt lat="50.06966752" lon="-123.16022337">
      </trkpt>
      <trkpt lat="50.06984762" lon="-123.1601061">
      </trkpt>
      <trkpt lat="50.07006189" lon="-123.16006157">
      </trkpt>
      <trkpt lat="50.07013138" lon="-123.16007102">
      </trkpt>
      <trkpt lat="50.0704063" lon="-123.1595565">
      </trkpt>
      <trkpt lat="50.07043359" lon="-123.15903009">
      </trkpt>
      <trkpt lat="50.0703693" lon="-123.15810521">
      </trkpt>
      <trkpt lat="50.07034162" lon="-123.15760731">
      </trkpt>
      <trkpt lat="50.07038716" lon="-123.1569101">
      </trkpt>
      <trkpt lat="50.07026812" lon="-123.15654015">
      </trkpt>
      <trkpt lat="50.06999338" lon="-123.1561278">
      </trkpt>
      <trkpt lat="50.07002066" lon="-123.15562976">
      </trkpt>
      <trkpt lat="50.07012117" lon="-123.15507482">
      </trkpt>
      <trkpt lat="50.07015739" lon="-123.15413575">
      </trkpt>
      <trkpt lat="50.07007485" lon="-123.15349542">
      </trkpt>
      <trkpt lat="50.0698915" lon="-123.15271313">
      </trkpt>
      <trkpt lat="50.06984547" lon="-123.15212983">
      </trkpt>
      <trkpt lat="50.06979041" lon="-123.15168881">
      </trkpt>
      <trkpt lat="50.06965299" lon="-123.15124779">
      </trkpt>
      <trkpt lat="50.06954287" lon="-123.15060762">
      </trkpt>
      <trkpt lat="50.06950616" lon="-123.15010973">
      </trkpt>
      <trkpt lat="50.06949663" lon="-123.14979863">
      </trkpt>
      <trkpt lat="50.06926391" lon="-123.1473305">
      </trkpt>
      <trkpt lat="50.06919531" lon="-123.1454545">
      </trkpt>
      <trkpt lat="50.06920208" lon="-123.14426289">
      </trkpt>
      <trkpt lat="50.06949998" lon="-123.14395563">
      </trkpt>
      <trkpt lat="50.0696263" lon="-123.14366268">
      </trkpt>
      <trkpt lat="50.06967145" lon="-123.14350896">
      </trkpt>
      <trkpt lat="50.06977971" lon="-123.14321587">
      </trkpt>
      <trkpt lat="50.06988798" lon="-123.14299262">
      </trkpt>
      <trkpt lat="50.07005895" lon="-123.14283951">
      </trkpt>
      <trkpt lat="50.07024799" lon="-123.14277012">
      </trkpt>
      <trkpt lat="50.07041896" lon="-123.14268686">
      </trkpt>
      <trkpt lat="50.07042789" lon="-123.14268685">
      </trkpt>
      <trkpt lat="50.0706079" lon="-123.1426315">
      </trkpt>
      <trkpt lat="50.07078771" lon="-123.14266002">
      </trkpt>
      <trkpt lat="50.07099462" lon="-123.14267451">
      </trkpt>
      <trkpt lat="50.07118364" lon="-123.14249349">
      </trkpt>
      <trkpt lat="50.07131879" lon="-123.14231218">
      </trkpt>
      <trkpt lat="50.07150793" lon="-123.1421031">
      </trkpt>
      <trkpt lat="50.07168793" lon="-123.14199178">
      </trkpt>
      <trkpt lat="50.07187696" lon="-123.14189464">
      </trkpt>
      <trkpt lat="50.07205696" lon="-123.1417693">
      </trkpt>
      <trkpt lat="50.07224609" lon="-123.14157426">
      </trkpt>
      <trkpt lat="50.07244416" lon="-123.14142115">
      </trkpt>
      <trkpt lat="50.07260619" lon="-123.1412958">
      </trkpt>
      <trkpt lat="50.07275929" lon="-123.14114254">
      </trkpt>
      <trkpt lat="50.07284037" lon="-123.14104494">
      </trkpt>
      <trkpt lat="50.07290338" lon="-123.14096137">
      </trkpt>
      <trkpt lat="50.07305658" lon="-123.14068231">
      </trkpt>
      <trkpt lat="50.07313784" lon="-123.14041697">
      </trkpt>
      <trkpt lat="50.07313794" lon="-123.1403331">
      </trkpt>
      <trkpt lat="50.07310221" lon="-123.14019326">
      </trkpt>
      <trkpt lat="50.07307533" lon="-123.14006745">
      </trkpt>
      <trkpt lat="50.07294981" lon="-123.13974568">
      </trkpt>
      <trkpt lat="50.0729499" lon="-123.13968972">
      </trkpt>
      <trkpt lat="50.07299494" lon="-123.13960614">
      </trkpt>
      <trkpt lat="50.07319291" lon="-123.1395508">
      </trkpt>
      <trkpt lat="50.07343571" lon="-123.13953753">
      </trkpt>
      <trkpt lat="50.07362463" lon="-123.13953799">
      </trkpt>
      <trkpt lat="50.07383142" lon="-123.13953859">
      </trkpt>
      <trkpt lat="50.0740653" lon="-123.13955323">
      </trkpt>
      <trkpt lat="50.07427218" lon="-123.13949803">
      </trkpt>
      <trkpt lat="50.07444335" lon="-123.13931686">
      </trkpt>
      <trkpt lat="50.0746145" lon="-123.13909361">
      </trkpt>
      <trkpt lat="50.07477654" lon="-123.13895439">
      </trkpt>
      <trkpt lat="50.07508244" lon="-123.13884352">
      </trkpt>
      <trkpt lat="50.0752534" lon="-123.1387601">
      </trkpt>
      <trkpt lat="50.07546048" lon="-123.13862103">
      </trkpt>
      <trkpt lat="50.07560465" lon="-123.13842568">
      </trkpt>
      <trkpt lat="50.07574881" lon="-123.13817452">
      </trkpt>
      <trkpt lat="50.07584802" lon="-123.13790934">
      </trkpt>
      <trkpt lat="50.07590239" lon="-123.13757414">
      </trkpt>
      <trkpt lat="50.07590279" lon="-123.13723866">
      </trkpt>
      <trkpt lat="50.07597512" lon="-123.13694541">
      </trkpt>
      <trkpt lat="50.07611929" lon="-123.13670828">
      </trkpt>
      <trkpt lat="50.07629034" lon="-123.13654099">
      </trkpt>
      <trkpt lat="50.07647936" lon="-123.13642967">
      </trkpt>
      <trkpt lat="50.07665041" lon="-123.13634641">
      </trkpt>
      <trkpt lat="50.07686631" lon="-123.13626315">
      </trkpt>
      <trkpt lat="50.07705532" lon="-123.13619377">
      </trkpt>
      <trkpt lat="50.07723521" lon="-123.13612438">
      </trkpt>
      <trkpt lat="50.07746917" lon="-123.13605514">
      </trkpt>
      <trkpt lat="50.07769409" lon="-123.13594398">
      </trkpt>
      <trkpt lat="50.07788319" lon="-123.13579086">
      </trkpt>
      <trkpt lat="50.07798221" lon="-123.1357352">
      </trkpt>
      <trkpt lat="50.07817103" lon="-123.13579163">
      </trkpt>
      <trkpt lat="50.07837779" lon="-123.13584805">
      </trkpt>
      <trkpt lat="50.07857564" lon="-123.13583479">
      </trkpt>
      <trkpt lat="50.07879162" lon="-123.13575152">
      </trkpt>
      <trkpt lat="50.0789717" lon="-123.13558423">
      </trkpt>
      <trkpt lat="50.07899878" lon="-123.13547246">
      </trkpt>
      <trkpt lat="50.07889122" lon="-123.13519263">
      </trkpt>
      <trkpt lat="50.07872058" lon="-123.13499652">
      </trkpt>
      <trkpt lat="50.07854981" lon="-123.13489831">
      </trkpt>
      <trkpt lat="50.07832509" lon="-123.13478577">
      </trkpt>
      <trkpt lat="50.07821842" lon="-123.13470647">
      </trkpt>
      <trkpt lat="50.078104" lon="-123.13458844">
      </trkpt>
      <trkpt lat="50.08025034" lon="-123.13360088">
      </trkpt>
      <trkpt lat="50.08198554" lon="-123.1329668">
      </trkpt>
      <trkpt lat="50.08220819" lon="-123.13288385">
      </trkpt>
      <trkpt lat="50.08226687" lon="-123.13267234">
      </trkpt>
      <trkpt lat="50.08236617" lon="-123.13235119">
      </trkpt>
      <trkpt lat="50.08243839" lon="-123.13209972">
      </trkpt>
      <trkpt lat="50.08249266" lon="-123.13180632">
      </trkpt>
      <trkpt lat="50.08258294" lon="-123.13155501">
      </trkpt>
      <trkpt lat="50.08270009" lon="-123.13131772">
      </trkpt>
      <trkpt lat="50.08275416" lon="-123.131234">
      </trkpt>
      <trkpt lat="50.08278105" lon="-123.13128997">
      </trkpt>
      <trkpt lat="50.0829247" lon="-123.13154189">
      </trkpt>
      <trkpt lat="50.08306836" lon="-123.13177993">
      </trkpt>
      <trkpt lat="50.08323007" lon="-123.13192023">
      </trkpt>
      <trkpt lat="50.08341886" lon="-123.13201859">
      </trkpt>
      <trkpt lat="50.08364356" lon="-123.13214501">
      </trkpt>
      <trkpt lat="50.08384128" lon="-123.13220143">
      </trkpt>
      <trkpt lat="50.08403919" lon="-123.13221592">
      </trkpt>
      <trkpt lat="50.08425497" lon="-123.13228638">
      </trkpt>
      <trkpt lat="50.08443472" lon="-123.13235683">
      </trkpt>
      <trkpt lat="50.08465049" lon="-123.13246921">
      </trkpt>
      <trkpt lat="50.08486625" lon="-123.1325537">
      </trkpt>
      <trkpt lat="50.08504611" lon="-123.13255416">
      </trkpt>
      <trkpt lat="50.08526207" lon="-123.13248492">
      </trkpt>
      <trkpt lat="50.08546902" lon="-123.1324015">
      </trkpt>
      <trkpt lat="50.08566701" lon="-123.13230422">
      </trkpt>
      <trkpt lat="50.08573" lon="-123.13219259">
      </trkpt>
      <trkpt lat="50.08581134" lon="-123.13189933">
      </trkpt>
      <trkpt lat="50.08584764" lon="-123.13155012">
      </trkpt>
      <trkpt lat="50.08584775" lon="-123.13154997">
      </trkpt>
      <trkpt lat="50.08583911" lon="-123.13120046">
      </trkpt>
      <trkpt lat="50.0858395" lon="-123.13086496">
      </trkpt>
      <trkpt lat="50.08581291" lon="-123.13051545">
      </trkpt>
      <trkpt lat="50.08575933" lon="-123.1301798">
      </trkpt>
      <trkpt lat="50.0857147" lon="-123.12990013">
      </trkpt>
      <trkpt lat="50.08564298" lon="-123.12963433">
      </trkpt>
      <trkpt lat="50.0855264" lon="-123.12932659">
      </trkpt>
      <trkpt lat="50.08540081" lon="-123.12903257">
      </trkpt>
      <trkpt lat="50.08538305" lon="-123.12887886">
      </trkpt>
      <trkpt lat="50.08537432" lon="-123.12855726">
      </trkpt>
      <trkpt lat="50.08537451" lon="-123.12843145">
      </trkpt>
      <trkpt lat="50.08535686" lon="-123.12816595">
      </trkpt>
      <trkpt lat="50.08538413" lon="-123.12788643">
      </trkpt>
      <trkpt lat="50.08538413" lon="-123.12785837">
      </trkpt>
      <trkpt lat="50.08542946" lon="-123.12755109">
      </trkpt>
      <trkpt lat="50.08546965" lon="-123.12731301">
      </trkpt>
    </trkseg>
  </trk>
</gpx>