<?xml version="1.0" encoding="UTF-8"?>
<gpx xmlns="http://www.topografix.com/GPX/1/1" xmlns:xsi="http://www.w3.org/2001/XMLSchema-instance" xsi:schemaLocation="http://www.topografix.com/GPX/1/1 http://www.topografix.com/GPX/1/1/gpx.xsd" version="1.1" creator="gpx.py -- https://github.com/tkrajina/gpxpy">
  <trk>
    <name>Kayak Trail</name>
    <trkseg>
      <trkpt lat="50.04463225" lon="-123.10270183">
      </trkpt>
      <trkpt lat="50.04462174" lon="-123.10289701">
      </trkpt>
      <trkpt lat="50.04461369" lon="-123.10295526">
      </trkpt>
      <trkpt lat="50.04460495" lon="-123.10304402">
      </trkpt>
      <trkpt lat="50.04460525" lon="-123.10309724">
      </trkpt>
      <trkpt lat="50.04459209" lon="-123.10320719">
      </trkpt>
      <trkpt lat="50.04456263" lon="-123.10326788">
      </trkpt>
      <trkpt lat="50.04454691" lon="-123.10332477">
      </trkpt>
      <trkpt lat="50.04453582" lon="-123.10339934">
      </trkpt>
      <trkpt lat="50.0445379" lon="-123.10345702">
      </trkpt>
      <trkpt lat="50.04454121" lon="-123.10354817">
      </trkpt>
      <trkpt lat="50.04453778" lon="-123.10356753">
      </trkpt>
      <trkpt lat="50.04453944" lon="-123.10366528">
      </trkpt>
      <trkpt lat="50.04452373" lon="-123.10371516">
      </trkpt>
      <trkpt lat="50.04448976" lon="-123.10377936">
      </trkpt>
      <trkpt lat="50.04443752" lon="-123.10386505">
      </trkpt>
      <trkpt lat="50.04440806" lon="-123.1039044">
      </trkpt>
      <trkpt lat="50.04440118" lon="-123.10391859">
      </trkpt>
      <trkpt lat="50.04430071" lon="-123.10394817">
      </trkpt>
      <trkpt lat="50.04427794" lon="-123.10396265">
      </trkpt>
      <trkpt lat="50.04426428" lon="-123.1039805">
      </trkpt>
      <trkpt lat="50.04426015" lon="-123.10405507">
      </trkpt>
      <trkpt lat="50.04422834" lon="-123.10409441">
      </trkpt>
      <trkpt lat="50.04416244" lon="-123.10419094">
      </trkpt>
      <trkpt lat="50.04414428" lon="-123.10422311">
      </trkpt>
      <trkpt lat="50.04409881" lon="-123.10426261">
      </trkpt>
      <trkpt lat="50.0440829" lon="-123.10429463">
      </trkpt>
      <trkpt lat="50.04408525" lon="-123.10430531">
      </trkpt>
      <trkpt lat="50.04406709" lon="-123.10433031">
      </trkpt>
      <trkpt lat="50.04405344" lon="-123.1043808">
      </trkpt>
    </trkseg>
  </trk>
</gpx>