<?xml version="1.0" encoding="UTF-8"?>
<gpx xmlns="http://www.topografix.com/GPX/1/1" xmlns:xsi="http://www.w3.org/2001/XMLSchema-instance" xsi:schemaLocation="http://www.topografix.com/GPX/1/1 http://www.topografix.com/GPX/1/1/gpx.xsd" version="1.1" creator="gpx.py -- https://github.com/tkrajina/gpxpy">
  <trk>
    <name>Cloudburst bench route</name>
    <trkseg>
      <trkpt lat="49.9646108" lon="-123.2317005">
      </trkpt>
      <trkpt lat="49.964139" lon="-123.2318893">
      </trkpt>
      <trkpt lat="49.9635523" lon="-123.2322756">
      </trkpt>
      <trkpt lat="49.9629381" lon="-123.2328442">
      </trkpt>
      <trkpt lat="49.9626689" lon="-123.2333055">
      </trkpt>
      <trkpt lat="49.9625033" lon="-123.2332948">
      </trkpt>
      <trkpt lat="49.9623652" lon="-123.2331553">
      </trkpt>
      <trkpt lat="49.9621996" lon="-123.2331017">
      </trkpt>
      <trkpt lat="49.9619028" lon="-123.2331339">
      </trkpt>
      <trkpt lat="49.961537" lon="-123.2334128">
      </trkpt>
      <trkpt lat="49.9611574" lon="-123.2340351">
      </trkpt>
      <trkpt lat="49.960764" lon="-123.2344106">
      </trkpt>
      <trkpt lat="49.9604189" lon="-123.2345608">
      </trkpt>
      <trkpt lat="49.9598874" lon="-123.2345823">
      </trkpt>
      <trkpt lat="49.9593215" lon="-123.2343891">
      </trkpt>
      <trkpt lat="49.9583413" lon="-123.2341317">
      </trkpt>
      <trkpt lat="49.9574371" lon="-123.23396">
      </trkpt>
      <trkpt lat="49.9563258" lon="-123.2339814">
      </trkpt>
      <trkpt lat="49.9558702" lon="-123.2335952">
      </trkpt>
      <trkpt lat="49.9555596" lon="-123.2330373">
      </trkpt>
      <trkpt lat="49.9551869" lon="-123.2326189">
      </trkpt>
      <trkpt lat="49.9548417" lon="-123.2324043">
      </trkpt>
      <trkpt lat="49.9543309" lon="-123.2323936">
      </trkpt>
      <trkpt lat="49.95411" lon="-123.2325867">
      </trkpt>
      <trkpt lat="49.9536475" lon="-123.2327369">
      </trkpt>
      <trkpt lat="49.9527432" lon="-123.2327262">
      </trkpt>
      <trkpt lat="49.9522531" lon="-123.2328978">
      </trkpt>
      <trkpt lat="49.9519355" lon="-123.2331661">
      </trkpt>
      <trkpt lat="49.9515075" lon="-123.2335952">
      </trkpt>
      <trkpt lat="49.9511071" lon="-123.233842">
      </trkpt>
      <trkpt lat="49.9505411" lon="-123.2338849">
      </trkpt>
      <trkpt lat="49.9498231" lon="-123.2337991">
      </trkpt>
      <trkpt lat="49.9490982" lon="-123.2337025">
      </trkpt>
      <trkpt lat="49.9485597" lon="-123.2339278">
      </trkpt>
      <trkpt lat="49.948035" lon="-123.2346252">
      </trkpt>
      <trkpt lat="49.9478694" lon="-123.2353762">
      </trkpt>
      <trkpt lat="49.9478763" lon="-123.2359985">
      </trkpt>
      <trkpt lat="49.9478003" lon="-123.2365349">
      </trkpt>
      <trkpt lat="49.947538" lon="-123.2369641">
      </trkpt>
      <trkpt lat="49.9471721" lon="-123.2372967">
      </trkpt>
      <trkpt lat="49.9463436" lon="-123.2373288">
      </trkpt>
      <trkpt lat="49.9459017" lon="-123.2374469">
      </trkpt>
      <trkpt lat="49.9456187" lon="-123.23764">
      </trkpt>
      <trkpt lat="49.9452803" lon="-123.2378546">
      </trkpt>
      <trkpt lat="49.9445899" lon="-123.2383266">
      </trkpt>
      <trkpt lat="49.9442309" lon="-123.2384768">
      </trkpt>
      <trkpt lat="49.9437752" lon="-123.238509">
      </trkpt>
      <trkpt lat="49.9428017" lon="-123.2385412">
      </trkpt>
      <trkpt lat="49.9421734" lon="-123.238391">
      </trkpt>
      <trkpt lat="49.9416348" lon="-123.2383052">
      </trkpt>
      <trkpt lat="49.9413586" lon="-123.2381013">
      </trkpt>
      <trkpt lat="49.9412274" lon="-123.2376293">
      </trkpt>
      <trkpt lat="49.9411515" lon="-123.236889">
      </trkpt>
      <trkpt lat="49.9410272" lon="-123.2366315">
      </trkpt>
      <trkpt lat="49.9402193" lon="-123.2370392">
      </trkpt>
      <trkpt lat="49.9394805" lon="-123.2368568">
      </trkpt>
      <trkpt lat="49.9387623" lon="-123.2363203">
      </trkpt>
      <trkpt lat="49.9385828" lon="-123.2359019">
      </trkpt>
      <trkpt lat="49.9385483" lon="-123.2355049">
      </trkpt>
      <trkpt lat="49.9386588" lon="-123.2350651">
      </trkpt>
      <trkpt lat="49.9386242" lon="-123.234593">
      </trkpt>
      <trkpt lat="49.9384792" lon="-123.2343999">
      </trkpt>
      <trkpt lat="49.9382099" lon="-123.2344213">
      </trkpt>
      <trkpt lat="49.9378301" lon="-123.2346144">
      </trkpt>
      <trkpt lat="49.9375884" lon="-123.2346037">
      </trkpt>
      <trkpt lat="49.9373399" lon="-123.2344213">
      </trkpt>
      <trkpt lat="49.9370982" lon="-123.2337561">
      </trkpt>
      <trkpt lat="49.9369877" lon="-123.2335845">
      </trkpt>
      <trkpt lat="49.9367667" lon="-123.2336489">
      </trkpt>
      <trkpt lat="49.9363179" lon="-123.233842">
      </trkpt>
      <trkpt lat="49.935724" lon="-123.2342926">
      </trkpt>
      <trkpt lat="49.9348953" lon="-123.2348398">
      </trkpt>
      <trkpt lat="49.9341426" lon="-123.2354084">
      </trkpt>
      <trkpt lat="49.9335571" lon="-123.2361058">
      </trkpt>
    </trkseg>
  </trk>
</gpx>