<?xml version="1.0" encoding="UTF-8"?>
<gpx xmlns="http://www.topografix.com/GPX/1/1" xmlns:xsi="http://www.w3.org/2001/XMLSchema-instance" xsi:schemaLocation="http://www.topografix.com/GPX/1/1 http://www.topografix.com/GPX/1/1/gpx.xsd" version="1.1" creator="gpx.py -- https://github.com/tkrajina/gpxpy">
  <trk>
    <name>Brew Hut Access</name>
    <trkseg>
      <trkpt lat="50.0072181" lon="-123.1870797">
      </trkpt>
      <trkpt lat="50.0067462" lon="-123.1876466">
      </trkpt>
      <trkpt lat="50.0062222" lon="-123.1885693">
      </trkpt>
      <trkpt lat="50.0059642" lon="-123.1894982">
      </trkpt>
    </trkseg>
    <trkseg>
      <trkpt lat="50.0071214" lon="-123.1945494">
      </trkpt>
      <trkpt lat="50.0070158" lon="-123.1938224">
      </trkpt>
      <trkpt lat="50.0065651" lon="-123.1930878">
      </trkpt>
      <trkpt lat="50.0060608" lon="-123.1918857">
      </trkpt>
      <trkpt lat="50.005932" lon="-123.1911678">
      </trkpt>
      <trkpt lat="50.0059642" lon="-123.1894982">
      </trkpt>
    </trkseg>
    <trkseg>
      <trkpt lat="50.0104847" lon="-123.205398">
      </trkpt>
      <trkpt lat="50.0104922" lon="-123.2052083">
      </trkpt>
      <trkpt lat="50.0101828" lon="-123.2045057">
      </trkpt>
      <trkpt lat="50.0096352" lon="-123.2034624">
      </trkpt>
      <trkpt lat="50.0092037" lon="-123.2024029">
      </trkpt>
      <trkpt lat="50.008952" lon="-123.2019501">
      </trkpt>
      <trkpt lat="50.0082798" lon="-123.2008794">
      </trkpt>
      <trkpt lat="50.0077661" lon="-123.1998687">
      </trkpt>
      <trkpt lat="50.0075075" lon="-123.1990555">
      </trkpt>
      <trkpt lat="50.0072972" lon="-123.1983667">
      </trkpt>
      <trkpt lat="50.0072145" lon="-123.1979805">
      </trkpt>
      <trkpt lat="50.0072593" lon="-123.1977895">
      </trkpt>
      <trkpt lat="50.0073834" lon="-123.197017">
      </trkpt>
      <trkpt lat="50.0072179" lon="-123.1961587">
      </trkpt>
      <trkpt lat="50.007149" lon="-123.1954506">
      </trkpt>
      <trkpt lat="50.0070352" lon="-123.194912">
      </trkpt>
      <trkpt lat="50.0071214" lon="-123.1945494">
      </trkpt>
    </trkseg>
    <trkseg>
      <trkpt lat="50.0104847" lon="-123.205398">
      </trkpt>
      <trkpt lat="50.0089417" lon="-123.2042268">
      </trkpt>
      <trkpt lat="50.0078212" lon="-123.2031303">
      </trkpt>
      <trkpt lat="50.0064422" lon="-123.2021003">
      </trkpt>
      <trkpt lat="50.0051631" lon="-123.200815">
      </trkpt>
      <trkpt lat="50.004308" lon="-123.2000211">
      </trkpt>
      <trkpt lat="50.0033426" lon="-123.1989482">
      </trkpt>
      <trkpt lat="50.00126" lon="-123.1977251">
      </trkpt>
      <trkpt lat="50.0008565" lon="-123.1971436">
      </trkpt>
      <trkpt lat="50.0004841" lon="-123.1966286">
      </trkpt>
      <trkpt lat="50.0001428" lon="-123.1957939">
      </trkpt>
      <trkpt lat="49.9998911" lon="-123.1954699">
      </trkpt>
      <trkpt lat="49.9990491" lon="-123.1947869">
      </trkpt>
      <trkpt lat="49.9983083" lon="-123.1945065">
      </trkpt>
      <trkpt lat="49.9978663" lon="-123.1944865">
      </trkpt>
      <trkpt lat="49.9974497" lon="-123.1942683">
      </trkpt>
      <trkpt lat="49.9967221" lon="-123.1934765">
      </trkpt>
      <trkpt lat="49.9959082" lon="-123.1926826">
      </trkpt>
      <trkpt lat="49.9945564" lon="-123.1916741">
      </trkpt>
      <trkpt lat="49.9933839" lon="-123.1910303">
      </trkpt>
      <trkpt lat="49.9929442" lon="-123.1906889">
      </trkpt>
      <trkpt lat="49.9925733" lon="-123.1905081">
      </trkpt>
      <trkpt lat="49.9921723" lon="-123.1903791">
      </trkpt>
      <trkpt lat="49.991927" lon="-123.1904338">
      </trkpt>
      <trkpt lat="49.9918109" lon="-123.190549">
      </trkpt>
      <trkpt lat="49.9916095" lon="-123.1907515">
      </trkpt>
    </trkseg>
    <trkseg>
      <trkpt lat="49.9913835" lon="-123.1910413">
      </trkpt>
      <trkpt lat="49.9916095" lon="-123.1907515">
      </trkpt>
    </trkseg>
    <trkseg>
      <trkpt lat="49.9682128" lon="-123.1789847">
      </trkpt>
      <trkpt lat="49.9683439" lon="-123.1792113">
      </trkpt>
      <trkpt lat="49.9684852" lon="-123.1793601">
      </trkpt>
      <trkpt lat="49.9686551" lon="-123.179438">
      </trkpt>
      <trkpt lat="49.9688627" lon="-123.1795061">
      </trkpt>
      <trkpt lat="49.9690777" lon="-123.1795806">
      </trkpt>
      <trkpt lat="49.9691746" lon="-123.1796954">
      </trkpt>
      <trkpt lat="49.9692334" lon="-123.179834">
      </trkpt>
      <trkpt lat="49.9693072" lon="-123.1799959">
      </trkpt>
      <trkpt lat="49.9694371" lon="-123.1802082">
      </trkpt>
      <trkpt lat="49.9695168" lon="-123.1803176">
      </trkpt>
      <trkpt lat="49.9697207" lon="-123.1805324">
      </trkpt>
      <trkpt lat="49.969859" lon="-123.1806019">
      </trkpt>
      <trkpt lat="49.9701419" lon="-123.1805883">
      </trkpt>
      <trkpt lat="49.9706535" lon="-123.1804006">
      </trkpt>
      <trkpt lat="49.9709262" lon="-123.1803394">
      </trkpt>
      <trkpt lat="49.9710644" lon="-123.1803439">
      </trkpt>
      <trkpt lat="49.9711562" lon="-123.1803469">
      </trkpt>
      <trkpt lat="49.9715223" lon="-123.1803859">
      </trkpt>
      <trkpt lat="49.9717118" lon="-123.1804485">
      </trkpt>
      <trkpt lat="49.9718773" lon="-123.1805702">
      </trkpt>
      <trkpt lat="49.972005" lon="-123.1806419">
      </trkpt>
      <trkpt lat="49.9721494" lon="-123.1806609">
      </trkpt>
      <trkpt lat="49.9722563" lon="-123.1806285">
      </trkpt>
      <trkpt lat="49.9725051" lon="-123.1805863">
      </trkpt>
      <trkpt lat="49.9726399" lon="-123.1806245">
      </trkpt>
      <trkpt lat="49.9727871" lon="-123.1807732">
      </trkpt>
      <trkpt lat="49.9729352" lon="-123.1810604">
      </trkpt>
      <trkpt lat="49.973048" lon="-123.1812939">
      </trkpt>
    </trkseg>
    <trkseg>
      <trkpt lat="49.973048" lon="-123.1812939">
      </trkpt>
      <trkpt lat="49.9733228" lon="-123.1817933">
      </trkpt>
      <trkpt lat="49.9734265" lon="-123.1820367">
      </trkpt>
      <trkpt lat="49.973699" lon="-123.1823264">
      </trkpt>
      <trkpt lat="49.9738853" lon="-123.1826214">
      </trkpt>
      <trkpt lat="49.9741579" lon="-123.1828521">
      </trkpt>
      <trkpt lat="49.9743166" lon="-123.1830667">
      </trkpt>
      <trkpt lat="49.9745822" lon="-123.1832812">
      </trkpt>
      <trkpt lat="49.9752241" lon="-123.1836567">
      </trkpt>
      <trkpt lat="49.9756726" lon="-123.1840108">
      </trkpt>
      <trkpt lat="49.975852" lon="-123.184279">
      </trkpt>
      <trkpt lat="49.9759141" lon="-123.1846009">
      </trkpt>
      <trkpt lat="49.9759624" lon="-123.1848798">
      </trkpt>
      <trkpt lat="49.9760792" lon="-123.1850515">
      </trkpt>
      <trkpt lat="49.9764799" lon="-123.1852753">
      </trkpt>
      <trkpt lat="49.9769884" lon="-123.1853634">
      </trkpt>
      <trkpt lat="49.9772012" lon="-123.1854547">
      </trkpt>
      <trkpt lat="49.9778591" lon="-123.1856571">
      </trkpt>
      <trkpt lat="49.978026" lon="-123.1857571">
      </trkpt>
      <trkpt lat="49.9781011" lon="-123.1858983">
      </trkpt>
      <trkpt lat="49.9781638" lon="-123.1861057">
      </trkpt>
      <trkpt lat="49.9783354" lon="-123.1863391">
      </trkpt>
      <trkpt lat="49.9787908" lon="-123.1865537">
      </trkpt>
      <trkpt lat="49.9793165" lon="-123.1868286">
      </trkpt>
      <trkpt lat="49.9795479" lon="-123.1870103">
      </trkpt>
      <trkpt lat="49.9797395" lon="-123.1871616">
      </trkpt>
      <trkpt lat="49.9800161" lon="-123.1871635">
      </trkpt>
      <trkpt lat="49.9803057" lon="-123.1870383">
      </trkpt>
      <trkpt lat="49.9806391" lon="-123.1869757">
      </trkpt>
      <trkpt lat="49.9811189" lon="-123.1869534">
      </trkpt>
      <trkpt lat="49.9821296" lon="-123.1870485">
      </trkpt>
      <trkpt lat="49.9829782" lon="-123.1872302">
      </trkpt>
      <trkpt lat="49.9843338" lon="-123.1870821">
      </trkpt>
      <trkpt lat="49.985572" lon="-123.1871658">
      </trkpt>
      <trkpt lat="49.9863895" lon="-123.1873396">
      </trkpt>
      <trkpt lat="49.9871621" lon="-123.1875971">
      </trkpt>
      <trkpt lat="49.9883313" lon="-123.188818">
      </trkpt>
      <trkpt lat="49.9888232" lon="-123.1897415">
      </trkpt>
      <trkpt lat="49.9891931" lon="-123.1901954">
      </trkpt>
      <trkpt lat="49.9898551" lon="-123.1907798">
      </trkpt>
      <trkpt lat="49.9902622" lon="-123.1910244">
      </trkpt>
      <trkpt lat="49.9904829" lon="-123.191102">
      </trkpt>
      <trkpt lat="49.9908175" lon="-123.191161">
      </trkpt>
      <trkpt lat="49.9911141" lon="-123.1911529">
      </trkpt>
      <trkpt lat="49.9912721" lon="-123.1911215">
      </trkpt>
      <trkpt lat="49.9913835" lon="-123.1910413">
      </trkpt>
    </trkseg>
    <trkseg>
      <trkpt lat="49.9695882" lon="-123.1664321">
      </trkpt>
      <trkpt lat="49.9695621" lon="-123.1665402">
      </trkpt>
      <trkpt lat="49.9694633" lon="-123.166644">
      </trkpt>
      <trkpt lat="49.9692873" lon="-123.1666896">
      </trkpt>
      <trkpt lat="49.968856" lon="-123.1668478">
      </trkpt>
      <trkpt lat="49.9684833" lon="-123.1669372">
      </trkpt>
      <trkpt lat="49.9680668" lon="-123.1670833">
      </trkpt>
      <trkpt lat="49.9677375" lon="-123.167268">
      </trkpt>
      <trkpt lat="49.9676011" lon="-123.1674256">
      </trkpt>
      <trkpt lat="49.9674475" lon="-123.1676761">
      </trkpt>
      <trkpt lat="49.9672429" lon="-123.1679193">
      </trkpt>
      <trkpt lat="49.9670281" lon="-123.1680224">
      </trkpt>
      <trkpt lat="49.9667655" lon="-123.168028">
      </trkpt>
      <trkpt lat="49.9666989" lon="-123.1680485">
      </trkpt>
      <trkpt lat="49.9666427" lon="-123.1680817">
      </trkpt>
      <trkpt lat="49.966602" lon="-123.1681669">
      </trkpt>
      <trkpt lat="49.9665918" lon="-123.1682556">
      </trkpt>
      <trkpt lat="49.9666134" lon="-123.1683541">
      </trkpt>
      <trkpt lat="49.9666406" lon="-123.1683973">
      </trkpt>
      <trkpt lat="49.9666797" lon="-123.168429">
      </trkpt>
      <trkpt lat="49.9668022" lon="-123.1684631">
      </trkpt>
      <trkpt lat="49.9669713" lon="-123.1685183">
      </trkpt>
      <trkpt lat="49.9670744" lon="-123.1685846">
      </trkpt>
      <trkpt lat="49.9671339" lon="-123.1686808">
      </trkpt>
      <trkpt lat="49.9671441" lon="-123.1687891">
      </trkpt>
      <trkpt lat="49.9671186" lon="-123.1689244">
      </trkpt>
      <trkpt lat="49.9670477" lon="-123.1690658">
      </trkpt>
      <trkpt lat="49.9669454" lon="-123.1692854">
      </trkpt>
      <trkpt lat="49.9667653" lon="-123.1695881">
      </trkpt>
      <trkpt lat="49.9666767" lon="-123.1698085">
      </trkpt>
      <trkpt lat="49.9666573" lon="-123.169973">
      </trkpt>
      <trkpt lat="49.9666832" lon="-123.1701437">
      </trkpt>
      <trkpt lat="49.9667225" lon="-123.1703101">
      </trkpt>
      <trkpt lat="49.9667574" lon="-123.1704924">
      </trkpt>
      <trkpt lat="49.9667988" lon="-123.1708733">
      </trkpt>
      <trkpt lat="49.9668144" lon="-123.1712872">
      </trkpt>
      <trkpt lat="49.9668477" lon="-123.171692">
      </trkpt>
      <trkpt lat="49.9668405" lon="-123.1718358">
      </trkpt>
      <trkpt lat="49.9668023" lon="-123.1719919">
      </trkpt>
      <trkpt lat="49.9667216" lon="-123.1721005">
      </trkpt>
      <trkpt lat="49.9666176" lon="-123.1721527">
      </trkpt>
      <trkpt lat="49.9665486" lon="-123.1721669">
      </trkpt>
      <trkpt lat="49.9664579" lon="-123.1721442">
      </trkpt>
      <trkpt lat="49.9663053" lon="-123.1720159">
      </trkpt>
      <trkpt lat="49.9662353" lon="-123.1719473">
      </trkpt>
      <trkpt lat="49.9661475" lon="-123.1719462">
      </trkpt>
      <trkpt lat="49.9660866" lon="-123.1719792">
      </trkpt>
      <trkpt lat="49.9660302" lon="-123.1720773">
      </trkpt>
      <trkpt lat="49.9659924" lon="-123.1722243">
      </trkpt>
    </trkseg>
    <trkseg>
      <trkpt lat="49.9659924" lon="-123.1722243">
      </trkpt>
      <trkpt lat="49.9659862" lon="-123.1723623">
      </trkpt>
      <trkpt lat="49.9660195" lon="-123.1724773">
      </trkpt>
      <trkpt lat="49.9661104" lon="-123.1725925">
      </trkpt>
      <trkpt lat="49.9662519" lon="-123.1726757">
      </trkpt>
      <trkpt lat="49.9664416" lon="-123.1728232">
      </trkpt>
      <trkpt lat="49.9666314" lon="-123.1729976">
      </trkpt>
      <trkpt lat="49.9668398" lon="-123.173282">
      </trkpt>
      <trkpt lat="49.9670227" lon="-123.1735609">
      </trkpt>
      <trkpt lat="49.9671538" lon="-123.1737809">
      </trkpt>
      <trkpt lat="49.9673603" lon="-123.1741255">
      </trkpt>
      <trkpt lat="49.9675402" lon="-123.1745795">
      </trkpt>
      <trkpt lat="49.9676524" lon="-123.175064">
      </trkpt>
      <trkpt lat="49.9677271" lon="-123.1755893">
      </trkpt>
      <trkpt lat="49.9678045" lon="-123.1760788">
      </trkpt>
      <trkpt lat="49.9679066" lon="-123.1764248">
      </trkpt>
      <trkpt lat="49.9681166" lon="-123.1768117">
      </trkpt>
      <trkpt lat="49.9682062" lon="-123.1769688">
      </trkpt>
      <trkpt lat="49.9682724" lon="-123.1771583">
      </trkpt>
      <trkpt lat="49.9683001" lon="-123.1773432">
      </trkpt>
      <trkpt lat="49.9682824" lon="-123.1775423">
      </trkpt>
      <trkpt lat="49.9682254" lon="-123.1777775">
      </trkpt>
      <trkpt lat="49.9681231" lon="-123.1781524">
      </trkpt>
      <trkpt lat="49.9681218" lon="-123.1784236">
      </trkpt>
      <trkpt lat="49.9681581" lon="-123.1786571">
      </trkpt>
      <trkpt lat="49.9681786" lon="-123.1787991">
      </trkpt>
      <trkpt lat="49.9682128" lon="-123.1789847">
      </trkpt>
    </trkseg>
    <trkseg>
      <trkpt lat="50.0072181" lon="-123.1870797">
      </trkpt>
      <trkpt lat="50.0073184" lon="-123.1870336">
      </trkpt>
      <trkpt lat="50.0074115" lon="-123.1865777">
      </trkpt>
      <trkpt lat="50.0074524" lon="-123.1860806">
      </trkpt>
      <trkpt lat="50.0076356" lon="-123.1858964">
      </trkpt>
      <trkpt lat="50.0076666" lon="-123.1855638">
      </trkpt>
      <trkpt lat="50.0076011" lon="-123.1852097">
      </trkpt>
      <trkpt lat="50.0075881" lon="-123.1843454">
      </trkpt>
      <trkpt lat="50.0076624" lon="-123.1839608">
      </trkpt>
      <trkpt lat="50.0077799" lon="-123.1835969">
      </trkpt>
      <trkpt lat="50.0079902" lon="-123.1833233">
      </trkpt>
      <trkpt lat="50.0081482" lon="-123.1832427">
      </trkpt>
      <trkpt lat="50.008366" lon="-123.1829746">
      </trkpt>
      <trkpt lat="50.0084628" lon="-123.1828742">
      </trkpt>
      <trkpt lat="50.0085423" lon="-123.1827666">
      </trkpt>
      <trkpt lat="50.0086625" lon="-123.1825508">
      </trkpt>
      <trkpt lat="50.0087452" lon="-123.1820841">
      </trkpt>
      <trkpt lat="50.0089279" lon="-123.1819607">
      </trkpt>
      <trkpt lat="50.0092389" lon="-123.181859">
      </trkpt>
      <trkpt lat="50.0096301" lon="-123.1816946">
      </trkpt>
      <trkpt lat="50.0101522" lon="-123.1813467">
      </trkpt>
      <trkpt lat="50.0104483" lon="-123.1813331">
      </trkpt>
      <trkpt lat="50.0106448" lon="-123.181435">
      </trkpt>
      <trkpt lat="50.0107896" lon="-123.1813653">
      </trkpt>
      <trkpt lat="50.0109481" lon="-123.1810858">
      </trkpt>
      <trkpt lat="50.011186" lon="-123.180625">
      </trkpt>
      <trkpt lat="50.0116204" lon="-123.1804426">
      </trkpt>
      <trkpt lat="50.0121849" lon="-123.1802579">
      </trkpt>
    </trkseg>
    <trkseg>
      <trkpt lat="50.013082" lon="-123.1798257">
      </trkpt>
      <trkpt lat="50.0121849" lon="-123.1802579">
      </trkpt>
    </trkseg>
    <trkseg>
      <trkpt lat="50.013082" lon="-123.1798257">
      </trkpt>
      <trkpt lat="50.0135164" lon="-123.1799169">
      </trkpt>
      <trkpt lat="50.0138829" lon="-123.1801166">
      </trkpt>
      <trkpt lat="50.0142782" lon="-123.1803836">
      </trkpt>
      <trkpt lat="50.0147126" lon="-123.1804211">
      </trkpt>
      <trkpt lat="50.0154605" lon="-123.1802751">
      </trkpt>
      <trkpt lat="50.0158466" lon="-123.1801008">
      </trkpt>
      <trkpt lat="50.0162189" lon="-123.1799452">
      </trkpt>
      <trkpt lat="50.0166567" lon="-123.179795">
      </trkpt>
      <trkpt lat="50.0168911" lon="-123.1798701">
      </trkpt>
      <trkpt lat="50.0170651" lon="-123.1798272">
      </trkpt>
      <trkpt lat="50.0174822" lon="-123.1796716">
      </trkpt>
      <trkpt lat="50.0179252" lon="-123.179713">
      </trkpt>
      <trkpt lat="50.0183629" lon="-123.1798203">
      </trkpt>
      <trkpt lat="50.018749" lon="-123.1802602">
      </trkpt>
      <trkpt lat="50.0189804" lon="-123.1804151">
      </trkpt>
      <trkpt lat="50.019359" lon="-123.1805835">
      </trkpt>
      <trkpt lat="50.0194831" lon="-123.180802">
      </trkpt>
      <trkpt lat="50.0198451" lon="-123.1813224">
      </trkpt>
      <trkpt lat="50.0202604" lon="-123.1818415">
      </trkpt>
      <trkpt lat="50.0206223" lon="-123.1820132">
      </trkpt>
      <trkpt lat="50.0208911" lon="-123.1822358">
      </trkpt>
      <trkpt lat="50.0209416" lon="-123.1822434">
      </trkpt>
      <trkpt lat="50.021041" lon="-123.1822277">
      </trkpt>
      <trkpt lat="50.0213099" lon="-123.1821607">
      </trkpt>
      <trkpt lat="50.0215856" lon="-123.182186">
      </trkpt>
      <trkpt lat="50.0220061" lon="-123.1823309">
      </trkpt>
      <trkpt lat="50.0223258" lon="-123.1822579">
      </trkpt>
      <trkpt lat="50.0226843" lon="-123.1823545">
      </trkpt>
      <trkpt lat="50.0228062" lon="-123.1825009">
      </trkpt>
      <trkpt lat="50.0229125" lon="-123.1826274">
      </trkpt>
      <trkpt lat="50.0235655" lon="-123.1827621">
      </trkpt>
      <trkpt lat="50.0245841" lon="-123.1828849">
      </trkpt>
      <trkpt lat="50.0247811" lon="-123.1828871">
      </trkpt>
      <trkpt lat="50.0248236" lon="-123.18285">
      </trkpt>
      <trkpt lat="50.0250235" lon="-123.1827105">
      </trkpt>
      <trkpt lat="50.0251838" lon="-123.1826301">
      </trkpt>
      <trkpt lat="50.0254715" lon="-123.1826971">
      </trkpt>
      <trkpt lat="50.0258834" lon="-123.1827144">
      </trkpt>
      <trkpt lat="50.0268656" lon="-123.1825013">
      </trkpt>
      <trkpt lat="50.0272517" lon="-123.1825418">
      </trkpt>
      <trkpt lat="50.0276797" lon="-123.1825571">
      </trkpt>
    </trkseg>
    <trkseg>
      <trkpt lat="50.0276797" lon="-123.1825571">
      </trkpt>
      <trkpt lat="50.0287162" lon="-123.1843184">
      </trkpt>
      <trkpt lat="50.0296053" lon="-123.1861852">
      </trkpt>
    </trkseg>
    <trkseg>
      <trkpt lat="50.0296053" lon="-123.1861852">
      </trkpt>
      <trkpt lat="50.0302496" lon="-123.1887596">
      </trkpt>
      <trkpt lat="50.0307458" lon="-123.1899291">
      </trkpt>
      <trkpt lat="50.0313214" lon="-123.1909595">
      </trkpt>
      <trkpt lat="50.0324172" lon="-123.1920753">
      </trkpt>
      <trkpt lat="50.033189" lon="-123.1926225">
      </trkpt>
    </trkseg>
    <trkseg>
      <trkpt lat="50.033189" lon="-123.1926225">
      </trkpt>
      <trkpt lat="50.0344452" lon="-123.1932181">
      </trkpt>
      <trkpt lat="50.0355321" lon="-123.1935559">
      </trkpt>
      <trkpt lat="50.0361799" lon="-123.1936525">
      </trkpt>
    </trkseg>
    <trkseg>
      <trkpt lat="50.0361799" lon="-123.1936525">
      </trkpt>
      <trkpt lat="50.0372601" lon="-123.1939738">
      </trkpt>
      <trkpt lat="50.0386006" lon="-123.1942266">
      </trkpt>
      <trkpt lat="50.0398133" lon="-123.193894">
      </trkpt>
      <trkpt lat="50.0400126" lon="-123.1935453">
      </trkpt>
      <trkpt lat="50.0401358" lon="-123.1929882">
      </trkpt>
      <trkpt lat="50.0403173" lon="-123.1926489">
      </trkpt>
      <trkpt lat="50.0403825" lon="-123.1925234">
      </trkpt>
      <trkpt lat="50.040317" lon="-123.1921459">
      </trkpt>
      <trkpt lat="50.040295" lon="-123.1916927">
      </trkpt>
      <trkpt lat="50.0402708" lon="-123.1915335">
      </trkpt>
      <trkpt lat="50.0401902" lon="-123.1913934">
      </trkpt>
      <trkpt lat="50.0401033" lon="-123.1913307">
      </trkpt>
      <trkpt lat="50.0400676" lon="-123.1911443">
      </trkpt>
    </trkseg>
  </trk>
</gpx>