<?xml version="1.0" encoding="UTF-8"?>
<gpx xmlns="http://www.topografix.com/GPX/1/1" xmlns:xsi="http://www.w3.org/2001/XMLSchema-instance" xsi:schemaLocation="http://www.topografix.com/GPX/1/1 http://www.topografix.com/GPX/1/1/gpx.xsd" version="1.1" creator="gpx.py -- https://github.com/tkrajina/gpxpy">
  <trk>
    <name>Ski tour near Mount Fosthall</name>
    <trkseg>
      <trkpt lat="50.4502768" lon="-118.1986857">
      </trkpt>
      <trkpt lat="50.4512059" lon="-118.2006169">
      </trkpt>
      <trkpt lat="50.4518344" lon="-118.2022476">
      </trkpt>
      <trkpt lat="50.4517797" lon="-118.203342">
      </trkpt>
      <trkpt lat="50.4514655" lon="-118.2045222">
      </trkpt>
      <trkpt lat="50.4515065" lon="-118.2051659">
      </trkpt>
      <trkpt lat="50.45193" lon="-118.206389">
      </trkpt>
      <trkpt lat="50.4519847" lon="-118.2081485">
      </trkpt>
      <trkpt lat="50.4523672" lon="-118.2093072">
      </trkpt>
      <trkpt lat="50.4523126" lon="-118.2118392">
      </trkpt>
      <trkpt lat="50.4521349" lon="-118.2123757">
      </trkpt>
      <trkpt lat="50.4521486" lon="-118.213706">
      </trkpt>
      <trkpt lat="50.4525858" lon="-118.2148862">
      </trkpt>
      <trkpt lat="50.4529" lon="-118.2162166">
      </trkpt>
      <trkpt lat="50.4530504" lon="-118.2168549">
      </trkpt>
      <trkpt lat="50.4532689" lon="-118.2171768">
      </trkpt>
      <trkpt lat="50.4532074" lon="-118.2174987">
      </trkpt>
      <trkpt lat="50.4533509" lon="-118.2181478">
      </trkpt>
      <trkpt lat="50.4534943" lon="-118.2183945">
      </trkpt>
      <trkpt lat="50.4535524" lon="-118.2181853">
      </trkpt>
      <trkpt lat="50.4536241" lon="-118.2181639">
      </trkpt>
      <trkpt lat="50.4537505" lon="-118.2186574">
      </trkpt>
      <trkpt lat="50.453952" lon="-118.2190168">
      </trkpt>
      <trkpt lat="50.4540237" lon="-118.2190222">
      </trkpt>
      <trkpt lat="50.4540306" lon="-118.2187593">
      </trkpt>
      <trkpt lat="50.4540955" lon="-118.2187271">
      </trkpt>
      <trkpt lat="50.4541638" lon="-118.2189095">
      </trkpt>
      <trkpt lat="50.4542014" lon="-118.218931">
      </trkpt>
      <trkpt lat="50.4542526" lon="-118.2188612">
      </trkpt>
      <trkpt lat="50.4542833" lon="-118.21899">
      </trkpt>
      <trkpt lat="50.454338" lon="-118.2189363">
      </trkpt>
      <trkpt lat="50.4544097" lon="-118.2191241">
      </trkpt>
      <trkpt lat="50.4544848" lon="-118.2190758">
      </trkpt>
      <trkpt lat="50.4545736" lon="-118.2187647">
      </trkpt>
      <trkpt lat="50.4546522" lon="-118.2187486">
      </trkpt>
      <trkpt lat="50.4548298" lon="-118.219108">
      </trkpt>
      <trkpt lat="50.4550177" lon="-118.2195318">
      </trkpt>
      <trkpt lat="50.4551065" lon="-118.2198805">
      </trkpt>
      <trkpt lat="50.4552328" lon="-118.2200468">
      </trkpt>
      <trkpt lat="50.4553387" lon="-118.2200468">
      </trkpt>
      <trkpt lat="50.4553831" lon="-118.2201165">
      </trkpt>
      <trkpt lat="50.455448" lon="-118.2202077">
      </trkpt>
      <trkpt lat="50.4555129" lon="-118.2200897">
      </trkpt>
      <trkpt lat="50.4555744" lon="-118.2201648">
      </trkpt>
      <trkpt lat="50.4557485" lon="-118.2204115">
      </trkpt>
      <trkpt lat="50.4558169" lon="-118.2204115">
      </trkpt>
      <trkpt lat="50.4559261" lon="-118.2202077">
      </trkpt>
      <trkpt lat="50.4559739" lon="-118.2202185">
      </trkpt>
      <trkpt lat="50.4561174" lon="-118.2203633">
      </trkpt>
      <trkpt lat="50.4561447" lon="-118.2203311">
      </trkpt>
      <trkpt lat="50.4560491" lon="-118.2199556">
      </trkpt>
      <trkpt lat="50.4560935" lon="-118.2199502">
      </trkpt>
      <trkpt lat="50.4564009" lon="-118.2202452">
      </trkpt>
      <trkpt lat="50.4564487" lon="-118.2202318">
      </trkpt>
      <trkpt lat="50.4564572" lon="-118.220154">
      </trkpt>
      <trkpt lat="50.456406" lon="-118.2198429">
      </trkpt>
      <trkpt lat="50.4564897" lon="-118.2197034">
      </trkpt>
      <trkpt lat="50.4565068" lon="-118.2195801">
      </trkpt>
      <trkpt lat="50.4565529" lon="-118.2196015">
      </trkpt>
      <trkpt lat="50.456669" lon="-118.2198751">
      </trkpt>
      <trkpt lat="50.4567663" lon="-118.21991">
      </trkpt>
      <trkpt lat="50.4569781" lon="-118.2198992">
      </trkpt>
      <trkpt lat="50.4572291" lon="-118.2200334">
      </trkpt>
      <trkpt lat="50.4573999" lon="-118.220205">
      </trkpt>
      <trkpt lat="50.4577244" lon="-118.2202479">
      </trkpt>
      <trkpt lat="50.4582827" lon="-118.2202506">
      </trkpt>
      <trkpt lat="50.4584039" lon="-118.2202157">
      </trkpt>
      <trkpt lat="50.4585525" lon="-118.2198241">
      </trkpt>
      <trkpt lat="50.458626" lon="-118.2198322">
      </trkpt>
      <trkpt lat="50.4591126" lon="-118.2204115">
      </trkpt>
      <trkpt lat="50.459437" lon="-118.2204652">
      </trkpt>
      <trkpt lat="50.4596283" lon="-118.2208085">
      </trkpt>
      <trkpt lat="50.459758" lon="-118.2208246">
      </trkpt>
      <trkpt lat="50.4598229" lon="-118.2204652">
      </trkpt>
      <trkpt lat="50.4599903" lon="-118.2204598">
      </trkpt>
      <trkpt lat="50.4602942" lon="-118.2207173">
      </trkpt>
    </trkseg>
  </trk>
</gpx>