<?xml version="1.0" encoding="UTF-8"?>
<gpx xmlns="http://www.topografix.com/GPX/1/1" xmlns:xsi="http://www.w3.org/2001/XMLSchema-instance" xsi:schemaLocation="http://www.topografix.com/GPX/1/1 http://www.topografix.com/GPX/1/1/gpx.xsd" version="1.1" creator="gpx.py -- https://github.com/tkrajina/gpxpy">
  <trk>
    <name>Ski tour near Mount Baldur</name>
    <trkseg>
      <trkpt lat="50.460885" lon="-118.1564999">
      </trkpt>
      <trkpt lat="50.4618344" lon="-118.1576371">
      </trkpt>
      <trkpt lat="50.4620871" lon="-118.1581843">
      </trkpt>
      <trkpt lat="50.4623466" lon="-118.1585491">
      </trkpt>
      <trkpt lat="50.4626198" lon="-118.158989">
      </trkpt>
      <trkpt lat="50.4627974" lon="-118.1595039">
      </trkpt>
      <trkpt lat="50.4628384" lon="-118.159976">
      </trkpt>
      <trkpt lat="50.4627564" lon="-118.1603837">
      </trkpt>
      <trkpt lat="50.462572" lon="-118.1604695">
      </trkpt>
      <trkpt lat="50.4624217" lon="-118.1604159">
      </trkpt>
      <trkpt lat="50.462169" lon="-118.1602013">
      </trkpt>
      <trkpt lat="50.4618685" lon="-118.1601691">
      </trkpt>
      <trkpt lat="50.4615134" lon="-118.1601584">
      </trkpt>
      <trkpt lat="50.4612948" lon="-118.1603515">
      </trkpt>
      <trkpt lat="50.461247" lon="-118.1608343">
      </trkpt>
      <trkpt lat="50.4614519" lon="-118.162272">
      </trkpt>
      <trkpt lat="50.4618071" lon="-118.1630016">
      </trkpt>
      <trkpt lat="50.4622988" lon="-118.1639457">
      </trkpt>
      <trkpt lat="50.4624218" lon="-118.1648469">
      </trkpt>
      <trkpt lat="50.4623671" lon="-118.1656409">
      </trkpt>
      <trkpt lat="50.4628315" lon="-118.1665635">
      </trkpt>
      <trkpt lat="50.4634462" lon="-118.1675077">
      </trkpt>
      <trkpt lat="50.4635145" lon="-118.1681299">
      </trkpt>
      <trkpt lat="50.4633369" lon="-118.1685806">
      </trkpt>
      <trkpt lat="50.4631594" lon="-118.1682587">
      </trkpt>
      <trkpt lat="50.4629681" lon="-118.1687737">
      </trkpt>
      <trkpt lat="50.4626813" lon="-118.169117">
      </trkpt>
      <trkpt lat="50.4625583" lon="-118.168881">
      </trkpt>
      <trkpt lat="50.4624218" lon="-118.1692457">
      </trkpt>
      <trkpt lat="50.46193" lon="-118.1695676">
      </trkpt>
      <trkpt lat="50.4616978" lon="-118.1697178">
      </trkpt>
      <trkpt lat="50.4618754" lon="-118.1700611">
      </trkpt>
      <trkpt lat="50.4622305" lon="-118.1706834">
      </trkpt>
      <trkpt lat="50.4624218" lon="-118.1715632">
      </trkpt>
      <trkpt lat="50.4626813" lon="-118.1726146">
      </trkpt>
      <trkpt lat="50.4628589" lon="-118.1736446">
      </trkpt>
      <trkpt lat="50.4627632" lon="-118.1742025">
      </trkpt>
      <trkpt lat="50.4628452" lon="-118.1750179">
      </trkpt>
      <trkpt lat="50.4632277" lon="-118.1763697">
      </trkpt>
      <trkpt lat="50.4633096" lon="-118.177464">
      </trkpt>
      <trkpt lat="50.4633506" lon="-118.1784296">
      </trkpt>
      <trkpt lat="50.4633779" lon="-118.1795454">
      </trkpt>
      <trkpt lat="50.4632277" lon="-118.1804681">
      </trkpt>
      <trkpt lat="50.4629408" lon="-118.1805325">
      </trkpt>
      <trkpt lat="50.4628315" lon="-118.1808973">
      </trkpt>
      <trkpt lat="50.4625583" lon="-118.1815839">
      </trkpt>
      <trkpt lat="50.4623261" lon="-118.1815195">
      </trkpt>
      <trkpt lat="50.4621622" lon="-118.1819701">
      </trkpt>
      <trkpt lat="50.4620256" lon="-118.1817126">
      </trkpt>
      <trkpt lat="50.4620256" lon="-118.181541">
      </trkpt>
      <trkpt lat="50.4620256" lon="-118.1813479">
      </trkpt>
      <trkpt lat="50.4618822" lon="-118.1814927">
      </trkpt>
      <trkpt lat="50.4616022" lon="-118.1814337">
      </trkpt>
      <trkpt lat="50.4614075" lon="-118.1811494">
      </trkpt>
      <trkpt lat="50.4611548" lon="-118.1813049">
      </trkpt>
      <trkpt lat="50.460523" lon="-118.1813693">
      </trkpt>
      <trkpt lat="50.4600176" lon="-118.1811333">
      </trkpt>
      <trkpt lat="50.4595122" lon="-118.1816483">
      </trkpt>
      <trkpt lat="50.4592936" lon="-118.1814981">
      </trkpt>
      <trkpt lat="50.4589486" lon="-118.1811172">
      </trkpt>
      <trkpt lat="50.4588155" lon="-118.1812406">
      </trkpt>
      <trkpt lat="50.4586481" lon="-118.1814605">
      </trkpt>
      <trkpt lat="50.4584979" lon="-118.1818038">
      </trkpt>
    </trkseg>
    <trkseg>
      <trkpt lat="50.4496756" lon="-118.1941152">
      </trkpt>
      <trkpt lat="50.4511786" lon="-118.1920552">
      </trkpt>
      <trkpt lat="50.4545258" lon="-118.1883431">
      </trkpt>
      <trkpt lat="50.4554548" lon="-118.1875706">
      </trkpt>
      <trkpt lat="50.4555778" lon="-118.1865621">
      </trkpt>
      <trkpt lat="50.4551816" lon="-118.1849957">
      </trkpt>
      <trkpt lat="50.4552363" lon="-118.183086">
      </trkpt>
      <trkpt lat="50.4553114" lon="-118.182528">
      </trkpt>
      <trkpt lat="50.4554412" lon="-118.1825495">
      </trkpt>
      <trkpt lat="50.4563838" lon="-118.1834722">
      </trkpt>
      <trkpt lat="50.4565546" lon="-118.183161">
      </trkpt>
      <trkpt lat="50.4568756" lon="-118.1831503">
      </trkpt>
      <trkpt lat="50.4570566" lon="-118.1831799">
      </trkpt>
      <trkpt lat="50.4570908" lon="-118.1831181">
      </trkpt>
      <trkpt lat="50.4569849" lon="-118.1828472">
      </trkpt>
      <trkpt lat="50.4573759" lon="-118.182689">
      </trkpt>
      <trkpt lat="50.4576543" lon="-118.1820131">
      </trkpt>
      <trkpt lat="50.45803" lon="-118.1818897">
      </trkpt>
      <trkpt lat="50.4582007" lon="-118.1819862">
      </trkpt>
      <trkpt lat="50.4583852" lon="-118.1819594">
      </trkpt>
      <trkpt lat="50.4584979" lon="-118.1818038">
      </trkpt>
    </trkseg>
  </trk>
</gpx>