<?xml version="1.0" encoding="UTF-8"?>
<gpx xmlns="http://www.topografix.com/GPX/1/1" xmlns:xsi="http://www.w3.org/2001/XMLSchema-instance" xsi:schemaLocation="http://www.topografix.com/GPX/1/1 http://www.topografix.com/GPX/1/1/gpx.xsd" version="1.1" creator="gpx.py -- https://github.com/tkrajina/gpxpy">
  <trk>
    <name>Ski tour near Mount Baldur</name>
    <trkseg>
      <trkpt lat="50.4496483" lon="-118.1940079">
      </trkpt>
      <trkpt lat="50.4507003" lon="-118.1918568">
      </trkpt>
      <trkpt lat="50.4509121" lon="-118.1912023">
      </trkpt>
      <trkpt lat="50.4510522" lon="-118.190226">
      </trkpt>
      <trkpt lat="50.4513527" lon="-118.189078">
      </trkpt>
      <trkpt lat="50.4515475" lon="-118.1886757">
      </trkpt>
      <trkpt lat="50.4516021" lon="-118.1879568">
      </trkpt>
      <trkpt lat="50.4517011" lon="-118.1873721">
      </trkpt>
      <trkpt lat="50.451848" lon="-118.1869698">
      </trkpt>
      <trkpt lat="50.4522852" lon="-118.18609">
      </trkpt>
      <trkpt lat="50.4526302" lon="-118.1853712">
      </trkpt>
      <trkpt lat="50.4531255" lon="-118.1835526">
      </trkpt>
      <trkpt lat="50.4533406" lon="-118.1827748">
      </trkpt>
      <trkpt lat="50.4533236" lon="-118.1819058">
      </trkpt>
      <trkpt lat="50.4533236" lon="-118.1813854">
      </trkpt>
      <trkpt lat="50.4533748" lon="-118.1811333">
      </trkpt>
      <trkpt lat="50.4534499" lon="-118.1800765">
      </trkpt>
      <trkpt lat="50.4533441" lon="-118.1795883">
      </trkpt>
      <trkpt lat="50.4532723" lon="-118.179363">
      </trkpt>
      <trkpt lat="50.4534124" lon="-118.1782151">
      </trkpt>
      <trkpt lat="50.4536037" lon="-118.1782473">
      </trkpt>
      <trkpt lat="50.4538154" lon="-118.1782258">
      </trkpt>
      <trkpt lat="50.4539452" lon="-118.1780112">
      </trkpt>
      <trkpt lat="50.4541194" lon="-118.17792">
      </trkpt>
      <trkpt lat="50.4542594" lon="-118.1773567">
      </trkpt>
      <trkpt lat="50.4543448" lon="-118.1772924">
      </trkpt>
      <trkpt lat="50.4545771" lon="-118.1772548">
      </trkpt>
      <trkpt lat="50.4546966" lon="-118.1770831">
      </trkpt>
      <trkpt lat="50.4548572" lon="-118.1769437">
      </trkpt>
      <trkpt lat="50.4548025" lon="-118.1764662">
      </trkpt>
      <trkpt lat="50.4548332" lon="-118.1756991">
      </trkpt>
      <trkpt lat="50.4548538" lon="-118.175286">
      </trkpt>
      <trkpt lat="50.4549869" lon="-118.1749427">
      </trkpt>
      <trkpt lat="50.4550894" lon="-118.1748515">
      </trkpt>
      <trkpt lat="50.4551132" lon="-118.1746477">
      </trkpt>
      <trkpt lat="50.4552226" lon="-118.174358">
      </trkpt>
      <trkpt lat="50.4554924" lon="-118.1734408">
      </trkpt>
      <trkpt lat="50.4558306" lon="-118.1730705">
      </trkpt>
      <trkpt lat="50.455991" lon="-118.1728131">
      </trkpt>
      <trkpt lat="50.4560696" lon="-118.1728238">
      </trkpt>
      <trkpt lat="50.4562164" lon="-118.173033">
      </trkpt>
      <trkpt lat="50.456435" lon="-118.1730706">
      </trkpt>
      <trkpt lat="50.4565614" lon="-118.1728452">
      </trkpt>
      <trkpt lat="50.4566604" lon="-118.1728238">
      </trkpt>
      <trkpt lat="50.4567322" lon="-118.1727326">
      </trkpt>
      <trkpt lat="50.4568073" lon="-118.1727702">
      </trkpt>
      <trkpt lat="50.4569098" lon="-118.173092">
      </trkpt>
      <trkpt lat="50.4569098" lon="-118.1731939">
      </trkpt>
      <trkpt lat="50.456838" lon="-118.1733978">
      </trkpt>
      <trkpt lat="50.4568483" lon="-118.1735051">
      </trkpt>
      <trkpt lat="50.4569234" lon="-118.1736714">
      </trkpt>
      <trkpt lat="50.4570976" lon="-118.1736606">
      </trkpt>
      <trkpt lat="50.4572308" lon="-118.1735319">
      </trkpt>
      <trkpt lat="50.4577499" lon="-118.1722284">
      </trkpt>
      <trkpt lat="50.458392" lon="-118.1714344">
      </trkpt>
      <trkpt lat="50.4587745" lon="-118.1718636">
      </trkpt>
      <trkpt lat="50.4593209" lon="-118.1733442">
      </trkpt>
    </trkseg>
  </trk>
</gpx>