<?xml version="1.0" encoding="UTF-8"?>
<gpx xmlns="http://www.topografix.com/GPX/1/1" xmlns:xsi="http://www.w3.org/2001/XMLSchema-instance" xsi:schemaLocation="http://www.topografix.com/GPX/1/1 http://www.topografix.com/GPX/1/1/gpx.xsd" version="1.1" creator="gpx.py -- https://github.com/tkrajina/gpxpy">
  <trk>
    <name>Ski tour near Mount Baldur</name>
    <trkseg>
      <trkpt lat="50.4685682" lon="-118.1725932">
      </trkpt>
      <trkpt lat="50.4685136" lon="-118.1742239">
      </trkpt>
      <trkpt lat="50.4680219" lon="-118.1752968">
      </trkpt>
      <trkpt lat="50.4679126" lon="-118.1769276">
      </trkpt>
      <trkpt lat="50.4684862" lon="-118.1781722">
      </trkpt>
      <trkpt lat="50.4687048" lon="-118.1798888">
      </trkpt>
      <trkpt lat="50.4687867" lon="-118.1817341">
      </trkpt>
      <trkpt lat="50.4687594" lon="-118.1853819">
      </trkpt>
      <trkpt lat="50.4685955" lon="-118.1868411">
      </trkpt>
      <trkpt lat="50.468814" lon="-118.1885577">
      </trkpt>
      <trkpt lat="50.4690052" lon="-118.1895876">
      </trkpt>
      <trkpt lat="50.4688413" lon="-118.190403">
      </trkpt>
      <trkpt lat="50.4684862" lon="-118.1910038">
      </trkpt>
      <trkpt lat="50.4679126" lon="-118.1906176">
      </trkpt>
      <trkpt lat="50.4673936" lon="-118.1901026">
      </trkpt>
      <trkpt lat="50.4670112" lon="-118.1899739">
      </trkpt>
      <trkpt lat="50.4667107" lon="-118.1893731">
      </trkpt>
      <trkpt lat="50.4663556" lon="-118.1890297">
      </trkpt>
      <trkpt lat="50.4659185" lon="-118.1890727">
      </trkpt>
      <trkpt lat="50.4655087" lon="-118.1885577">
      </trkpt>
      <trkpt lat="50.4651809" lon="-118.1876564">
      </trkpt>
      <trkpt lat="50.4646619" lon="-118.186884">
      </trkpt>
      <trkpt lat="50.4642248" lon="-118.186884">
      </trkpt>
      <trkpt lat="50.4637331" lon="-118.1876135">
      </trkpt>
      <trkpt lat="50.4623944" lon="-118.189888">
      </trkpt>
      <trkpt lat="50.4621827" lon="-118.1915993">
      </trkpt>
      <trkpt lat="50.4624081" lon="-118.193214">
      </trkpt>
      <trkpt lat="50.4621895" lon="-118.1940937">
      </trkpt>
      <trkpt lat="50.4621895" lon="-118.195231">
      </trkpt>
      <trkpt lat="50.461848" lon="-118.195231">
      </trkpt>
      <trkpt lat="50.4615065" lon="-118.1940723">
      </trkpt>
      <trkpt lat="50.4612607" lon="-118.1932569">
      </trkpt>
      <trkpt lat="50.4609055" lon="-118.193965">
      </trkpt>
      <trkpt lat="50.4608235" lon="-118.1957031">
      </trkpt>
      <trkpt lat="50.4608918" lon="-118.1971836">
      </trkpt>
    </trkseg>
    <trkseg>
      <trkpt lat="50.4500309" lon="-118.1944156">
      </trkpt>
      <trkpt lat="50.4511922" lon="-118.1945229">
      </trkpt>
      <trkpt lat="50.4523126" lon="-118.1950593">
      </trkpt>
      <trkpt lat="50.4535148" lon="-118.1957674">
      </trkpt>
      <trkpt lat="50.4547717" lon="-118.1959176">
      </trkpt>
      <trkpt lat="50.4553455" lon="-118.1964326">
      </trkpt>
      <trkpt lat="50.4560833" lon="-118.1973338">
      </trkpt>
      <trkpt lat="50.45678" lon="-118.1987286">
      </trkpt>
      <trkpt lat="50.4574494" lon="-118.2001448">
      </trkpt>
      <trkpt lat="50.4580778" lon="-118.2005096">
      </trkpt>
      <trkpt lat="50.4592253" lon="-118.2004237">
      </trkpt>
      <trkpt lat="50.4596624" lon="-118.2001019">
      </trkpt>
      <trkpt lat="50.4603181" lon="-118.2003165">
      </trkpt>
      <trkpt lat="50.4608509" lon="-118.2001019">
      </trkpt>
      <trkpt lat="50.4610148" lon="-118.199544">
      </trkpt>
      <trkpt lat="50.4612607" lon="-118.1994796">
      </trkpt>
      <trkpt lat="50.4614792" lon="-118.1998229">
      </trkpt>
      <trkpt lat="50.4618754" lon="-118.1996942">
      </trkpt>
      <trkpt lat="50.4618344" lon="-118.1990504">
      </trkpt>
      <trkpt lat="50.4615748" lon="-118.1986213">
      </trkpt>
      <trkpt lat="50.461206" lon="-118.1982351">
      </trkpt>
      <trkpt lat="50.4610148" lon="-118.197763">
      </trkpt>
      <trkpt lat="50.4608918" lon="-118.1971836">
      </trkpt>
    </trkseg>
  </trk>
</gpx>