<?xml version="1.0" encoding="UTF-8"?>
<gpx xmlns="http://www.topografix.com/GPX/1/1" xmlns:xsi="http://www.w3.org/2001/XMLSchema-instance" xsi:schemaLocation="http://www.topografix.com/GPX/1/1 http://www.topografix.com/GPX/1/1/gpx.xsd" version="1.1" creator="gpx.py -- https://github.com/tkrajina/gpxpy">
  <trk>
    <name>Ore Mtn. Tr.</name>
    <trkseg>
      <trkpt lat="56.04846056" lon="-129.90218475">
      </trkpt>
      <trkpt lat="56.04847133" lon="-129.90217438">
      </trkpt>
      <trkpt lat="56.04849807" lon="-129.90214468">
      </trkpt>
      <trkpt lat="56.04851962" lon="-129.90211442">
      </trkpt>
      <trkpt lat="56.04856812" lon="-129.90204369">
      </trkpt>
      <trkpt lat="56.0486054" lon="-129.90200438">
      </trkpt>
      <trkpt lat="56.04863741" lon="-129.90197441">
      </trkpt>
      <trkpt lat="56.04866393" lon="-129.90195495">
      </trkpt>
      <trkpt lat="56.04868527" lon="-129.9019349">
      </trkpt>
      <trkpt lat="56.04871695" lon="-129.90191602">
      </trkpt>
      <trkpt lat="56.04873779" lon="-129.90191784">
      </trkpt>
      <trkpt lat="56.04878523" lon="-129.90189963">
      </trkpt>
      <trkpt lat="56.04880614" lon="-129.90190114">
      </trkpt>
      <trkpt lat="56.04883219" lon="-129.90190372">
      </trkpt>
      <trkpt lat="56.04888468" lon="-129.90188772">
      </trkpt>
      <trkpt lat="56.04890572" lon="-129.90187915">
      </trkpt>
      <trkpt lat="56.04894278" lon="-129.90185065">
      </trkpt>
      <trkpt lat="56.04896401" lon="-129.90183128">
      </trkpt>
      <trkpt lat="56.04899049" lon="-129.90180271">
      </trkpt>
      <trkpt lat="56.04901687" lon="-129.90175609">
      </trkpt>
      <trkpt lat="56.0490327" lon="-129.90172811">
      </trkpt>
      <trkpt lat="56.0490641" lon="-129.90169362">
      </trkpt>
      <trkpt lat="56.04909037" lon="-129.90165767">
      </trkpt>
      <trkpt lat="56.04910084" lon="-129.90164012">
      </trkpt>
      <trkpt lat="56.049127" lon="-129.90159625">
      </trkpt>
      <trkpt lat="56.04913753" lon="-129.9015686">
      </trkpt>
      <trkpt lat="56.04916909" lon="-129.90152436">
      </trkpt>
      <trkpt lat="56.04919026" lon="-129.9014967">
      </trkpt>
      <trkpt lat="56.04920613" lon="-129.90147846">
      </trkpt>
      <trkpt lat="56.04922205" lon="-129.90145014">
      </trkpt>
      <trkpt lat="56.04924851" lon="-129.90142308">
      </trkpt>
      <trkpt lat="56.04926443" lon="-129.90139474">
      </trkpt>
      <trkpt lat="56.049291" lon="-129.90134741">
      </trkpt>
      <trkpt lat="56.04931749" lon="-129.90132028">
      </trkpt>
      <trkpt lat="56.04935467" lon="-129.90125426">
      </trkpt>
      <trkpt lat="56.04936535" lon="-129.90121523">
      </trkpt>
      <trkpt lat="56.04937067" lon="-129.90120579">
      </trkpt>
      <trkpt lat="56.04938137" lon="-129.90115673">
      </trkpt>
      <trkpt lat="56.04938672" lon="-129.9011276">
      </trkpt>
      <trkpt lat="56.04940263" lon="-129.90109025">
      </trkpt>
      <trkpt lat="56.0494345" lon="-129.90100495">
      </trkpt>
      <trkpt lat="56.04947695" lon="-129.90094047">
      </trkpt>
      <trkpt lat="56.04948226" lon="-129.90093115">
      </trkpt>
      <trkpt lat="56.04950889" lon="-129.90086403">
      </trkpt>
      <trkpt lat="56.04952484" lon="-129.90083525">
      </trkpt>
      <trkpt lat="56.04954612" lon="-129.90076687">
      </trkpt>
      <trkpt lat="56.04955678" lon="-129.90069775">
      </trkpt>
      <trkpt lat="56.04956738" lon="-129.90064974">
      </trkpt>
      <trkpt lat="56.04957269" lon="-129.90063077">
      </trkpt>
      <trkpt lat="56.04959395" lon="-129.90056612">
      </trkpt>
      <trkpt lat="56.04960989" lon="-129.90050065">
      </trkpt>
      <trkpt lat="56.04960989" lon="-129.90046171">
      </trkpt>
      <trkpt lat="56.04962053" lon="-129.90040455">
      </trkpt>
      <trkpt lat="56.04963647" lon="-129.90028969">
      </trkpt>
      <trkpt lat="56.0496471" lon="-129.90024226">
      </trkpt>
      <trkpt lat="56.04965242" lon="-129.90022341">
      </trkpt>
      <trkpt lat="56.04967898" lon="-129.90009042">
      </trkpt>
      <trkpt lat="56.04971627" lon="-129.89994991">
      </trkpt>
      <trkpt lat="56.04971627" lon="-129.89992099">
      </trkpt>
      <trkpt lat="56.04972154" lon="-129.89986257">
      </trkpt>
      <trkpt lat="56.04973211" lon="-129.89980413">
      </trkpt>
      <trkpt lat="56.04974268" lon="-129.89975561">
      </trkpt>
      <trkpt lat="56.04974264" lon="-129.89973589">
      </trkpt>
      <trkpt lat="56.04975318" lon="-129.89966773">
      </trkpt>
      <trkpt lat="56.0497531" lon="-129.89962837">
      </trkpt>
      <trkpt lat="56.04975827" lon="-129.89955925">
      </trkpt>
      <trkpt lat="56.04976331" lon="-129.89947934">
      </trkpt>
      <trkpt lat="56.04976838" lon="-129.89941914">
      </trkpt>
      <trkpt lat="56.04977346" lon="-129.8993501">
      </trkpt>
      <trkpt lat="56.04978385" lon="-129.89929153">
      </trkpt>
      <trkpt lat="56.0497889" lon="-129.89923193">
      </trkpt>
      <trkpt lat="56.04979924" lon="-129.89919201">
      </trkpt>
      <trkpt lat="56.04981473" lon="-129.89913229">
      </trkpt>
      <trkpt lat="56.04984073" lon="-129.8990735">
      </trkpt>
      <trkpt lat="56.04986667" lon="-129.89899582">
      </trkpt>
      <trkpt lat="56.04987182" lon="-129.89897628">
      </trkpt>
      <trkpt lat="56.04989797" lon="-129.89892902">
      </trkpt>
      <trkpt lat="56.04991352" lon="-129.89889035">
      </trkpt>
      <trkpt lat="56.04992913" lon="-129.8988616">
      </trkpt>
      <trkpt lat="56.04995006" lon="-129.89883349">
      </trkpt>
      <trkpt lat="56.04996047" lon="-129.89881434">
      </trkpt>
      <trkpt lat="56.04997592" lon="-129.89877547">
      </trkpt>
      <trkpt lat="56.04999126" lon="-129.89873644">
      </trkpt>
      <trkpt lat="56.05002275" lon="-129.89869034">
      </trkpt>
      <trkpt lat="56.0500595" lon="-129.8986348">
      </trkpt>
      <trkpt lat="56.05007489" lon="-129.89858685">
      </trkpt>
      <trkpt lat="56.05012751" lon="-129.89852254">
      </trkpt>
      <trkpt lat="56.0501537" lon="-129.89848521">
      </trkpt>
      <trkpt lat="56.05016884" lon="-129.89843681">
      </trkpt>
      <trkpt lat="56.05020011" lon="-129.89838971">
      </trkpt>
      <trkpt lat="56.05023661" lon="-129.89833344">
      </trkpt>
      <trkpt lat="56.05027349" lon="-129.89829675">
      </trkpt>
      <trkpt lat="56.05031559" lon="-129.89825055">
      </trkpt>
      <trkpt lat="56.05035804" lon="-129.89821433">
      </trkpt>
      <trkpt lat="56.05040548" lon="-129.89815874">
      </trkpt>
      <trkpt lat="56.05045281" lon="-129.89809349">
      </trkpt>
      <trkpt lat="56.05046279" lon="-129.8980459">
      </trkpt>
      <trkpt lat="56.05047307" lon="-129.89801753">
      </trkpt>
      <trkpt lat="56.05049413" lon="-129.89798959">
      </trkpt>
      <trkpt lat="56.05052564" lon="-129.89794287">
      </trkpt>
      <trkpt lat="56.05053065" lon="-129.89792387">
      </trkpt>
      <trkpt lat="56.05056086" lon="-129.89785702">
      </trkpt>
      <trkpt lat="56.05057988" lon="-129.89779894">
      </trkpt>
      <trkpt lat="56.05059998" lon="-129.89777019">
      </trkpt>
      <trkpt lat="56.05060936" lon="-129.89774122">
      </trkpt>
      <trkpt lat="56.05064429" lon="-129.89768397">
      </trkpt>
      <trkpt lat="56.05065458" lon="-129.89767458">
      </trkpt>
      <trkpt lat="56.05068506" lon="-129.8976368">
      </trkpt>
      <trkpt lat="56.05069987" lon="-129.89760834">
      </trkpt>
      <trkpt lat="56.05073031" lon="-129.89755209">
      </trkpt>
      <trkpt lat="56.0507409" lon="-129.89754294">
      </trkpt>
      <trkpt lat="56.05077232" lon="-129.89751528">
      </trkpt>
      <trkpt lat="56.05079815" lon="-129.89748734">
      </trkpt>
      <trkpt lat="56.05081842" lon="-129.8974592">
      </trkpt>
      <trkpt lat="56.05085893" lon="-129.897403">
      </trkpt>
      <trkpt lat="56.05089524" lon="-129.8973566">
      </trkpt>
      <trkpt lat="56.05090055" lon="-129.89734738">
      </trkpt>
      <trkpt lat="56.05091907" lon="-129.89728158">
      </trkpt>
      <trkpt lat="56.05093443" lon="-129.89725373">
      </trkpt>
      <trkpt lat="56.05094978" lon="-129.89722586">
      </trkpt>
      <trkpt lat="56.05098605" lon="-129.89715178">
      </trkpt>
      <trkpt lat="56.05101964" lon="-129.89711533">
      </trkpt>
      <trkpt lat="56.05104703" lon="-129.8970785">
      </trkpt>
      <trkpt lat="56.05105673" lon="-129.89705979">
      </trkpt>
      <trkpt lat="56.05108151" lon="-129.89702246">
      </trkpt>
      <trkpt lat="56.05110213" lon="-129.8970039">
      </trkpt>
      <trkpt lat="56.05112815" lon="-129.89698536">
      </trkpt>
      <trkpt lat="56.05116003" lon="-129.89697619">
      </trkpt>
      <trkpt lat="56.05117574" lon="-129.89696694">
      </trkpt>
      <trkpt lat="56.05120718" lon="-129.89694841">
      </trkpt>
      <trkpt lat="56.05122809" lon="-129.89692989">
      </trkpt>
      <trkpt lat="56.05125871" lon="-129.89688341">
      </trkpt>
      <trkpt lat="56.05129037" lon="-129.89685559">
      </trkpt>
      <trkpt lat="56.05131731" lon="-129.89682774">
      </trkpt>
      <trkpt lat="56.05134442" lon="-129.8967999">
      </trkpt>
      <trkpt lat="56.05136623" lon="-129.8967813">
      </trkpt>
      <trkpt lat="56.05140863" lon="-129.89675339">
      </trkpt>
      <trkpt lat="56.05143918" lon="-129.89672549">
      </trkpt>
      <trkpt lat="56.05145996" lon="-129.8967255">
      </trkpt>
      <trkpt lat="56.05149048" lon="-129.89669762">
      </trkpt>
      <trkpt lat="56.05151082" lon="-129.89667904">
      </trkpt>
      <trkpt lat="56.05154651" lon="-129.8966605">
      </trkpt>
      <trkpt lat="56.05158807" lon="-129.89663263">
      </trkpt>
      <trkpt lat="56.05162476" lon="-129.89660472">
      </trkpt>
      <trkpt lat="56.05166108" lon="-129.89656753">
      </trkpt>
      <trkpt lat="56.05168736" lon="-129.8965489">
      </trkpt>
      <trkpt lat="56.05172368" lon="-129.89651171">
      </trkpt>
      <trkpt lat="56.05175517" lon="-129.89649309">
      </trkpt>
      <trkpt lat="56.05179203" lon="-129.89647443">
      </trkpt>
      <trkpt lat="56.05181806" lon="-129.89645583">
      </trkpt>
      <trkpt lat="56.05189184" lon="-129.89641847">
      </trkpt>
      <trkpt lat="56.051963" lon="-129.89638064">
      </trkpt>
      <trkpt lat="56.05197952" lon="-129.89637117">
      </trkpt>
      <trkpt lat="56.05198914" lon="-129.89634335">
      </trkpt>
      <trkpt lat="56.05201688" lon="-129.89632439">
      </trkpt>
      <trkpt lat="56.05203856" lon="-129.8962869">
      </trkpt>
      <trkpt lat="56.05206089" lon="-129.89626794">
      </trkpt>
      <trkpt lat="56.05208735" lon="-129.89623986">
      </trkpt>
      <trkpt lat="56.05210821" lon="-129.89623987">
      </trkpt>
      <trkpt lat="56.05212908" lon="-129.89623987">
      </trkpt>
      <trkpt lat="56.05214934" lon="-129.89622133">
      </trkpt>
      <trkpt lat="56.05215092" lon="-129.8961857">
      </trkpt>
      <trkpt lat="56.05213821" lon="-129.89612878">
      </trkpt>
      <trkpt lat="56.05198222" lon="-129.89588564">
      </trkpt>
      <trkpt lat="56.05195133" lon="-129.89573752">
      </trkpt>
      <trkpt lat="56.05201" lon="-129.89559999">
      </trkpt>
      <trkpt lat="56.05205" lon="-129.8956">
      </trkpt>
      <trkpt lat="56.05207" lon="-129.89552001">
      </trkpt>
      <trkpt lat="56.05233" lon="-129.89521001">
      </trkpt>
      <trkpt lat="56.05245875" lon="-129.89486853">
      </trkpt>
      <trkpt lat="56.05244771" lon="-129.89482774">
      </trkpt>
      <trkpt lat="56.05233" lon="-129.89491">
      </trkpt>
      <trkpt lat="56.05228" lon="-129.89488">
      </trkpt>
      <trkpt lat="56.05219" lon="-129.89479">
      </trkpt>
      <trkpt lat="56.05214287" lon="-129.89477646">
      </trkpt>
      <trkpt lat="56.05208" lon="-129.89475999">
      </trkpt>
      <trkpt lat="56.05198" lon="-129.89476">
      </trkpt>
      <trkpt lat="56.05196" lon="-129.89464001">
      </trkpt>
      <trkpt lat="56.05197" lon="-129.89451">
      </trkpt>
      <trkpt lat="56.05195" lon="-129.89436999">
      </trkpt>
      <trkpt lat="56.05188" lon="-129.89427">
      </trkpt>
      <trkpt lat="56.05194" lon="-129.89417">
      </trkpt>
      <trkpt lat="56.05205" lon="-129.89412001">
      </trkpt>
      <trkpt lat="56.05212" lon="-129.89412">
      </trkpt>
      <trkpt lat="56.05221" lon="-129.89409999">
      </trkpt>
      <trkpt lat="56.05220847" lon="-129.89397646">
      </trkpt>
      <trkpt lat="56.0523" lon="-129.89387001">
      </trkpt>
      <trkpt lat="56.0523" lon="-129.89373">
      </trkpt>
      <trkpt lat="56.05236" lon="-129.89367999">
      </trkpt>
      <trkpt lat="56.05242" lon="-129.89351999">
      </trkpt>
      <trkpt lat="56.05251" lon="-129.89345001">
      </trkpt>
      <trkpt lat="56.05254" lon="-129.89332001">
      </trkpt>
      <trkpt lat="56.05242" lon="-129.89338">
      </trkpt>
      <trkpt lat="56.05236" lon="-129.89347">
      </trkpt>
      <trkpt lat="56.05224" lon="-129.89358">
      </trkpt>
      <trkpt lat="56.05214" lon="-129.89354999">
      </trkpt>
      <trkpt lat="56.05205" lon="-129.8936">
      </trkpt>
      <trkpt lat="56.052" lon="-129.89357001">
      </trkpt>
      <trkpt lat="56.05195" lon="-129.89356">
      </trkpt>
      <trkpt lat="56.0519" lon="-129.89348">
      </trkpt>
      <trkpt lat="56.05179" lon="-129.89339001">
      </trkpt>
      <trkpt lat="56.05164" lon="-129.89329">
      </trkpt>
      <trkpt lat="56.05156" lon="-129.89319999">
      </trkpt>
      <trkpt lat="56.05157" lon="-129.89305">
      </trkpt>
      <trkpt lat="56.05152" lon="-129.893">
      </trkpt>
      <trkpt lat="56.05157" lon="-129.89292999">
      </trkpt>
      <trkpt lat="56.05167" lon="-129.89288001">
      </trkpt>
      <trkpt lat="56.05173" lon="-129.89281001">
      </trkpt>
      <trkpt lat="56.05168" lon="-129.89266">
      </trkpt>
      <trkpt lat="56.05179" lon="-129.8925">
      </trkpt>
      <trkpt lat="56.05183" lon="-129.8925">
      </trkpt>
      <trkpt lat="56.05192" lon="-129.89247">
      </trkpt>
      <trkpt lat="56.05193" lon="-129.89233">
      </trkpt>
      <trkpt lat="56.052" lon="-129.89226999">
      </trkpt>
      <trkpt lat="56.05211" lon="-129.8922">
      </trkpt>
      <trkpt lat="56.05216" lon="-129.89208">
      </trkpt>
      <trkpt lat="56.05225" lon="-129.89196">
      </trkpt>
      <trkpt lat="56.05235" lon="-129.89191">
      </trkpt>
      <trkpt lat="56.05238" lon="-129.89186">
      </trkpt>
      <trkpt lat="56.05257" lon="-129.89166">
      </trkpt>
      <trkpt lat="56.05257" lon="-129.89151">
      </trkpt>
      <trkpt lat="56.05260184" lon="-129.89148334">
      </trkpt>
      <trkpt lat="56.05252162" lon="-129.89145386">
      </trkpt>
      <trkpt lat="56.05245" lon="-129.89141">
      </trkpt>
      <trkpt lat="56.05241" lon="-129.89133">
      </trkpt>
      <trkpt lat="56.05234" lon="-129.89131999">
      </trkpt>
      <trkpt lat="56.05229" lon="-129.89128">
      </trkpt>
      <trkpt lat="56.0522" lon="-129.89115">
      </trkpt>
      <trkpt lat="56.05212" lon="-129.89092">
      </trkpt>
      <trkpt lat="56.05217139" lon="-129.89083405">
      </trkpt>
      <trkpt lat="56.05207" lon="-129.89075">
      </trkpt>
      <trkpt lat="56.05195" lon="-129.89073">
      </trkpt>
      <trkpt lat="56.0519" lon="-129.89062">
      </trkpt>
      <trkpt lat="56.05183" lon="-129.89054999">
      </trkpt>
      <trkpt lat="56.05175" lon="-129.89054">
      </trkpt>
      <trkpt lat="56.05177" lon="-129.89026">
      </trkpt>
      <trkpt lat="56.05182" lon="-129.89024">
      </trkpt>
      <trkpt lat="56.05188" lon="-129.8901">
      </trkpt>
      <trkpt lat="56.05196" lon="-129.88998">
      </trkpt>
      <trkpt lat="56.05201" lon="-129.88993">
      </trkpt>
      <trkpt lat="56.05209" lon="-129.88976">
      </trkpt>
      <trkpt lat="56.05219" lon="-129.88976">
      </trkpt>
      <trkpt lat="56.0523" lon="-129.88969">
      </trkpt>
      <trkpt lat="56.05236" lon="-129.88961">
      </trkpt>
      <trkpt lat="56.05228" lon="-129.88960999">
      </trkpt>
      <trkpt lat="56.05218" lon="-129.88946">
      </trkpt>
      <trkpt lat="56.05201" lon="-129.88931999">
      </trkpt>
      <trkpt lat="56.05197" lon="-129.88931999">
      </trkpt>
      <trkpt lat="56.05191" lon="-129.88919">
      </trkpt>
      <trkpt lat="56.0519" lon="-129.88909001">
      </trkpt>
      <trkpt lat="56.05203" lon="-129.88897001">
      </trkpt>
      <trkpt lat="56.05218" lon="-129.88892">
      </trkpt>
      <trkpt lat="56.05227" lon="-129.88882999">
      </trkpt>
      <trkpt lat="56.05229755" lon="-129.8887825">
      </trkpt>
      <trkpt lat="56.05221" lon="-129.88874">
      </trkpt>
      <trkpt lat="56.05216" lon="-129.88881">
      </trkpt>
      <trkpt lat="56.05208" lon="-129.88876">
      </trkpt>
      <trkpt lat="56.05204" lon="-129.88869">
      </trkpt>
      <trkpt lat="56.05201" lon="-129.88865">
      </trkpt>
      <trkpt lat="56.052" lon="-129.88858999">
      </trkpt>
      <trkpt lat="56.05193" lon="-129.88838">
      </trkpt>
      <trkpt lat="56.05185" lon="-129.88829">
      </trkpt>
      <trkpt lat="56.05177" lon="-129.88813999">
      </trkpt>
      <trkpt lat="56.05177" lon="-129.88797">
      </trkpt>
      <trkpt lat="56.05184" lon="-129.88787">
      </trkpt>
      <trkpt lat="56.05191" lon="-129.88785999">
      </trkpt>
      <trkpt lat="56.05192" lon="-129.88781999">
      </trkpt>
      <trkpt lat="56.05198" lon="-129.88779999">
      </trkpt>
      <trkpt lat="56.05213" lon="-129.88770999">
      </trkpt>
      <trkpt lat="56.05225" lon="-129.88778">
      </trkpt>
      <trkpt lat="56.05238" lon="-129.88765">
      </trkpt>
      <trkpt lat="56.05244" lon="-129.88760999">
      </trkpt>
      <trkpt lat="56.05252" lon="-129.88753">
      </trkpt>
      <trkpt lat="56.05255" lon="-129.88751">
      </trkpt>
      <trkpt lat="56.05247" lon="-129.88745">
      </trkpt>
      <trkpt lat="56.05237" lon="-129.8874">
      </trkpt>
      <trkpt lat="56.05226" lon="-129.88726">
      </trkpt>
      <trkpt lat="56.05222" lon="-129.88721001">
      </trkpt>
      <trkpt lat="56.05214" lon="-129.88701">
      </trkpt>
      <trkpt lat="56.05219" lon="-129.88689001">
      </trkpt>
      <trkpt lat="56.0523" lon="-129.88683999">
      </trkpt>
      <trkpt lat="56.05228" lon="-129.88672999">
      </trkpt>
      <trkpt lat="56.05241" lon="-129.88655">
      </trkpt>
      <trkpt lat="56.0524" lon="-129.88652">
      </trkpt>
      <trkpt lat="56.05233" lon="-129.88641">
      </trkpt>
      <trkpt lat="56.05229914" lon="-129.88626744">
      </trkpt>
      <trkpt lat="56.0523" lon="-129.88619">
      </trkpt>
      <trkpt lat="56.0523" lon="-129.88612">
      </trkpt>
      <trkpt lat="56.05233" lon="-129.88598999">
      </trkpt>
      <trkpt lat="56.0524" lon="-129.88596999">
      </trkpt>
      <trkpt lat="56.05251" lon="-129.88598001">
      </trkpt>
      <trkpt lat="56.05255" lon="-129.886">
      </trkpt>
      <trkpt lat="56.05262" lon="-129.88599999">
      </trkpt>
      <trkpt lat="56.05269453" lon="-129.88591353">
      </trkpt>
      <trkpt lat="56.05282234" lon="-129.88577641">
      </trkpt>
      <trkpt lat="56.05288" lon="-129.88568999">
      </trkpt>
      <trkpt lat="56.05285" lon="-129.88558001">
      </trkpt>
      <trkpt lat="56.05278" lon="-129.88550999">
      </trkpt>
      <trkpt lat="56.05272" lon="-129.88548">
      </trkpt>
      <trkpt lat="56.05266555" lon="-129.88549643">
      </trkpt>
      <trkpt lat="56.05258" lon="-129.88552999">
      </trkpt>
      <trkpt lat="56.05246" lon="-129.88546">
      </trkpt>
      <trkpt lat="56.05238" lon="-129.88538001">
      </trkpt>
      <trkpt lat="56.05229" lon="-129.88525999">
      </trkpt>
      <trkpt lat="56.05217" lon="-129.88507">
      </trkpt>
      <trkpt lat="56.05214" lon="-129.88507001">
      </trkpt>
      <trkpt lat="56.05205" lon="-129.88505">
      </trkpt>
      <trkpt lat="56.05206" lon="-129.88482">
      </trkpt>
      <trkpt lat="56.05222" lon="-129.8848">
      </trkpt>
      <trkpt lat="56.05242284" lon="-129.88468935">
      </trkpt>
      <trkpt lat="56.05253" lon="-129.88463">
      </trkpt>
      <trkpt lat="56.0526092" lon="-129.88465358">
      </trkpt>
      <trkpt lat="56.05266" lon="-129.88457">
      </trkpt>
      <trkpt lat="56.05261" lon="-129.88443999">
      </trkpt>
      <trkpt lat="56.05264" lon="-129.88427">
      </trkpt>
      <trkpt lat="56.05254" lon="-129.88423001">
      </trkpt>
      <trkpt lat="56.05253" lon="-129.88408001">
      </trkpt>
      <trkpt lat="56.0524" lon="-129.88406">
      </trkpt>
      <trkpt lat="56.05234" lon="-129.88402">
      </trkpt>
      <trkpt lat="56.0522593" lon="-129.88391358">
      </trkpt>
      <trkpt lat="56.05223" lon="-129.88386001">
      </trkpt>
      <trkpt lat="56.05218317" lon="-129.88374601">
      </trkpt>
      <trkpt lat="56.05209253" lon="-129.88373289">
      </trkpt>
      <trkpt lat="56.05202" lon="-129.88373">
      </trkpt>
      <trkpt lat="56.05199" lon="-129.88372001">
      </trkpt>
      <trkpt lat="56.05192" lon="-129.88360999">
      </trkpt>
      <trkpt lat="56.05184" lon="-129.88347">
      </trkpt>
      <trkpt lat="56.05168971" lon="-129.8833957">
      </trkpt>
      <trkpt lat="56.05161782" lon="-129.88335537">
      </trkpt>
      <trkpt lat="56.05162" lon="-129.88323999">
      </trkpt>
      <trkpt lat="56.05154" lon="-129.88318">
      </trkpt>
      <trkpt lat="56.05144" lon="-129.88314">
      </trkpt>
      <trkpt lat="56.05136" lon="-129.88313001">
      </trkpt>
      <trkpt lat="56.05124165" lon="-129.88318647">
      </trkpt>
      <trkpt lat="56.05123" lon="-129.88311999">
      </trkpt>
      <trkpt lat="56.05119" lon="-129.88309">
      </trkpt>
      <trkpt lat="56.05111" lon="-129.88307">
      </trkpt>
      <trkpt lat="56.05094" lon="-129.88301">
      </trkpt>
      <trkpt lat="56.05085475" lon="-129.88307445">
      </trkpt>
      <trkpt lat="56.05084" lon="-129.88301">
      </trkpt>
      <trkpt lat="56.05081" lon="-129.88297999">
      </trkpt>
      <trkpt lat="56.05082" lon="-129.88291">
      </trkpt>
      <trkpt lat="56.05081" lon="-129.88286">
      </trkpt>
      <trkpt lat="56.05076" lon="-129.88281">
      </trkpt>
      <trkpt lat="56.05068" lon="-129.88281001">
      </trkpt>
      <trkpt lat="56.05063" lon="-129.88279">
      </trkpt>
      <trkpt lat="56.0504783" lon="-129.8827987">
      </trkpt>
      <trkpt lat="56.05041" lon="-129.88274001">
      </trkpt>
      <trkpt lat="56.0503" lon="-129.88267001">
      </trkpt>
      <trkpt lat="56.05024" lon="-129.88267001">
      </trkpt>
      <trkpt lat="56.0502" lon="-129.88269">
      </trkpt>
      <trkpt lat="56.05015" lon="-129.88275">
      </trkpt>
      <trkpt lat="56.05012" lon="-129.88255">
      </trkpt>
      <trkpt lat="56.05004" lon="-129.88255001">
      </trkpt>
      <trkpt lat="56.0499" lon="-129.88255">
      </trkpt>
      <trkpt lat="56.04986" lon="-129.88259">
      </trkpt>
      <trkpt lat="56.04981775" lon="-129.88259936">
      </trkpt>
      <trkpt lat="56.04976" lon="-129.88247">
      </trkpt>
      <trkpt lat="56.04972" lon="-129.88246999">
      </trkpt>
      <trkpt lat="56.04963856" lon="-129.88242393">
      </trkpt>
      <trkpt lat="56.0496" lon="-129.88234">
      </trkpt>
      <trkpt lat="56.04953" lon="-129.88224">
      </trkpt>
      <trkpt lat="56.04951" lon="-129.88216001">
      </trkpt>
      <trkpt lat="56.04944" lon="-129.88216999">
      </trkpt>
      <trkpt lat="56.04943" lon="-129.88209">
      </trkpt>
      <trkpt lat="56.04939501" lon="-129.88202041">
      </trkpt>
      <trkpt lat="56.04945" lon="-129.88189">
      </trkpt>
      <trkpt lat="56.04955009" lon="-129.88181759">
      </trkpt>
      <trkpt lat="56.0496" lon="-129.88172">
      </trkpt>
      <trkpt lat="56.04962167" lon="-129.88161286">
      </trkpt>
      <trkpt lat="56.04962" lon="-129.88156">
      </trkpt>
      <trkpt lat="56.04957" lon="-129.88145999">
      </trkpt>
      <trkpt lat="56.04948915" lon="-129.88139982">
      </trkpt>
      <trkpt lat="56.04953" lon="-129.88129999">
      </trkpt>
      <trkpt lat="56.04962" lon="-129.88129">
      </trkpt>
      <trkpt lat="56.04966" lon="-129.8813">
      </trkpt>
      <trkpt lat="56.04965" lon="-129.88118999">
      </trkpt>
      <trkpt lat="56.04968" lon="-129.88111">
      </trkpt>
      <trkpt lat="56.04966" lon="-129.88105">
      </trkpt>
      <trkpt lat="56.04977196" lon="-129.88092722">
      </trkpt>
      <trkpt lat="56.04981879" lon="-129.88101121">
      </trkpt>
      <trkpt lat="56.04992" lon="-129.88109">
      </trkpt>
      <trkpt lat="56.05001" lon="-129.88108">
      </trkpt>
      <trkpt lat="56.05006" lon="-129.88099001">
      </trkpt>
      <trkpt lat="56.0499897" lon="-129.88090271">
      </trkpt>
      <trkpt lat="56.05" lon="-129.88078">
      </trkpt>
      <trkpt lat="56.05001" lon="-129.88067">
      </trkpt>
      <trkpt lat="56.05003" lon="-129.88056">
      </trkpt>
      <trkpt lat="56.0501" lon="-129.88051">
      </trkpt>
      <trkpt lat="56.05007" lon="-129.88049">
      </trkpt>
      <trkpt lat="56.05006" lon="-129.88042">
      </trkpt>
      <trkpt lat="56.05008" lon="-129.88033001">
      </trkpt>
      <trkpt lat="56.05007" lon="-129.88024">
      </trkpt>
      <trkpt lat="56.05014" lon="-129.88017">
      </trkpt>
      <trkpt lat="56.05016" lon="-129.88026">
      </trkpt>
      <trkpt lat="56.0502" lon="-129.88026">
      </trkpt>
      <trkpt lat="56.05028576" lon="-129.88016141">
      </trkpt>
      <trkpt lat="56.05033" lon="-129.88008">
      </trkpt>
      <trkpt lat="56.0503" lon="-129.88000001">
      </trkpt>
      <trkpt lat="56.05032" lon="-129.87995999">
      </trkpt>
      <trkpt lat="56.0503" lon="-129.87986001">
      </trkpt>
      <trkpt lat="56.05026" lon="-129.87984999">
      </trkpt>
      <trkpt lat="56.05022" lon="-129.87978">
      </trkpt>
      <trkpt lat="56.05025" lon="-129.87970999">
      </trkpt>
      <trkpt lat="56.05033" lon="-129.87970999">
      </trkpt>
      <trkpt lat="56.05037925" lon="-129.87971244">
      </trkpt>
      <trkpt lat="56.0504" lon="-129.87967001">
      </trkpt>
      <trkpt lat="56.05037" lon="-129.87959">
      </trkpt>
      <trkpt lat="56.05031" lon="-129.87953999">
      </trkpt>
      <trkpt lat="56.05036" lon="-129.87945">
      </trkpt>
      <trkpt lat="56.05031845" lon="-129.87933674">
      </trkpt>
      <trkpt lat="56.05042" lon="-129.87926">
      </trkpt>
      <trkpt lat="56.05049" lon="-129.87925">
      </trkpt>
      <trkpt lat="56.05054" lon="-129.87932001">
      </trkpt>
      <trkpt lat="56.05056" lon="-129.87934999">
      </trkpt>
      <trkpt lat="56.05063" lon="-129.8793">
      </trkpt>
      <trkpt lat="56.05066674" lon="-129.87922305">
      </trkpt>
      <trkpt lat="56.05072" lon="-129.87917001">
      </trkpt>
      <trkpt lat="56.05076442" lon="-129.87926213">
      </trkpt>
      <trkpt lat="56.05084" lon="-129.87927">
      </trkpt>
      <trkpt lat="56.05092275" lon="-129.87918098">
      </trkpt>
      <trkpt lat="56.05096" lon="-129.87909">
      </trkpt>
      <trkpt lat="56.05097" lon="-129.87904">
      </trkpt>
      <trkpt lat="56.05101" lon="-129.87899">
      </trkpt>
      <trkpt lat="56.05106" lon="-129.87895">
      </trkpt>
      <trkpt lat="56.05107" lon="-129.879">
      </trkpt>
      <trkpt lat="56.05116" lon="-129.87903">
      </trkpt>
      <trkpt lat="56.05118" lon="-129.87899">
      </trkpt>
      <trkpt lat="56.05127" lon="-129.87895">
      </trkpt>
      <trkpt lat="56.05122" lon="-129.87885999">
      </trkpt>
      <trkpt lat="56.05113" lon="-129.87878">
      </trkpt>
      <trkpt lat="56.05109" lon="-129.87863">
      </trkpt>
      <trkpt lat="56.05108" lon="-129.87848">
      </trkpt>
      <trkpt lat="56.05113" lon="-129.87841999">
      </trkpt>
      <trkpt lat="56.05116102" lon="-129.87830199">
      </trkpt>
      <trkpt lat="56.05117" lon="-129.87817">
      </trkpt>
      <trkpt lat="56.05119" lon="-129.87813">
      </trkpt>
      <trkpt lat="56.05115" lon="-129.87796">
      </trkpt>
      <trkpt lat="56.05109" lon="-129.87785001">
      </trkpt>
      <trkpt lat="56.05117" lon="-129.87778">
      </trkpt>
      <trkpt lat="56.05118" lon="-129.87778999">
      </trkpt>
      <trkpt lat="56.05123" lon="-129.87778">
      </trkpt>
      <trkpt lat="56.0512" lon="-129.87769">
      </trkpt>
      <trkpt lat="56.05125" lon="-129.87755001">
      </trkpt>
      <trkpt lat="56.05126" lon="-129.87743">
      </trkpt>
      <trkpt lat="56.05123" lon="-129.87725">
      </trkpt>
      <trkpt lat="56.05122" lon="-129.87707">
      </trkpt>
      <trkpt lat="56.05124144" lon="-129.87699748">
      </trkpt>
      <trkpt lat="56.05134" lon="-129.87684">
      </trkpt>
      <trkpt lat="56.05132" lon="-129.87676">
      </trkpt>
      <trkpt lat="56.05131" lon="-129.87655001">
      </trkpt>
      <trkpt lat="56.05134" lon="-129.87647">
      </trkpt>
      <trkpt lat="56.05134" lon="-129.87632">
      </trkpt>
      <trkpt lat="56.05137" lon="-129.87625">
      </trkpt>
      <trkpt lat="56.05133" lon="-129.87605">
      </trkpt>
      <trkpt lat="56.05127" lon="-129.87598999">
      </trkpt>
      <trkpt lat="56.05131766" lon="-129.87584764">
      </trkpt>
      <trkpt lat="56.05137" lon="-129.87571">
      </trkpt>
      <trkpt lat="56.05141" lon="-129.87557999">
      </trkpt>
      <trkpt lat="56.05146381" lon="-129.87544928">
      </trkpt>
      <trkpt lat="56.05157" lon="-129.87540999">
      </trkpt>
      <trkpt lat="56.05165" lon="-129.87511">
      </trkpt>
      <trkpt lat="56.05158" lon="-129.87502">
      </trkpt>
      <trkpt lat="56.05157" lon="-129.87493">
      </trkpt>
      <trkpt lat="56.05160199" lon="-129.87472094">
      </trkpt>
      <trkpt lat="56.05164" lon="-129.87455999">
      </trkpt>
      <trkpt lat="56.0517" lon="-129.87443">
      </trkpt>
      <trkpt lat="56.05178" lon="-129.87402">
      </trkpt>
      <trkpt lat="56.05177" lon="-129.87375">
      </trkpt>
      <trkpt lat="56.05177" lon="-129.87359">
      </trkpt>
      <trkpt lat="56.05174" lon="-129.87335">
      </trkpt>
      <trkpt lat="56.05165933" lon="-129.87317635">
      </trkpt>
      <trkpt lat="56.05154" lon="-129.87297">
      </trkpt>
      <trkpt lat="56.05154" lon="-129.87284">
      </trkpt>
      <trkpt lat="56.05151" lon="-129.87265">
      </trkpt>
      <trkpt lat="56.05153" lon="-129.87251">
      </trkpt>
      <trkpt lat="56.05146" lon="-129.87235999">
      </trkpt>
      <trkpt lat="56.05138" lon="-129.87235">
      </trkpt>
      <trkpt lat="56.05128" lon="-129.87228">
      </trkpt>
      <trkpt lat="56.05122" lon="-129.87230001">
      </trkpt>
      <trkpt lat="56.05118" lon="-129.87229">
      </trkpt>
      <trkpt lat="56.05114" lon="-129.87232">
      </trkpt>
      <trkpt lat="56.05109" lon="-129.87239">
      </trkpt>
      <trkpt lat="56.05106" lon="-129.87245001">
      </trkpt>
      <trkpt lat="56.05099584" lon="-129.87251649">
      </trkpt>
      <trkpt lat="56.05093" lon="-129.87244">
      </trkpt>
      <trkpt lat="56.05085138" lon="-129.87238426">
      </trkpt>
      <trkpt lat="56.0508215" lon="-129.87238174">
      </trkpt>
      <trkpt lat="56.05079" lon="-129.87245">
      </trkpt>
      <trkpt lat="56.05071894" lon="-129.87244944">
      </trkpt>
      <trkpt lat="56.05066" lon="-129.87242">
      </trkpt>
      <trkpt lat="56.05063" lon="-129.87244001">
      </trkpt>
      <trkpt lat="56.05051" lon="-129.87244">
      </trkpt>
      <trkpt lat="56.05043" lon="-129.87236">
      </trkpt>
      <trkpt lat="56.05032" lon="-129.87237">
      </trkpt>
      <trkpt lat="56.05019" lon="-129.87246">
      </trkpt>
      <trkpt lat="56.05014" lon="-129.87254">
      </trkpt>
      <trkpt lat="56.05011225" lon="-129.87250576">
      </trkpt>
      <trkpt lat="56.05002" lon="-129.8724">
      </trkpt>
      <trkpt lat="56.05" lon="-129.87223999">
      </trkpt>
      <trkpt lat="56.04994" lon="-129.87223">
      </trkpt>
      <trkpt lat="56.04992" lon="-129.87242001">
      </trkpt>
      <trkpt lat="56.04985" lon="-129.87245">
      </trkpt>
      <trkpt lat="56.04971" lon="-129.87257">
      </trkpt>
      <trkpt lat="56.04965" lon="-129.87258">
      </trkpt>
      <trkpt lat="56.04963" lon="-129.87259001">
      </trkpt>
      <trkpt lat="56.04959" lon="-129.87274">
      </trkpt>
      <trkpt lat="56.04954" lon="-129.87282999">
      </trkpt>
      <trkpt lat="56.04946" lon="-129.87274">
      </trkpt>
      <trkpt lat="56.04939" lon="-129.87287">
      </trkpt>
      <trkpt lat="56.04929" lon="-129.8729">
      </trkpt>
      <trkpt lat="56.04926" lon="-129.87284">
      </trkpt>
      <trkpt lat="56.04918" lon="-129.8728">
      </trkpt>
      <trkpt lat="56.04914008" lon="-129.87277307">
      </trkpt>
      <trkpt lat="56.04908" lon="-129.87277">
      </trkpt>
      <trkpt lat="56.04904" lon="-129.87281">
      </trkpt>
      <trkpt lat="56.04901" lon="-129.87280999">
      </trkpt>
      <trkpt lat="56.04897" lon="-129.87280999">
      </trkpt>
      <trkpt lat="56.04894" lon="-129.87278">
      </trkpt>
      <trkpt lat="56.04888" lon="-129.87277999">
      </trkpt>
      <trkpt lat="56.04883" lon="-129.87276">
      </trkpt>
      <trkpt lat="56.04872622" lon="-129.87268082">
      </trkpt>
      <trkpt lat="56.04864" lon="-129.87269">
      </trkpt>
      <trkpt lat="56.04856" lon="-129.87272999">
      </trkpt>
      <trkpt lat="56.04847912" lon="-129.87277472">
      </trkpt>
      <trkpt lat="56.04843" lon="-129.87279">
      </trkpt>
      <trkpt lat="56.04839" lon="-129.87286001">
      </trkpt>
      <trkpt lat="56.04834" lon="-129.87295001">
      </trkpt>
      <trkpt lat="56.04829" lon="-129.87295999">
      </trkpt>
      <trkpt lat="56.04821" lon="-129.87292001">
      </trkpt>
      <trkpt lat="56.04816" lon="-129.87282">
      </trkpt>
      <trkpt lat="56.04807" lon="-129.87277999">
      </trkpt>
      <trkpt lat="56.04804" lon="-129.8728">
      </trkpt>
      <trkpt lat="56.048" lon="-129.87286">
      </trkpt>
      <trkpt lat="56.04795" lon="-129.87287999">
      </trkpt>
      <trkpt lat="56.04790115" lon="-129.87295656">
      </trkpt>
      <trkpt lat="56.04787" lon="-129.87299">
      </trkpt>
      <trkpt lat="56.0478" lon="-129.87295">
      </trkpt>
      <trkpt lat="56.04775" lon="-129.87297999">
      </trkpt>
      <trkpt lat="56.04769" lon="-129.87301">
      </trkpt>
      <trkpt lat="56.04763" lon="-129.87305">
      </trkpt>
      <trkpt lat="56.04761" lon="-129.8731">
      </trkpt>
      <trkpt lat="56.04757" lon="-129.87315">
      </trkpt>
      <trkpt lat="56.0475212" lon="-129.87321552">
      </trkpt>
      <trkpt lat="56.04729048" lon="-129.87332454">
      </trkpt>
      <trkpt lat="56.04716" lon="-129.87338">
      </trkpt>
      <trkpt lat="56.04707216" lon="-129.87342285">
      </trkpt>
      <trkpt lat="56.04697721" lon="-129.87352175">
      </trkpt>
      <trkpt lat="56.04694" lon="-129.87368">
      </trkpt>
      <trkpt lat="56.04696" lon="-129.87383001">
      </trkpt>
      <trkpt lat="56.04697658" lon="-129.87396963">
      </trkpt>
      <trkpt lat="56.04696215" lon="-129.87405022">
      </trkpt>
      <trkpt lat="56.04692" lon="-129.87410999">
      </trkpt>
      <trkpt lat="56.0469" lon="-129.87411001">
      </trkpt>
      <trkpt lat="56.04678" lon="-129.87418999">
      </trkpt>
      <trkpt lat="56.0467" lon="-129.87421">
      </trkpt>
      <trkpt lat="56.0466" lon="-129.87422001">
      </trkpt>
      <trkpt lat="56.04659" lon="-129.87431001">
      </trkpt>
      <trkpt lat="56.04645" lon="-129.87437">
      </trkpt>
      <trkpt lat="56.04628" lon="-129.87424999">
      </trkpt>
      <trkpt lat="56.04618" lon="-129.87424">
      </trkpt>
      <trkpt lat="56.04615" lon="-129.87416">
      </trkpt>
      <trkpt lat="56.04595" lon="-129.87417">
      </trkpt>
      <trkpt lat="56.04587" lon="-129.87413">
      </trkpt>
      <trkpt lat="56.0458" lon="-129.87411001">
      </trkpt>
      <trkpt lat="56.04575698" lon="-129.87413074">
      </trkpt>
      <trkpt lat="56.04569" lon="-129.87409999">
      </trkpt>
      <trkpt lat="56.04562" lon="-129.87408">
      </trkpt>
      <trkpt lat="56.0456" lon="-129.87405">
      </trkpt>
      <trkpt lat="56.04556063" lon="-129.87400209">
      </trkpt>
      <trkpt lat="56.04552" lon="-129.87392">
      </trkpt>
      <trkpt lat="56.04548531" lon="-129.87386406">
      </trkpt>
      <trkpt lat="56.04544" lon="-129.87389001">
      </trkpt>
      <trkpt lat="56.04541" lon="-129.87395999">
      </trkpt>
      <trkpt lat="56.04532015" lon="-129.87405688">
      </trkpt>
      <trkpt lat="56.04527" lon="-129.87417">
      </trkpt>
      <trkpt lat="56.04524955" lon="-129.87425172">
      </trkpt>
    </trkseg>
  </trk>
</gpx>