<?xml version="1.0" encoding="UTF-8"?>
<gpx xmlns="http://www.topografix.com/GPX/1/1" xmlns:xsi="http://www.w3.org/2001/XMLSchema-instance" xsi:schemaLocation="http://www.topografix.com/GPX/1/1 http://www.topografix.com/GPX/1/1/gpx.xsd" version="1.1" creator="gpx.py -- https://github.com/tkrajina/gpxpy">
  <trk>
    <name>Barneys Gulch / Sluice Box Trail</name>
    <trkseg>
      <trkpt lat="55.95377336" lon="-129.96864953">
      </trkpt>
      <trkpt lat="55.95380984" lon="-129.96860405">
      </trkpt>
      <trkpt lat="55.95384854" lon="-129.96857216">
      </trkpt>
      <trkpt lat="55.95387025" lon="-129.96852147">
      </trkpt>
      <trkpt lat="55.95386567" lon="-129.96845794">
      </trkpt>
      <trkpt lat="55.95384899" lon="-129.96835899">
      </trkpt>
      <trkpt lat="55.95383817" lon="-129.96829876">
      </trkpt>
      <trkpt lat="55.95385323" lon="-129.96825707">
      </trkpt>
      <trkpt lat="55.95388191" lon="-129.96815862">
      </trkpt>
      <trkpt lat="55.95388053" lon="-129.96809874">
      </trkpt>
      <trkpt lat="55.9538802" lon="-129.96798587">
      </trkpt>
      <trkpt lat="55.95387404" lon="-129.96791508">
      </trkpt>
      <trkpt lat="55.95387167" lon="-129.96791106">
      </trkpt>
      <trkpt lat="55.95385011" lon="-129.96784535">
      </trkpt>
      <trkpt lat="55.95382729" lon="-129.9678016">
      </trkpt>
      <trkpt lat="55.95379828" lon="-129.96773932">
      </trkpt>
      <trkpt lat="55.95376407" lon="-129.96764236">
      </trkpt>
      <trkpt lat="55.95374259" lon="-129.96758091">
      </trkpt>
      <trkpt lat="55.95373476" lon="-129.96747787">
      </trkpt>
      <trkpt lat="55.95374236" lon="-129.96737875">
      </trkpt>
      <trkpt lat="55.95375496" lon="-129.96731547">
      </trkpt>
      <trkpt lat="55.95376026" lon="-129.96729988">
      </trkpt>
      <trkpt lat="55.95379059" lon="-129.96721456">
      </trkpt>
      <trkpt lat="55.95380593" lon="-129.96714892">
      </trkpt>
      <trkpt lat="55.95381354" lon="-129.96705563">
      </trkpt>
      <trkpt lat="55.95380469" lon="-129.96695773">
      </trkpt>
      <trkpt lat="55.95379354" lon="-129.96684624">
      </trkpt>
      <trkpt lat="55.95378249" lon="-129.96674653">
      </trkpt>
      <trkpt lat="55.95376849" lon="-129.9666493">
      </trkpt>
      <trkpt lat="55.95375762" lon="-129.96655687">
      </trkpt>
      <trkpt lat="55.9537538" lon="-129.96644304">
      </trkpt>
      <trkpt lat="55.95375976" lon="-129.96637642">
      </trkpt>
      <trkpt lat="55.95376334" lon="-129.96635605">
      </trkpt>
      <trkpt lat="55.95376817" lon="-129.96633063">
      </trkpt>
      <trkpt lat="55.95377216" lon="-129.96630967">
      </trkpt>
      <trkpt lat="55.95377625" lon="-129.96628812">
      </trkpt>
      <trkpt lat="55.9537888" lon="-129.96625597">
      </trkpt>
      <trkpt lat="55.95379435" lon="-129.96624549">
      </trkpt>
      <trkpt lat="55.95380682" lon="-129.96620286">
      </trkpt>
      <trkpt lat="55.95381893" lon="-129.96618352">
      </trkpt>
      <trkpt lat="55.95383266" lon="-129.96615631">
      </trkpt>
      <trkpt lat="55.95384944" lon="-129.96612796">
      </trkpt>
      <trkpt lat="55.95387232" lon="-129.96609342">
      </trkpt>
      <trkpt lat="55.95389571" lon="-129.96608553">
      </trkpt>
      <trkpt lat="55.95391586" lon="-129.96606116">
      </trkpt>
      <trkpt lat="55.95392722" lon="-129.96601872">
      </trkpt>
      <trkpt lat="55.95395154" lon="-129.96595978">
      </trkpt>
      <trkpt lat="55.95398037" lon="-129.96592508">
      </trkpt>
      <trkpt lat="55.95400452" lon="-129.96588874">
      </trkpt>
      <trkpt lat="55.95401185" lon="-129.96585569">
      </trkpt>
      <trkpt lat="55.95402726" lon="-129.96578816">
      </trkpt>
      <trkpt lat="55.95402683" lon="-129.96574442">
      </trkpt>
      <trkpt lat="55.95402259" lon="-129.96570214">
      </trkpt>
      <trkpt lat="55.95400987" lon="-129.96565604">
      </trkpt>
      <trkpt lat="55.95398406" lon="-129.96559028">
      </trkpt>
      <trkpt lat="55.95397918" lon="-129.96556035">
      </trkpt>
      <trkpt lat="55.95397705" lon="-129.96550022">
      </trkpt>
      <trkpt lat="55.95397842" lon="-129.96548377">
      </trkpt>
      <trkpt lat="55.95398663" lon="-129.96546299">
      </trkpt>
      <trkpt lat="55.95399875" lon="-129.96544892">
      </trkpt>
      <trkpt lat="55.9540252" lon="-129.96541389">
      </trkpt>
      <trkpt lat="55.95403813" lon="-129.96540391">
      </trkpt>
      <trkpt lat="55.95404798" lon="-129.96539402">
      </trkpt>
      <trkpt lat="55.95409576" lon="-129.96536892">
      </trkpt>
      <trkpt lat="55.95410717" lon="-129.96536434">
      </trkpt>
      <trkpt lat="55.95412319" lon="-129.96535959">
      </trkpt>
      <trkpt lat="55.9541853" lon="-129.96535017">
      </trkpt>
      <trkpt lat="55.95419756" lon="-129.96534141">
      </trkpt>
      <trkpt lat="55.95423686" lon="-129.96532734">
      </trkpt>
      <trkpt lat="55.95425388" lon="-129.96532106">
      </trkpt>
      <trkpt lat="55.95426475" lon="-129.96531774">
      </trkpt>
      <trkpt lat="55.95429513" lon="-129.96530652">
      </trkpt>
      <trkpt lat="55.95436401" lon="-129.9652505">
      </trkpt>
      <trkpt lat="55.95442373" lon="-129.96518268">
      </trkpt>
      <trkpt lat="55.95444015" lon="-129.96511472">
      </trkpt>
      <trkpt lat="55.95443692" lon="-129.96506082">
      </trkpt>
      <trkpt lat="55.95443108" lon="-129.96495707">
      </trkpt>
      <trkpt lat="55.95442781" lon="-129.96494592">
      </trkpt>
      <trkpt lat="55.95442102" lon="-129.96483992">
      </trkpt>
      <trkpt lat="55.95440689" lon="-129.9647907">
      </trkpt>
      <trkpt lat="55.95437399" lon="-129.96463661">
      </trkpt>
      <trkpt lat="55.95439148" lon="-129.96452438">
      </trkpt>
      <trkpt lat="55.95439147" lon="-129.96452171">
      </trkpt>
      <trkpt lat="55.95433591" lon="-129.96446152">
      </trkpt>
      <trkpt lat="55.95433519" lon="-129.96443946">
      </trkpt>
      <trkpt lat="55.95433446" lon="-129.9643656">
      </trkpt>
      <trkpt lat="55.95433374" lon="-129.96435669">
      </trkpt>
      <trkpt lat="55.95434796" lon="-129.96430988">
      </trkpt>
      <trkpt lat="55.95435359" lon="-129.96429801">
      </trkpt>
      <trkpt lat="55.95436274" lon="-129.96427593">
      </trkpt>
      <trkpt lat="55.9543827" lon="-129.96423648">
      </trkpt>
      <trkpt lat="55.95440153" lon="-129.96420283">
      </trkpt>
      <trkpt lat="55.95440824" lon="-129.96419043">
      </trkpt>
      <trkpt lat="55.95442226" lon="-129.96413097">
      </trkpt>
      <trkpt lat="55.95442234" lon="-129.96412183">
      </trkpt>
      <trkpt lat="55.9544306" lon="-129.96404943">
      </trkpt>
      <trkpt lat="55.95442582" lon="-129.96400127">
      </trkpt>
      <trkpt lat="55.95440154" lon="-129.96397082">
      </trkpt>
      <trkpt lat="55.95440155" lon="-129.96396593">
      </trkpt>
      <trkpt lat="55.95440305" lon="-129.96393685">
      </trkpt>
      <trkpt lat="55.95443342" lon="-129.96393835">
      </trkpt>
      <trkpt lat="55.95445139" lon="-129.96392945">
      </trkpt>
      <trkpt lat="55.95444176" lon="-129.96390481">
      </trkpt>
      <trkpt lat="55.95442946" lon="-129.96388527">
      </trkpt>
      <trkpt lat="55.95443495" lon="-129.96385969">
      </trkpt>
      <trkpt lat="55.95443773" lon="-129.96385502">
      </trkpt>
      <trkpt lat="55.95445445" lon="-129.96383861">
      </trkpt>
      <trkpt lat="55.95444997" lon="-129.96381847">
      </trkpt>
      <trkpt lat="55.95444157" lon="-129.96381647">
      </trkpt>
      <trkpt lat="55.9544262" lon="-129.96381244">
      </trkpt>
      <trkpt lat="55.95440531" lon="-129.96379528">
      </trkpt>
      <trkpt lat="55.95439638" lon="-129.96376817">
      </trkpt>
      <trkpt lat="55.95439231" lon="-129.96375532">
      </trkpt>
      <trkpt lat="55.95438305" lon="-129.96371307">
      </trkpt>
      <trkpt lat="55.95438243" lon="-129.96370576">
      </trkpt>
      <trkpt lat="55.95437336" lon="-129.96367089">
      </trkpt>
      <trkpt lat="55.95437075" lon="-129.96366484">
      </trkpt>
      <trkpt lat="55.95436239" lon="-129.96363494">
      </trkpt>
      <trkpt lat="55.95435302" lon="-129.96359803">
      </trkpt>
      <trkpt lat="55.95434192" lon="-129.9635631">
      </trkpt>
      <trkpt lat="55.95437137" lon="-129.96354528">
      </trkpt>
      <trkpt lat="55.95438556" lon="-129.96354352">
      </trkpt>
      <trkpt lat="55.95441317" lon="-129.96353909">
      </trkpt>
      <trkpt lat="55.95442084" lon="-129.96353729">
      </trkpt>
      <trkpt lat="55.95445706" lon="-129.96352926">
      </trkpt>
      <trkpt lat="55.95446521" lon="-129.96352469">
      </trkpt>
      <trkpt lat="55.95449756" lon="-129.96350849">
      </trkpt>
      <trkpt lat="55.95451971" lon="-129.96349021">
      </trkpt>
      <trkpt lat="55.95454826" lon="-129.96347129">
      </trkpt>
      <trkpt lat="55.95460966" lon="-129.96344089">
      </trkpt>
      <trkpt lat="55.95465286" lon="-129.96340476">
      </trkpt>
      <trkpt lat="55.95466165" lon="-129.96339069">
      </trkpt>
      <trkpt lat="55.95467589" lon="-129.96336792">
      </trkpt>
      <trkpt lat="55.95468742" lon="-129.96334572">
      </trkpt>
      <trkpt lat="55.95469433" lon="-129.96331208">
      </trkpt>
      <trkpt lat="55.95469428" lon="-129.96330842">
      </trkpt>
      <trkpt lat="55.95468987" lon="-129.96329322">
      </trkpt>
      <trkpt lat="55.95465512" lon="-129.96329507">
      </trkpt>
      <trkpt lat="55.95464612" lon="-129.96329825">
      </trkpt>
      <trkpt lat="55.95461624" lon="-129.96329983">
      </trkpt>
      <trkpt lat="55.95460852" lon="-129.96329934">
      </trkpt>
      <trkpt lat="55.95458561" lon="-129.96330958">
      </trkpt>
      <trkpt lat="55.9545753" lon="-129.96331465">
      </trkpt>
      <trkpt lat="55.95457228" lon="-129.96331573">
      </trkpt>
      <trkpt lat="55.95453998" lon="-129.96333623">
      </trkpt>
      <trkpt lat="55.95452771" lon="-129.96334436">
      </trkpt>
      <trkpt lat="55.95449052" lon="-129.96336353">
      </trkpt>
      <trkpt lat="55.95444609" lon="-129.96337433">
      </trkpt>
      <trkpt lat="55.95440684" lon="-129.96337952">
      </trkpt>
      <trkpt lat="55.95439789" lon="-129.96337957">
      </trkpt>
      <trkpt lat="55.95436846" lon="-129.96336583">
      </trkpt>
      <trkpt lat="55.95434065" lon="-129.96335489">
      </trkpt>
      <trkpt lat="55.95432154" lon="-129.96334667">
      </trkpt>
      <trkpt lat="55.9543024" lon="-129.96332485">
      </trkpt>
      <trkpt lat="55.95428345" lon="-129.96330328">
      </trkpt>
      <trkpt lat="55.95427969" lon="-129.96329364">
      </trkpt>
      <trkpt lat="55.95426525" lon="-129.96325417">
      </trkpt>
      <trkpt lat="55.95426818" lon="-129.96322085">
      </trkpt>
      <trkpt lat="55.95426893" lon="-129.96321967">
      </trkpt>
      <trkpt lat="55.95428069" lon="-129.96319025">
      </trkpt>
      <trkpt lat="55.95428441" lon="-129.96318439">
      </trkpt>
      <trkpt lat="55.95429787" lon="-129.96315892">
      </trkpt>
      <trkpt lat="55.95432484" lon="-129.96315283">
      </trkpt>
      <trkpt lat="55.95433305" lon="-129.96315272">
      </trkpt>
      <trkpt lat="55.95435497" lon="-129.96315013">
      </trkpt>
      <trkpt lat="55.95436789" lon="-129.96315108">
      </trkpt>
      <trkpt lat="55.95439111" lon="-129.96314399">
      </trkpt>
      <trkpt lat="55.95440272" lon="-129.96314062">
      </trkpt>
      <trkpt lat="55.95442464" lon="-129.96313469">
      </trkpt>
      <trkpt lat="55.95444829" lon="-129.96311461">
      </trkpt>
      <trkpt lat="55.95446154" lon="-129.96308698">
      </trkpt>
      <trkpt lat="55.95447181" lon="-129.96303092">
      </trkpt>
      <trkpt lat="55.95448078" lon="-129.96289654">
      </trkpt>
      <trkpt lat="55.95447708" lon="-129.96286279">
      </trkpt>
      <trkpt lat="55.95448447" lon="-129.96280639">
      </trkpt>
      <trkpt lat="55.95450439" lon="-129.96276618">
      </trkpt>
      <trkpt lat="55.95451061" lon="-129.96275761">
      </trkpt>
      <trkpt lat="55.9545375" lon="-129.96273002">
      </trkpt>
      <trkpt lat="55.95456593" lon="-129.96271763">
      </trkpt>
      <trkpt lat="55.95457343" lon="-129.96271205">
      </trkpt>
      <trkpt lat="55.95459018" lon="-129.96270221">
      </trkpt>
      <trkpt lat="55.95460303" lon="-129.96269596">
      </trkpt>
      <trkpt lat="55.95461644" lon="-129.96268558">
      </trkpt>
      <trkpt lat="55.95462733" lon="-129.96267209">
      </trkpt>
      <trkpt lat="55.95463035" lon="-129.96266309">
      </trkpt>
      <trkpt lat="55.95463406" lon="-129.96263136">
      </trkpt>
      <trkpt lat="55.95462837" lon="-129.9626238">
      </trkpt>
      <trkpt lat="55.95460985" lon="-129.96260683">
      </trkpt>
      <trkpt lat="55.95459536" lon="-129.96259974">
      </trkpt>
      <trkpt lat="55.9545754" lon="-129.96259283">
      </trkpt>
      <trkpt lat="55.95456228" lon="-129.96258925">
      </trkpt>
      <trkpt lat="55.9545444" lon="-129.96258561">
      </trkpt>
      <trkpt lat="55.95453425" lon="-129.96258284">
      </trkpt>
      <trkpt lat="55.95452404" lon="-129.96257513">
      </trkpt>
      <trkpt lat="55.9545226" lon="-129.96257312">
      </trkpt>
      <trkpt lat="55.95450979" lon="-129.96255542">
      </trkpt>
      <trkpt lat="55.95446516" lon="-129.9624549">
      </trkpt>
      <trkpt lat="55.95446229" lon="-129.96245094">
      </trkpt>
      <trkpt lat="55.95443924" lon="-129.96239818">
      </trkpt>
      <trkpt lat="55.95442352" lon="-129.96237601">
      </trkpt>
      <trkpt lat="55.95440957" lon="-129.96235814">
      </trkpt>
      <trkpt lat="55.95439982" lon="-129.96232138">
      </trkpt>
      <trkpt lat="55.95439672" lon="-129.96231143">
      </trkpt>
      <trkpt lat="55.95438883" lon="-129.96229047">
      </trkpt>
      <trkpt lat="55.95438174" lon="-129.96228283">
      </trkpt>
      <trkpt lat="55.95436586" lon="-129.96228048">
      </trkpt>
      <trkpt lat="55.9543427" lon="-129.96227608">
      </trkpt>
      <trkpt lat="55.95433373" lon="-129.96227452">
      </trkpt>
      <trkpt lat="55.95426136" lon="-129.96226699">
      </trkpt>
      <trkpt lat="55.95425413" lon="-129.96227079">
      </trkpt>
      <trkpt lat="55.95423316" lon="-129.96227624">
      </trkpt>
      <trkpt lat="55.95420936" lon="-129.96228869">
      </trkpt>
      <trkpt lat="55.95420502" lon="-129.96228988">
      </trkpt>
      <trkpt lat="55.95418364" lon="-129.96230954">
      </trkpt>
      <trkpt lat="55.95417013" lon="-129.96232156">
      </trkpt>
      <trkpt lat="55.95411293" lon="-129.96237794">
      </trkpt>
      <trkpt lat="55.95409221" lon="-129.96244818">
      </trkpt>
      <trkpt lat="55.95409026" lon="-129.96249979">
      </trkpt>
      <trkpt lat="55.95407428" lon="-129.9625154">
      </trkpt>
      <trkpt lat="55.9540491" lon="-129.96252007">
      </trkpt>
      <trkpt lat="55.95404072" lon="-129.96251973">
      </trkpt>
      <trkpt lat="55.95398835" lon="-129.96253779">
      </trkpt>
      <trkpt lat="55.95397411" lon="-129.96253972">
      </trkpt>
      <trkpt lat="55.95387678" lon="-129.96251867">
      </trkpt>
      <trkpt lat="55.95386892" lon="-129.96252139">
      </trkpt>
      <trkpt lat="55.95381166" lon="-129.96251027">
      </trkpt>
      <trkpt lat="55.95375853" lon="-129.96244652">
      </trkpt>
      <trkpt lat="55.95372799" lon="-129.9623917">
      </trkpt>
      <trkpt lat="55.95372183" lon="-129.96237489">
      </trkpt>
      <trkpt lat="55.9537103" lon="-129.96234723">
      </trkpt>
      <trkpt lat="55.95370572" lon="-129.96231797">
      </trkpt>
      <trkpt lat="55.95370304" lon="-129.96229224">
      </trkpt>
      <trkpt lat="55.95370582" lon="-129.96223649">
      </trkpt>
      <trkpt lat="55.95370658" lon="-129.96222752">
      </trkpt>
      <trkpt lat="55.95371923" lon="-129.9621749">
      </trkpt>
      <trkpt lat="55.95376535" lon="-129.96210309">
      </trkpt>
      <trkpt lat="55.95377076" lon="-129.96209312">
      </trkpt>
      <trkpt lat="55.9537834" lon="-129.96207335">
      </trkpt>
      <trkpt lat="55.9538053" lon="-129.96204552">
      </trkpt>
      <trkpt lat="55.953883" lon="-129.96197102">
      </trkpt>
      <trkpt lat="55.95389072" lon="-129.96196761">
      </trkpt>
      <trkpt lat="55.95394587" lon="-129.96193494">
      </trkpt>
      <trkpt lat="55.95398008" lon="-129.96187058">
      </trkpt>
      <trkpt lat="55.95398841" lon="-129.96185575">
      </trkpt>
      <trkpt lat="55.9539941" lon="-129.96183912">
      </trkpt>
      <trkpt lat="55.95400208" lon="-129.96180342">
      </trkpt>
      <trkpt lat="55.95399801" lon="-129.96178937">
      </trkpt>
      <trkpt lat="55.95394932" lon="-129.96162768">
      </trkpt>
      <trkpt lat="55.95394302" lon="-129.96160183">
      </trkpt>
      <trkpt lat="55.95393822" lon="-129.96158531">
      </trkpt>
      <trkpt lat="55.95390635" lon="-129.96150598">
      </trkpt>
      <trkpt lat="55.95389243" lon="-129.96148281">
      </trkpt>
      <trkpt lat="55.95386603" lon="-129.96145178">
      </trkpt>
      <trkpt lat="55.95386065" lon="-129.961444">
      </trkpt>
      <trkpt lat="55.9538293" lon="-129.9614272">
      </trkpt>
      <trkpt lat="55.95381447" lon="-129.96142304">
      </trkpt>
      <trkpt lat="55.9537967" lon="-129.96142547">
      </trkpt>
      <trkpt lat="55.95379096" lon="-129.96142975">
      </trkpt>
      <trkpt lat="55.95375757" lon="-129.96145528">
      </trkpt>
      <trkpt lat="55.95374793" lon="-129.96146093">
      </trkpt>
      <trkpt lat="55.95373985" lon="-129.96146729">
      </trkpt>
      <trkpt lat="55.95373159" lon="-129.96147545">
      </trkpt>
      <trkpt lat="55.95363083" lon="-129.96153593">
      </trkpt>
      <trkpt lat="55.95362023" lon="-129.96153959">
      </trkpt>
      <trkpt lat="55.95360347" lon="-129.96153995">
      </trkpt>
      <trkpt lat="55.95358655" lon="-129.96154384">
      </trkpt>
      <trkpt lat="55.95353691" lon="-129.96155678">
      </trkpt>
      <trkpt lat="55.95352779" lon="-129.96155207">
      </trkpt>
      <trkpt lat="55.95351619" lon="-129.96154496">
      </trkpt>
      <trkpt lat="55.95347022" lon="-129.96149871">
      </trkpt>
      <trkpt lat="55.95346588" lon="-129.96148927">
      </trkpt>
      <trkpt lat="55.95342532" lon="-129.9614471">
      </trkpt>
      <trkpt lat="55.95337175" lon="-129.96133891">
      </trkpt>
      <trkpt lat="55.95335535" lon="-129.96129448">
      </trkpt>
      <trkpt lat="55.95333874" lon="-129.96126527">
      </trkpt>
      <trkpt lat="55.95332792" lon="-129.96126166">
      </trkpt>
      <trkpt lat="55.95329208" lon="-129.9612564">
      </trkpt>
      <trkpt lat="55.95327913" lon="-129.96126003">
      </trkpt>
      <trkpt lat="55.95324868" lon="-129.96128393">
      </trkpt>
      <trkpt lat="55.95324878" lon="-129.96129233">
      </trkpt>
      <trkpt lat="55.9532334" lon="-129.96131783">
      </trkpt>
      <trkpt lat="55.95321059" lon="-129.96135335">
      </trkpt>
      <trkpt lat="55.95319264" lon="-129.96138989">
      </trkpt>
      <trkpt lat="55.95316272" lon="-129.96147048">
      </trkpt>
      <trkpt lat="55.95313626" lon="-129.96154177">
      </trkpt>
      <trkpt lat="55.95309563" lon="-129.9616232">
      </trkpt>
      <trkpt lat="55.95304806" lon="-129.96168323">
      </trkpt>
      <trkpt lat="55.95299256" lon="-129.96174217">
      </trkpt>
      <trkpt lat="55.95292001" lon="-129.96178913">
      </trkpt>
      <trkpt lat="55.95286773" lon="-129.96181196">
      </trkpt>
      <trkpt lat="55.95283171" lon="-129.96183124">
      </trkpt>
      <trkpt lat="55.95278712" lon="-129.96184881">
      </trkpt>
      <trkpt lat="55.95272312" lon="-129.96187731">
      </trkpt>
      <trkpt lat="55.9526806" lon="-129.96188457">
      </trkpt>
      <trkpt lat="55.95264361" lon="-129.96188583">
      </trkpt>
      <trkpt lat="55.95262353" lon="-129.96189937">
      </trkpt>
      <trkpt lat="55.95258891" lon="-129.96191123">
      </trkpt>
      <trkpt lat="55.95253938" lon="-129.96193358">
      </trkpt>
      <trkpt lat="55.9524658" lon="-129.96195506">
      </trkpt>
      <trkpt lat="55.95239813" lon="-129.96197534">
      </trkpt>
      <trkpt lat="55.95231355" lon="-129.96202164">
      </trkpt>
      <trkpt lat="55.95224048" lon="-129.96209248">
      </trkpt>
      <trkpt lat="55.95223103" lon="-129.96210075">
      </trkpt>
      <trkpt lat="55.95215613" lon="-129.96220534">
      </trkpt>
      <trkpt lat="55.95213708" lon="-129.96223915">
      </trkpt>
      <trkpt lat="55.95209496" lon="-129.96232206">
      </trkpt>
      <trkpt lat="55.95208771" lon="-129.96234175">
      </trkpt>
      <trkpt lat="55.95206963" lon="-129.96237584">
      </trkpt>
      <trkpt lat="55.95200882" lon="-129.96250804">
      </trkpt>
      <trkpt lat="55.95199655" lon="-129.9625423">
      </trkpt>
      <trkpt lat="55.95198426" lon="-129.96260791">
      </trkpt>
      <trkpt lat="55.95198387" lon="-129.96261532">
      </trkpt>
      <trkpt lat="55.95199123" lon="-129.96268003">
      </trkpt>
      <trkpt lat="55.95201883" lon="-129.96293299">
      </trkpt>
      <trkpt lat="55.95201902" lon="-129.96308915">
      </trkpt>
      <trkpt lat="55.95202549" lon="-129.96311557">
      </trkpt>
      <trkpt lat="55.95205409" lon="-129.96325426">
      </trkpt>
      <trkpt lat="55.95206236" lon="-129.96335096">
      </trkpt>
      <trkpt lat="55.9520665" lon="-129.96340957">
      </trkpt>
      <trkpt lat="55.95204269" lon="-129.96347222">
      </trkpt>
      <trkpt lat="55.95202056" lon="-129.9634929">
      </trkpt>
      <trkpt lat="55.95193439" lon="-129.96357542">
      </trkpt>
      <trkpt lat="55.95187997" lon="-129.96363524">
      </trkpt>
      <trkpt lat="55.95187777" lon="-129.96363758">
      </trkpt>
      <trkpt lat="55.95184914" lon="-129.96366609">
      </trkpt>
      <trkpt lat="55.95181894" lon="-129.96369437">
      </trkpt>
      <trkpt lat="55.95175317" lon="-129.96379001">
      </trkpt>
      <trkpt lat="55.95174875" lon="-129.963798">
      </trkpt>
      <trkpt lat="55.95169247" lon="-129.9638855">
      </trkpt>
      <trkpt lat="55.95162792" lon="-129.96396698">
      </trkpt>
      <trkpt lat="55.95158419" lon="-129.96401706">
      </trkpt>
      <trkpt lat="55.95153621" lon="-129.96409851">
      </trkpt>
    </trkseg>
    <trkseg>
      <trkpt lat="55.95327912" lon="-129.96126003">
      </trkpt>
      <trkpt lat="55.95333564" lon="-129.96114948">
      </trkpt>
      <trkpt lat="55.95340108" lon="-129.96094723">
      </trkpt>
      <trkpt lat="55.95341893" lon="-129.96066168">
      </trkpt>
      <trkpt lat="55.95340703" lon="-129.96044754">
      </trkpt>
      <trkpt lat="55.95351262" lon="-129.96026584">
      </trkpt>
      <trkpt lat="55.95359887" lon="-129.96012308">
      </trkpt>
      <trkpt lat="55.95366728" lon="-129.96010821">
      </trkpt>
      <trkpt lat="55.95367323" lon="-129.9599595">
      </trkpt>
      <trkpt lat="55.95371785" lon="-129.95988514">
      </trkpt>
      <trkpt lat="55.95379518" lon="-129.95984052">
      </trkpt>
      <trkpt lat="55.95386359" lon="-129.95987324">
      </trkpt>
      <trkpt lat="55.9538963" lon="-129.95989108">
      </trkpt>
      <trkpt lat="55.95396769" lon="-129.95987026">
      </trkpt>
      <trkpt lat="55.95399743" lon="-129.95984647">
      </trkpt>
      <trkpt lat="55.95399743" lon="-129.95981374">
      </trkpt>
      <trkpt lat="55.95401528" lon="-129.95977211">
      </trkpt>
      <trkpt lat="55.95406584" lon="-129.9597275">
      </trkpt>
      <trkpt lat="55.95422051" lon="-129.95958473">
      </trkpt>
      <trkpt lat="55.95436625" lon="-129.95955499">
      </trkpt>
      <trkpt lat="55.95450604" lon="-129.95941222">
      </trkpt>
      <trkpt lat="55.95457148" lon="-129.95932299">
      </trkpt>
      <trkpt lat="55.95460419" lon="-129.95928432">
      </trkpt>
      <trkpt lat="55.95467557" lon="-129.95922483">
      </trkpt>
      <trkpt lat="55.95472614" lon="-129.9590672">
      </trkpt>
      <trkpt lat="55.95474101" lon="-129.95898093">
      </trkpt>
      <trkpt lat="55.95465178" lon="-129.95889765">
      </trkpt>
      <trkpt lat="55.95463988" lon="-129.95884708">
      </trkpt>
      <trkpt lat="55.95461311" lon="-129.95857345">
      </trkpt>
      <trkpt lat="55.95449711" lon="-129.9583831">
      </trkpt>
      <trkpt lat="55.95447629" lon="-129.95835335">
      </trkpt>
      <trkpt lat="55.95452091" lon="-129.95832361">
      </trkpt>
      <trkpt lat="55.9545804" lon="-129.95829683">
      </trkpt>
      <trkpt lat="55.95458635" lon="-129.95827007">
      </trkpt>
      <trkpt lat="55.95453578" lon="-129.95823734">
      </trkpt>
      <trkpt lat="55.95452388" lon="-129.95821058">
      </trkpt>
      <trkpt lat="55.95455661" lon="-129.9581154">
      </trkpt>
      <trkpt lat="55.95457742" lon="-129.95802022">
      </trkpt>
      <trkpt lat="55.9545447" lon="-129.95796073">
      </trkpt>
      <trkpt lat="55.95447034" lon="-129.95786258">
      </trkpt>
      <trkpt lat="55.95434542" lon="-129.95782391">
      </trkpt>
      <trkpt lat="55.9542324" lon="-129.95781499">
      </trkpt>
      <trkpt lat="55.95419076" lon="-129.95780904">
      </trkpt>
      <trkpt lat="55.95404204" lon="-129.95774361">
      </trkpt>
      <trkpt lat="55.95403312" lon="-129.95761572">
      </trkpt>
      <trkpt lat="55.95405989" lon="-129.95747295">
      </trkpt>
      <trkpt lat="55.9540926" lon="-129.95738074">
      </trkpt>
      <trkpt lat="55.95415804" lon="-129.9573391">
      </trkpt>
      <trkpt lat="55.95422347" lon="-129.957351">
      </trkpt>
      <trkpt lat="55.95424132" lon="-129.95734504">
      </trkpt>
      <trkpt lat="55.95428891" lon="-129.95726771">
      </trkpt>
      <trkpt lat="55.95431866" lon="-129.95722905">
      </trkpt>
      <trkpt lat="55.95434542" lon="-129.9571993">
      </trkpt>
      <trkpt lat="55.95435435" lon="-129.95717848">
      </trkpt>
      <trkpt lat="55.95433055" lon="-129.95717552">
      </trkpt>
      <trkpt lat="55.95429783" lon="-129.95720525">
      </trkpt>
      <trkpt lat="55.95426809" lon="-129.95723202">
      </trkpt>
      <trkpt lat="55.95423834" lon="-129.95724987">
      </trkpt>
      <trkpt lat="55.95419076" lon="-129.95727366">
      </trkpt>
      <trkpt lat="55.95415209" lon="-129.95728854">
      </trkpt>
      <trkpt lat="55.95412532" lon="-129.95728854">
      </trkpt>
      <trkpt lat="55.95409261" lon="-129.95725879">
      </trkpt>
      <trkpt lat="55.95405989" lon="-129.95720525">
      </trkpt>
      <trkpt lat="55.95401825" lon="-129.95715171">
      </trkpt>
      <trkpt lat="55.95392307" lon="-129.95707735">
      </trkpt>
      <trkpt lat="55.95382194" lon="-129.95696731">
      </trkpt>
      <trkpt lat="55.9537803" lon="-129.95688699">
      </trkpt>
      <trkpt lat="55.95372974" lon="-129.9567829">
      </trkpt>
      <trkpt lat="55.95368215" lon="-129.95672638">
      </trkpt>
      <trkpt lat="55.95364943" lon="-129.95661038">
      </trkpt>
      <trkpt lat="55.95364943" lon="-129.95655387">
      </trkpt>
      <trkpt lat="55.95363753" lon="-129.95651819">
      </trkpt>
      <trkpt lat="55.95359886" lon="-129.95649438">
      </trkpt>
      <trkpt lat="55.95355723" lon="-129.95645275">
      </trkpt>
      <trkpt lat="55.95353938" lon="-129.95641705">
      </trkpt>
      <trkpt lat="55.95353641" lon="-129.95636649">
      </trkpt>
      <trkpt lat="55.95352154" lon="-129.95633377">
      </trkpt>
      <trkpt lat="55.95349476" lon="-129.95630403">
      </trkpt>
      <trkpt lat="55.95345312" lon="-129.95626536">
      </trkpt>
      <trkpt lat="55.95343826" lon="-129.9562267">
      </trkpt>
      <trkpt lat="55.95343528" lon="-129.95615532">
      </trkpt>
      <trkpt lat="55.95342933" lon="-129.95604823">
      </trkpt>
      <trkpt lat="55.95342933" lon="-129.95600659">
      </trkpt>
      <trkpt lat="55.95337877" lon="-129.95589654">
      </trkpt>
      <trkpt lat="55.95334308" lon="-129.95579244">
      </trkpt>
      <trkpt lat="55.95332225" lon="-129.95565265">
      </trkpt>
      <trkpt lat="55.95331928" lon="-129.95560208">
      </trkpt>
      <trkpt lat="55.95327764" lon="-129.95553664">
      </trkpt>
      <trkpt lat="55.95312" lon="-129.95534035">
      </trkpt>
      <trkpt lat="55.95309026" lon="-129.95528978">
      </trkpt>
      <trkpt lat="55.95306349" lon="-129.95517675">
      </trkpt>
      <trkpt lat="55.95303375" lon="-129.95513213">
      </trkpt>
      <trkpt lat="55.95297426" lon="-129.95507265">
      </trkpt>
      <trkpt lat="55.95294451" lon="-129.95506075">
      </trkpt>
      <trkpt lat="55.9528999" lon="-129.95505183">
      </trkpt>
      <trkpt lat="55.95289395" lon="-129.95500424">
      </trkpt>
      <trkpt lat="55.9528999" lon="-129.95495666">
      </trkpt>
      <trkpt lat="55.9528999" lon="-129.95492393">
      </trkpt>
      <trkpt lat="55.95289098" lon="-129.95487931">
      </trkpt>
      <trkpt lat="55.9528999" lon="-129.95478414">
      </trkpt>
      <trkpt lat="55.95291179" lon="-129.9546949">
      </trkpt>
      <trkpt lat="55.9529356" lon="-129.95464137">
      </trkpt>
      <trkpt lat="55.95296533" lon="-129.95459974">
      </trkpt>
      <trkpt lat="55.95299805" lon="-129.95455512">
      </trkpt>
      <trkpt lat="55.95302185" lon="-129.9544986">
      </trkpt>
      <trkpt lat="55.95303671" lon="-129.95443614">
      </trkpt>
      <trkpt lat="55.95305457" lon="-129.95433203">
      </trkpt>
      <trkpt lat="55.95305457" lon="-129.9542785">
      </trkpt>
      <trkpt lat="55.95304862" lon="-129.95422496">
      </trkpt>
      <trkpt lat="55.95301887" lon="-129.9541625">
      </trkpt>
      <trkpt lat="55.95295641" lon="-129.95412978">
      </trkpt>
      <trkpt lat="55.95291477" lon="-129.95410301">
      </trkpt>
      <trkpt lat="55.95287908" lon="-129.95407624">
      </trkpt>
      <trkpt lat="55.95285826" lon="-129.95404353">
      </trkpt>
      <trkpt lat="55.95285528" lon="-129.95400487">
      </trkpt>
      <trkpt lat="55.95284933" lon="-129.95397214">
      </trkpt>
      <trkpt lat="55.95282257" lon="-129.95395132">
      </trkpt>
      <trkpt lat="55.95275416" lon="-129.95392456">
      </trkpt>
      <trkpt lat="55.95267682" lon="-129.95390968">
      </trkpt>
      <trkpt lat="55.95260247" lon="-129.95388291">
      </trkpt>
      <trkpt lat="55.95258759" lon="-129.95383533">
      </trkpt>
      <trkpt lat="55.95258759" lon="-129.95376394">
      </trkpt>
      <trkpt lat="55.95259354" lon="-129.95366281">
      </trkpt>
      <trkpt lat="55.95257867" lon="-129.95356466">
      </trkpt>
      <trkpt lat="55.95254001" lon="-129.95333563">
      </trkpt>
      <trkpt lat="55.95249241" lon="-129.95309769">
      </trkpt>
      <trkpt lat="55.9524478" lon="-129.95298466">
      </trkpt>
      <trkpt lat="55.95239724" lon="-129.95287759">
      </trkpt>
      <trkpt lat="55.95236154" lon="-129.95283594">
      </trkpt>
    </trkseg>
  </trk>
</gpx>