<?xml version="1.0" encoding="UTF-8"?>
<gpx xmlns="http://www.topografix.com/GPX/1/1" xmlns:xsi="http://www.w3.org/2001/XMLSchema-instance" xsi:schemaLocation="http://www.topografix.com/GPX/1/1 http://www.topografix.com/GPX/1/1/gpx.xsd" version="1.1" creator="gpx.py -- https://github.com/tkrajina/gpxpy">
  <trk>
    <name>Cabin Hill</name>
    <trkseg>
      <trkpt lat="50.622799" lon="-122.6756497">
      </trkpt>
      <trkpt lat="50.6230406" lon="-122.6756143">
      </trkpt>
      <trkpt lat="50.6239714" lon="-122.6753552">
      </trkpt>
      <trkpt lat="50.6248369" lon="-122.674926">
      </trkpt>
      <trkpt lat="50.6253402" lon="-122.6744331">
      </trkpt>
      <trkpt lat="50.6257135" lon="-122.6742238">
      </trkpt>
      <trkpt lat="50.6260122" lon="-122.674091">
      </trkpt>
      <trkpt lat="50.6261205" lon="-122.6740082">
      </trkpt>
      <trkpt lat="50.6263515" lon="-122.6735861">
      </trkpt>
      <trkpt lat="50.6263968" lon="-122.6732548">
      </trkpt>
      <trkpt lat="50.6264866" lon="-122.6728678">
      </trkpt>
      <trkpt lat="50.6265704" lon="-122.672882">
      </trkpt>
      <trkpt lat="50.6266648" lon="-122.6729802">
      </trkpt>
      <trkpt lat="50.6267837" lon="-122.6728565">
      </trkpt>
      <trkpt lat="50.626795" lon="-122.6726363">
      </trkpt>
      <trkpt lat="50.6268283" lon="-122.6724467">
      </trkpt>
      <trkpt lat="50.626905" lon="-122.6724102">
      </trkpt>
      <trkpt lat="50.6270034" lon="-122.6725387">
      </trkpt>
      <trkpt lat="50.627304" lon="-122.6732729">
      </trkpt>
      <trkpt lat="50.6274395" lon="-122.6735605">
      </trkpt>
      <trkpt lat="50.6276243" lon="-122.6735224">
      </trkpt>
      <trkpt lat="50.6278346" lon="-122.6730519">
      </trkpt>
      <trkpt lat="50.6280125" lon="-122.6720096">
      </trkpt>
      <trkpt lat="50.6281381" lon="-122.6717006">
      </trkpt>
      <trkpt lat="50.6282895" lon="-122.6715783">
      </trkpt>
      <trkpt lat="50.6285335" lon="-122.6716561">
      </trkpt>
      <trkpt lat="50.6291157" lon="-122.6719345">
      </trkpt>
      <trkpt lat="50.6295711" lon="-122.6724096">
      </trkpt>
      <trkpt lat="50.6298501" lon="-122.672946">
      </trkpt>
      <trkpt lat="50.6302584" lon="-122.6737936">
      </trkpt>
      <trkpt lat="50.6309933" lon="-122.6753236">
      </trkpt>
    </trkseg>
  </trk>
</gpx>