<?xml version="1.0" encoding="UTF-8"?>
<gpx xmlns="http://www.topografix.com/GPX/1/1" xmlns:xsi="http://www.w3.org/2001/XMLSchema-instance" xsi:schemaLocation="http://www.topografix.com/GPX/1/1 http://www.topografix.com/GPX/1/1/gpx.xsd" version="1.1" creator="gpx.py -- https://github.com/tkrajina/gpxpy">
  <trk>
    <name>Ski tour near Mount Mackenzie</name>
    <trkseg>
      <trkpt lat="50.9464747" lon="-118.0904954">
      </trkpt>
      <trkpt lat="50.9465448" lon="-118.0904961">
      </trkpt>
      <trkpt lat="50.9466462" lon="-118.0904585">
      </trkpt>
      <trkpt lat="50.9468185" lon="-118.0902225">
      </trkpt>
      <trkpt lat="50.9469977" lon="-118.0899382">
      </trkpt>
      <trkpt lat="50.9470585" lon="-118.0896539">
      </trkpt>
      <trkpt lat="50.9471227" lon="-118.089214">
      </trkpt>
      <trkpt lat="50.9474303" lon="-118.0880982">
      </trkpt>
      <trkpt lat="50.9476263" lon="-118.0875564">
      </trkpt>
      <trkpt lat="50.9478054" lon="-118.0871648">
      </trkpt>
      <trkpt lat="50.9481772" lon="-118.0867034">
      </trkpt>
      <trkpt lat="50.9485186" lon="-118.0863494">
      </trkpt>
      <trkpt lat="50.9486639" lon="-118.0862957">
      </trkpt>
      <trkpt lat="50.9488058" lon="-118.0863011">
      </trkpt>
      <trkpt lat="50.9489038" lon="-118.0863762">
      </trkpt>
      <trkpt lat="50.9490018" lon="-118.0865318">
      </trkpt>
      <trkpt lat="50.9491607" lon="-118.0870146">
      </trkpt>
      <trkpt lat="50.9493162" lon="-118.0873793">
      </trkpt>
      <trkpt lat="50.9494209" lon="-118.0875349">
      </trkpt>
      <trkpt lat="50.949546" lon="-118.0875778">
      </trkpt>
      <trkpt lat="50.9496744" lon="-118.0875295">
      </trkpt>
      <trkpt lat="50.950107" lon="-118.087197">
      </trkpt>
      <trkpt lat="50.9502185" lon="-118.0871916">
      </trkpt>
      <trkpt lat="50.9504314" lon="-118.0873042">
      </trkpt>
      <trkpt lat="50.9506173" lon="-118.0873571">
      </trkpt>
      <trkpt lat="50.9506578" lon="-118.0873686">
      </trkpt>
      <trkpt lat="50.9508099" lon="-118.0874813">
      </trkpt>
      <trkpt lat="50.9509214" lon="-118.0876583">
      </trkpt>
      <trkpt lat="50.9511276" lon="-118.0880982">
      </trkpt>
      <trkpt lat="50.951452" lon="-118.08842">
      </trkpt>
      <trkpt lat="50.9515467" lon="-118.0886507">
      </trkpt>
      <trkpt lat="50.9516514" lon="-118.0888224">
      </trkpt>
      <trkpt lat="50.9517123" lon="-118.0889644">
      </trkpt>
      <trkpt lat="50.951817" lon="-118.0892086">
      </trkpt>
      <trkpt lat="50.9518778" lon="-118.0894876">
      </trkpt>
      <trkpt lat="50.9518778" lon="-118.0898631">
      </trkpt>
      <trkpt lat="50.9518981" lon="-118.0900991">
      </trkpt>
      <trkpt lat="50.9519961" lon="-118.090319">
      </trkpt>
      <trkpt lat="50.9521525" lon="-118.0905224">
      </trkpt>
      <trkpt lat="50.9522023" lon="-118.0905873">
      </trkpt>
      <trkpt lat="50.9522935" lon="-118.0908287">
      </trkpt>
      <trkpt lat="50.9523172" lon="-118.0911022">
      </trkpt>
      <trkpt lat="50.9523138" lon="-118.0913222">
      </trkpt>
      <trkpt lat="50.9522732" lon="-118.0914885">
      </trkpt>
      <trkpt lat="50.9522631" lon="-118.0916387">
      </trkpt>
      <trkpt lat="50.9523476" lon="-118.091864">
      </trkpt>
      <trkpt lat="50.952503" lon="-118.0920625">
      </trkpt>
      <trkpt lat="50.9525943" lon="-118.0922395">
      </trkpt>
      <trkpt lat="50.9526281" lon="-118.0926257">
      </trkpt>
      <trkpt lat="50.9527531" lon="-118.0932802">
      </trkpt>
      <trkpt lat="50.9528748" lon="-118.0936986">
      </trkpt>
      <trkpt lat="50.9531552" lon="-118.0941117">
      </trkpt>
      <trkpt lat="50.9533344" lon="-118.0945677">
      </trkpt>
      <trkpt lat="50.9536389" lon="-118.0950445">
      </trkpt>
    </trkseg>
  </trk>
</gpx>