<?xml version="1.0" encoding="UTF-8"?>
<gpx xmlns="http://www.topografix.com/GPX/1/1" xmlns:xsi="http://www.w3.org/2001/XMLSchema-instance" xsi:schemaLocation="http://www.topografix.com/GPX/1/1 http://www.topografix.com/GPX/1/1/gpx.xsd" version="1.1" creator="gpx.py -- https://github.com/tkrajina/gpxpy">
  <trk>
    <name>Tsawwassen Beach Nature Trail</name>
    <trkseg>
      <trkpt lat="49.0076039" lon="-123.0897052">
      </trkpt>
      <trkpt lat="49.0076012" lon="-123.0897773">
      </trkpt>
      <trkpt lat="49.0075949" lon="-123.0899488">
      </trkpt>
      <trkpt lat="49.0076049" lon="-123.0901607">
      </trkpt>
      <trkpt lat="49.0076166" lon="-123.0902649">
      </trkpt>
      <trkpt lat="49.0076125" lon="-123.090324">
      </trkpt>
    </trkseg>
    <trkseg>
      <trkpt lat="49.0076125" lon="-123.090324">
      </trkpt>
      <trkpt lat="49.0075238" lon="-123.0903987">
      </trkpt>
      <trkpt lat="49.0075038" lon="-123.0904331">
      </trkpt>
      <trkpt lat="49.0074867" lon="-123.0904786">
      </trkpt>
      <trkpt lat="49.0074926" lon="-123.0905313">
      </trkpt>
    </trkseg>
    <trkseg>
      <trkpt lat="49.0074926" lon="-123.0905313">
      </trkpt>
      <trkpt lat="49.0074952" lon="-123.0905762">
      </trkpt>
      <trkpt lat="49.0074752" lon="-123.0905949">
      </trkpt>
      <trkpt lat="49.0074723" lon="-123.0906089">
      </trkpt>
      <trkpt lat="49.0074728" lon="-123.0907187">
      </trkpt>
      <trkpt lat="49.0074931" lon="-123.0907183">
      </trkpt>
      <trkpt lat="49.0074951" lon="-123.0908143">
      </trkpt>
      <trkpt lat="49.0074823" lon="-123.0908148">
      </trkpt>
      <trkpt lat="49.0074763" lon="-123.0908229">
      </trkpt>
      <trkpt lat="49.0074409" lon="-123.0908991">
      </trkpt>
    </trkseg>
    <trkseg>
      <trkpt lat="49.0074409" lon="-123.0908991">
      </trkpt>
      <trkpt lat="49.0073722" lon="-123.0909611">
      </trkpt>
    </trkseg>
    <trkseg>
      <trkpt lat="49.0073722" lon="-123.0909611">
      </trkpt>
      <trkpt lat="49.007359" lon="-123.0909739">
      </trkpt>
      <trkpt lat="49.0073587" lon="-123.0909969">
      </trkpt>
      <trkpt lat="49.0073805" lon="-123.0910259">
      </trkpt>
      <trkpt lat="49.0074562" lon="-123.0910571">
      </trkpt>
      <trkpt lat="49.0075179" lon="-123.0910796">
      </trkpt>
      <trkpt lat="49.0075559" lon="-123.0911083">
      </trkpt>
      <trkpt lat="49.0075622" lon="-123.0911167">
      </trkpt>
      <trkpt lat="49.0075635" lon="-123.0911271">
      </trkpt>
      <trkpt lat="49.0075617" lon="-123.0911394">
      </trkpt>
      <trkpt lat="49.0075551" lon="-123.0911526">
      </trkpt>
      <trkpt lat="49.0075365" lon="-123.0911814">
      </trkpt>
    </trkseg>
    <trkseg>
      <trkpt lat="49.0075365" lon="-123.0911814">
      </trkpt>
      <trkpt lat="49.0075129" lon="-123.0912113">
      </trkpt>
      <trkpt lat="49.0074847" lon="-123.09124">
      </trkpt>
      <trkpt lat="49.0074221" lon="-123.0912829">
      </trkpt>
    </trkseg>
    <trkseg>
      <trkpt lat="49.0074221" lon="-123.0912829">
      </trkpt>
      <trkpt lat="49.0074023" lon="-123.0913229">
      </trkpt>
      <trkpt lat="49.0074738" lon="-123.0913848">
      </trkpt>
      <trkpt lat="49.007514" lon="-123.0914206">
      </trkpt>
    </trkseg>
    <trkseg>
      <trkpt lat="49.007514" lon="-123.0914206">
      </trkpt>
      <trkpt lat="49.0076063" lon="-123.0915767">
      </trkpt>
    </trkseg>
    <trkseg>
      <trkpt lat="49.0076063" lon="-123.0915767">
      </trkpt>
      <trkpt lat="49.007621" lon="-123.0916305">
      </trkpt>
    </trkseg>
    <trkseg>
      <trkpt lat="49.007621" lon="-123.0916305">
      </trkpt>
      <trkpt lat="49.0076191" lon="-123.0916431">
      </trkpt>
      <trkpt lat="49.0076134" lon="-123.0916511">
      </trkpt>
      <trkpt lat="49.0075623" lon="-123.0916713">
      </trkpt>
    </trkseg>
    <trkseg>
      <trkpt lat="49.0075623" lon="-123.0916713">
      </trkpt>
      <trkpt lat="49.0074635" lon="-123.0917164">
      </trkpt>
      <trkpt lat="49.007448" lon="-123.0917638">
      </trkpt>
      <trkpt lat="49.0074173" lon="-123.0920254">
      </trkpt>
    </trkseg>
    <trkseg>
      <trkpt lat="49.0075386" lon="-123.0922379">
      </trkpt>
      <trkpt lat="49.0075391" lon="-123.092197">
      </trkpt>
      <trkpt lat="49.0075295" lon="-123.0921549">
      </trkpt>
      <trkpt lat="49.0074989" lon="-123.0921462">
      </trkpt>
      <trkpt lat="49.0074677" lon="-123.0921204">
      </trkpt>
      <trkpt lat="49.0074172" lon="-123.0920535">
      </trkpt>
      <trkpt lat="49.0074173" lon="-123.0920254">
      </trkpt>
    </trkseg>
  </trk>
</gpx>